LGA;Ward;Settlement;Facility;Type;Ownership;Address;Longitude;Latitude
Demsa;Bille Ward;;Bille Maternal and Child Health Clinic;;;;;
Demsa;Bille Ward;;Terreh Primary Health Centre;;;;;
Demsa;Bille Ward;;Daksung Health Clinic;;;;;
Demsa;Bille Ward;;Gajembo Health Post;;;;;
Demsa;Borrong Ward;;Tikka Health Clinic;;;;;
Demsa;Borrong Ward;;Borrong Health Clinic;;;;;
Demsa;Demsa Ward;;Murgaran Health Clinic;;;;;
Demsa;Demsa Ward;;Demsa Maternal and Child Health Clinic;;;;;
Demsa;Demsa Ward;;Kodomon Primary Health Care Centre;;;;;
Demsa;Demsa Ward;;Kudiri Primary Health Centre;;;;;
Demsa;Dilli Ward;;Billachi Health Clinic;;;;;
Demsa;Dilli Ward;;Loh Primary Health Centre;;;;;
Demsa;Dilli Ward;;Dilli Health Clinic;;;;;
Demsa;Dong Ward;;Dong Maternal Health Clinic;;;;;
Demsa;Dong Ward;;Bidoma Primary Health Centre;;;;;
Demsa;Dong Ward;;Januawuri Health Clinic;;;;;
Demsa;Dwam Ward;;Dowaya Primary Health Centre;;;;;
Demsa;Dwam Ward;;Dwam Maternal and Child Health Clinic;;;;;
Demsa;Dwam Ward;;Sabon Gari Health Clinic;;;;;
Demsa;Gwamba Ward;;Lassala Health Post;;;;;
Demsa;Gwamba Ward;;Sundi Health Post;;;;;
Demsa;Gwamba Ward;;Gwamba Health Clinic;;;;;
Demsa;Kpasham Ward;;Kpasham Maternal and Child Health Clinic;;;;;
Demsa;Kpasham Ward;;Tagwambali Health Clinic;;;;;
Demsa;Kpasham Ward;;Bali Health Clinic;;;;;
Demsa;Mbula Ward;;Kpakmyagi Health Clinic;;;;;
Demsa;Mbula Ward;;Tahau Maternity Health Clinic;;;;;
Demsa;Mbula Ward;;Mbula Maternal and Child Health Clinic;;;;;
Demsa;Nassarawo Demsa Ward;;Model Health Care Clinic;;;;;
Demsa;Nassarawo Demsa Ward;;Kedemure Primary Health Centre;;;;;
Demsa;Nassarawo Demsa Ward;;Gadina Health Post;;;;;
Fufore;Beti Ward;;Belichuti Primary Health Clinic;;;;;
Fufore;Beti Ward;;Beti Health Clinic;;;;;
Fufore;Beti Ward;;Wuro Ardo Health Clinic;;;;;
Fufore;Beti Ward;;Garin Chekkel Health Post;;;;;
Fufore;Beti Ward;;Chigari Health Center;;;;;
Fufore;Farang Ward;;Magdari Health Post;;;;;
Fufore;Farang Ward;;Kuriyaji Health Post;;;;;
Fufore;Farang Ward;;Mubako Health Clinic;;;;;
Fufore;Farang Ward;;Ribadu Malabu Health Post;;;;;
Fufore;Farang Ward;;Daware Health Clinic;;;;;
Fufore;Farang Ward;;Farang Maternal and Child Health Clinic;;;;;
Fufore;Fufore Ward;;Fufore Maternal and Child Health Clinic;;;;;
Fufore;Fufore Ward;;Fufore Model Health Clinic;;;;;
Fufore;Gurin Ward;;Nelbi Health Post;;;;;
Fufore;Gurin Ward;;Chikito Health Clinic;;;;;
Fufore;Gurin Ward;;Gurin Maternal and Child Health Clinic;;;;;
Fufore;Gurin Ward;;Muniga Maternal and Child Health Clinic;;;;;
Fufore;Gurin Ward;;Parda Health Clinic;;;;;
Fufore;Karlahi Ward;;Gogora Health Post;;;;;
Fufore;Karlahi Ward;;Karlahi Maternal and Child Health Clinic;;;;;
Fufore;Mayo-Ine Ward;;Gatiro Health Clinic;;;;;
Fufore;Mayo-Ine Ward;;Mayo-Ine Maternal and Child Health Clinic;;;;;
Fufore;Mayo-Ine Ward;;Kabillo Maternal and Child Health Clinic;;;;;
Fufore;Mayo-Ine Ward;;Gatugel Health Post;;;;;
Fufore;Mayo-Ine Ward;;Kiri Health Post;;;;;
Fufore;Mayo-Ine Ward;;Wuro Lamido Health Clinic;;;;;
Fufore;Pariya Ward;;Wuro-Yolde Health Post;;;;;
Fufore;Pariya Ward;;Furo B Health Clinic;;;;;
Fufore;Pariya Ward;;Kadarbu Health Clinic;;;;;
Fufore;Pariya Ward;;Bengo Health Clinic;;;;;
Fufore;Pariya Ward;;Daware Health Clinic;;;;;
Fufore;Pariya Ward;;Bagale Health Clinic;;;;;
Fufore;Pariya Ward;;Pariya Maternal and Child Health Clinic;;;;;
Fufore;Pariya Ward;;Holmano Health Clinic;;;;;
Fufore;Ribadu Ward;;Dulo Bwatiye Health Post;;;;;
Fufore;Ribadu Ward;;Dason Bwatiye Health Post;;;;;
Fufore;Ribadu Ward;;Dasin Federal Model Health Centre;;;;;
Fufore;Ribadu Ward;;Chajaule Health Clinic;;;;;
Fufore;Ribadu Ward;;Ribadu Maternal and Child Health Clinic;;;;;
Fufore;Ribadu Ward;;Dulo Fulani Health Post;;;;;
Fufore;Uki-Tuki Ward;;Choli Health Clinic;;;;;
Fufore;Uki-Tuki Ward;;Gabsin Health Clinic;;;;;
Fufore;Uki-Tuki Ward;;Tawa Health Post;;;;;
Fufore;Uki-Tuki Ward;;Koksupwa Health Post;;;;;
Fufore;Wuro-Bokki Ward;;Wuro-Bokki Maternal and Child Health Clinic;;;;;
Fufore;Wuro-Bokki Ward;;Malabu Maternal and Child Health Clinic;;;;;
Fufore;Yadim Ward;;Bati Health Post;;;;;
Fufore;Yadim Ward;;Ogburi Health Post;;;;;
Fufore;Yadim Ward;;St Mary Primary Health Clinic;;;;;
Fufore;Yadim Ward;;Wuitere Health Post;;;;;
Fufore;Yadim Ward;;Lainde Health Post;;;;;
Fufore;Yadim Ward;;Yadim Maternal and Child Health Centre;;;;;
Fufore;Yadim Ward;;Nyibango Health Post (Fufore);;;;;
Ganye;Bakari Goso Ward;;Babidi Health Clinic;;;;;
Ganye;Bakari Goso Ward;;Dirdiu Health Clinic;;;;;
Ganye;Bakari Goso Ward;;Bakari-Goso Health Post;;;;;
Ganye;Gamu Ward;;Dissol Health Post;;;;;
Ganye;Gamu Ward;;Sankom Health Clinic;;;;;
Ganye;Gamu Ward;;Gamu Health Clinic;;;;;
Ganye;Ganye 1 Ward;;Old Market Health Clinic;;;;;
Ganye;Ganye 1 Ward;;New Market Health Post;;;;;
Ganye;Ganye 2 Ward;;Ganye General Hospital;;;;;
Ganye;Ganye 2 Ward;;Pessi Health Post;;;;;
Ganye;Ganye 2 Ward;;Gandona Health Clinic;;;;;
Ganye;Ganye 2 Ward;;Gangwokki Health Post;;;;;
Ganye;Ganye 2 Ward;;Dadiri Health Post;;;;;
Ganye;Gurum Pawo Ward;;Guding Health Post;;;;;
Ganye;Gurum Pawo Ward;;Gurum Pawo Health Clinic;;;;;
Ganye;Gurum Pawo Ward;;Gangjaen Health Post;;;;;
Ganye;Gurum Pawo Ward;;Sammeri Health Post;;;;;
Ganye;Jaggu Ward;;Garamba Health Post;;;;;
Ganye;Jaggu Ward;;Banda Tsarga Health Post;;;;;
Ganye;Jaggu Ward;;Jaggu Health Clinic;;;;;
Ganye;Sangassumi Ward;;Sangassumi Health Clinic;;;;;
Ganye;Sugu Ward;;Gangwon Health Clinic;;;;;
Ganye;Sugu Ward;;Gangtum Health Clinic;;;;;
Ganye;Sugu Ward;;Sugu Health Centre;;;;;
Ganye;Timdore Ward;;Yelwa Health Clinic;;;;;
Ganye;Timdore Ward;;Sansiri Health Post;;;;;
Ganye;Timdore Ward;;Gurum Nonvan Health Post;;;;;
Ganye;Timdore Ward;;Dabora Health Post;;;;;
Ganye;Timdore Ward;;Sanjo JPRM Health Clinic;;;;;
Ganye;Timdore Ward;;Daksam Health Post;;;;;
Ganye;Yebbi Ward;;Gangjubi Health Post;;;;;
Ganye;Yebbi Ward;;Gangjari Health Post;;;;;
Ganye;Yebbi Ward;;Gbani Health Post;;;;;
Ganye;Yebbi Ward;;Janpuli Health Post;;;;;
Ganye;Yebbi Ward;;Kaika Health Post;;;;;
Ganye;Yebbi Ward;;Yebbi Health Clinic;;;;;
Girei;Dakri Ward;;Federal Housing Primary Health Centre;;;;;
Girei;Dakri Ward;;Dakri Health Clinic;;;;;
Girei;Dakri Ward;;Labondo Health Post;;;;;
Girei;Damare Ward;;Damare Maternal and Child Health Clinic;;;;;
Girei;Damare Ward;;Bajabure Health Post;;;;;
Girei;Gereng Ward;;Gereng Primary Health Centre;;;;;
Girei;Gereng Ward;;Kangling Health Clinic;;;;;
Girei;Gereng Ward;;Koh Maternal and Child Health Clinic;;;;;
Girei;Girei A Ward;;Lumo Kiddum Health Clinic;;;;;
Girei;Girei A Ward;;Girei A Health Clinic;;;;;
Girei;Girei A Ward;;Sangere Primary Health Centre;;;;;
Girei;Girei B Ward;;Girei B Health Clinic;;;;;
Girei;Jera Bakari Ward;;Ngawa Health Clinic;;;;;
Girei;Jera Bakari Ward;;Ruwo Amsam Health Clinic;;;;;
Girei;Jera Bakari Ward;;Ruwo Sani Health Post;;;;;
Girei;Jera Bonyo Ward;;Daneyel Maternal and Child Health Clinic;;;;;
Girei;Jera Bonyo Ward;;Jera Bonyo Maternal and Child Health Clinic;;;;;
Girei;Modire Ward;;Njobbore Health Clinic;;;;;
Girei;Modire Ward;;Vonoklnag Maternal and Child Health Clinic;;;;;
Girei;Tambo Ward;;Bakopi Health Clinic;;;;;
Girei;Tambo Ward;;Wuro Hausa Health Post;;;;;
Girei;Tambo Ward;;Luru Primary Health Centre;;;;;
Girei;Tambo Ward;;Tambo Health Post;;;;;
Girei;Wuro-Dole Ward;;Wuro Dole Health Clinic;;;;;
Girei;Wuro-Dole Ward;;Jabbi-Lamba Health Clinic;;;;;
Girei;Wuro-Dole Ward;;Mallam Madugu Primary Health Centre;;;;;
Gombi;Boga Ward;;Boga Health Clinic;;;;;
Gombi;Boga Ward;;Kwargoshe Health Post;;;;;
Gombi;Duwa Ward;;Fotta Health Clinic;;;;;
Gombi;Ga'anda Ward;;Janjaba Health Post;;;;;
Gombi;Ga'anda Ward;;Baure Health Post;;;;;
Gombi;Ga'anda Ward;;Amdur Health Clinic;;;;;
Gombi;Ga'anda Ward;;Dadwari Health Clinic;;;;;
Gombi;Ga'anda Ward;;Ganjara Health Clinic;;;;;
Gombi;Ga'anda Ward;;Gangrang Health Clinic;;;;;
Gombi;Ga'anda Ward;;Gaanda Federal Model Health Centre;;;;;
Gombi;Gabun Ward;;Mbishim Health Post;;;;;
Gombi;Gabun Ward;;Gabun Health Clinic;;;;;
Gombi;Gabun Ward;;Wammireta Health Post;;;;;
Gombi;Garkida Ward;;Garkida Primary Health Centre;;;;;
Gombi;Garkida Ward;;Wuyaku Primary Health Centre;;;;;
Gombi;Gombi North Ward;;Gombi B Primary Health Centre;;;;;
Gombi;Gombi North Ward;;Gombi C Primary Health Centre;;;;;
Gombi;Gombi South Ward;;Nyako Maternity;;;;;
Gombi;Gombi South Ward;;Gombi Comprehensive Health Centre;;;;;
Gombi;Guyaku Ward;;Prikasa Primary Health Centre;;;;;
Gombi;Guyaku Ward;;Balwona Primary Health Centre;;;;;
Gombi;Guyaku Ward;;Jau Primary Health Centre;;;;;
Gombi;Guyaku Ward;;Girgithan Primary Health Centre;;;;;
Gombi;Guyaku Ward;;Guyuaku Primary Health Centre;;;;;
Gombi;Guyaku Ward;;Dzangola Primary Health Centre;;;;;
Gombi;Guyaku Ward;;Mishalma Health Post;;;;;
Gombi;Tawa Ward;;Muchalla Health Clinic;;;;;
Gombi;Tawa Ward;;Bebe Health Clinic;;;;;
Gombi;Tawa Ward;;Garfite Health Clinic;;;;;
Gombi;Tawa Ward;;Maraba Bokki Health Post;;;;;
Gombi;Tawa Ward;;Kangurumgum Health Post;;;;;
Gombi;Tawa Ward;;Mayo-Zamba Health Post;;;;;
Gombi;Tawa Ward;;Bokki Tawa Health Clinic;;;;;
Gombi;Tawa Ward;;Mijiwana Health Post;;;;;
Gombi;Tawa Ward;;Ladiyel Health Centre;;;;;
Gombi;Yang Ward;;Ngajing Health Post;;;;;
Gombi;Yang Ward;;Yang Health Clinic;;;;;
Gombi;Yang Ward;;Sheno Health Clinic;;;;;
Guyuk;Banjiram Ward;;Banjiram Primary Health Care Centre;;;;;
Guyuk;Banjiram Ward;;Wawi Health Clinic;;;;;
Guyuk;Banjiram Ward;;Kwadadai Primary Health Care Clinic;;;;;
Guyuk;Banjiram Ward;;Gugu Primary Health Care Clinic;;;;;
Guyuk;Bobini Ward;;Bobini Federal Model Health Centre;;;;;
Guyuk;Bobini Ward;;Gwalam Primary Health Care Clinic;;;;;
Guyuk;Bodeno Ward;;Gorotoro Health Clinic;;;;;
Guyuk;Bodeno Ward;;Bodeno Primary Health Care Centre;;;;;
Guyuk;Bodeno Ward;;Mada Primary Health Care Clinic;;;;;
Guyuk;Chikila Ward;;Jiu Health Clinic;;;;;
Guyuk;Chikila Ward;;Chikila Maternal and Child Health Clinic;;;;;
Guyuk;Chikila Ward;;Chikila Tudu Health Post;;;;;
Guyuk;Chikila Ward;;Dangir Maternal and Child Health Clinic;;;;;
Guyuk;Chikila Ward;;Sili Tudu Health Post;;;;;
Guyuk;Chikila Ward;;Gwalanka Health Clinic;;;;;
Guyuk;Chikila Ward;;Sili Maternal and Child Health Clinic;;;;;
Guyuk;Dukul Ward;;Falu Health Clinic;;;;;
Guyuk;Dukul Ward;;Gundenyi Health Post;;;;;
Guyuk;Dukul Ward;;Dukul Maternal and Child Health Clinic;;;;;
Guyuk;Dukul Ward;;Waln Health Post;;;;;
Guyuk;Dukul Ward;;Lamza Maternal and Child Health Clinic;;;;;
Guyuk;Dumna Ward;;Boshikiri Health Clinic;;;;;
Guyuk;Dumna Ward;;Boshikiri Maternal and Child Health Clinic;;;;;
Guyuk;Dumna Ward;;Dumna Dutse Health Clinic;;;;;
Guyuk;Dumna Ward;;Zakawon Health Clinic;;;;;
Guyuk;Dumna Ward;;Banthi Health Clinic;;;;;
Guyuk;Dumna Ward;;Isalbo Health Post;;;;;
Guyuk;Dumna Ward;;Duwo Health Post;;;;;
Guyuk;Dumna Ward;;Dumna Zerbu Health Clinic;;;;;
Guyuk;Dumna Ward;;Tuknka Health Post;;;;;
Guyuk;Guyuk Ward;;Guyuk Primary Health Centre;;;;;
Guyuk;Guyuk Ward;;Sisikira Health Clinic;;;;;
Guyuk;Guyuk Ward;;Guyuk Cottage Hospital;;;;;
Guyuk;Guyuk Ward;;Guyuk Lutheran Health Clinic;;;;;
Guyuk;Guyuk Ward;;Daswama Health Post;;;;;
Guyuk;Guyuk Ward;;Guyuk Maternal and Child Health Clinic;;;;;
Guyuk;Guyuk Ward;;Pwalamwoliye Health Post;;;;;
Guyuk;Kola Ward;;Kola Health Post;;;;;
Guyuk;Kola Ward;;Pondiwe Health Post;;;;;
Guyuk;Kola Ward;;Theble Health Clinic;;;;;
Guyuk;Lokoro Ward;;Lokoro Health Clinic;;;;;
Guyuk;Lokoro Ward;;Gunda Health Clinic;;;;;
Guyuk;Purakayo Ward;;Purakayo Health Post;;;;;
Hong;Bangshika Ward;;Kwatau Health Post;;;;;
Hong;Bangshika Ward;;Bangshika Maternal and Child Health Clinic;;;;;
Hong;Bangshika Ward;;Mutuku Health Post;;;;;
Hong;Bangshika Ward;;Mbalwaha Health Post;;;;;
Hong;Bangshika Ward;;Makera Maternal and Child Health Clinic;;;;;
Hong;Bangshika Ward;;Kala'a Maternal and Child Health Clinic;;;;;
Hong;Bangshika Ward;;Kwambla Health Clinic;;;;;
Hong;Bangshika Ward;;Kubtava Health Post;;;;;
Hong;Bangshika Ward;;Shiwa Health Post;;;;;
Hong;Bangshika Ward;;Kwanan Kuka Health Post;;;;;
Hong;Daksiri Ward;;Uding Maternal and Child Health Clinic;;;;;
Hong;Daksiri Ward;;Tashan-Tiding Health Post;;;;;
Hong;Daksiri Ward;;Zhendinyi Maternal and Child Health Clinic;;;;;
Hong;Daksiri Ward;;Mothol Health Post;;;;;
Hong;Daksiri Ward;;Dakza Health Post;;;;;
Hong;Daksiri Ward;;Daksiri Health Post;;;;;
Hong;Daksiri Ward;;Mbolinyi Primary Health Centre;;;;;
Hong;Daksiri Ward;;Dilchidama Health Post;;;;;
Hong;Garaha Ward;;Garaha Primary Health Centre;;;;;
Hong;Garaha Ward;;Kinging Primary Health Clinic;;;;;
Hong;Garaha Ward;;Dabna Maternal and Child Health Clinic;;;;;
Hong;Gaya Silkami Ward;;Dzigbu Health Post;;;;;
Hong;Gaya Silkami Ward;;Gaya-Sikalmi Primary Health Centre;;;;;
Hong;Gaya Silkami Ward;;Gaya Kuva Primary Health Centre;;;;;
Hong;Gaya Silkami Ward;;Mijili Primary Health Clinic;;;;;
Hong;Gaya Silkami Ward;;Maki Primary Health Centre;;;;;
Hong;Gaya Silkami Ward;;Gashala Mamudu Health Post;;;;;
Hong;Hildi Ward;;Hildi Primary Health Centre;;;;;
Hong;Hildi Ward;;Paragalda Health Post;;;;;
Hong;Hildi Ward;;Dzakwa Health Post;;;;;
Hong;Hong Ward;;Hong NRC Primary Health Centre;;;;;
Hong;Hong Ward;;Dulbunyi Health Post;;;;;
Hong;Hong Ward;;Gudumiya Health Post;;;;;
Hong;Hosheri-Zum Ward;;Kwakwa'a Primary Health Centre;;;;;
Hong;Hosheri-Zum Ward;;Dilwachira Primary Health Centre;;;;;
Hong;Hosheri-Zum Ward;;Garari Maternal and Child Health Clinic;;;;;
Hong;Hosheri-Zum Ward;;Mombol Maternal and Child Health Clinic;;;;;
Hong;Hosheri-Zum Ward;;Dziga Yerima Health Post;;;;;
Hong;Kwarhi Ward;;Gashala Migzil Health Post;;;;;
Hong;Kwarhi Ward;;Naiwa Health Post;;;;;
Hong;Kwarhi Ward;;Kwarhi Primary Health Centre;;;;;
Hong;Mayo-Lope Ward;;Gashala Kufam Maternal and Child Health Clinic;;;;;
Hong;Mayo-Lope Ward;;Njari Health Post;;;;;
Hong;Mayo-Lope Ward;;Kurmi Primary Health Centre;;;;;
Hong;Mayo-Lope Ward;;Pilefu Health Post;;;;;
Hong;Mayo-Lope Ward;;Mirinyi Primary Health Clinic;;;;;
Hong;Shangui Ward;;Munga Primary Health Centre;;;;;
Hong;Thilbang Ward;;Fachi Health Post;;;;;
Hong;Thilbang Ward;;Gashaka Maternal and Child Health Clinic;;;;;
Hong;Thilbang Ward;;Dzumah Health Clinic;;;;;
Hong;Thilbang Ward;;Hong A Primary Health Centre;;;;;
Hong;Thilbang Ward;;Pella WIH Maternity Centre;;;;;
Hong;Thilbang Ward;;Buzza Maternal and Child Health Clinic;;;;;
Hong;Uba Ward;;Wuro Kae Health Post;;;;;
Hong;Uba Ward;;Jalingo Health Post (Hong);;;;;
Hong;Uba Ward;;Uba B Primary Health Centre;;;;;
Hong;Uba Ward;;Hussara Health Post;;;;;
Hong;Uba Ward;;Uba A Primary Health Centre;;;;;
Jada;Danaba Ward;;Saman Health Post;;;;;
Jada;Danaba Ward;;Sankeupo Health Post;;;;;
Jada;Danaba Ward;;Danaba Maternity Home;;;;;
Jada;Danaba Ward;;Kamenya Health Post;;;;;
Jada;Danaba Ward;;Dimkusum Health Clinic;;;;;
Jada;Danaba Ward;;Nadeu Health Clinic;;;;;
Jada;Jada 1 Ward;;Jamtari Health Clinic;;;;;
Jada;Jada 1 Ward;;Jada 1 Primary Health Care Clinic;;;;;
Jada;Jada 2 Ward;;Wuro Yerima Health Clinic;;;;;
Jada;Jada 2 Ward;;Jada 11 Primary Health Care Centre;;;;;
Jada;Koma 1 Ward;;Nassarawo Koma Maternity Home;;;;;
Jada;Koma 1 Ward;;Choncha Health Clinic;;;;;
Jada;Koma 2 Ward;;Betti Health Clinic;;;;;
Jada;Leko Ward;;Soo Maternity Home;;;;;
Jada;Leko Ward;;Abejo Health Post;;;;;
Jada;Leko Ward;;Mayo-Hako Primary Health Centre;;;;;
Jada;Mapeo Ward;;Jalingo Health Clinic;;;;;
Jada;Mapeo Ward;;Lengdo Health Clinic;;;;;
Jada;Mapeo Ward;;Mapeo Maternity Home;;;;;
Jada;Mayo-Kalaye Ward;;Gangkiri Health Clinic;;;;;
Jada;Mayo-Kalaye Ward;;Wuro-Abbo Health Clinic;;;;;
Jada;Mayo-Kalaye Ward;;Gangnai Health Clinic;;;;;
Jada;Mayo-Kalaye Ward;;Kilbawo Health Clinic;;;;;
Jada;Mayo-Kalaye Ward;;Ganglare Health Post;;;;;
Jada;Mbulo Ward;;Farangvan Maternity Home;;;;;
Jada;Mbulo Ward;;Mbulo Health Clinic;;;;;
Jada;Mbulo Ward;;Gangsanji BHealth Clinic;;;;;
Jada;Mbulo Ward;;Mbangen Essande Health Clinic;;;;;
Jada;Mbulo Ward;;Mbangen Tiren Health Clinic;;;;;
Jada;Nyibango Ward;;Nyibango Health Post;;;;;
Jada;Nyibango Ward;;Jarandi Health Post;;;;;
Jada;Nyibango Ward;;Dashen Health Clinic;;;;;
Jada;Nyibango Ward;;Gangabdu Health Clinic;;;;;
Jada;Yelli Ward;;Mayo Inne Health Clinic;;;;;
Jada;Yelli Ward;;Balauru Health Clinic;;;;;
Jada;Yelli Ward;;Kojoli Maternity Home;;;;;
Jada;Yelli Ward;;Gadjo Health Post;;;;;
Jada;Yelli Ward;;Sapeo Health Clinic;;;;;
Jada;Yelli Ward;;Geulsima Health Post;;;;;
Lamurde;Dubwange Ward;;Dubwange Health Post;;;;;
Lamurde;Dubwange Ward;;Bafiyo Health Post;;;;;
Lamurde;Dubwange Ward;;Mbemun Health Post;;;;;
Lamurde;Gyawana Ward;;Savanah Health Clinic;;;;;
Lamurde;Gyawana Ward;;Gyawana Primary Health Centre;;;;;
Lamurde;Gyawana Ward;;Overseer Health Post;;;;;
Lamurde;Gyawana Ward;;Gywana Maternal and Child Health Clinic;;;;;
Lamurde;Lafiya Ward;;Lafiya Health Post;;;;;
Lamurde;Lafiya Ward;;Model Primary Health Centre;;;;;
Lamurde;Lafiya Ward;;Mamsirmi Maternal and Child Health Clinic;;;;;
Lamurde;Lamurde Ward (Lamurde);;Hadiyo Health Post;;;;;
Lamurde;Lamurde Ward (Lamurde);;Lamurde Maternal and Child Health Clinic;;;;;
Lamurde;Lamurde Ward (Lamurde);;Sabon Gari Health Post (Lamurde);;;;;
Lamurde;Ngbakawo Ward;;Ngbakawo Primary Health Centre;;;;;
Lamurde;Ngbakawo Ward;;Kabawa Health Post;;;;;
Lamurde;Ngbakawo Ward;;Tingno Kogi Health Post;;;;;
Lamurde;Ngbebongun Ward;;Tupto Health Clinic;;;;;
Lamurde;Ngbebongun Ward;;Sabon Layi Health Clinic;;;;;
Lamurde;Opalo Ward;;Opalo Health Clinic;;;;;
Lamurde;Opalo Ward;;Hoki Health Post;;;;;
Lamurde;Opalo Ward;;Zekkun Health Post;;;;;
Lamurde;Rigange Ward;;Bajen Health Post;;;;;
Lamurde;Rigange Ward;;Rigange Health Clinic;;;;;
Lamurde;Suwa Ward;;Dullum Health Post;;;;;
Lamurde;Suwa Ward;;Suwa Maternal and Child Health Centre;;;;;
Lamurde;Suwa Ward;;Lassun Health Post;;;;;
Lamurde;Suwa Ward;;Balaifi Health Post;;;;;
Lamurde;Suwa Ward;;Bunari Health Post;;;;;
Lamurde;Suwa Ward;;Gweh Health Post;;;;;
Lamurde;Suwa Ward;;Bulkutu Health Post;;;;;
Lamurde;Suwa Ward;;Gyakan Maternal and Child Health Clinic;;;;;
Lamurde;Waduku Ward;;Waduku Maternal and Child Health Clinic;;;;;
Lamurde;Waduku Ward;;Kwah Primary Health Centre;;;;;
Lamurde;Waduku Ward;;Tingno Dutse Maternal and Child Health Clinic;;;;;
Madagali;Bebel Ward;;Vemgo Primary Health Centre;;;;;
Madagali;Duhu Ward;;Lumadu Primary Health Centre;;;;;
Madagali;Duhu Ward;;Duhu Maternal and Child Health Clinic;;;;;
Madagali;Gulak Ward;;Bakin Dutse Health Primary Health Care Clinic;;;;;
Madagali;Gulak Ward;;Kaya Health Post;;;;;
Madagali;Gulak Ward;;Wanuki Health Post;;;;;
Madagali;Hyambula Ward;;Hyambula 1 Health Post;;;;;
Madagali;Kirchinga Ward;;Kirchinga Health Clinic;;;;;
Madagali;Kirchinga Ward;;Wuron Ngayandi MDG Primary Health Centre;;;;;
Madagali;Kirchinga Ward;;Kopa Health Clinic;;;;;
Madagali;Madagali Ward;;Bamako Community Health Clinic (Madagali);;;;;
Madagali;Pallam Ward;;Pallam Maternity Home;;;;;
Madagali;Sukur Ward;;Mildu MDG Health Clinic;;;;;
Madagali;Sukur Ward;;Mildo Model Primary Health Centre (Madagali);;;;;
Madagali;Sukur Ward;;Sukur Sama Health Clinic;;;;;
Madagali;Wulla Ward;;Wulla Maternity Home;;;;;
Maiha;Belel Ward;;Belel Maternal and Child Health Clinic;;;;;
Maiha;Belel Ward;;Bugel Health Post;;;;;
Maiha;Belel Ward;;Jamatari Health Clinic;;;;;
Maiha;Humbutudi Ward;;Kilange Health Clinic;;;;;
Maiha;Humbutudi Ward;;Humbutudi Maternal and Child Health Clinic;;;;;
Maiha;Humbutudi Ward;;Vokuna Maternal and Child Health Clinic;;;;;
Maiha;Humbutudi Ward;;Mbalagi Health Clinic;;;;;
Maiha;Humbutudi Ward;;Lubum, Martanal and Child Health Clinic;;;;;
Maiha;Konkol Ward;;Boloko Primary Health Centre;;;;;
Maiha;Konkol Ward;;Wuro Kurori Health Post;;;;;
Maiha;Konkol Ward;;Konkol Primary Health Centre;;;;;
Maiha;Konkol Ward;;Konkol Maternal and Child Health Clinic;;;;;
Maiha;Maiha Gari Ward;;Jaba Jaba Primary Health Centre;;;;;
Maiha;Maiha Gari Ward;;Boken Primary Health Centre;;;;;
Maiha;Maiha Gari Ward;;Nasarawo Health Clinic;;;;;
Maiha;Maiha Gari Ward;;Lugga Babba Primary Health Centre;;;;;
Maiha;Maiha Gari Ward;;Maiha Gari Maternal and Child Health Clinic;;;;;
Maiha;Manjekin Ward;;Shuware Health Post;;;;;
Maiha;Manjekin Ward;;Manjekin Maternal and Child Health Centre;;;;;
Maiha;Manjekin Ward;;Paiwawol Maternal and Child Health Centre;;;;;
Maiha;Manjekin Ward;;Hubare Health Clinic;;;;;
Maiha;Manjekin Ward;;Jalingo Bu Health Post;;;;;
Maiha;Manjekin Ward;;Salma Modibbo Health Clinic;;;;;
Maiha;Manjekin Ward;;Salma Koli Health Post;;;;;
Maiha;Mayo-Nguli Ward;;Lugdira Health Clinic;;;;;
Maiha;Mayo-Nguli Ward;;Maiha Cottage Hospital;;;;;
Maiha;Mayo-Nguli Ward;;Mayo-Nguli Maternal and Child Health Clinic;;;;;
Maiha;Mayo-Nguli Ward;;Bwade Maternal Health Clinic;;;;;
Maiha;Mayo-Nguli Ward;;Dede Maternal and Child Health Clinic;;;;;
Maiha;Pakka Ward;;Pegin Health Clinic;;;;;
Maiha;Pakka Ward;;Ma'ane Health Clinic;;;;;
Maiha;Pakka Ward;;Furema'ane Health Clinic;;;;;
Maiha;Pakka Ward;;Pakka Maternal and Child Health Clinic;;;;;
Maiha;Pakka Ward;;Pakka Dispensary;;;;;
Maiha;Soaru A Ward;;Kowagol Maternal and Child Health Clinic;;;;;
Maiha;Soaru A Ward;;Wuro-Ladde Maternal and Child Health Clinic;;;;;
Maiha;Soaru A Ward;;Wuro-Gende Health Post;;;;;
Maiha;Soaru B Ward;;Kongoli Health Clinic;;;;;
Maiha;Soaru B Ward;;Mayo-Vamde Health Clinic;;;;;
Maiha;Soaru B Ward;;Sorau Maternal and Child Health Clinic;;;;;
Maiha;Tambajam Ward;;Wuro-Alhaji Health Clinic;;;;;
Maiha;Tambajam Ward;;Wuro Iya Health Clinic;;;;;
Maiha;Tambajam Ward;;Magara Health Clinic;;;;;
Maiha;Tambajam Ward;;Tambajam Maternal and Child Health Clinic;;;;;
Mayo-Belwa;Bajama Ward;;Gom Health Post;;;;;
Mayo-Belwa;Bajama Ward;;Bajama Health Post;;;;;
Mayo-Belwa;Bajama Ward;;Gorobi B Health Clinic;;;;;
Mayo-Belwa;Binyeri Ward;;Binyeri Basic Health Clinic;;;;;
Mayo-Belwa;Binyeri Ward;;Gantagani Health Clinic;;;;;
Mayo-Belwa;Ganfada Ward;;Pola Kanoki Health Clinic;;;;;
Mayo-Belwa;Ganfada Ward;;Mbulo Health Clinic ((Mayo-Balewa);;;;;
Mayo-Belwa;Ganfada Ward;;Gangfada Health Clinic;;;;;
Mayo-Belwa;Ganfada Ward;;Gambe Health Clinic;;;;;
Mayo-Belwa;Gengle Ward;;Gengle Health Clinic;;;;;
Mayo-Belwa;Gengle Ward;;Tugga Health Clinic;;;;;
Mayo-Belwa;Gorobi Ward;;Yelwa Health Clinic (Mayo-Balewa);;;;;
Mayo-Belwa;Gorobi Ward;;Wakka Health Clinic;;;;;
Mayo-Belwa;Gorobi Ward;;Ubakka Health Clinic;;;;;
Mayo-Belwa;Jereng Ward;;Bura Health Clinic;;;;;
Mayo-Belwa;Jereng Ward;;Dadoru Health Clinic;;;;;
Mayo-Belwa;Jereng Ward;;Ganglamja Health Clinic;;;;;
Mayo-Belwa;Jereng Ward;;Jereng Maternal and Child Health Clinic;;;;;
Mayo-Belwa;Mafarang Ward;;Mifarang Maternal and Child Health Clinic;;;;;
Mayo-Belwa;Mafarang Ward;;Mbalgare Health Clinic;;;;;
Mayo-Belwa;Mafarang Ward;;Sebore Health Clinic;;;;;
Mayo-Belwa;Mbilla Ward;;Mayo-Belwa Maternal and Child Health Clinic;;;;;
Mayo-Belwa;Mbilla Ward;;Township Health Clinic;;;;;
Mayo-Belwa;Mbilla Ward;;Mayo Sanganare Maternal and Child Health Clinic;;;;;
Mayo-Belwa;Ndikong Ward;;Garu Clinic;;;;;
Mayo-Belwa;Ndikong Ward;;Ndikong Maternal and Child Health Clinic;;;;;
Mayo-Belwa;Ndikong Ward;;Jumtobe Health Clinic;;;;;
Mayo-Belwa;Ribadu Ward (Mayo-Belwa);;Labbare Health Clinic;;;;;
Mayo-Belwa;Ribadu Ward (Mayo-Belwa);;Ribadu Health Clinic;;;;;
Mayo-Belwa;Tola Ward;;Tola Primary Health Centre;;;;;
Mayo-Belwa;Tola Ward;;Gangwaso Health Clinic;;;;;
Mayo-Belwa;Yoffo Ward;;Binkola Health Clinic;;;;;
Mayo-Belwa;Yoffo Ward;;Chukkol Health Clinic;;;;;
Michika;Bazza Ward;;Biang Health Centre;;;;;
Michika;Bazza Ward;;Bazza Margi Health Clinic;;;;;
Michika;Futudou/Futuless Ward;;Himike Dou Health Post;;;;;
Michika;Futudou/Futuless Ward;;Futu Maternity Home;;;;;
Michika;Garta/Ghu Ward;;Garta Health Clinic;;;;;
Michika;Jigalmbu Ward;;Kankilia Health Clinic;;;;;
Michika;Jigalmbu Ward;;Tundu Wada Health Centre;;;;;
Michika;Jigalmbu Ward;;Jigalumbu Health Clinic;;;;;
Michika;Madzi Ward;;Blashafa Health Clinic;;;;;
Michika;Madzi Ward;;Kuburshosho Primary Health Centre;;;;;
Michika;Michika 1 Ward;;Market Health Clinic;;;;;
Michika;Michika 1 Ward;;Kofan Sarki Health Clinic;;;;;
Michika;Michika 1 Ward;;Michika Town Health Clinic;;;;;
Michika;Michika 2 Ward;;Gartu/Ghu General Hospital;;;;;
Michika;Michika 2 Ward;;Maternal and Child Health Clinic;;;;;
Michika;Minkissi/Wurogiki Ward;;Minkissi Health Post;;;;;
Michika;Minkissi/Wurogiki Ward;;Drigimi Health Clinic;;;;;
Michika;Moda/Dlaka Ward;;Dlaka Health Post;;;;;
Michika;Moda/Dlaka Ward;;Moda Health Clinic;;;;;
Michika;Munkavachitta Ward;;Nkafamiya Health Clinic;;;;;
Michika;Sina/Kamale Ward;;Sina Gali Health Clinic;;;;;
Michika;Sina/Kamale Ward;;Kamale Health Clinic;;;;;
Michika;Tsukumu/Tilijo Ward;;Watsila Health Post;;;;;
Michika;Tsukumu/Tilijo Ward;;Tsukumu Maternity Home;;;;;
Michika;Tumbragabili Ward;;Kwabapale Health Post;;;;;
Michika;Tumbragabili Ward;;Dzurok Health Post;;;;;
Michika;Vih/Bokka Ward;;Huro Health Post;;;;;
Michika;Vih/Bokka Ward;;Vih Health Clinic;;;;;
Michika;Vih/Bokka Ward;;Bokka Health Clinic;;;;;
Michika;Wambilim/Tilli Ward;;Wambilimi Health Centre;;;;;
Michika;Zah Ward;;Zahgretia Health Clinic;;;;;
Michika;Zah Ward;;Buppa Maternity Home;;;;;
Mubi North;Bahuli Ward;;Bahuli Health Clinic;;;;;
Mubi North;Bahuli Ward;;Maduguva Primary Health Centre;;;;;
Mubi North;Bahuli Ward;;Burha Vango Primary Health Centre;;;;;
Mubi North;Besto Ward;;Wummu Health Post;;;;;
Mubi North;Besto Ward;;Kwa Primary Health Centre;;;;;
Mubi North;Besto Ward;;Besto Maternal and Child Health Clinic;;;;;
Mubi North;Besto Ward;;Suzukwa Health Post;;;;;
Mubi North;Besto Ward;;Besto Health Clinic;;;;;
Mubi North;Besto Ward;;Besto Mango Health Post;;;;;
Mubi North;Besto Ward;;Wamizili Health Post;;;;;
Mubi North;Digil Ward;;Digil Health Clinic;;;;;
Mubi North;Digil Ward;;Didif Health Clinic;;;;;
Mubi North;Kolere Ward;;Kolere Health Post;;;;;
Mubi North;Lokuwa Ward;;Sht Primary Health Centre;;;;;
Mubi North;Lokuwa Ward;;Ascon Health Clinic;;;;;
Mubi North;Lokuwa Ward;;Mubi North Government Secondary School Health Clinic;;;;;
Mubi North;Lokuwa Ward;;Lokuwa Primary Health Centre;;;;;
Mubi North;Lokuwa Ward;;Wuro Gude Primary Health Care Centre;;;;;
Mubi North;Lokuwa Ward;;Emerate Council Health Clinic;;;;;
Mubi North;Mayo-Bani Ward;;Mayo-Bani Health Clinic;;;;;
Mubi North;Mayo-Bani Ward;;Muva Primary Health Centre;;;;;
Mubi North;Mijilu Ward;;Kiriya Health Clinic;;;;;
Mubi North;Mijilu Ward;;Mijilu Health Clinic;;;;;
Mubi North;Mijilu Ward;;Miza Primary Health Centre;;;;;
Mubi North;Mijilu Ward;;Kwatala Primary Health Centre;;;;;
Mubi North;Mijilu Ward;;Mukta Health Clinic;;;;;
Mubi North;Mijilu Ward;;Gembula Health Post;;;;;
Mubi North;Muchalla Ward;;Muchhalla Model Health Centre;;;;;
Mubi North;Muchalla Ward;;Bagira Health Clinic;;;;;
Mubi North;Muchalla Ward;;Muchalla Primary Health Centre;;;;;
Mubi North;Muchalla Ward;;Muvur Health Clinic;;;;;
Mubi North;Muchalla Ward;;Muchalla Health Post;;;;;
Mubi North;Sabon Layi Ward;;Sabon Layi Community Based Bamako Initiative Health Clinic;;;;;
Mubi North;Sabon Layi Ward;;Sabon Layi Maternal and Child Health Clinic;;;;;
Mubi North;Sabon Layi Ward;;Wuro Alkali Primary Health Clinic;;;;;
Mubi North;Vimtim Ward;;Muvudi Primary Health Centre;;;;;
Mubi North;Vimtim Ward;;Rebewa Primary Health Centre;;;;;
Mubi North;Yelwa Ward (Mubi North);;Dazala Health Post;;;;;
Mubi North;Yelwa Ward (Mubi North);;Kochifa Health Clinic;;;;;
Mubi North;Yelwa Ward (Mubi North);;New Market Health Clinic (Mubi North);;;;;
Mubi South;Dirbishi Ward;;Gandira Federal Model Health Centre;;;;;
Mubi South;Dirbishi Ward;;Dirbishi Health Clinic;;;;;
Mubi South;Duvu Ward;;Chaba Health Post;;;;;
Mubi South;Duvu Ward;;Gira-Gira Health Post;;;;;
Mubi South;Duvu Ward;;Duvu Maternity Home;;;;;
Mubi South;Gella Ward;;Gella Maternal and Child Health Clinic;;;;;
Mubi South;Gella Ward;;Mallua Health Post;;;;;
Mubi South;Gude Ward;;Monduva Maternal and Child Health Clinic;;;;;
Mubi South;Gude Ward;;Ngavahi Health Post;;;;;
Mubi South;Gude Ward;;Wuro Patuji Health Post;;;;;
Mubi South;Gude Ward;;Gude Health Post;;;;;
Mubi South;Kwaja Ward;;Kwaja Maternity Home;;;;;
Mubi South;Kwaja Ward;;Kinga Health Post;;;;;
Mubi South;Kwaja Ward;;Kissa Health Post;;;;;
Mubi South;Lamurde Ward (Mubi South);;Lamurde Health Post;;;;;
Mubi South;Lamurde Ward (Mubi South);;Malan Gacha Health Post;;;;;
Mubi South;Lamurde Ward (Mubi South);;Gaya Health Post;;;;;
Mubi South;Lamurde Ward (Mubi South);;Arahan Kunu Health Post;;;;;
Mubi South;Mugulbu Ward;;Yadafa Health Post;;;;;
Mubi South;Mugulbu Ward;;Chakamaje Health Post;;;;;
Mubi South;Mugulbu Ward;;Muda Maternity and Child Health Clinic;;;;;
Mubi South;Mugulbu Ward;;Vindejire Health Post;;;;;
Mubi South;Mugulbu Ward;;Bajahule Health Post;;;;;
Mubi South;Mugulbu Ward;;Mugulbu Health POSt;;;;;
Mubi South;Mujara Ward;;Tantilla Health Post;;;;;
Mubi South;Mujara Ward;;Yewa Health Post;;;;;
Mubi South;Mujara Ward;;Baguna Health Post;;;;;
Mubi South;Mujara Ward;;Sahuda Dispensary;;;;;
Mubi South;Mujara Ward;;Mujara Maternal and Child Health Centre;;;;;
Mubi South;Nasarawo Ward;;Wuro Bulude Health Clinic;;;;;
Mubi South;Nasarawo Ward;;Mubi General Hospital;;;;;
Mubi South;Nasarawo Ward;;Nassarawo Health Post;;;;;
Mubi South;Nasarawo Ward;;Sebore Health Post;;;;;
Mubi South;Nduku Ward;;Tsaranyi Health Post;;;;;
Mubi South;Nduku Ward;;Ayuwa Health Post;;;;;
Mubi South;Nduku Ward;;Dubu-Dubu Health Post;;;;;
Mubi South;Nduku Ward;;Kwadankin Health Post;;;;;
Mubi South;Nduku Ward;;Nduku Dispensary;;;;;
Mubi South;Nduku Ward;;Beta Health Post;;;;;
Mubi South;Nduku Ward;;Kagi'i Maternal and Child Health Clinic;;;;;
Numan;Bare Ward;;Sabon Pegi Health Post;;;;;
Numan;Bare Ward;;Ubandoma Health Post;;;;;
Numan;Bare Ward;;Bare Maternal and Child Health Clinic;;;;;
Numan;Bolki Ward;;Kegbale Health Post;;;;;
Numan;Bolki Ward;;Bolki Health Clinic;;;;;
Numan;Bolki Ward;;Nzumosu Maternal and Child Health Clinic;;;;;
Numan;Bolki Ward;;Yanga Health Clinic (Bolki);;;;;
Numan;Bolki Ward;;Bang Health Post;;;;;
Numan;Gamadio Ward;;Gamadio Health Clinic;;;;;
Numan;Gamadio Ward;;Tunga Ladan Health Clinic;;;;;
Numan;Imburu Ward;;Zangun Health Clinic;;;;;
Numan;Imburu Ward;;Imburu Health Clinic;;;;;
Numan;Imburu Ward;;Kwapukai Health Post;;;;;
Numan;Imburu Ward;;Ngbalang Health Clinic;;;;;
Numan;Kodomti Ward;;Kodomti Health Clinic;;;;;
Numan;Kodomti Ward;;Shaforon Health Clinic;;;;;
Numan;Kodomti Ward;;Byamti Health Post;;;;;
Numan;Kodomti Ward;;Kikon Health Clinic;;;;;
Numan;Numan 1 Ward;;Mother of Mercy Health Clinic;;;;;
Numan;Numan 1 Ward;;Bamatoto Health Clinic;;;;;
Numan;Numan 1 Ward;;Tudun Wada Health Clinic;;;;;
Numan;Numan 2 Ward;;Wodi Sakato Health Clinic;;;;;
Numan;Numan 2 Ward;;Pare Health Clinic;;;;;
Numan;Numan 2 Ward;;Zarbana Health Post;;;;;
Numan;Numan 3 Ward;;Pilo Tara Health Post;;;;;
Numan;Numan 3 Ward;;Makera Health Clinic;;;;;
Numan;Sabon Pegi Ward;;Jauro Barkindo Health Clinic;;;;;
Numan;Sabon Pegi Ward;;Dowaya Health Post;;;;;
Numan;Sabon Pegi Ward;;Numan Maternal and Child Health Clinic;;;;;
Numan;Sabon Pegi Ward;;Sabon Pegi Health Clinic;;;;;
Numan;Sabon Pegi Ward;;Gweda Mallam Health Clinic;;;;;
Numan;Vulpi Ward;;Salti Health Clinic;;;;;
Numan;Vulpi Ward;;Gbalapun Health Clinic;;;;;
Shelleng;Bakta Ward;;Bakta Health Clinic;;;;;
Shelleng;Bakta Ward;;Jimbo Health Post;;;;;
Shelleng;Bodwai Ward;;Gwakta Health Post;;;;;
Shelleng;Bodwai Ward;;Dalwa Health Clinic;;;;;
Shelleng;Bodwai Ward;;Biki Health Post;;;;;
Shelleng;Bodwai Ward;;Bodwai Maternal and Child Health Clinic;;;;;
Shelleng;Bodwai Ward;;Riwiriwi Health Post;;;;;
Shelleng;Bodwai Ward;;Bolama Health Post;;;;;
Shelleng;Bodwai Ward;;Jalingo Health Post;;;;;
Shelleng;Bodwai Ward;;Bodwai Health Post;;;;;
Shelleng;Gundo Ward;;Gundo Health Clinic;;;;;
Shelleng;Gundo Ward;;Kurungu Health Clinic;;;;;
Shelleng;Gundo Ward;;Bobere Health Clinic;;;;;
Shelleng;Gundo Ward;;Lababiri Health Post;;;;;
Shelleng;Gundo Ward;;Kem Health Clinic;;;;;
Shelleng;Gundo Ward;;Dason Fulani Health Post;;;;;
Shelleng;Gwapopolok Ward;;Gwapopolok Health Clinic;;;;;
Shelleng;Gwapopolok Ward;;Karlaje Health Clinic;;;;;
Shelleng;Gwapopolok Ward;;Kongma Health Clinic;;;;;
Shelleng;Gwapopolok Ward;;Nafada Health Post;;;;;
Shelleng;Jumbul Ward;;Donge Health Post;;;;;
Shelleng;Jumbul Ward;;Yorrong Health Post;;;;;
Shelleng;Jumbul Ward;;Gombeyel Health Post;;;;;
Shelleng;Jumbul Ward;;Jamali Health Post;;;;;
Shelleng;Jumbul Ward;;Birabira Health Post;;;;;
Shelleng;Jumbul Ward;;Kula Health Clinic;;;;;
Shelleng;Ketembere Ward;;Barata FMH Centre;;;;;
Shelleng;Ketembere Ward;;Gondong Health Clinic;;;;;
Shelleng;Ketembere Ward;;Ketembere Health Clinic;;;;;
Shelleng;Ketembere Ward;;Labau Health Clinic;;;;;
Shelleng;Kiri Ward;;Senior Camp Health Post;;;;;
Shelleng;Kiri Ward;;Kiri Health Clinic;;;;;
Shelleng;Kiri Ward;;Kiri Maternal and Child Health Clinic;;;;;
Shelleng;Libbo Ward;;Wuroyanka Health Clinic;;;;;
Shelleng;Libbo Ward;;Dumburi Health Post;;;;;
Shelleng;Libbo Ward;;Kambilam Health Post;;;;;
Shelleng;Libbo Ward;;Jabi Health Post;;;;;
Shelleng;Libbo Ward;;Kate Health Clinic;;;;;
Shelleng;Shelleng Ward;;Shelleng Town Clinic;;;;;
Shelleng;Shelleng Ward;;Tetek Health Clinic;;;;;
Shelleng;Shelleng Ward;;NYSC Health Centre;;;;;
Shelleng;Shelleng Ward;;Gadam Health Clinic;;;;;
Shelleng;Talum Ward;;Kula Dutse Health Post;;;;;
Shelleng;Talum Ward;;Gwagarab Health Clinic;;;;;
Shelleng;Talum Ward;;Talum Health Post;;;;;
Shelleng;Talum Ward;;Wuro Ladde Health Post;;;;;
Song;Dirma Ward;;Shiure Primary Health Centre;;;;;
Song;Dirma Ward;;Dirma Maternal and Child Health Clinic;;;;;
Song;Dirma Ward;;Batum Maternal and Child Health Clinic;;;;;
Song;Dumne Ward;;Hombo Primary Health Centre;;;;;
Song;Dumne Ward;;Silon Primary Health Centre;;;;;
Song;Dumne Ward;;Dumne Town Health Centre;;;;;
Song;Dumne Ward;;Bakka Health Post;;;;;
Song;Dumne Ward;;Dumne Health Clinic;;;;;
Song;Gudu/Mboi Ward;;Handa Primary Health Centre;;;;;
Song;Gudu/Mboi Ward;;Gudu Primary Health Centre;;;;;
Song;Kilange Funa Ward;;Wurode Primary Health Centre;;;;;
Song;Kilange Funa Ward;;Guriki Primary Health Centre;;;;;
Song;Kilange Funa Ward;;Pakin Primary Health Centre;;;;;
Song;Kilange Hirna Ward;;Wuro Daudu Primary Health Centre;;;;;
Song;Sigire Ward;;Golantabal Maternity Health Clinic;;;;;
Song;Sigire Ward;;Kesure Maternal and Child Health Clinic;;;;;
Song;Sigire Ward;;Sigire Primary Health Centre;;;;;
Song;Song Gari Ward;;Clinic B Primary Health Centre;;;;;
Song;Song Gari Ward;;Clinic A Primary Health Care;;;;;
Song;Song Gari Ward;;Sabon Loko Primary Health Clinic;;;;;
Song;Song Gari Ward;;Song Cottage Hospital;;;;;
Song;Song Gari Ward;;Gulungo Primary Health Centre;;;;;
Song;Song Gari Ward;;Bolki Primary Health Centre;;;;;
Song;Song Gari Ward;;Tsohon Loko Primary Health Centre;;;;;
Song;Song Waje Ward;;Galamba Primary Health Centre;;;;;
Song;Song Waje Ward;;Gyawan Primary Health Centre;;;;;
Song;Song Waje Ward;;Murke Primary Health Centre;;;;;
Song;Song Waje Ward;;Muleng Primary Health Centre;;;;;
Song;Suktu Ward;;Suktu Sarki Primary Health Centre;;;;;
Song;Suktu Ward;;Jimbo Health Clinic;;;;;
Song;Suktu Ward;;Salasa Maternal and Child Health Clinic;;;;;
Song;Suktu Ward;;Roma Primary Health Centre;;;;;
Song;Waltadi Ward;;Dikir Health Clinic;;;;;
Song;Waltadi Ward;;Prambe Maternal and Child Health Clinic;;;;;
Song;Waltadi Ward;;Kukta Maternal and Child Health Clinic;;;;;
Song;Waltadi Ward;;Waltandi Primary Health Centre;;;;;
Song;Zumo Ward;;Zumo Health Clinic;;;;;
Song;Zumo Ward;;Holma Primary Health Centre;;;;;
Toungo;Dawo 1 Ward;;Gangseni Health Clinic;;;;;
Toungo;Dawo 2 Ward;;Daduken Health Post;;;;;
Toungo;Dawo 2 Ward;;Dasu Health Post;;;;;
Toungo;Dawo 2 Ward;;Davem Health Clinic;;;;;
Toungo;Dawo 2 Ward;;Dakalaje Health Post;;;;;
Toungo;Gumti Ward;;Gum Health Clinic;;;;;
Toungo;Gumti Ward;;Nyasikassi Health Post;;;;;
Toungo;Gumti Ward;;Gumti Health Clinic;;;;;
Toungo;Kiri 1 Ward;;Dalasum Health Clinic;;;;;
Toungo;Kiri 1 Ward;;Kiri B Health Clinic;;;;;
Toungo;Kiri 1 Ward;;Mentani Health Clinic;;;;;
Toungo;Kiri 1 Ward;;Dugdu Health Post;;;;;
Toungo;Kiri 1 Ward;;Naya Health Clinic;;;;;
Toungo;Kiri 2 Ward;;Dadjim Health Post;;;;;
Toungo;Kiri 2 Ward;;Timbukum Health Clinic;;;;;
Toungo;Kiri 2 Ward;;Kudori Health Clinic;;;;;
Toungo;Kiri 2 Ward;;Daluga Health Post;;;;;
Toungo;Kiri 2 Ward;;Dakeu Health Post;;;;;
Toungo;Kiri 2 Ward;;Timbo Health Clinic;;;;;
Toungo;Kiri 2 Ward;;Taksi Gangte Health Post;;;;;
Toungo;Kogin Baba 1 Ward;;Dambara Health Post;;;;;
Toungo;Kogin Baba 1 Ward;;Timpwa Health Post;;;;;
Toungo;Kogin Baba 1 Ward;;Kogin Baba Health Clinic;;;;;
Toungo;Kogin Baba 1 Ward;;Shongoli Health Post;;;;;
Toungo;Kogin Baba 2 Ward;;Mayo-Butale Health Post;;;;;
Toungo;Kogin Baba 2 Ward;;Sabon Gari Health Post;;;;;
Toungo;Kogin Baba 2 Ward;;Kilalai Health Clinic;;;;;
Toungo;Toungo 1 Ward;;Toungo Cottage Hospital;;;;;
Toungo;Toungo 1 Ward;;Toungo B Health Clinic;;;;;
Toungo;Toungo 1 Ward;;Dadinkowa Health Post;;;;;
Toungo;Toungo 1 Ward;;Toungo Town Health Clinic;;;;;
Toungo;Toungo 2 Ward;;Kpwasa Health Post;;;;;
Toungo;Toungo 2 Ward;;Laide Chita Health Post;;;;;
Toungo;Toungo 2 Ward;;Tipsan Health Clinic;;;;;
Toungo;Toungo 3 Ward;;Yeliso Health Clinic;;;;;
Toungo;Toungo 3 Ward;;Maihula Health Post;;;;;
Toungo;Toungo 3 Ward;;Adamu Yalaki Health Post;;;;;
Toungo;Toungo 3 Ward;;Namdu Health Post;;;;;
Toungo;Toungo 3 Ward;;Risku Health Post;;;;;
Toungo;Toungo 3 Ward;;Garin Yohanna Health Post;;;;;
Toungo;Toungo 3 Ward;;Nawai Health Post;;;;;
Toungo;Toungo 3 Ward;;Lababare Health Post;;;;;
Toungo;Toungo 3 Ward;;Gangzamanu Health Clinic;;;;;
Toungo;Toungo 3 Ward;;Taksi Health Post;;;;;
Toungo;Toungo 3 Ward;;Lawan Dakka Health Post;;;;;
Yola North;Ajiya Ward;;Ajiya Health Clinic;;;;;
Yola North;Alkalawa Ward;;Atiku Abubakar Health Clinic;;;;;
Yola North;Doubeli Ward;;Bamaiyi Hospital;;;;;
Yola North;Doubeli Ward;;Major Aminu Primary Health Centre;;;;;
Yola North;Gwadabawa Ward;;Government House Clinic;;;;;
Yola North;Gwadabawa Ward;;Gwadabawa Health Clinic;;;;;
Yola North;Gwadabawa Ward;;Government Girl School Clinic;;;;;
Yola North;Gwadabawa Ward;;Yola Federal College of Education Clinic;;;;;
Yola North;Gwadabawa Ward;;Idi Atta Primary Health Clinic;;;;;
Yola North;Jambutu Ward;;Jambutu Primary Health Centre;;;;;
Yola North;Jambutu Ward;;Damilu Health Clinic;;;;;
Yola North;Karewa Ward;;Bachure Clinic;;;;;
Yola North;Karewa Ward;;Airforce Clinic;;;;;
Yola North;Karewa Ward;;Bekaji Health Clinic;;;;;
Yola North;Karewa Ward;;Malamre Primary Health Clinic;;;;;
Yola North;Karewa Ward;;State Polytechnic Clinic;;;;;
Yola North;Karewa Ward;;23rd Medical Clinic;;;;;
Yola North;Karewa Ward;;Police Clinic;;;;;
Yola North;Limawa Ward;;Limawa Health Clinic;;;;;
Yola North;Nassarawo Ward;;Nassarawo Clinic;;;;;
Yola North;Nassarawo Ward;;Yola Specialist Hospital;;;;;
Yola North;Nassarawo Ward;;Nassarawo Maternal and Child Health Clinic ;;;;;
Yola North;Rumde Ward;;Alhaji Ali Maidamisa Clinic;;;;;
Yola North;Yelwa Ward;;Alhaji Abubakar Namtari Primary Health Centre;;;;;
Yola South;Adarawo Ward;;Wuro-Hausa Health Clinic;;;;;
Yola South;Adarawo Ward;;Wuro Hausa Health Post (Yola South);;;;;
Yola South;Bako Ward;;Bako Health Post;;;;;
Yola South;Bole-Yoldepate Ward;;Yola Federal Medical Centre;;;;;
Yola South;Bole-Yoldepate Ward;;Bole Health Clinic;;;;;
Yola South;Bole-Yoldepate Ward;;Shagari Health Clinic;;;;;
Yola South;Bole-Yoldepate Ward;;Nice Maternity Clinic Yolde - Pate;;;;;
Yola South;Makama A Ward;;Lamido Aliyu Health Clinic;;;;;
Yola South;Makama A Ward;;Damare Health Clinic (Yola South);;;;;
Yola South;Makama B Ward;;Nana A Maternal and Child Health Clinic;;;;;
Yola South;Makama B Ward;;Adamawa Hospital Yola;;;;;
Yola South;Makama B Ward;;Yola Central Health Clinic;;;;;
Yola South;Mbamba Ward;;Mbamba Police Clinic;;;;;
Yola South;Mbamba Ward;;Rugange Health Post;;;;;
Yola South;Mbamba Ward;;Mbamba Health Clinic;;;;;
Yola South;Mbamba Ward;;Njoboliyo Health Post;;;;;
Yola South;Mbamba Ward;;Njoboli Health Clinic;;;;;
Yola South;Mbamoi Ward;;Mbamoi Health Clinic;;;;;
Yola South;Namtari Ward;;Wauru Jabbe Health Clinic;;;;;
Yola South;Namtari Ward;;Namtari Health Clinic;;;;;
Yola South;Namtari Ward;;Malkohi Health Clinic;;;;;
Yola South;Namtari Ward;;Gongoshi Health Post;;;;;
Yola South;Ngurore Ward;;Wuro-Yanka Health Clinic;;;;;
Yola South;Ngurore Ward;;Ngurore Nakowa Maternity and Nursing Home;;;;;
Yola South;Ngurore Ward;;Ngurore Primary Health Centre;;;;;
Yola South;Ngurore Ward;;G.D Changrai Memorial Hospital;;;;;
Yola South;Ngurore Ward;;Yelwa Maternity Centre;;;;;
Yola South;Toungo Ward;;Meddy Health Clinic;;;;;
Yola South;Toungo Ward;;Toungo Health Clinic;;;;;
Yola South;Toungo Ward;;Toungo Nursing Home;;;;;
Yola South;Yolde Kohi Ward;;Hosere Bembe Health Clinic;;;;;
Yola South;Yolde Kohi Ward;;Goduwo Health Post;;;;;
Yola South;Yolde Kohi Ward;;Yolde Kohi Health Post;;;;;
