LGA;Ward;Settlement;Facility;Type;Ownership;Address;Longitude;Latitude
Abak;Otoro 2 Ward;;Ikot Osom Health Post;;;;;
Abak;Abak Urban 1 Ward;;Ukpom Health Centre;;;;;
Abak;Abak Urban 1 Ward;;Ibanang Ediene Health Centre;;;;;
Abak;Abak Urban 1 Ward;;Ukpom General Hospital;;;;;
Abak;Abak Urban 2 Ward;;Ibagwa Maternal  & Child Health;;;;;
Abak;Abak Urban 2 Ward;;Itung Health Centre;;;;;
Abak;Abak Urban 3 Ward;;Abak Cedar & Olive Clinic;;;;;
Abak;Abak Urban 3 Ward;;Abak UduakAbasi Clinic;;;;;
Abak;Abak Urban 3 Ward;;Abak Mercy Hospital;;;;;
Abak;Abak Urban 3 Ward;;Abak Divine Medical Centre;;;;;
Abak;Abak Urban 3 Ward;;Abak Op Base Primary Health Centre;;;;;
Abak;Abak Urban 4 Ward;;Ikot Ebak Health Post;;;;;
Abak;Abak Urban 4 Ward;;Abak Itenge Health Post;;;;;
Abak;Afaha Obong 1 Ward;;Ikot Akpan Ikpong Health Post;;;;;
Abak;Afaha Obong 2 Ward;;Afaha Obong Health Centre;;;;;
Abak;Midim 1 Ward;;Midim Health Centre;;;;;
Abak;Midim 2 Ward;;Ikot Edong Health Post;;;;;
Abak;Otoro 1 Ward;;Abiakpo Health Centre;;;;;
Abak;Otoro 3 Ward;;Ibong Otoro Health Centre;;;;;
Abak;Otoro 3 Ward;;Ikot Etuk Udo Health Centre;;;;;
Eastern Obolo;Eastern Obolo 1 Ward;;Okoroette Primary Health Centre;;;;;
Eastern Obolo;Eastern Obolo 1 Ward;;Okoroette Cottage Hospital;;;;;
Eastern Obolo;Eastern Obolo 10 Ward;;Atabrikang HP;;;;;
Eastern Obolo;Eastern Obolo 2 Ward;;Okoromboko Health Post;;;;;
Eastern Obolo;Eastern Obolo 3 Ward;;Amadaka Health Centre;;;;;
Eastern Obolo;Eastern Obolo 4 Ward;;Elekpon Health Post;;;;;
Eastern Obolo;Eastern Obolo 5 Ward;;Emereoko Health Centre;;;;;
Eastern Obolo;Eastern Obolo 6 Ward;;Amauka Primary Health Centre;;;;;
Eastern Obolo;Eastern Obolo 6 Ward;;Amanglas Primary Health Centre;;;;;
Eastern Obolo;Eastern Obolo 7 Ward;;Okoroyong Health Centre;;;;;
Eastern Obolo;Eastern Obolo 8 Ward;;Iko Health Centre;;;;;
Eastern Obolo;Eastern Obolo 9 Ward;;Iko Nta/ Obianga Primary Health Centre;;;;;
Eket;Eket Central 1 Ward;;Afaha Atai Health Post;;;;;
Eket;Eket Central 1 Ward;;Esit Urua Health Post;;;;;
Eket;Eket Central 1 Ward;;Eket Caleb Medical Centre;;;;;
Eket;Eket Central 1 Ward;;Ebiana Health Centre;;;;;
Eket;Eket Central 1 Ward;;55 Afaha Atai Road Ekman Maternity Home;;;;;
Eket;Eket Central 2 Ward;;Iko Eket Health Centre;;;;;
Eket;Eket Central 2 Ward;;Idung Iniang Health Centre;;;;;
Eket;Eket Central 2 Ward;;Eket Utibe Abasi Clinic;;;;;
Eket;Eket Central 3 Ward;;Ikot Usoekong Health Post;;;;;
Eket;Eket Central 4 Ward;;Effoi Health Centre;;;;;
Eket;Eket Central 5 Ward;;Odio Health Centre;;;;;
Eket;Eket Okon 2 Ward;;Ikot Abasi Okon Comprehensive Health Centre;;;;;
Eket;Eket Urban 1 Ward;;Ikot Abia Health Post;;;;;
Eket;Eket Urban 1 Ward;;Ikot Okudomo Health Centre;;;;;
Eket;Eket Urban 2 Ward;;Eket Holifield Specialist Hospital;;;;;
Eket;Eket Urban 2 Ward;;Eket Redemption Medical Centre;;;;;
Eket;Eket Urban 2 Ward;;Idua Health Post;;;;;
Eket;Eket Urban 2 Ward;;Eket Udeme Jehovah Clinic;;;;;
Eket;Eket Urban 2 Ward;;Eket Goodcare Medical Centre;;;;;
Eket;Eket Urban 2 Ward;;Eket Solution Clinic;;;;;
Eket;Eket Urban 2 Ward;;Wills Memorial Med Centre;;;;;
Eket;Eket Urban 2 Ward;;Nduye Medical Centre;;;;;
Eket;Eket Urban 3 Ward;;Eket Primary Health Centre  (Operational Base);;;;;
Eket;Eket Urban 3 Ward;;Eket Psychiatric Hospital;;;;;
Eket;Eket Urban 3 Ward;;Immanuel General Hospital;;;;;
Eket;Eket Urban 3 Ward;;Eket Dental Centre;;;;;
Eket;Eket Urban 4 Ward;;Eket Hillcrest Medical Centre;;;;;
Eket;Eket Urban 4 Ward;;Favour Maternity Home;;;;;
Eket;Eket Urban 4 Ward;;Mkpok Model Health Centre;;;;;
Eket;Eket Urban 4 Ward;;Eket Assurance Medical Centre;;;;;
Eket;Eket Urban 4 Ward;;Afaha Eket Abasiekeme Specialist Clinic;;;;;
Eket;Okon 1 Ward;;Nduo Eduo Health Post;;;;;
Esit Eket;Uquo 1 Ward;;Ekpeneobo HP;;;;;
Esit Eket;Uquo 1 Ward;;Ekpene Obo Cottage Hospital;;;;;
Esit Eket;Uquo 10 ward;;Afaha Ekpenedi Heath post;;;;;
Esit Eket;Uquo 10 ward;;Odoronkit Health Centre;;;;;
Esit Eket;Uquo 10 ward;;Ntak Inyang Health Post;;;;;
Esit Eket;Uquo 2 Ward;;Edor Health Centre;;;;;
Esit Eket;Uquo 3 ward;;Akpansung Health Post;;;;;
Esit Eket;Uquo 3 ward;;Ebe Ekpi Health post;;;;;
Esit Eket;Uquo 4 Ward;;Ikpa HC;;;;;
Esit Eket;Uquo 5 Ward;;Excellence Medical Centre;;;;;
Esit Eket;Uquo 5 Ward;;Uquo Town Operational Base Primary Health Centre;;;;;
Esit Eket;Uquo 6 Ward;;Ebighi Okpono HP;;;;;
Esit Eket;Uquo 7 Ward;;Idung Assan Health Post;;;;;
Esit Eket;Uquo 8 ward;;Etebi Health Centre;;;;;
Esit Eket;Uquo 9 Ward;;Iko Efak HC;;;;;
Essien Udim;Adiasim Ward;;Adiasim Health Centre;;;;;
Essien Udim;Afaha Ward;;St Mary's Hospital;;;;;
Essien Udim;Afaha Ward;;Afaha Ikot Ebak Primary Health Centre;;;;;
Essien Udim;Ekpenyong 1 Ward;;Midim Atan Health Centre;;;;;
Essien Udim;Ekpenyong 2 Ward ;;Ekpenyong Atai Health Centre;;;;;
Essien Udim;Ikpe Annang Ward;;Ikpe Annang Health Post;;;;;
Essien Udim;Ikpe Annang Ward;;Ikpe Annang General Hospital;;;;;
Essien Udim;Odoro Ikot 1 Ward;;Odoro Ikot 1 Health Centre;;;;;
Essien Udim;Odoro Ikot 2 Ward;;Odoro Ikot 2 Health Centre;;;;;
Essien Udim;Okon Ward;;Okon Health Centre;;;;;
Essien Udim;Ukana East Ward;;Ukana Nsasak Health Centre;;;;;
Essien Udim;Ukana East Ward;;Ukana East Primary Health Centre;;;;;
Essien Udim;Ukana East Ward;;Ikot Akpan Efia Health Centre;;;;;
Essien Udim;Ukana West 1 Ward;;Ukana West 1Health Centre;;;;;
Essien Udim;Ukana West 2 Ward;;Atan Ikot Okoro Health Centre;;;;;
Essien Udim;Ukana West 2 Ward;;Ukana west 2 Health Centre;;;;;
Essien Udim;Ukana West 2 Ward;;Ukana Cottage Hospital;;;;;
Etim Ekpo;Etim Ekpo 10 Ward;;Iwukem Primary Health Centre;;;;;
Etim Ekpo;Etim Ekpo 2 Ward;;Utu Etim Ekpo Health Centre;;;;;
Etim Ekpo;Etim Ekpo 2 Ward;;Ikot Obioma Health Centre;;;;;
Etim Ekpo;Etim Ekpo 3 Ward;;Uruk Ata Ikot Ekpor General Hospital;;;;;
Etim Ekpo;Etim Ekpo 3 Ward;;Divine Love Hospital;;;;;
Etim Ekpo;Etim Ekpo 3 Ward;;Ikot Mboho Health Centre;;;;;
Etim Ekpo;Etim Ekpo 3 Ward;;Uruk Ata Ikot Ekpor Primary Health Centre Operational Base;;;;;
Etim Ekpo;Etim Ekpo 3 Ward;;Akai Uro Health Centre;;;;;
Etim Ekpo;Etim Ekpo 4 Ward;; Ikot Edet Health Post;;;;;
Etim Ekpo;Etim Ekpo 5 Ward;;Nkwot Ikot Ebo Health Centre;;;;;
Etim Ekpo;Etim Ekpo 6 Ward;;Atan Health Centre;;;;;
Etim Ekpo;Etim Ekpo 7 Ward;;Obong Ntak Health Centre;;;;;
Etim Ekpo;Etim Ekpo 7 Ward;;Ikot Ese Health Centre;;;;;
Etim Ekpo;Etim Ekpo 8 Ward;;Ikot Udobong Health Centre;;;;;
Etim Ekpo;Etim Ekpo 9 Ward;;Ikpe Annang Model Primary Health Centre;;;;;
Etinan; Etinan Urban 4 Ward;;Ekpene Obom Leprosy Hospital;;;;;
Etinan; Etinan Urban 4 Ward;;Edem Ekpat Health Centre;;;;;
Etinan;Etinan Urban 1 Ward;;Etinan Primary Health Centre;;;;;
Etinan;Etinan Urban 1 Ward;;Etinan General Hospital;;;;;
Etinan;Etinan Urban 2 Ward;;Ndon Eyo II Primary Health Centre;;;;;
Etinan;Etinan Urban 2 Ward;;Ekpene Ukpa Health Centre;;;;;
Etinan;Etinan Urban 2 Ward;;Ndon Utim Health Post;;;;;
Etinan;Etinan Urban 3 Ward;;Ikot Udo Oto Health Centre;;;;;
Etinan;Etinan Urban 5 Ward;;Ikot Udobia Health Centre;;;;;
Etinan;Northern Iman 1 Ward;;Ikot Obio Inyang Health Centre;;;;;
Etinan;Northern Iman 2 Ward;;Mbioto 1 Comprehensive Health Centre;;;;;
Etinan;Northern Iman 2 Ward;;Ikot Ekan Health Post;;;;;
Etinan;Southern Iman 1 Ward;;Ikot Inyang Health Post;;;;;
Etinan;Southern Iman 1 Ward;;Nkana Health Centre;;;;;
Etinan;Southern Iman 1 Ward;;Oniong Health Post;;;;;
Etinan;Southern Iman 2 Ward;;Ikot Obio Eka Primary Health Centre;;;;;
Etinan;Southern Iman 2 Ward;;Ikot Mfon Health Centre;;;;;
Etinan;Southern Iman 2 Ward;;Ikot Esen oku Health Centre;;;;;
Etinan;Southern Iman 3 Ward;;Akpasak Efa Health Post;;;;;
Etinan;Southern Iman 4 Ward;;Ikot Akpan Ntembom Health Centre;;;;;
Etinan;Southern Iman 4 Ward;;Iwo Etor Health Centre;;;;;
Etinan;Southern Iman 4 Ward;;Mbioto 2 General Hospital;;;;;
Ibeno;Ibeno 1 Ward;;Ukpenekang Op Base Primary Health Centre;;;;;
Ibeno;Ibeno 1 Ward;;Ibeno Cottage Hospital;;;;;
Ibeno;Ibeno 10 Ward;;Ndito Eka Iba Health Centre;;;;;
Ibeno;Ibeno 2 Ward;;Opolom Health Post;;;;;
Ibeno;Ibeno 2 Ward;;Itak Abasi Health Post;;;;;
Ibeno;Ibeno 3 Ward;;Mkpanak Health Centre;;;;;
Ibeno;Ibeno 3 Ward;;Mfon-Abasi Clinic;;;;;
Ibeno;Ibeno 4 Ward;;Iwuokpom-Opolom Health Post;;;;;
Ibeno;Ibeno 4 Ward;;Akata Health Post;;;;;
Ibeno;Ibeno 4 Ward;;Opolom Health Centre;;;;;
Ibeno;Ibeno 5 Ward;;Inua Iyiet Ikot Health Post;;;;;
Ibeno;Ibeno 6 Ward;;Okoroutip Health Centre;;;;;
Ibeno;Ibeno 7 Ward;;AdahaEsuk HP;;;;;
Ibeno;Ibeno 7 Ward;;Uton HP;;;;;
Ibeno;Ibeno 7 Ward;;Iwuochang Health Post;;;;;
Ibeno;Ibeno 8 Ward;;Ntafre Health Centre;;;;;
Ibeno;Ibeno 9 Ward;;Atia Health Centre;;;;;
Ibesikpo Asutan;Asutan 1 Ward;;Mount Carmel Hospital;;;;;
Ibesikpo Asutan;Asutan 1 Ward;;Okop Ndua Erong Health Centre;;;;;
Ibesikpo Asutan;Asutan 1 Ward;;Mbak Ekpe Imaobong Missionary Centre;;;;;
Ibesikpo Asutan;Asutan 2 Ward;;Ikot Iyan Health Centre;;;;;
Ibesikpo Asutan;Asutan 2 Ward;;Ikot Obio Edim Health Centre;;;;;
Ibesikpo Asutan;Asutan 3 Ward;;Ikot Akpaedung HP;;;;;
Ibesikpo Asutan;Asutan 4 Ward;;Ikot Atangesen HP;;;;;
Ibesikpo Asutan;Asutan 5 Ward;;Ikot Nkwo HP;;;;;
Ibesikpo Asutan;Ibesikpo 1 Ward;;Nung oku Health Post;;;;;
Ibesikpo Asutan;Ibesikpo 1 Ward;;Ikot Iko Health Centre;;;;;
Ibesikpo Asutan;Ibesikpo 2 Ward;;Ikot Udoekop Health Centre;;;;;
Ibesikpo Asutan;Ibesikpo 3 Ward;;Nung Udoe Primary Health Centre (Operational Base);;;;;
Ibesikpo Asutan;Ibesikpo 3 Ward;;Mbierebe Akpawat Primary Health Centre;;;;;
Ibesikpo Asutan;Ibesikpo 4 Ward;;Nung Udoe Model Health Centre;;;;;
Ibesikpo Asutan;Ibesikpo 5 Ward;;Afaha Udoeyop Health Centre;;;;;
Ibiono Ibom;Ibiono Ibom 1 Ward ;;Ikot Etim Health Centre;;;;;
Ibiono Ibom;Ibiono Ibom 1 Ward ;;Ididep Usuk Model Health Centre;;;;;
Ibiono Ibom;Ibiono Ibom 1 Ward ;;Okopedi Use Health Centre;;;;;
Ibiono Ibom;Ibiono Ibom 10 Ward;;Ikpa Primary Health Centre Op Base;;;;;
Ibiono Ibom;Ibiono Ibom 10 Ward;;Ikot Uba Health Centre;;;;;
Ibiono Ibom;Ibiono Ibom 11 Ward ;;Ikpanya Health Centre;;;;;
Ibiono Ibom;Ibiono Ibom 2 Ward;;Anan Model Health Centre Ididep;;;;;
Ibiono Ibom;Ibiono Ibom 2 Ward;;Aka Ididep Health Centre;;;;;
Ibiono Ibom;Ibiono Ibom 3 Ward ;;Nsan Health Centre;;;;;
Ibiono Ibom;Ibiono Ibom 4 Ward ;;Ibiaku Health Centre;;;;;
Ibiono Ibom;Ibiono Ibom 4 Ward ;;Ikot Usen Palmer Hospital;;;;;
Ibiono Ibom;Ibiono Ibom 4 Ward ;;Use Abat St Theresa's Hospital;;;;;
Ibiono Ibom;Ibiono Ibom 5 Ward ;;Ikot Ambang Handmaid Hospital;;;;;
Ibiono Ibom;Ibiono Ibom 5 Ward ;;Ikot Ada Idem Health Centre;;;;;
Ibiono Ibom;Ibiono Ibom 6 Ward ;;Afaha Obio Eno Health Centre;;;;;
Ibiono Ibom;Ibiono Ibom 6 Ward ;;Ikot Idaha Health Centre;;;;;
Ibiono Ibom;Ibiono Ibom 7 Ward ;;Use Ikot Amama Health Centre;;;;;
Ibiono Ibom;Ibiono Ibom 7 Ward ;;Ikot Esen Model Health Centre;;;;;
Ibiono Ibom;Ibiono Ibom 7 Ward ;;Ekimbuk Health Centre;;;;;
Ibiono Ibom;Ibiono Ibom 7 Ward ;;Ono Comprehensive Health Centre;;;;;
Ibiono Ibom;Ibiono Ibom 8 Ward ;;Idoro Comprehensive Health Centre;;;;;
Ibiono Ibom;Ibiono Ibom 9 Ward;;Ntan Akpan Udom Eduwen Clinic;;;;;
Ibiono Ibom;Ibiono Ibom 9 Ward;;Ikot Edung Health Centre;;;;;
Ika;Achan 1 Ward;;Achan Ika Health Centre;;;;;
Ika;Achan 1 Ward;;Ikot Osukpong Health Post;;;;;
Ika;Achan 2 Ward;;Ikot Udo Health Post;;;;;
Ika;Achan 3 Ward;;Ikot Inyang Ese Health Post;;;;;
Ika;Ito 1 ward;;Itak Nto Urua Health Post;;;;;
Ika;Ito 2 Ward;;Ikot Akpan Anwa Health Centre;;;;;
Ika;Ito 3 Ward;;Ikot Udom Health Centre;;;;;
Ika;Odoro 1 Ward;;Nto Uso Health Centre;;;;;
Ika;Odoro 2 Ward;;Nto Etukudo Health Centre;;;;;
Ika;Urban 1 Ward;;Urua Inyang Cottage Hospital;;;;;
Ika;Urban 1 Ward;;Urua Inyang Op Base Primary Health Centre;;;;;
Ika;Urban 2 ward;;Ikot Udo Nya Health Post;;;;;
Ikono;Ediene 1 Ward 9;;Usuk Ediene Health centre;;;;;
Ikono;Ediene 1 Ward 9;;Ediene I Health Centre;;;;;
Ikono;Ediene 1 Ward 9;;Ediene Atai Health Centre;;;;;
Ikono;Ediene 1 Ward 9;;Aka Ekpeme Primary Health Centre;;;;;
Ikono;Ediene 2 Ward 10;;Etip Ediene Health Centre;;;;;
Ikono;Ibiaku Ward 3;;Ibiaku Ntok Okpo General Hospital;;;;;
Ikono;Ibiaku Ward 3;;Ibiaku Ntok Okpo Primary Health Centre;;;;;
Ikono;Ikono Ward 2;;Asanting Ikono Immunization Centre;;;;;
Ikono;Ikono Ward 4;;Mbiabong Ukan Health Centre;;;;;
Ikono;Itak Ward 11;;Nung Udoe Itak Health Centre;;;;;
Ikono;Itak Ward 11;;Obio Itak Health Centre;;;;;
Ikono;Ndiya/Ikot Idaha  Ward 8;;Ndiya Ikot Akpan Ede Health Centre;;;;;
Ikono;Ndiya/Ikot Idaha  Ward 8;;Ikot Idaha Health Centre (Ikono);;;;;
Ikono;Ndiya/Ikot Idaha  Ward 8;;Nkara Obio Health Post;;;;;
Ikono;Nkwot 1 Ward 6;;Nkwot Nung Imo Health Centre;;;;;
Ikono;Nkwot 2 Ward 7;;Nkwot Nkor Christian Family Missionary Hospital;;;;;
Ikono;Nkwot 2 Ward 7;;Nkwot Edem Edet Health Post;;;;;
Ikono;Nung Ukim Ward 1;;Nung Ukim Health Centre;;;;;
Ikono;Ukpom Ward 5;;Ukpom Ikot Nya Primary Health Centre;;;;;
Ikot Abasi;Edemaya 1 Ward;;Edemaya Primary Health Centre;;;;;
Ikot Abasi;Edemaya 2 Ward;;Ikot Okpok Health Post;;;;;
Ikot Abasi;Edemaya 3 Ward;;Ikot Ekara Health Centre;;;;;
Ikot Abasi;Ikpa Ibekwe 1 Ward;;Ikot Abasi Redemption Clinic;;;;;
Ikot Abasi;Ikpa Ibekwe 1 Ward;;Uta Ewa Health Centre;;;;;
Ikot Abasi;Ikpa Ibekwe 1 Ward;;Naval Base Clinic;;;;;
Ikot Abasi;Ikpa Ibekwe 1 Ward;;Ikot Abasi Diamond Clinic;;;;;
Ikot Abasi;Ikpa Ibekwe 2 Ward;;Ikot Etetuk Health Clinic;;;;;
Ikot Abasi;Ikpa Nung Asang 1 Ward;;Essene Health Centre;;;;;
Ikot Abasi;Ikpa Nung Asang 1 Ward;;Essene Comprehensive Health Centre;;;;;
Ikot Abasi;Ikpa Nung Asang 1 Ward;;Nduk Health Post;;;;;
Ikot Abasi;Ukpum Ette 1 Ward;;Ikot Akan Primary Health Centre;;;;;
Ikot Abasi;Ukpum Ette 2 Ward;;Ikot Akpan Udo Health Centre;;;;;
Ikot Abasi;Ukpum Ette 2 Ward;;Ikot Okwo Primary Health Centre;;;;;
Ikot Abasi;Ukpum Okon Ward;;Ikot Umiang Okon Health Centre;;;;;
Ikot Ekpene;Ikot Ekpene 1 Ward;;Utu Edem Usung Health Post;;;;;
Ikot Ekpene;Ikot Ekpene 1 Ward;;Ikot Ekpene Infectious Diseases Hospital;;;;;
Ikot Ekpene;Ikot Ekpene 1 Ward;;Ikot Ekpene General Hospital;;;;;
Ikot Ekpene;Ikot Ekpene 11 Ward;;Urua Obo Health Post;;;;;
Ikot Ekpene;Ikot Ekpene 11 Ward;;Abiakpo Ikot Ntuen Health Post;;;;;
Ikot Ekpene;Ikot Ekpene 2 Ward;;110B old Itu Road Total Care Clinic;;;;;
Ikot Ekpene;Ikot Ekpene 3 Ward;;Ukam Street Bridge Clinic;;;;;
Ikot Ekpene;Ikot Ekpene 3 Ward;;Abiakpo Ikot Essien Health Centre;;;;;
Ikot Ekpene;Ikot Ekpene 3 Ward;;Ikot Otu Health Post;;;;;
Ikot Ekpene;Ikot Ekpene 4 Ward;;Utu Ikot Ekpenyong Health Post;;;;;
Ikot Ekpene;Ikot Ekpene 5 Ward;;Ikot Obong Erong Evergreen Clinic;;;;;
Ikot Ekpene;Ikot Ekpene 5 Ward;;1 Queen Road Nse-Abasi Maternity Home;;;;;
Ikot Ekpene;Ikot Ekpene 5 Ward;;Demak Clinic;;;;;
Ikot Ekpene;Ikot Ekpene 5 Ward;;Ikot Obong Erong Ememobong Maternity;;;;;
Ikot Ekpene;Ikot Ekpene 5 Ward;;Ikot Ekpene Primary Health Centre Operational Base;;;;;
Ikot Ekpene;Ikot Ekpene 5 Ward;;Baron Clinic;;;;;
Ikot Ekpene;Ikot Ekpene 5 Ward;;8 Ekoiso Road Carudo Clinic;;;;;
Ikot Ekpene;Ikot Ekpene 6 Ward;;Ikot Inyang Health Post;;;;;
Ikot Ekpene;Ikot Ekpene 7 Ward;;Ikot Udoe Health Post;;;;;
Ikot Ekpene;Ikot Ekpene 8 Ward;;Ikot Osura Health Post;;;;;
Ikot Ekpene;Ikot Ekpene 9 Ward  ;;Amayam Health Centre;;;;;
Ini;Ikono North Ward 6;;Mbiabong Ikot Udofia Health Centre;;;;;
Ini;Ikono North Ward 6;;Mbiabong Ikot Udofia Demak Clinic;;;;;
Ini;Ikono North Ward 7;;Usuk Ibakesi Health Centre;;;;;
Ini;Ikono North Ward 7;;Edem Idim Ibakesi Model Health Centre;;;;;
Ini;Ikono North ward 8;;Mbiafun Health Post;;;;;
Ini;Ikpe Ward 1;;Odoro Ikpe Primary Health Centre;;;;;
Ini;Ikpe Ward 1;;Mbiabet Ikpe Health Centre;;;;;
Ini;Ikpe Ward 2;;Ekoi Ikpe Outreach Centre;;;;;
Ini;Ikpe Ward 2;;Ikpe Ikot Nkon Health Centre;;;;;
Ini;Ikpe Ward 2;;Ikpe Ikot Nkon General Hospital;;;;;
Ini;Itu Mbon Uso Ward 3;;Nchana Ebua Health Post;;;;;
Ini;Itu Mbon Uso Ward 3;;Itu Mbon Uso Health Centre;;;;;
Ini;Iwerre Ward 5;;Iwerre Health Centre;;;;;
Ini;Nkari Ward 4;;Nkari Health Centre;;;;;
Ini;Odoro Ukwok Ward 9;;Odoro Ukwok Health Centre;;;;;
Ini;Odoro Ukwok Ward 9;;Awa Ndem Emen Health Post;;;;;
Ini;Usuk Ukwok ward 10;;Usuk Ukwok Health Post;;;;;
Itu;Ayadehe 1 ward;;Ayadehe Health Post;;;;;
Itu;East Itam 1 Ward;;Mbiabong Health Post;;;;;
Itu;East Itam 2 Ward;;Ekit Itam Akpan Obong Health Centre;;;;;
Itu;East Itam 2 Ward;;Uyo Itam Health Centre;;;;;
Itu;East Itam 3 ward;;Ikot Andem Health Centre;;;;;
Itu;East Itam 4 Ward;;Ema Itam Primary Health Centre;;;;;
Itu;East Itam 4 Ward;;Nkim Itam Health Centre;;;;;
Itu;East Itam 5 ward;;Mkpeti Itam Health Centre;;;;;
Itu;East Itam 5 ward;;Mbak Atai Imabong Clinic;;;;;
Itu;East Itam 5 ward;;Mbak Atai Primary Health Centre (Operational Base);;;;;
Itu;Oku Iboku 1 Ward;;Ikot Ntu Health Centre;;;;;
Itu;Oku Iboku 1 Ward;;Mary Slessor Hospital;;;;;
Itu;Oku Iboku 1 Ward;;Oma Oku Iboku Health Centre;;;;;
Itu;West Itam 1 Ward;;West Itam Primary Health Centre;;;;;
Itu;West Itam 2 Ward;;Mbribit Itam VVF Hospital;;;;;
Itu;West Itam 2 Ward;;Mbak Itam 3 Health Centre;;;;;
Itu;West Itam 2 Ward;;Ibiaku Itam 2 God's own Clinic;;;;;
Itu;West Itam 3 Ward;;Ntak Inyang Health Centre;;;;;
Mbo;Ebughu 1 Ward;;Okobo Ebughu Health Centre;;;;;
Mbo;Ebughu 1 Ward;;Okobo Ebughu Wisdom Clinic;;;;;
Mbo;Ebughu 2 Ward;;Oduo  Primary Health Centre;;;;;
Mbo;Effiat 1 ward;;Asiak Obufa Health Post;;;;;
Mbo;Effiat 2 Ward;;Brama Health Post;;;;;
Mbo;Effiat 2 Ward;;Esuk Enwang Health Centre;;;;;
Mbo;Enwang Urban 1 Ward;;Ekeobong-Ebughu Health Post;;;;;
Mbo;Enwang Urban 2 Ward;;Enwang Primary Health Centre;;;;;
Mbo;Ibaka Ward;;Ibaka Dominion Clinic;;;;;
Mbo;Ibaka Ward;;udungnyafa Health Post;;;;;
Mbo;Ibaka Ward;;Ibaka Health Centre;;;;;
Mbo;Uda 1 Ward;;Uda Mbo Primary Health Centre;;;;;
Mbo;Uda 2 Ward;;Unyenge Health Post;;;;;
Mbo;Udesi Ward;;Akai Ati Udesi Health Centre;;;;;
Mkpat Enin;Ibiaku 1 Ward;;Ibekwe Akpan Nya Health Centre;;;;;
Mkpat Enin;Ibiaku 2 Ward;;Ikot Abia Enin Health Post;;;;;
Mkpat Enin;Ibiaku 3 Ward;;Ikot Idiong Health Centre;;;;;
Mkpat Enin;Ikpa Ibom 1 Ward;;Ikot Akata Health Centre;;;;;
Mkpat Enin;Ikpa Ibom 2 Ward;;Ukam Health Centre;;;;;
Mkpat Enin;Ikpa Ibom 3 Ward;;Ikot Akpaden Health Centre;;;;;
Mkpat Enin;Ikpa Ibom 3 Ward;;Ikot Inyang Okop Health Centre;;;;;
Mkpat Enin;Ikpa Ibom 4 Ward;;Ikot Obio Ndoho Health Post;;;;;
Mkpat Enin;Ikpa Ibom 4 Ward;;Ndon Health Post;;;;;
Mkpat Enin;Ikpa Ikono 1 Ward;;Ikot Ekpaw Cottage Hospital;;;;;
Mkpat Enin;Ikpa Ikono 2 Ward;;Ikot Unya Health Centre;;;;;
Mkpat Enin;Ikpa Ikono 2 Ward;;Ikot Eda Health Centre;;;;;
Mkpat Enin;Ikpa Ikono 3 Ward;;Ikot Abasi Obio Nkan Health Centre;;;;;
Mkpat Enin;Ikpa Ikono 3 Ward;;Ikot Enyiene Health Post;;;;;
Mkpat Enin;Ukpum Minya 1 Ward;;Etuk Nung Ukim Health Centre;;;;;
Mkpat Enin;Ukpum Minya 2 Ward;;Minya Health Centre;;;;;
Mkpat Enin;Ukpum Minya 3 Ward;;Ikot Abia Cottage Hospital;;;;;
Mkpat Enin;Ukpum Minya 3 Ward;;Asong Cottage Hospital;;;;;
Mkpat Enin;Ukpum Minya 4 Ward;;Ikot Ekpe Comprehensive Health Centre;;;;;
Mkpat Enin;Ukpum Minya 4 Ward;;Mkpat Enin Primary Health Centre;;;;;
Nsit Atai;Nsit Atai 1 Ward;;Odot Primary Health Centre (Operational Base);;;;;
Nsit Atai;Nsit Atai 10 Ward;;Ikot Uyo Health Centre;;;;;
Nsit Atai;Nsit Atai 2 Ward;;Iwok Health Post;;;;;
Nsit Atai;Nsit Atai 3 Ward;;Ikot Otu Health Post ;;;;;
Nsit Atai;Nsit Atai 4 Ward;;Ikot Mkpo Health Centre;;;;;
Nsit Atai;Nsit Atai 5 Ward;;Ikot Itie Udung Health Centre;;;;;
Nsit Atai;Nsit Atai 6 Ward ;;Ikot Edebe Health Post;;;;;
Nsit Atai;Nsit Atai 7 Ward;;Ibedu Health Centre;;;;;
Nsit Atai;Nsit Atai 8 Ward;;Ikot Nkpene Comprehensive Health Centre;;;;;
Nsit Atai;Nsit Atai 8 Ward;;Okoro Nsit Health Post;;;;;
Nsit Atai;Nsit Atai 9 Ward;;Ikot Obon Health Centre;;;;;
Nsit Ibom;Asang 1 Ward;;Mbiokporo 1 Primary Health Centre;;;;;
Nsit Ibom;Asang 2 Ward;;Ikot Offiok Health Centre;;;;;
Nsit Ibom;Asang 2 Ward;;Edebom Enwongo-Abasi Medical Centre;;;;;
Nsit Ibom;Asang 3 Ward;;Ikot Oku Nsit Health Post;;;;;
Nsit Ibom;Asang 3 Ward;;Oboatai Health Post;;;;;
Nsit Ibom;Asang 4 Ward;;Asang Primary Health Centre;;;;;
Nsit Ibom;Asang 4 Ward;;Oboetim Primary Health Centre;;;;;
Nsit Ibom;Asang 5 Ward;; Oboetok Health Post;;;;;
Nsit Ibom;Mbiaso 1 Ward;;Ikot Obio Etan Health Centre;;;;;
Nsit Ibom;Mbiaso 1 Ward;;Afaha Offiong Primary Health Centre;;;;;
Nsit Ibom;Mbiaso 2 Ward;;Afia Nsit Urua Nko Health Centre;;;;;
Nsit Ibom;Mbiaso 3 Ward;;Afaha Abia Health Centre;;;;;
Nsit Ibom;Mbiaso 4 Ward;;Ikot Nya Health Post;;;;;
Nsit Ibom;Mbiaso 5 Ward;;Mbiaso Health Centre;;;;;
Nsit Ibom;Mbiaso 5 Ward;;Afaha Nsit College of Education Clinic;;;;;
Nsit Ubium;Ibiakpan/Obotim 1 Ward;;Ikot Akpatu Health Centre;;;;;
Nsit Ubium;Ibiakpan/Obotim 2 Ward;;Ikot Ekpene Udo Cottage Hospital;;;;;
Nsit Ubium;Itreto Ward;;Itreto Health Centre;;;;;
Nsit Ubium;Ndiya Ward;;Ikot Edibon Operational Base Primary Health Centre;;;;;
Nsit Ubium;Ndiya Ward;;Ndiya Health Centre;;;;;
Nsit Ubium;Ndiya Ward;;Ikot Ukap Health Centre;;;;;
Nsit Ubium;Ndiya Ward;;Ikot Edibon Comprehensive Health Centre;;;;;
Nsit Ubium;Ubium North 1 Ward;;Ikot Eyo Health Centre;;;;;
Nsit Ubium;Ubium North 3 Ward;;Ikot Akpan Abia Health Centre;;;;;
Nsit Ubium;Ubium North 3 Ward;;Ikot Ekwere Model Health Centre;;;;;
Nsit Ubium;Ubium South 1 Ward;;Ikot Ubo Health Centre;;;;;
Nsit Ubium;Ubium South 1 Ward;;Obio Ubium Health Centre;;;;;
Nsit Ubium;Ubium South 1 Ward;;Ikot UdoIde Health Centre;;;;;
Nsit Ubium;Ubium South 2 Ward;;Nung Obong Health Centre;;;;;
Nsit Ubium;Ubium South 2 Ward;;Ikot Akpamba Comprehensive Health Centre;;;;;
Nsit Ubium;Ubium South 2 Ward;;Ikot Okpudo Health Centre;;;;;
Obot Akara;Ikot Abia 1 Ward;;Ikot Ukpong Health Post;;;;;
Obot Akara;Ikot Abia 1 Ward;;Ikot Abia Anwan Health Centre;;;;;
Obot Akara;Ikot Abia 2 Ward;;Nto Eton Health Post;;;;;
Obot Akara;Ikot Abia 2 Ward;;Abiakpo Idaha Health Post;;;;;
Obot Akara;Ikot Abia 3 Ward;;Editaha Akob Health Post;;;;;
Obot Akara;Ikot Abia 3 Ward;;Abak Ukpom Health post;;;;;
Obot Akara;Ikot Abia 3 Ward;;Ubon Akwa Health Post;;;;;
Obot Akara;Nto Edino 1 Ward;;Ikot Ide Health Post;;;;;
Obot Akara;Nto Edino 2 Ward;;Okop Eto Health Post;;;;;
Obot Akara;Nto Edino 3 Ward;;Nto Edino Comprehensive Health Centre;;;;;
Obot Akara;Nto Edino 3 Ward;;Nto Edino Primary Health Centre (Operation Base);;;;;
Obot Akara;Nto Edino 3 Ward;;Nto Assiak Health Post;;;;;
Obot Akara;Nto Edino 4 Ward;;Abama Health Centre;;;;;
Obot Akara;Nto Edino 4 Ward;;Abiakpo Nkap Health Post;;;;;
Obot Akara;Obot Akara 1 Ward;;Obot Akara Health Centre;;;;;
Obot Akara;Obot Akara 1 Ward;;Nsit Ikpe Health Post;;;;;
Obot Akara;Obot Akara 2 Ward;;Nko Health Centre;;;;;
Obot Akara;Obot Akara 3 Ward;;Ikwen Ikot Udom Health Centre;;;;;
Obot Akara;Obot Akara 3 Ward;;Ikwen Health Centre;;;;;
Obot Akara;Obot Akara 3 Ward;;Ikot Utu Primary Health Centre;;;;;
Okobo;Akai/Mbukpo/Oduobo Ward;;Mbukpo Oduobo Health Centre;;;;;
Okobo;Ekeya Ward;;Ekeya Health Centre;;;;;
Okobo;Eweme 1 Ward;;Urue-Ita Health Post;;;;;
Okobo;Eweme 2 Ward;;Atak Oro Health Centre;;;;;
Okobo;Eweme 2 Ward;;Eweme Model Health Centre;;;;;
Okobo;Offi 1 Ward;;Utine  Health Post;;;;;
Okobo;Offi 1 Ward;;Oti Oro Health Centre;;;;;
Okobo;Offi 2 Ward;;Uruting Health Post;;;;;
Okobo;Offi 2 Ward;;Offi Health Centre;;;;;
Okobo;Okopedi 1 Ward;;Okopedi Primary Health Centre;;;;;
Okobo;Okopedi 2 Ward;;Amammong Okobo General Hospital;;;;;
Okobo;Ube 1 Ward;;Eastern Okobo Health Centre;;;;;
Okobo;Ube 2 Ward;;Ube Homeland Maternity Home;;;;;
Okobo;Ube 2 Ward;;Odobo Health Centre;;;;;
Onna;Awa 1 Ward;;Awa Comprehensive Health Centre;;;;;
Onna;Awa 2 Ward;;Ikot Idem Udo Health Centre;;;;;
Onna;Awa 3 Ward;;Ntan Ide Ekpe Health Post;;;;;
Onna;Awa 3 Ward;;Edem Idim Ishiet Health Post;;;;;
Onna;Awa 4 Ward;;Nung Oku Health Post;;;;;
Onna;Awa 4 Ward;;Ikot Akpan Nkpo Health Post;;;;;
Onna;Awa 4 Ward;;Ikot Mbong Health Centre;;;;;
Onna;Awa 4 Ward;;Atiamkpat Health Centre;;;;;
Onna;Nung Ndem 1 Ward;;Mkpok Health Centre;;;;;
Onna;Nung Ndem 1 Ward;;Okat Health Centre;;;;;
Onna;Nung Ndem 1 Ward;;Onna Jafaar Hospital;;;;;
Onna;Nung Ndem 2 Ward;;Ikot Nkan Health Centre;;;;;
Onna;Oniong East 1 Ward;;Abat Primary Health Centre;;;;;
Onna;Oniong East 2 Ward;;Ikot Ebidang Health Centre;;;;;
Onna;Oniong East 2 Ward;;Ikot Annang Health Centre;;;;;
Onna;Oniong East 2 Ward;;No. 10 Ebekpo Road Redemption Clinic;;;;;
Onna;Oniong East 3 Ward;;Ikwe Health Centre;;;;;
Onna;Oniong West 1 Ward;;Ikot Eko Ibon Cottage Hospital;;;;;
Onna;Oniong West 3 Ward;;Ikot Udo Health Centre;;;;;
Oron;Oron Afaha Eduok 4 Ward;;Afaha Eduok/Ukpata Primary Health Centre;;;;;
Oron;Oron Esin Ufot 6 Ward;;Esin Ufot Primary Health Centre;;;;;
Oron;Oron Esuk-Oro 5 Ward;;Esuk Maritime Academy Staff Clinic;;;;;
Oron;Oron Esuk-Oro 5 Ward;;Esuk Oro Health Post;;;;;
Oron;Oron Eyo Abasi 8 Ward;;Eyo Abasi Health Post;;;;;
Oron;Oron Eyo Abasi 8 Ward;;Eyo-Abasi Christ Victory Medical Centre;;;;;
Oron;Oron Idua Asang 1 Ward;;Idua Assang Health Post;;;;;
Oron;Oron Iquita 9 Ward;;Iquita St Patrick Clinic & Maternity;;;;;
Oron;Oron Iquita 9 Ward;;Eyetong Estate Health Post;;;;;
Oron;Oron Uko-Uyukim 7 Ward;;Oron Primary Health Centre  Opp Base;;;;;
Oron;Oron Uko-Uyukim 7 Ward;;Uko-Uyukim Manafen Group Hospital;;;;;
Oron;Oron Uya-Oro 10 Ward;;Uya-Oro Priscon Clinic Limited;;;;;
Oron;Oron Uya-Oro 10 Ward;;Uya Oron Health Post;;;;;
Oron;Oron Ward 2;;Anamfa Health Post;;;;;
Oruk Anam;Abak Midim 1 Ward 8;;Ikot Otok Health Centre;;;;;
Oruk Anam;Abak Midim 2  Ward 9;;Ikot Akpan Essien 1 Health Centre;;;;;
Oruk Anam;Abak Midim 3 Ward 10;;Ikot Esenam Health Centre;;;;;
Oruk Anam;Abak Midim 4 Ward 11;;Ikot Osute Health Centre;;;;;
Oruk Anam;Abak Midim 4 Ward 11;;Ikot Ukpong Obiose Health Centre;;;;;
Oruk Anam;Ekparakwa  Ward 7;;Ukpom Edem Inyang Model Primary Health Centre;;;;;
Oruk Anam;Ekparakwa  Ward 7;;Ekparakwa Health Centre;;;;;
Oruk Anam;Ekparakwa  Ward 7;;Oruk Anam Family Foundation Clinic;;;;;
Oruk Anam;Ibesit  Ward 6;;Ntak Ibesit Health Post;;;;;
Oruk Anam;Ibesit Nung Ikot 1 Ward 12;;Ibesit Okpokoro Redeemer Cottage Hospital;;;;;
Oruk Anam;Ibesit Nung Ikot 1 Ward 12;;Ikot Udoro Health Centre;;;;;
Oruk Anam;Ikot Ibritam Ward 1;;Ibianga Asakpa Health Centre;;;;;
Oruk Anam;Ikot Ibritam Ward 1;;Ikot Ibritam Primary Health Centre Operational Base;;;;;
Oruk Anam;Ndot Ikot Okoro 1 Ward 3;;Nung Okubo 2 Health Centre;;;;;
Oruk Anam;Ndot Ikot Okoro 2 Ward 4;;Inen Nsai Health Post;;;;;
Oruk Anam;Ndot Ikot Okoro 2 Ward 4;;Nung Ita Ikot Obionkan Clinic;;;;;
Oruk Anam;Ndot Ikot Okoro 3 Ward 5;;Ikot Okoro General Hospital;;;;;
Oruk Anam;Ndot Ikot Okoro 3 Ward 5;;Ikot Okusung Health Centre;;;;;
Oruk Anam;Ndot Ikot Okoro 3 Ward 5;;Ikot Eka Ideh Health Post;;;;;
Udung Uko;Udung Uko 1 Ward;;Eyonsek Health Centre;;;;;
Udung Uko;Udung Uko 1 Ward;;Eniongo Health Centre;;;;;
Udung Uko;Udung Uko 10 Ward;;Ekim Health Centre;;;;;
Udung Uko;Udung Uko 10 Ward;;Ekim Unwana Oro Christian Medical Centre;;;;;
Udung Uko;Udung Uko 2 Ward;;Eyofin Primary Health Centre;;;;;
Udung Uko;Udung Uko 3 Ward;;Ukukudung Health Post;;;;;
Udung Uko;Udung Uko 4 Ward;;Eyo Okponung Health Centre;;;;;
Udung Uko;Udung Uko 5 Ward;;Eyotai Health Centre;;;;;
Udung Uko;Udung Uko 6 Ward;;Uboro Health Post;;;;;
Udung Uko;Udung Uko 7 Ward;;Eyobia Health Post;;;;;
Udung Uko;Udung Uko 8 Ward;;Edikor Eyokpu Health Centre;;;;;
Ukanafun;Ukanafun 1 Ward;;Ikot Akpa Nkuk Primary Health Centre;;;;;
Ukanafun;Ukanafun 1 Ward;;Andikan Clinic;;;;;
Ukanafun;Ukanafun 11 Ward;;Ikot Udo Ossiom Health Centre;;;;;
Ukanafun;Ukanafun 2 Ward;;Ikot Odiong Health Post;;;;;
Ukanafun;Ukanafun 2 Ward;;Ohuabu Ndoki Health Centre;;;;;
Ukanafun;Ukanafun 3 Ward;;Ikot Unah Health Centre;;;;;
Ukanafun;Ukanafun 3 Ward;;Nkek Health Post;;;;;
Ukanafun;Ukanafun 4 Ward;;Ikot Oku Usung Health Post;;;;;
Ukanafun;Ukanafun 5 Ward;;Utu Nsekhe Health Centre;;;;;
Ukanafun;Ukanafun 6 Ward;;Afaha Ikot Inyang Health Centre;;;;;
Ukanafun;Ukanafun 6 Ward;;Afaha Odon Health Centre;;;;;
Ukanafun;Ukanafun 6 Ward;;Afaha Ikot Akwa Health Post;;;;;
Ukanafun;Ukanafun 9 Ward;;Ikot Ebok Health Post;;;;;
Ukanafun;Ukanafun 9 Ward;;Adat Ifang Health Centre;;;;;
Uruan;Central Uruan 1 Ward;;Mbiakong Health Post;;;;;
Uruan;Central Uruan 1 Ward;;Eman Ikot Ebo Health Post;;;;;
Uruan;Central Uruan 1 Ward;;Idu Primary Health Centre;;;;;
Uruan;Central Uruan 2 Ward;;Nwaniba Health Centre;;;;;
Uruan;Central Uruan 3 Ward;;Ikot Otoinyie Health Centre;;;;;
Uruan;Northern Uruan 1 Ward;;Mbiaya Comprehensive Health Centre;;;;;
Uruan;Northern Uruan 2 Ward;;Ibiaku Uruan Health Centre;;;;;
Uruan;Northern Uruan 2 Ward;;Ifiayong Obot Health Post;;;;;
Uruan;Southern Uruan 1 Ward;;Ekpene Ibia Health Centre;;;;;
Uruan;Southern Uruan 2 Ward;;Adadia Health Post;;;;;
Uruan;Southern Uruan 3 Ward;;Use Uruan Health Centre;;;;;
Uruan;Southern Uruan 4 Ward;;Meth Hospital;;;;;
Uruan;Southern Uruan 5 Ward;;Ibiaku Issiet Health Centre;;;;;
Uruan;Southern Uruan 5 Ward;;Ekpene Ukim Health Post;;;;;
Uruan;Southern Uruan 6 Ward;;Ndon Ebom Health Centre;;;;;
Urue Offong/Oruko;Oruko 10 Ward;;Udung Ukpor Health Centre;;;;;
Urue Offong/Oruko;Oruko 6 Ward;;Mbukpo Uko Akai Health Centre;;;;;
Urue Offong/Oruko;Oruko 7 Ward;;Oruko Health Centre;;;;;
Urue Offong/Oruko;Oruko 7 Ward;;Oruko General Hospital;;;;;
Urue Offong/Oruko;Oruko 8 Ward;;Oduonim Health Post;;;;;
Urue Offong/Oruko;Oruko 9 Ward;;Ukuda Health Post;;;;;
Urue Offong/Oruko;Urue Offong 1 Ward;;Ibighi Health Post;;;;;
Urue Offong/Oruko;Urue Offong 1 Ward;;Mbukpo Eyoima Health Post;;;;;
Urue Offong/Oruko;Urue Offong 2 Ward;;Urue Offong Op Base Primary Health Centre;;;;;
Urue Offong/Oruko;Urue Offong 3 Ward;;Oyubia Health Post;;;;;
Urue Offong/Oruko;Urue Offong 3 Ward;;Ibotong Health Post;;;;;
Urue Offong/Oruko;Urue Offong 4 Ward;;Mbukpo Eyokan Health Centre;;;;;
Urue Offong/Oruko;Urue Offong 4 Ward;;Ikpe-Oro Health Post;;;;;
Urue Offong/Oruko;Urue Offong 5 Ward;;Okossi Model Health Centre;;;;;
Uyo;Ikono 1 Ward;;Ikot Ayan Ikono Health Centre;;;;;
Uyo;Etoi 1 Ward;;Mbiabong Anyanya Health Post;;;;;
Uyo;Etoi 1 Ward;;Ifa Ikot Okpon Primary Health Centre;;;;;
Uyo;Etoi 1 Ward;;Uyo Precious Seed Clinic;;;;;
Uyo;Etoi 2 Ward;;Ikot Ekpe/Ifa Atai Health Post;;;;;
Uyo;Etoi 2 Ward;;Mbak Etoi Health Centre;;;;;
Uyo;Ikono 2 Ward;;Ikot Ofon Health Post;;;;;
Uyo;Ikono 2 Ward;;Ikot Ebo Health Centre;;;;;
Uyo;Offot 1 Ward;;Ikot Okubo Health Centre;;;;;
Uyo;Offot 1 Ward;;Uyo St Athanasius Hospital;;;;;
Uyo;Offot 1 Ward;;Uyo Alma Clinic;;;;;
Uyo;Offot 1 Ward;;Uyo Unwana Family Hospital;;;;;
Uyo;Offot 2 Ward;;Atan Offot Health Centre;;;;;
Uyo;Offot 2 Ward;;Offot Good Health;;;;;
Uyo;Offot 2 Ward;;Akamba Nsukara Health Post;;;;;
Uyo;Offot 2 Ward;;St Luke's Hospital;;;;;
Uyo;Oku 1 Ward;;Idoro Obio Health Centre;;;;;
Uyo;Oku 1 Ward;;Uyo University Teaching Hospital;;;;;
Uyo;Oku 2 Ward;;Udu Oku Model Health Centre;;;;;
Uyo;Oku 2 Ward;;Uyo Mount Olive Clinic & Maternity;;;;;
Uyo;Uyo Urban 1 Ward;;Uyo NCI Medical Centre;;;;;
Uyo;Uyo Urban 1 Ward;;Aka Offot Health Centre;;;;;
Uyo;Uyo Urban 1 Ward;;Uyo Nissi Specialist Hospital;;;;;
Uyo;Uyo Urban 1 Ward;;Uyo Saman Clinic;;;;;
Uyo;Uyo Urban 1 Ward;;Uyo Uwakmfon Specialist Hospital;;;;;
Uyo;Uyo Urban 1 Ward;;Uyo Mainland Clinic;;;;;
Uyo;Uyo Urban 1 Ward;;Uyo Dammy Hospital;;;;;
Uyo;Uyo Urban 2 Ward;;Wellington Bassey Staff Clinic;;;;;
Uyo;Uyo Urban 2 Ward;;Uyo Primary Health Centre (Operational Base);;;;;
Uyo;Uyo Urban 3 Ward ;;Uyo Gateway Hospital;;;;;
Uyo;Uyo Urban 3 Ward ;;Uyo Lifecare Hospital;;;;;
Uyo;Uyo Urban 3 Ward ;;Ewet Offot Health Post;;;;;
