LGA;Ward;Settlement;Facility;Type;Ownership;Address;Longitude;Latitude
Alkaleri;Alkaleri East Ward;;Gorondo Health Clinic;;;;;
Alkaleri;Alkaleri West Ward;;Alkaleri General Hospital;;;;;
Alkaleri;Alkaleri West Ward;;Alkaleri Dispensary;;;;;
Alkaleri;Alkaleri West Ward;;Alkaleri Maternal and Child Health Clinic;;;;;
Alkaleri;Birim/Gigyara Ward;;Gigyara Health Center;;;;;
Alkaleri;Birim/Gigyara Ward;;Bajama Primary Health Centre;;;;;
Alkaleri;Birim/Gigyara Ward;;Yankari Health Clinic;;;;;
Alkaleri;Birim/Gigyara Ward;;Birim Health Clinic;;;;;
Alkaleri;Birim/Gigyara Ward;;Badaran Dutse Dispensary;;;;;
Alkaleri;Dan Ward;;Kunkar Health Post;;;;;
Alkaleri;Dan Ward;;Dan Health Post;;;;;
Alkaleri;Dan Ward;;Yelwan Duguri Model Primary Health Centre;;;;;
Alkaleri;Futuk East Ward;;Futuk Primary Health Center;;;;;
Alkaleri;Futuk West Ward;;Garin Hamza Dispensary;;;;;
Alkaleri;Gar Ward;;Guruntun Dispensary;;;;;
Alkaleri;Gar Ward;;Gar Maternal and Child Health Clinic;;;;;
Alkaleri;Gar Ward;;Gangar Dispensary;;;;;
Alkaleri;Gar Ward;;Bartak Dispensary;;;;;
Alkaleri;Gar Ward;;Fanti Maternal and Child Health;;;;;
Alkaleri;Gwana Ward;;Gwana Maternal and Child Health Clinic;;;;;
Alkaleri;Gwana Ward;;Gobirawa Health Center;;;;;
Alkaleri;Gwaram A Ward ;;Kufa Health Clinic;;;;;
Alkaleri;Gwaram A Ward ;;Gwaram Maternal and Child Health Clinic;;;;;
Alkaleri;Gwaram B Ward;;Kaciciya Dispensary;;;;;
Alkaleri;Gwaram B Ward;;Gokaru Maternal and Child Health Clinic;;;;;
Alkaleri;Gwaram B Ward;;Guma Health Clinic;;;;;
Alkaleri;Kungibar Ward;;Galen Duguri Primary Health Centre;;;;;
Alkaleri;Kungibar Ward;;Shira Matarnity;;;;;
Alkaleri;Kungibar Ward;;Mainamaji Dispensary;;;;;
Alkaleri;Kungibar Ward;;Galen Kuka Health Clinic;;;;;
Alkaleri;Lim Kundak Ward;;Kundak Health Clinic;;;;;
Alkaleri;Lim Kundak Ward;;Gamu Health Post;;;;;
Alkaleri;Lim Kundak Ward;;Kumbala Health Clinic;;;;;
Alkaleri;Lim Kundak Ward;;Mundamiyo Health Clinic;;;;;
Alkaleri;Maimadi Ward;;Jada Health Clinic;;;;;
Alkaleri;Maimadi Ward;;Mai-Ari Martanal and Chirld Health;;;;;
Alkaleri;Maimadi Ward;;Maimadi Health Clinic;;;;;
Alkaleri;Maimadi Ward;;Kwaimawa Health Post;;;;;
Alkaleri;Mansur Ward;;Mansur Health Clinic;;;;;
Alkaleri;Mansur Ward;;Galen Mansur Health Post;;;;;
Alkaleri;Pali East Ward;;Pali Health Centre;;;;;
Alkaleri;Pali East Ward;;Katarko Martanal and Chirld Health;;;;;
Alkaleri;Pali East Ward;;Tumuru Health Post;;;;;
Alkaleri;Pali East Ward;;Garin Na Allah Health Clinic;;;;;
Alkaleri;Pali West Ward;;Doka Health Post;;;;;
Alkaleri;Pali West Ward;;Bakin Kogi Model Primary Health Centre;;;;;
Alkaleri;Yalo 1 Ward;;Yalo Health Center;;;;;
Alkaleri;Yalo 1 Ward;;Baledde Health Post;;;;;
Alkaleri;Yalo 2 Ward;;Digare Dispensary;;;;;
Alkaleri;Yalo 2 Ward;;Alkalerin Digare Health Clinic;;;;;
Alkaleri;Yuli Ward (Alkaleri);;Rimi Health Clinic;;;;;
Alkaleri;Yuli Ward (Alkaleri);;Kunzum Health Post;;;;;
Alkaleri;Yuli Ward (Alkaleri);;Duguri Dispensary;;;;;
Alkaleri;Yuli Ward (Alkaleri);;Duguri Health Clinic;;;;;
Alkaleri;Yuli Ward (Alkaleri);;Gaji MCH;;;;;
Bauchi;Birshi Ward;;Yalwa Domiciliary Maternal and Child Health Clinic;;;;;
Bauchi;Birshi Ward;;Bayara General Hospital;;;;;
Bauchi;Birshi Ward;;Kadage Dispensary (Bauchi);;;;;
Bauchi;Birshi Ward;;Fed Poly Bauchi Health Clinic;;;;;
Bauchi;Birshi Ward;;Baram Gada Health Clinic;;;;;
Bauchi;Birshi Ward;;Yolan Bayara Dispensary;;;;;
Bauchi;Birshi Ward;;IDH Bayara;;;;;
Bauchi;Birshi Ward;;Yalwan Kusu MCH;;;;;
Bauchi;Birshi Ward;;Keffi Clinic;;;;;
Bauchi;Birshi Ward;;Lushi Dispensary;;;;;
Bauchi;Birshi Ward;;Abubakar Tafawa-Balewa University Health Clinic;;;;;
Bauchi;Dan Amar A Ward;;Doya Primary Health Centre;;;;;
Bauchi;Dan Amar A Ward;;Fada Primary Health Care;;;;;
Bauchi;Dan Amar A Ward;;Bayan Fada Maternal and Child Health Clinic;;;;;
Bauchi;Dan Amar B Ward;;Unguwar Mahaukata Health Clinic;;;;;
Bauchi;Dan Amar B Ward;;Tudun Wadan Dan Amar Primary Health Centre;;;;;
Bauchi;Dan Amar B Ward;;Kofar Dumi Primary Health Centre;;;;;
Bauchi;Dan Iya Ward;;Makama New Extension Maternal & Child Health Clinic;;;;;
Bauchi;Dan Iya Ward;;Railway Health Clinic;;;;;
Bauchi;Dan Iya Ward;;POLYCON Clinic;;;;;
Bauchi;Dan Iya Ward;; Reemee Clinic;;;;;
Bauchi;Dan Iya Ward;;NI'IMA Consultant Clinic;;;;;
Bauchi;Dan Iya Ward;;School of Armour Clinic;;;;;
Bauchi;Dan Iya Ward;;Federal Low-cost MCH;;;;;
Bauchi;Dan Iya Ward;;State Low-Cost Primary Heallth Centre;;;;;
Bauchi;Dan Iya Ward;;Bauchi Specialist Hospital;;;;;
Bauchi;Dan Iya Ward;;ATBU Teaching Hospital Bauchi;;;;;
Bauchi;Dan Iya Ward;;Zango Maternal & Child Health Clinic;;;;;
Bauchi;Dan Iya Ward;;33 Army Brigade Clinic;;;;;
Bauchi;Dandango Ward;;Dandango Primary Health Centre;;;;;
Bauchi;Dandango Ward;;Ma'as Dispensary;;;;;
Bauchi;Dandango Ward;;Kir Maternal and Child Health Clinic;;;;;
Bauchi;Dandango Ward;;Gudum Primary Health Center;;;;;
Bauchi;Dankade Ward;;Tashan Babiye Comprehensive Health Centre;;;;;
Bauchi;Dawaki Ward;;Bauchi Urban Maternal and Child Health Clinic;;;;;
Bauchi;Dawaki Ward;;FOMWAN Clinic;;;;;
Bauchi;Dawaki Ward;;Dawaki Primary Health Centre;;;;;
Bauchi;Galambi Ward;;Kurwala Dispensary;;;;;
Bauchi;Galambi Ward;;Tudun Gambo Health Clinic;;;;;
Bauchi;Galambi Ward;;Badakoshi Maternal and Child Health Clinic;;;;;
Bauchi;Galambi Ward;;Jalingo Dispensary;;;;;
Bauchi;Galambi Ward;;Galambi Dispensary;;;;;
Bauchi;Galambi Ward;;Dindima Dispensary;;;;;
Bauchi;Galambi Ward;;Kwagal Dispensary;;;;;
Bauchi;Galambi Ward;;Shafa Primary Health Centre;;;;;
Bauchi;Gwaskwaram Ward;;Gidirgi Maternal and Child Health;;;;;
Bauchi;Gwaskwaram Ward;;Gwaskwaram Primary Health Centre;;;;;
Bauchi;Gwaskwaram Ward;;Jitar Primary Health Centre;;;;;
Bauchi;Gwaskwaram Ward;;Unguwar Dashi Primary Health Centre;;;;;
Bauchi;Hardo Ward;;Kobi Health Centre;;;;;
Bauchi;Kangere Ward;;Balanshi Primary Health Clinic;;;;;
Bauchi;Kangere Ward;;Bamanu Health Centre;;;;;
Bauchi;Kangere Ward;;Bishi Health Centre;;;;;
Bauchi;Kangere Ward;;Bidolo Dispensary;;;;;
Bauchi;Kangere Ward;;Beru Primary Health Centre;;;;;
Bauchi;Kangere Ward;;KANGERE Dispensary;;;;;
Bauchi;Kangere Ward;;Kangere Maternal and Child Health Clinic;;;;;
Bauchi;Kundun Durum Ward;;Kusi Primary Health Centre;;;;;
Bauchi;Kundun Durum Ward;;Durum Primary Health Center;;;;;
Bauchi;Kundun Durum Ward;;Dumin Miri Primary Health Centre;;;;;
Bauchi;Kundun Durum Ward;;Gubi Health Clinic;;;;;
Bauchi;Kundun Durum Ward;;Kundum  Dispensary;;;;;
Bauchi;Kundun Durum Ward;;Yalwan Kundum Maternal and Child Health Clinic;;;;;
Bauchi;Kundun Durum Ward;;Sumu Primary Health Centre;;;;;
Bauchi;Liman Katagum Ward;;Gungu Dispensary;;;;;
Bauchi;Liman Katagum Ward;;Rumba Primary Health Clinic;;;;;
Bauchi;Liman Katagum Ward;;Jamda Dispensary;;;;;
Bauchi;Liman Katagum Ward;;Mararraban Liman Katagum PHC;;;;;
Bauchi;Liman Katagum Ward;;Liman Katagum Comprehesive Health Centre;;;;;
Bauchi;Liman Katagum Ward;;Liman Katagum Health Clinic;;;;;
Bauchi;Makama A Ward;;Unguwan Kur Family Planning Clinic;;;;;
Bauchi;Makama A Ward;;Ung. Ganjuwa Health Clinic;;;;;
Bauchi;Makama A Ward;;Women & Children Maternity;;;;;
Bauchi;Makama A Ward;;Jahun Under Five Health Clinic;;;;;
Bauchi;Makama B Ward;;Al-Amin Clinic;;;;;
Bauchi;Makama B Ward;;Rimin Jahun Health Clinic;;;;;
Bauchi;Makama B Ward;;Shiffa Clinic;;;;;
Bauchi;Makama B Ward;;Nasarawa Jahun MCH;;;;;
Bauchi;Miri Ward;;Rehu Primary Health Centre;;;;;
Bauchi;Miri Ward;;Miri Primary Health Center;;;;;
Bauchi;Miri Ward;;Dungal Dispensary;;;;;
Bauchi;Miri Ward;;Buzaye Health Clinic;;;;;
Bauchi;Miri Ward;;Rijian Malam Dispensary;;;;;
Bauchi;Miri Ward;;Barnawa Health Clinic;;;;;
Bauchi;Miri Ward;;Wuntin Dada Maternal and Child Health Clinic;;;;;
Bauchi;Mun Munsal Ward;;Yuguda Primary Health Care Centre;;;;;
Bauchi;Mun Munsal Ward;;Gwambe Dispensary;;;;;
Bauchi;Mun Munsal Ward;;Munsal Maternal and Child Health Clinic;;;;;
Bauchi;Mun Munsal Ward;;Juwara Maternal and Child Health Clinic;;;;;
Bauchi;Mun Munsal Ward;;Gamawa Dispensary (Bauchi);;;;;
Bauchi;Mun Munsal Ward;;Mun Health Clinic;;;;;
Bauchi;Mun Munsal Ward;;Gosun Dispensary;;;;;
Bauchi;Mun Munsal Ward;;Yola Doka Dispensary;;;;;
Bauchi;Turum Ward;;Habli Primary Health Centre;;;;;
Bauchi;Turum Ward;;Tirwun Maternal and Child Health Clinic;;;;;
Bauchi;Turum Ward;;Inkil Maternal & Child Health Clinic;;;;;
Bauchi;Turum Ward;;Ibrahim Bako Health Centre;;;;;
Bauchi;Turum Ward;;Dumi Primary Health Centre;;;;;
Bauchi;Yamrat Ward;;Hammadada Health Clinic;;;;;
Bauchi;Yamrat Ward;;Luda Primary Health Center;;;;;
Bauchi;Yamrat Ward;;Palla Dispensary;;;;;
Bauchi;Yamrat Ward;;Lekka Maternal and Child Health Clinic;;;;;
Bauchi;Zungur Ward;;Zungur Primary Health Centre;;;;;
Bauchi;Zungur Ward;;Kusada Health Clinic;;;;;
Bauchi;Zungur Ward;;Giraka Dispensary;;;;;
Bauchi;Zungur Ward;;Sabon Garin Garkuwa Maternal and Child Health Clinic;;;;;
Bauchi;Zungur Ward;;Unguwan Falke Health Clinic;;;;;
Bogoro;Badagari Ward;;Datsang Maternal and Child Health Clinic;;;;;
Bogoro;Badagari Ward;;Gizaki Primary Health Centre;;;;;
Bogoro;Bar Ward;;Bar Health Clinic;;;;;
Bogoro;Bar Ward;;Lafiyan Sara Maternal and Child Health Clinic;;;;;
Bogoro;Bogoro Ward;;Kurum Primary Health Centre;;;;;
Bogoro;Bogoro Ward;;Girmala Health Clinic;;;;;
Bogoro;Bogoro Ward;;Bogoro Maternal and Child Health Clinic;;;;;
Bogoro;Bogoro Ward;;Bogoro General Hospital;;;;;
Bogoro;Boi Ward;;Cocin Clinic Boi;;;;;
Bogoro;Boi Ward;;Boi Primary Health Centre;;;;;
Bogoro;Boi Ward;;Dashen yalwa Health Clinic;;;;;
Bogoro;Bugun Ward;;Bugun Health Clinic;;;;;
Bogoro;Dazara Ward;;Ung Rimi Health Clinic;;;;;
Bogoro;Dutsen Lawan Ward;;Dutsen Lawan Health Clinic;;;;;
Bogoro;Dutsen Lawan Ward;;Bazanshi Health Clinic;;;;;
Bogoro;Gambar Ward;;Gambar Health Clinic;;;;;
Bogoro;Gambar Ward;;Dambar Health Clinic;;;;;
Bogoro;Gobbiya Ward;;Unguwan Gyada Health Clinic;;;;;
Bogoro;Gobbiya Ward;;Gobbiya Model Primary Health Care;;;;;
Bogoro;Gyara Ward;;Gyara Health Clinic;;;;;
Bogoro;Lusa Ward;;Bonga Dispensary;;;;;
Bogoro;Lusa Ward;;Dunga Health Clinic;;;;;
Bogoro;Lusa Ward;;Lusa Primary Health Clinic;;;;;
Bogoro;Lusa Ward;;Mball  Health Clinic;;;;;
Bogoro;Mwari Ward;;Dalanga Health Centre;;;;;
Bogoro;Mwari Ward;;Mwari Community Maternal and Child Health;;;;;
Bogoro;Mwari Ward;;Mwari PMSS Clinic;;;;;
Bogoro;Project Ward;;Banram Health Clinic;;;;;
Bogoro;Project Ward;;Tadnum Health Clinic;;;;;
Dambam;Dagauda Ward;;Dagauda Model Primary Health Centre;;;;;
Dambam;Dambam A Ward;;Dambam  Town Maternity;;;;;
Dambam;Dambam B Ward;;Dambam General Hospital;;;;;
Dambam;Dambam B Ward;;Dambam Town Dispensary;;;;;
Dambam;Fagam Ward;;Birniwa  Health Clinic;;;;;
Dambam;Fagam Ward;;Kwadatala Health Clinic;;;;;
Dambam;Fagam Ward;;Fagam Health Clinic;;;;;
Dambam;Fagarau Ward;;Fagarau Dispensary;;;;;
Dambam;Gargawa Ward;;Zaure Dispensary;;;;;
Dambam;Gargawa Ward;;Luchambi Dispensary;;;;;
Dambam;Gargawa Ward;;Gaina Dispensary;;;;;
Dambam;Garuza Ward;;Wahu Dispensary;;;;;
Dambam;Garuza Ward;;Chadi Health Clinic;;;;;
Dambam;Garuza Ward;;Garuza Dispensary;;;;;
Dambam;Gurbana Ward;;Gurbana  Primary Health Centre;;;;;
Dambam;Jalam Ward;;Jalam Model Primary Health Centre;;;;;
Dambam;Janda Ward;;Janda Dispensary;;;;;
Dambam;Janda Ward;;Karya Shinge Dispensary;;;;;
Dambam;Janda Ward;;Garin Jarmai Dispensary;;;;;
Dambam;Janda Ward;;Badakoshi Dispensary;;;;;
Dambam;Janda Ward;;Dorawa Dispensary;;;;;
Dambam;Janda Ward;;Garin Sura Dispensary;;;;;
Dambam;Minchika Ward;;Tale Health Clinic;;;;;
Dambam;Minchika Ward;;Minchika Dispensary;;;;;
Dambam;Muzuwa Ward;;Muzuwa Dispensary;;;;;
Dambam;Muzuwa Ward;;Madawai Dispensary;;;;;
Dambam;Muzuwa Ward;;Durwari Dispensary;;;;;
Dambam;Yame Ward;;Yayari Dispensary;;;;;
Dambam;Yame Ward;;Gwaramawa Dispesary;;;;;
Dambam;Yame Ward;;Yame Model Primary Health Centre;;;;;
Dambam;Yanda Ward;;Malatin Dispensary;;;;;
Dambam;Yanda Ward;;Yanda Health Clinic;;;;;
Dambam;Yayari Ward;;Lubai Dispensary;;;;;
Dambam;Yayari Ward;;Lailai Dispensary;;;;;
Dambam;Yayari Ward;;Yayari Dispensary (Damban);;;;;
Dambam;Yayari Ward;;Garin Jalo Dispensary Dispensary;;;;;
Dambam;Zaura Ward;;Ngaima Dispensary;;;;;
Dambam;Zaura Ward;;Biniyu Dispensary;;;;;
Dambam;Zaura Ward;;Zaura  Primary Health Centre;;;;;
Dambam;Zaura Ward;;Taiyu Dispensary;;;;;
Darazo;Darazo East Ward;;Darazo Health Clinic;;;;;
Darazo;Darazo East Ward;;A'isha.Isa.Yuguda. Under Five Clinic;;;;;
Darazo;Darazo East Ward;;Tsamiya Maternity;;;;;
Darazo;Darazo West Ward;;Darazo General Hospital;;;;;
Darazo;Darazo West Ward;;Lugge Health Post;;;;;
Darazo;Darazo West Ward;;Kanya Primary Health Centre;;;;;
Darazo;Gabarin East ;;Kili Dispensary;;;;;
Darazo;Gabarin East ;;Kwarati Dispensary;;;;;
Darazo;Gabarin East ;;Gabarin Health Clinic;;;;;
Darazo;Gabarin West;;Bula Dispensary;;;;;
Darazo;Gabarin West;;Jimin Dispensary;;;;;
Darazo;Gabarin West;;Gangalawai Dispensary;;;;;
Darazo;Gabarin West;;Indabo Dispensary;;;;;
Darazo;Gabarin West;;Daburai Dispensary;;;;;
Darazo;Gabchiyari Ward;;Kawuri Dispensary;;;;;
Darazo;Gabchiyari Ward;;Kaigamari Dispensary;;;;;
Darazo;Gabchiyari Ward;;Gabchiyari Health Clinic;;;;;
Darazo;Kwankiyel Ward;;Sabu Maternal and Child Health Clinic;;;;;
Darazo;Kwankiyel Ward;;Gakkulan Audi Primary Health Center;;;;;
Darazo;Kwankiyel Ward;;Kwankiyel Primary Health Center;;;;;
Darazo;Lago Ward;;Kari Primary Health Center;;;;;
Darazo;Lago Ward;;Diggiri Dispensary;;;;;
Darazo;Lago Ward;;Yolawa Maternity;;;;;
Darazo;Lago Ward;;Gakulam Ganuwa Dispensary;;;;;
Darazo;Lago Ward;;Lago Health Clinic;;;;;
Darazo;Lanzai East;;Lanzai Health Clinic;;;;;
Darazo;Lanzai West;;S/G Lanzai Dispensary;;;;;
Darazo;Lanzai West;;Lamba Dispensary;;;;;
Darazo;Lanzai West;;Yalwan Lanzai Dispensary;;;;;
Darazo;Lanzai West;;Sabon Layin Kaugama Maternity;;;;;
Darazo;Lanzai West;;Kaugama Dispensary;;;;;
Darazo;Papa North;;Garin Abare Health Clinic;;;;;
Darazo;Papa North;;Zobo Maternity;;;;;
Darazo;Papa North;;Sabon Gari Papa Health Clinic;;;;;
Darazo;Papa North;;Papa Model Primary Health Centre;;;;;
Darazo;Papa North;;Wurodole Dispensary;;;;;
Darazo;Papa South;;Mailafiya Primary Health Clinic;;;;;
Darazo;Papa South;;Aliya Dispensary;;;;;
Darazo;Sade East;;Sade Primary Health Center;;;;;
Darazo;Sade East;;Lemari Maternity;;;;;
Darazo;Sade West ;;Zandam Dispensary;;;;;
Darazo;Sade West ;;Nahuta Sade Primary Health Centre;;;;;
Darazo;Sade West ;;Dalagobe Dispensary;;;;;
Darazo;Sade West ;;Yubbunga Primary Health Centre;;;;;
Darazo;Tauya East Ward;;Ganjigina Dispensary;;;;;
Darazo;Tauya East Ward;;Duwo Health Clinic;;;;;
Darazo;Tauya East Ward;;Tauya Primary Health Center;;;;;
Darazo;Tauya East Ward;;Zaro Dispensary;;;;;
Darazo;Tauya West Ward;;YalwaN Darazo Health Centre;;;;;
Darazo;Tauya West Ward;;Dayyi Dispensary;;;;;
Darazo;Tauya West Ward;;Nahutan Darazo Primary Health Center;;;;;
Darazo;Tauya West Ward;;Kuka Biyu Dispensary;;;;;
Darazo;Tauya West Ward;;Shadarki Dispensary;;;;;
Darazo;Wahu Ward;;Garin Lesa Dispensary;;;;;
Darazo;Wahu Ward;;Baguba Maternity Clinic;;;;;
Darazo;Wahu Ward;;Jiro Dispensary;;;;;
Darazo;Wahu Ward;;Lagon Wahu Dispensary;;;;;
Darazo;Wahu Ward;;Wahu Health Clinic;;;;;
Darazo;Yautare Ward;;Yautare Health Clinic;;;;;
Darazo;Yautare Ward;;Dambaji Dispensary;;;;;
Darazo;Yautare Ward;;S/G Yautare Dispensary;;;;;
Dass;Bajar/Bagel Ward;;Bajar Maternal and Child Health Clinic;;;;;
Dass;Bajar/Bagel Ward;;Lirr Maternity;;;;;
Dass;Bajar/Bagel Ward;;Galagan Dutse Dispensary;;;;;
Dass;Bajar/Bagel Ward;;Bagel Dispensary;;;;;
Dass;Baraza Ward;;Gamki Dispensery;;;;;
Dass;Baraza Ward;;Baraza Primary Health Centre;;;;;
Dass;Baraza Ward;;Bandas Dispensary;;;;;
Dass;Baraza Ward;;Gala Dispensary;;;;;
Dass;Bundot Ward;;ECWA Clinic;;;;;
Dass;Bundot Ward;;Budulin Kasa Dispensery;;;;;
Dass;Bundot Ward;;Dabardak Maternal and Child Health Clinic;;;;;
Dass;Bundot Ward;;Dass General Hospital;;;;;
Dass;Bunun South Ward;;Gajuwal Dispensary;;;;;
Dass;Bunun South Ward;;Nahuta Dispensary (Dass);;;;;
Dass;Bunun South Ward;;Yalwa Health Clinic;;;;;
Dass;Bunun South Ward;;Bangim Maternal and Child Health Clinic;;;;;
Dass;Bunun South Ward;;Butur Dispensary;;;;;
Dass;Bunun South Ward;;Bashi Maternal and Child Health Clinic;;;;;
Dass;Bununu Centre Ward;;Bununu Town Maternal and Child Health Clinic;;;;;
Dass;Bununu Centre Ward;;Town Dispensary;;;;;
Dass;Bununu East Ward;;Pegin Doka PHC;;;;;
Dass;Bununu East Ward;;Shallgwantar Dispensary;;;;;
Dass;Bununu East Ward;;Sabon Gari Burgel Primary Health Centre;;;;;
Dass;Bununu East Ward;;Garam Dispensary;;;;;
Dass;Bununu West Ward;;Bagas Health Clinic;;;;;
Dass;Bununu West Ward;;Badel Maternal and Child Health Clinic;;;;;
Dass;Bununu West Ward;;Bunjank Health Clinic;;;;;
Dass;Dott Ward;;Dott Primary Health Center;;;;;
Dass;Dott Ward;;Dott Babba Maternal and Child Health Clinic;;;;;
Dass;Dott Ward;;Kagadama Health clinic;;;;;
Dass;Durr Ward;;Durr Model Primary Health Center;;;;;
Dass;Lukshi Ward;;Tsohon Garin Lukshi Health Centre;;;;;
Dass;Lukshi Ward;;Lukshi Maternal and Health Center;;;;;
Dass;Polchi Ward;;Polchi Primary Health Centre;;;;;
Dass;Polchi Ward;;Dutsen Kura Health Clinic;;;;;
Dass;Polchi Ward;;Jalban Dispensary;;;;;
Dass;Polchi Ward;;Dumba Dispensary;;;;;
Dass;Wandi Ward;;Wandi Maternal and Child Health Clinic (Dass);;;;;
Dass;Wandi Ward;;Zumbul Dangri Dispensary;;;;;
Dass;Wandi Ward;;Gwaltukurwa Dispensary;;;;;
Dass;Zumbul Ward;;Zumbul Maternal and Child Health Clinic;;;;;
Dass;Zumbul Ward;;Yelwan Zumbul Dispensary;;;;;
Gamawa;Alagarno Ward;;Alagarno Maternity;;;;;
Gamawa;Alagarno Ward;;Sabon Garin Dispensary;;;;;
Gamawa;Alagarno Ward;;Kekeno Maternity Clinic;;;;;
Gamawa;Gadia Ward;;Gadiya Model Primary Health Centre;;;;;
Gamawa;Gadia Ward;;Gadiya Dispensary;;;;;
Gamawa;Gamawa North Ward;;Gamawa General Hospital;;;;;
Gamawa;Gamawa North Ward;;Sabayo Maternity Clinic;;;;;
Gamawa;Gamawa South Ward;;Gayawa Dispensary;;;;;
Gamawa;Gamawa South Ward;;Gamawa Town Maternity;;;;;
Gamawa;Gololo North Ward;;Sansan Dispensary;;;;;
Gamawa;Gololo North Ward;;Gololo Dispensary;;;;;
Gamawa;Gololo South Ward;;Gololo Model Primary Health Centre;;;;;
Gamawa;Gololo South Ward;;Garin Jauro Saleh Dispensary;;;;;
Gamawa;Jadori Ward;;Gatattara Dispensary;;;;;
Gamawa;Jadori Ward;;Kaisawa Yamma Dispensary;;;;;
Gamawa;Jadori Ward;;Kaisawa Dole Dispensary;;;;;
Gamawa;Jadori Ward;;Bundujaru Dispensary;;;;;
Gamawa;Jadori Ward;;Jadori Dispensary;;;;;
Gamawa;Kafiromi Ward;;Supa Dispensary;;;;;
Gamawa;Kafiromi Ward;;Amarchiyari  Maternity;;;;;
Gamawa;Kafiromi Ward;;Kafiromi Maternal and Child Health Clinic;;;;;
Gamawa;Kafiromi Ward;;Kafiromi Dispensary;;;;;
Gamawa;Kore Ward;;Adabda Dispensary;;;;;
Gamawa;Kore Ward;;Kutunas Dispensary;;;;;
Gamawa;Kore Ward;;Kore Model Primary Health Centre;;;;;
Gamawa;Kore Ward;;Gangawa Dispensary;;;;;
Gamawa;Kubdiya Ward;;Kubdiya Dispensary;;;;;
Gamawa;Kubdiya Ward;;Kubdiya Primary Health Centre;;;;;
Gamawa;Kubdiya Ward;;Nainawa Model Primary Health Centre;;;;;
Gamawa;Marana Ward;;Marana Primary Health Centre;;;;;
Gamawa;Marana Ward;;Garin Mallam Dispensary;;;;;
Gamawa;Raga Ward;;Raga Maternity;;;;;
Gamawa;Raga Ward;;Raga Dispensary;;;;;
Gamawa;Raga Ward;;Bakori Dispensary;;;;;
Gamawa;Raga Ward;;Gayawa Dispesary;;;;;
Gamawa;Taramasuwa Ward;;Tarmasuwa Maternity;;;;;
Gamawa;Taramasuwa Ward;;Tarmasuwa Dispensary;;;;;
Gamawa;Taramasuwa Ward;;Dalmari Dispensary;;;;;
Gamawa;Taranka Ward;;Bulaburin Dispensary;;;;;
Gamawa;Taranka Ward;;Taranka  Maternity;;;;;
Gamawa;Tumbi Ward;;Kadi Kadi Dispensary;;;;;
Gamawa;Tumbi Ward;;Kiri_Kasosi Dispensary;;;;;
Gamawa;Tumbi Ward;;Tumbi  Primary Health Centre;;;;;
Gamawa;Tumbi Ward;;Bulanna Dispensary;;;;;
Gamawa;Udubo Central Ward;;Gwarbatu Dispensary;;;;;
Gamawa;Udubo Central Ward;;Udubo Maternity;;;;;
Gamawa;Udubo Central Ward;;Udubo Dispensary;;;;;
Gamawa;Udubo North East Ward;;Wabu Model Primary Health Centre;;;;;
Gamawa;Udubo North East Ward;;G/Bara Maternity;;;;;
Gamawa;Udubo North East Ward;;Duwaru Dispensary;;;;;
Gamawa;Udubo North East Ward;;Yaba Dispensary;;;;;
Gamawa;Udubo North East Ward;;Kesa Primary Health Centre;;;;;
Gamawa;Zindiwa Ward;;Zindiwa Maternity;;;;;
Gamawa;Zindiwa Ward;;Kaigamari Maternity Clinic;;;;;
Gamawa;Zindiwa Ward;;Garin Kure Dispensary;;;;;
Gamawa;Zindiwa Ward;;Zindiwa Dispensary;;;;;
Ganjuwa;Ganjuwa A Ward;;Nabayi Maternal and Child Health Clinic;;;;;
Ganjuwa;Ganjuwa A Ward;;Nabayi Dispensary;;;;;
Ganjuwa;Ganjuwa A Ward;;Digawa Primary Health Centre;;;;;
Ganjuwa;Ganjuwa A Ward;;Yanda Dispensary;;;;;
Ganjuwa;Ganjuwa A Ward;;Manga Dispensary;;;;;
Ganjuwa;Ganjuwa A Ward;;Ganjuwa Primary Health Centre;;;;;
Ganjuwa;Ganjuwa A Ward;;Baya Health Post;;;;;
Ganjuwa;Ganjuwa A Ward;;Marbini Dispensary;;;;;
Ganjuwa;Ganjuwa B Ward;;Nakowa Health Clinic (Private);;;;;
Ganjuwa;Ganjuwa B Ward;;Soro Primary Health Centre;;;;;
Ganjuwa;Ganjuwa B Ward;;Soro Area Health Office;;;;;
Ganjuwa;Gungura A Ward;;Buri-Buri Dispensary;;;;;
Ganjuwa;Gungura A Ward;;Gabi Primary Health Centre;;;;;
Ganjuwa;Gungura A Ward;;Gungura Maternal and Child Health Clinic;;;;;
Ganjuwa;Gungura A Ward;;Kediya Dispensary;;;;;
Ganjuwa;Gungura B Ward;;Sakarumbu Health Post;;;;;
Ganjuwa;Gungura B Ward;;Dauduwo Maternal and Child Health Clinic;;;;;
Ganjuwa;Gungura B Ward;;Dauduwo Dispensary;;;;;
Ganjuwa;Gungura B Ward;;Bakunawa Dispensery;;;;;
Ganjuwa;Kafin Madaki A Ward;;K/Madaki Primary Health Centre;;;;;
Ganjuwa;Kafin Madaki A Ward;;K/Madaki General Hospital;;;;;
Ganjuwa;Kafin Madaki B Ward;;Tafazuwa Dispensary;;;;;
Ganjuwa;Kafin Madaki B Ward;;Kafin Liman Dispensary;;;;;
Ganjuwa;Kafin Madaki B Ward;;Ringim Dispensary;;;;;
Ganjuwa;Kariya A Ward;;Hakatafi Dispensary;;;;;
Ganjuwa;Kariya A Ward;;Hakatafi Maternal and Child Health;;;;;
Ganjuwa;Kariya A Ward;;Zida Dispensary;;;;;
Ganjuwa;Kariya A Ward;;Wushi Health Clinic;;;;;
Ganjuwa;Kariya A Ward;;Mail Alewa Health Post;;;;;
Ganjuwa;Kariya A Ward;;Sabon Kariya Maternal and Child Health Clinic;;;;;
Ganjuwa;Kariya A Ward;;Sabowar Kariya Dispensary;;;;;
Ganjuwa;Kariya A Ward;;Kariya Health Clinic;;;;;
Ganjuwa;Kariya B Ward;;Kawarin Gasna  Maternal & Child Health;;;;;
Ganjuwa;Kariya B Ward;;Taka tabo Dispensary;;;;;
Ganjuwa;Kariya B Ward;;Bunga Dispensary;;;;;
Ganjuwa;Kubi A Ward;;Duma Dispensary;;;;;
Ganjuwa;Kubi A Ward;;Masuwa Dispensary;;;;;
Ganjuwa;Kubi A Ward;;Kubi Dispensary;;;;;
Ganjuwa;Kubi A Ward;;Damanguza Dispensary;;;;;
Ganjuwa;Kubi A Ward;;Shila Dispensary;;;;;
Ganjuwa;Kubi A Ward;;Kara Health Clinic;;;;;
Ganjuwa;Kubi A Ward;;Kubi Maternal and Child Health Clinic;;;;;
Ganjuwa;Kubi B Ward;;Yaga Dispensary;;;;;
Ganjuwa;Kubi B Ward;;Zalanga Maternal and Child Health Clinic;;;;;
Ganjuwa;Kubi B Ward;;Wailo Health Clinic;;;;;
Ganjuwa;Kubi B Ward;;Zalanga Dispensary;;;;;
Ganjuwa;Kubi B Ward;;kakkuma Dispensary;;;;;
Ganjuwa;Kubi B Ward;;Dirya Dispensary;;;;;
Ganjuwa;Miya A Ward;;Mingila Nursing Home Miya;;;;;
Ganjuwa;Miya A Ward;;Miya Primary Health Centre;;;;;
Ganjuwa;Miya A Ward;;Miya Model Primary Health Centre;;;;;
Ganjuwa;Miya A Ward;;Hameed Clinic Miya;;;;;
Ganjuwa;Miya B Ward;;Lulai Dispensary;;;;;
Ganjuwa;Miya B Ward;;Tsagu Dispensary;;;;;
Ganjuwa;Miya B Ward;;Kariya Wudufa Dispensary;;;;;
Ganjuwa;Miya B Ward;;Zara Health Clinic;;;;;
Ganjuwa;Miya B Ward;;burku maternity;;;;;
Ganjuwa;Miya C   Ward;;Tando Health Post;;;;;
Ganjuwa;Miya C   Ward;;Siri Babba  Dispensary;;;;;
Ganjuwa;Miya C   Ward;;Gameru Dispensary;;;;;
Ganjuwa;Miya C   Ward;;Zuru Dispensary;;;;;
Ganjuwa;Nassarawa A Ward;;Rudi Bida  Dispensary;;;;;
Ganjuwa;Nassarawa A Ward;;Lafiyari Dispensary;;;;;
Ganjuwa;Nassarawa A Ward;;Loyi Dispensary;;;;;
Ganjuwa;Nassarawa A Ward;;Siyi Dispensary;;;;;
Ganjuwa;Nassarawa A Ward;;Nassarawa Primary Health Centre;;;;;
Ganjuwa;Nassarawa B Ward;;Dabe  Health Clinic;;;;;
Ganjuwa;Nassarawa B Ward;;Gilliri Health Clinic;;;;;
Ganjuwa;Nassarawa B Ward;;Dagele Dispensary;;;;;
Ganjuwa;Yali Ward;;Dumun Dispensary;;;;;
Ganjuwa;Yali Ward;;Firo Maternal and Child Health Clinic;;;;;
Ganjuwa;Yali Ward;;Yuli Dispensary;;;;;
Ganjuwa;Yali Ward;;Yali Maternal and Child Health Clinic;;;;;
Ganjuwa;Yali Ward;;Rudu Yausa Health Clinic;;;;;
Ganjuwa;Yali Ward;;Badaromo Dispensary;;;;;
Giade;Chinkani Ward;;Jarmawa West Primary Health Centre;;;;;
Giade;Chinkani Ward;;Zankan MCH Clinic;;;;;
Giade;Chinkani Ward;;Chinkani Primary Health Centre;;;;;
Giade;Doguwa Ward;;Gulbun Dispensary;;;;;
Giade;Doguwa Ward;;Doguwa Health Clinic;;;;;
Giade;Doguwa Ward;;Tagwaye Dispensary;;;;;
Giade;Faguji Ward;;Dingashi Dispensary;;;;;
Giade;Faguji Ward;;Faguji Health Clinic;;;;;
Giade;Giade A Ward;;Giade General Hospital;;;;;
Giade;Giade A Ward;;Sauki Clinic;;;;;
Giade;Giade A Ward;;Giade Maternal and Child Health Clinic;;;;;
Giade;Giade A Ward;;Namu Clinic;;;;;
Giade;Giade B Ward;;Yandure Health Clinic;;;;;
Giade;Giade B Ward;;Zindiri Dispensary;;;;;
Giade;Giade B Ward;;Kafin Hardo Dispensary;;;;;
Giade;Isawa Ward;;Yarimari Dispensary;;;;;
Giade;Isawa Ward;;Jawo Health Clinic;;;;;
Giade;Isawa Ward;;Ganduha Dispensary;;;;;
Giade;Isawa Ward;;Isawa  Primary Health Centre;;;;;
Giade;Jugudu Ward;;Jugudu Primary Health Centre;;;;;
Giade;Jugudu Ward;;Garande  Health Clinic;;;;;
Giade;Kurba Ward;;Yalwa Primary Health Center;;;;;
Giade;Kurba Ward;;Kurba Health Clinic;;;;;
Giade;Kurba Ward;;Kaya kaya Health Clinic;;;;;
Giade;Sabon Sara A Ward;;Bambiyo Dispensary;;;;;
Giade;Sabon Sara A Ward;;Sabon Sara Primary Health Center;;;;;
Giade;Sabon Sara B Ward;;Koyanti Primary Health Centre;;;;;
Giade;Sabon Sara B Ward;;Abunari  Health Clinic;;;;;
Giade;Sabon Sara B Ward;;Mainamalari Dispensary;;;;;
Giade;Uzum Ward;;Jahuri Dispensary;;;;;
Giade;Uzum Ward;;Korawa Dispensary;;;;;
Giade;Uzum Ward;;Uzum Health Clinic;;;;;
Giade;Zabi Ward;;Kimari Dispensary;;;;;
Giade;Zabi Ward;;Zabi Model Primary Health Centre;;;;;
Giade;Zabi Ward;;Rumbuna Dispensary;;;;;
Giade;Zirami Ward;;Magarya Dispensary;;;;;
Giade;Zirami Ward;;Laila Dispensary;;;;;
Giade;Zirami Ward;;Zirami Primary Health Centre;;;;;
Giade;Zirami Ward;;Jarmawo East Health Clinic;;;;;
Itas/Gadau;Abdallawa Ward;;Gambara Health Post;;;;;
Itas/Gadau;Abdallawa Ward;;Abdallawa Dispensary;;;;;
Itas/Gadau;Atafowa Ward;;Bakar Kuka Health Clinic;;;;;
Itas/Gadau;Atafowa Ward;;Atafowa Primary Health Centre;;;;;
Itas/Gadau;Atafowa Ward;;Sharifori Health Post;;;;;
Itas/Gadau;Bambal Ward;;Bambal Primary Health Centre;;;;;
Itas/Gadau;Bambal Ward;;Garin dole Health Post;;;;;
Itas/Gadau;Bambal Ward;;Madobiya Health Clinic;;;;;
Itas/Gadau;Bambal Ward;;Duhuwa Health Post;;;;;
Itas/Gadau;Bulkicheri Ward;;Gululu Health Post;;;;;
Itas/Gadau;Bulkicheri Ward;;Bilkicheri Primary Health Centre;;;;;
Itas/Gadau;Buzawa Ward;;Gidan Ganji Primary Health Centre;;;;;
Itas/Gadau;Buzawa Ward;;Yarayi Health Post;;;;;
Itas/Gadau;Buzawa Ward;;Buzawa Health Clinic;;;;;
Itas/Gadau;Diga Ward;;Babu Gudu Health Clinic;;;;;
Itas/Gadau;Diga Ward;;Nasarawa Primary Health Centre;;;;;
Itas/Gadau;Gadau Ward;;Walai  Dispensary;;;;;
Itas/Gadau;Gadau Ward;;Gadau Primary Health Centre;;;;;
Itas/Gadau;Gijina Ward;;Kafata Health Clinic;;;;;
Itas/Gadau;Gwarai Ward;;Pango Dispensary;;;;;
Itas/Gadau;Gwarai Ward;;Gwarai Health Clinic;;;;;
Itas/Gadau;Gyara Ward;;Gyara Dispensary;;;;;
Itas/Gadau;Itas Ward;;Itas MaternityTown;;;;;
Itas/Gadau;Itas Ward;;Itas Dispensary;;;;;
Itas/Gadau;Itas Ward;;Itas General Hospital;;;;;
Itas/Gadau;Kashuri Ward;;Kashuri Dispensary;;;;;
Itas/Gadau;Kashuri Ward;;Lizai Dispensary;;;;;
Itas/Gadau;Kashuri Ward;;Surfe Health Post;;;;;
Itas/Gadau;Kashuri Ward;;Katsinawa Health Post;;;;;
Itas/Gadau;Magarya Ward;;Magarya Primary Health Centre;;;;;
Itas/Gadau;Mashema Ward;;Majiya Health Centre;;;;;
Itas/Gadau;Mashema Ward;;Mashema  Primary Health Centre;;;;;
Itas/Gadau;Melandige Ward;;Nomari Health Post;;;;;
Itas/Gadau;Melandige Ward;;Melandige  Health Clinic;;;;;
Itas/Gadau;Zubuki Ward;;Zubuki Health Post;;;;;
Itas/Gadau;Zubuki Ward;;Gulmo Health Clinic;;;;;
Jama'are;Dogon Jeji A Ward;;Dogon Jeji Primary Health Centre;;;;;
Jama'are;Dogon Jeji B Ward;;Mabai Maternity Clinic;;;;;
Jama'are;Dogon Jeji B Ward;;Sabon Kafi Primary Health Center;;;;;
Jama'are;Dogon Jeji B Ward;;Marmanji Health Clinic;;;;;
Jama'are;Dogon Jeji C Ward;;Gilar Dispensary;;;;;
Jama'are;Dogon Jeji C Ward;;Gongo Dispensary;;;;;
Jama'are;Dogon Jeji C Ward;;Arawa Dispensary;;;;;
Jama'are;Galdimari Ward;;Galdimari Primary  Health Centre;;;;;
Jama'are;Galdimari Ward;;Baburti Dispensary;;;;;
Jama'are;Galdimari Ward;;Sharaba Dispensary;;;;;
Jama'are;Galdimari Ward;;Changamawa Primary Health Centre;;;;;
Jama'are;Hanafari Ward;;Guda Dispensary;;;;;
Jama'are;Hanafari Ward;;Hanafari Model Primary Health Centre;;;;;
Jama'are;Jamaare A Ward;;Jama'are Town Maternity;;;;;
Jama'are;"ba Jamaare B Ward""";;"baJamaare Under Five Clinic""";;;;;
Jama'are;"ba Jamaare C Ward""";;Jama'are General Hospital;;;;;
Jama'are;Jamaare D Ward;;Abuja Health Clinic;;;;;
Jama'are;Jamaare D Ward;;Nasarawa Health Clinic;;;;;
Jama'are;Jurara Ward;;Rarum  Maternity;;;;;
Jama'are;Jurara Ward;;Jurara  Primary Health Centre;;;;;
Jama'are;Jurara Ward;;Fetere Dispensary;;;;;
Jama'are;Jurara Ward;;Talba Model Primary Health Centre;;;;;
Jama'are;Jurara Ward;;Kesowo Primary health Center;;;;;
Jama'are;Lariye Ward;;Kunjeri Dispensary;;;;;
Jama'are;Lariye Ward;;Kamaku Maternity;;;;;
Jama'are;Lariye Ward;;Lariye Health Clinic;;;;;
Jama'are;Yola ward;;Yola Dispensary;;;;;
Jama'are;Yola ward;;Jobbori Primary Health Centre;;;;;
Katagum;Bidir Ward;;Bidir Maternity;;;;;
Katagum;Bulkachuwa Ward;;Bulkachuwa Model Primary Health Centre;;;;;
Katagum;Bulkachuwa Ward;;Busuri Dispensary;;;;;
Katagum;Buskuri Ward;;Barkeji Dispensary;;;;;
Katagum;Buskuri Ward;;Buskuri Maternity;;;;;
Katagum;Chinade Ward;;Badderi Dispensary;;;;;
Katagum;Chinade Ward;;Chinade  Maternity;;;;;
Katagum;Chinade Ward;;Chinade Primary  Health Centre;;;;;
Katagum;Dagaro Ward;;Dagaro Dispensary;;;;;
Katagum;Gambaki Ward;;Gambaki  Maternity;;;;;
Katagum;Gambaki Ward;;Adamoyel Dispensary;;;;;
Katagum;Gangai Ward;;Gangai Maternity;;;;;
Katagum;Gangai Ward;;Zindi (Kat) Dispensary;;;;;
Katagum;Gangai Ward;;Dagayari Dispensary;;;;;
Katagum;Kafin Kuka Ward;;General Hospital Azare;;;;;
Katagum;Kafin Kuka Ward;;Makarahuta Maternity;;;;;
Katagum;Kasuwar Kaji Ward;;Urban Maternity;;;;;
Katagum;Kasuwar Kaji Ward;;Katsalle Health Clinic;;;;;
Katagum;Madachi Ward;;Masaku Dispensary;;;;;
Katagum;Madachi Ward;;Madachi Dispensary;;;;;
Katagum;Madangala Ward;;Madagala Maternity;;;;;
Katagum;Madangala Ward;;Kujuru Maternity;;;;;
Katagum;Madara Ward;;Lariski Dispensary (Katagum);;;;;
Katagum;Madara Ward;;Madara Maternity;;;;;
Katagum;Madara Ward;;Jumberi Maternity;;;;;
Katagum;Madara Ward;;Madara Primary  Health Centre;;;;;
Katagum;Magwanshi Ward;;Magwanshi Primary Health Centre;;;;;
Katagum;Magwanshi Ward;;Garin kauli Dispensary;;;;;
Katagum;Matsango Ward;;Matsango Maternity;;;;;
Katagum;Matsango Ward;;Gursoli Maternity;;;;;
Katagum;Ragwam Ward;;Gwasamai  Primary Health Centre;;;;;
Katagum;Ragwam Ward;;Ragwam Health Clinic;;;;;
Katagum;Ragwam Ward;;Zirame Health Post;;;;;
Katagum;Tsakuwa Ward;;Tatari Ali Maternity;;;;;
Katagum;Tsakuwa Ward;;Town Maternity;;;;;
Katagum;Yayu Ward;;Yayu Model Primary Health Centre;;;;;
Kirfi;Baba Ward;;Baba Maternity;;;;;
Kirfi;Badara Ward (Kirfi);;Kafin Maigari Maternal and Child Health Clinic;;;;;
Kirfi;Badara Ward (Kirfi);;Kumbi Dispensary;;;;;
Kirfi;Badara Ward (Kirfi);;Dembori Maternal and Child Health Clinic;;;;;
Kirfi;Badara Ward (Kirfi);;Badara Health Clinic;;;;;
Kirfi;Bara Ward;;Papan Maliki Maternal and Child Health Clinic;;;;;
Kirfi;Bara Ward;;Salemaimaciji Maternal and Child Health Clinic;;;;;
Kirfi;Bara Ward;;Bara Primary Health Centre;;;;;
Kirfi;Bara Ward;;Kalajanga Maternal and Child Health Clinic;;;;;
Kirfi;Bara Ward;;Tashan Turmi Maternal and Child Health Clinic;;;;;
Kirfi;Beni Ward;;Beni Health Clinic;;;;;
Kirfi;Beni Ward;;Sharaba Dispensary;;;;;
Kirfi;Beni Ward;;Balan Kanawa Health Clinic;;;;;
Kirfi;Dewu Ward;;Dewu Model Primary Health Centre;;;;;
Kirfi;Dewu Ward;;Riban Garmu Maternity;;;;;
Kirfi;Guyaba Ward;;Rigan Jalo Dispensary;;;;;
Kirfi;Guyaba Ward;;Guyaba  Health Clinic;;;;;
Kirfi;Kafin Iya Ward;;Golo Maternity;;;;;
Kirfi;Kafin Iya Ward;;Kafin Iya  Health Clinic;;;;;
Kirfi;Kafin Iya Ward;;Gula Dispensary;;;;;
Kirfi;Kirfi Ward;;Kirfi Town Maternity;;;;;
Kirfi;Kirfi Ward;;Kirfin Sama Dispensary;;;;;
Kirfi;Kwagal Ward;;Kwagal Health Clinic;;;;;
Kirfi;Kwagal Ward;;Kaloma Maternity;;;;;
Kirfi;Kwagal Ward;;Garin Mu'azu Dispensary;;;;;
Kirfi;Kwagal Ward;;Sharfuri Maternity;;;;;
Kirfi;Lariski Ward;;Kadolli Dispensary;;;;;
Kirfi;Lariski Ward;;Lomi  Health Clinic;;;;;
Kirfi;Lariski Ward;;Bani Maternity;;;;;
Kirfi;Lariski Ward;;Lariski Health Clinic;;;;;
Kirfi;Shongo Ward;;Feshingo Maternity;;;;;
Kirfi;Shongo Ward;;Bure Maternity;;;;;
Kirfi;Shongo Ward;;Shongo Health Clinic;;;;;
Kirfi;Tubule Ward;;Tubule Health Clinic;;;;;
Kirfi;Tubule Ward;;Zangoma Dispensary;;;;;
Kirfi;Wanka Ward;;Feltum Dispensary;;;;;
Kirfi;Wanka Ward;;Taure Dispensary;;;;;
Kirfi;Wanka Ward;;Wanka Health Clinic;;;;;
Kirfi;Wanka Ward;;Kirfi General Hospital;;;;;
Misau;Ajili Ward;;Ajili Dispensary;;;;;
Misau;Ajili Ward;;Zindi Maternity;;;;;
Misau;Ajili Ward;;Tumfure Dispensary;;;;;
Misau;Ajili Ward;;Dunkui Kasuwa Primary Health Center;;;;;
Misau;Ajili Ward;;Mainari Primary Health Center;;;;;
Misau;Akuyam Ward;;Akuyam Primary Health Centre;;;;;
Misau;Akuyam Ward;; Isheni Primary Health Centre;;;;;
Misau;Akuyam Ward;;Galawa Dispensary;;;;;
Misau;Beti Ward;;Nyelbejam Dispensary;;;;;
Misau;Beti Ward;;Madakiri Maternity;;;;;
Misau;Beti Ward;;Shohen Maternity;;;;;
Misau;Beti Ward;;Koftara Primary Health Centre;;;;;
Misau;Beti Ward;;Jarmari Dispensary;;;;;
Misau;Beti Ward;;Beti Primary Health Centre;;;;;
Misau;Dunkurmi Ward;;Dunkurmi Dispensary;;;;;
Misau;Gugulin Ward;;Gainan Fulani Primary Health Centre;;;;;
Misau;Gugulin Ward;;Gugulin Dispensary;;;;;
Misau;Gugulin Ward;;Balen Hausa Dispensary;;;;;
Misau;Gugulin Ward;;Diggeri Dispensary;;;;;
Misau;Gugulin Ward;;Gainan Hausa Maternity;;;;;
Misau;Gundari Ward;;Alangawari Dispensary (Misau);;;;;
Misau;Gwaram Ward (Misau);;Kafin Bubari Dispensary;;;;;
Misau;Gwaram Ward (Misau);;Farin Ruwa Dispensary;;;;;
Misau;Gwaram Ward (Misau);;Gwaram Primary Health Centre;;;;;
Misau;Gwaram Ward (Misau);;Barmo Dispensary;;;;;
Misau;Gwaram Ward (Misau);;Rigar Ganji Primary Health Centre;;;;;
Misau;Hardawa Ward;;Hardawa Primary Health Centre;;;;;
Misau;Jarkasa Ward;;Jarkasa Dispensary;;;;;
Misau;Jarkasa Ward;;Jabdo Dispensary;;;;;
Misau;Jarkasa Ward;;Hausari  Dispensary;;;;;
Misau;Kafin Sule Ward;;Kafin Sule  Primary Health Centre;;;;;
Misau;Kukadi A Ward;;Misau General Hospital;;;;;
Misau;Kukadi B Ward;;Misau Town Maternity;;;;;
Misau;Kukadi B Ward;;Chabai Dispensary;;;;;
Misau;Kukadi B Ward;;Bangorti Dispensary;;;;;
Misau;Sarma Ward;;Kafin zaka Dispensary;;;;;
Misau;Sarma Ward;;Dabigi  Maternity;;;;;
Misau;Sarma Ward;;Yalwa Sarma Dispensary;;;;;
Misau;Sarma Ward;;Sarma Primary Health Centre;;;;;
Misau;Sirko Ward;;Goyinga Dispensary;;;;;
Misau;Sirko Ward;;Sirko Dispensary;;;;;
Misau;Sirko Ward;;Dabji Dispensary;;;;;
Misau;Sirko Ward;;Waliya Dispensary;;;;;
Misau;Tofu Ward;;Jabalya Dispensary;;;;;
Misau;Tofu Ward;;Dallali Dispensary;;;;;
Misau;Tofu Ward;;sebore Primary Health Centre;;;;;
Misau;Zadawa Ward;;Zadawa Maternity;;;;;
Misau;Zadawa Ward;;Zadawa Dispensary;;;;;
Misau;Zadawa Ward;;Nammare Dispensary;;;;;
Ningi;Ari Ward;;Ari Health Clinic;;;;;
Ningi;Ari Ward;;Tsangaya Model Primary Health Centre;;;;;
Ningi;Balma Ward;;Iyayi Health Clinic;;;;;
Ningi;Balma Ward;;Balma Maternal and Child Health Clinic;;;;;
Ningi;Balma Ward;;Balma Dispensary;;;;;
Ningi;Balma Ward;;Ruwan kanki Dispensary;;;;;
Ningi;Balma Ward;;Kauyen Kayal  Dispensary;;;;;
Ningi;Bashe Ward;;Ung Madaki Dispensary;;;;;
Ningi;Bashe Ward;;Tamba Dispensary;;;;;
Ningi;Bashe Ward;;Diwa Dispensary;;;;;
Ningi;Bashe Ward;;Dabar Baga Dispensary;;;;;
Ningi;Bashe Ward;;Ringya Dispensary;;;;;
Ningi;Burra Ward;;Burra General Hospital;;;;;
Ningi;Burra Ward;;Burra Dispensary;;;;;
Ningi;Burra Ward;;Magami Dispensary;;;;;
Ningi;Burra Ward;;Unguwar Kanawa Dispensary;;;;;
Ningi;Dingis Ward;;Dingis Dispensary;;;;;
Ningi;Dingis Ward;;Gwam  Health Clinic;;;;;
Ningi;Dingis Ward;;Fadina Dispensary;;;;;
Ningi;Dingis Ward;;Tuwash Dispensary;;;;;
Ningi;Dingis Ward;;Katsinawan Dingis  Health clinic;;;;;
Ningi;Dingis Ward;;Rumbu Dispensary;;;;;
Ningi;GudaWard;;Kwalangwadi MCH;;;;;
Ningi;GudaWard;;Guda Dispensary;;;;;
Ningi;GudaWard;;Tashar maje Dispensary;;;;;
Ningi;Jangu Ward;;K/Zaki Dispensary;;;;;
Ningi;Jangu Ward;;Kujera Maternal and Child Health Clinic;;;;;
Ningi;Jangu Ward;;Gadar Maiwa Primary Health Centre;;;;;
Ningi;Jangu Ward;;Zakara Dispensary;;;;;
Ningi;Kafin Lemo Ward;;Shakaleme Dispensary;;;;;
Ningi;Kafin Lemo Ward;;Shirgiya Health Clinic;;;;;
Ningi;Kafin Lemo Ward;;Shuwaki Dispensary;;;;;
Ningi;Kafin Lemo Ward;;Agwarmaji Maternal and Child Health Clinic;;;;;
Ningi;Kafin Lemo Ward;;Masussuka Health Clinic;;;;;
Ningi;Kafin Lemo Ward;;Agwarmaji Dispensary;;;;;
Ningi;Kafin Lemo Ward;;Kafin Lemo Health Clinic;;;;;
Ningi;Kudu Yamma Ward;;Rafin Chiyawa Dispensary;;;;;
Ningi;Kudu Yamma Ward;;Lumbu Health Clinic;;;;;
Ningi;Kudu Yamma Ward;;Jimi Maternal and Child Health Clinic;;;;;
Ningi;Kudu Yamma Ward;;Dogon Ruwa Dispensary;;;;;
Ningi;Kudu Yamma Ward;;Batu Health Clinic;;;;;
Ningi;Kudu Yamma Ward;;Katsinawan Tabula Dispensary;;;;;
Ningi;Kudu Yamma Ward;;Jimi Dispensary;;;;;
Ningi;Kurmi Ward;;Dana Maternal and Child Health;;;;;
Ningi;Kurmi Ward;;Kurmi Dispensary;;;;;
Ningi;Kurmi Ward;;Kanawa Dispensary;;;;;
Ningi;Kurmi Ward;;Dana Dispensary;;;;;
Ningi;Kurmi Ward;;Ganji Dispensary;;;;;
Ningi;Kyata Ward;;Tudun Jarkoya Dispensary;;;;;
Ningi;Kyata Ward;;Deru Dispensary;;;;;
Ningi;Nasaru A Ward ;;Model Primary Health Centre Nasaru;;;;;
Ningi;Nasaru A Ward ;;Zazika Dispensary;;;;;
Ningi;Nasaru B Ward;;Gidan Baki Maternal&Child Health;;;;;
Ningi;Ningi West Ward;;Ningi Town Dispensary;;;;;
Ningi;Ningi West Ward;;Ningi Town Maternity;;;;;
Ningi;Sama Ward;;Kumba Dispensary;;;;;
Ningi;Sama Ward;;Kwangi Dispensary;;;;;
Ningi;Sama Ward;;Kwangi Maternal and Child Health Clinic;;;;;
Ningi;Sama Ward;;Yadagungume Primary Health Centre;;;;;
Ningi;Tiffi Ward;;General Hospital Ningi;;;;;
Ningi;Yuwa Ward;;Limi Dispensary;;;;;
Ningi;Yuwa Ward;;Kajala Maternal and Child Health;;;;;
Ningi;Yuwa Ward;;Kongoro Dispensary;;;;;
Shira;Andubun Ward;;Andubun Maternity;;;;;
Shira;Andubun Ward;;Ka'el Maternal and Child Health Centre;;;;;
Shira;Andubun Ward;;Isore Dispensary;;;;;
Shira;Bangire Ward;;Jahin Dispensary;;;;;
Shira;Bangire Ward;;Bangire Dispensary;;;;;
Shira;Bangire Ward;;Bangire Primary Health Centre;;;;;
Shira;Bangire Ward;;Dago  Dispensary;;;;;
Shira;Beli Ward;;Beli Maternity;;;;;
Shira;Beli Ward;;Beli Dispensary;;;;;
Shira;Bukul Ward;;Balijan Dispensary;;;;;
Shira;Bukul Ward;;Gallamari Maternal and child health Clinic;;;;;
Shira;Bukul Ward;;Bukul maternity ;;;;;
Shira;Bukul Ward;;Bukul Dispensary;;;;;
Shira;Dango Ward;;Rimi Maternity;;;;;
Shira;Dango Ward;;Tsumba Maternity Clinic;;;;;
Shira;Dango Ward;;Dango Maternal and Child Health;;;;;
Shira;Dango Ward;;Rimi Dispensary;;;;;
Shira;Disina A Ward;;Disina Primary Health Centre;;;;;
Shira;Disina A Ward;;Gurmun Dispensary;;;;;
Shira;Disina B Ward;;Sawi Dispensary;;;;;
Shira;Disina B Ward;;Adamami Primary Health Centre;;;;;
Shira;Faggo A Ward;;Faggo  Model Primary  Health Clinic;;;;;
Shira;Faggo A Ward;;Nahuce Maternity;;;;;
Shira;Faggo B Ward;;Zigau Dispensary;;;;;
Shira;Faggo B Ward;;Guddu Maternity;;;;;
Shira;Faggo B Ward;;Zigau Maternity;;;;;
Shira;Gagidiba Ward;;Ganuwa Dispensary;;;;;
Shira;Gagidiba Ward;;Gagidiba Dispensary;;;;;
Shira;Gagidiba Ward;;Bono Maternity;;;;;
Shira;Kilbori  A Ward;;Kilbori Dispensary;;;;;
Shira;Kilbori  A Ward;;Dalli  Health Post;;;;;
Shira;Kilbori  A Ward;;Kilbori Maternal and Child Health Clinic;;;;;
Shira;Kilbori B Ward;;"ba Jamaa Primary Health Centre""";;;;;
Shira;Kilbori B Ward;;Kargo Dispensary ;;;;;
Shira;Sambawal Ward;;Kafin Gara Dispensary;;;;;
Shira;Sambawal Ward;;Katabarwa Maternal and Child Health;;;;;
Shira;Sambawal Ward;;Kamaku Health Post;;;;;
Shira;Sambawal Ward;;Sambawal Dispensary;;;;;
Shira;Shira Ward;;Shira Dispensary;;;;;
Shira;Shira Ward;;Eldewo Dispensary;;;;;
Shira;Shira Ward;;Yarka  Dispensary;;;;;
Shira;Shira Ward;;Shira Maternity;;;;;
Shira;Tsafi Ward;;Jaka Maternal and Child Health;;;;;
Shira;Tsafi Ward;;Zainabari Maternal and Child Health;;;;;
Shira;Tsafi Ward;;Tsafi Dispensary;;;;;
Shira;Tsafi Ward;;Tarawo Maternity;;;;;
Shira;Tsafi Ward;;Ligada  Dispensary;;;;;
Shira;Tsafi Ward;;Tsafi Maternity;;;;;
Shira;Tumfafi Ward;;Tumfafi Dispensary;;;;;
Shira;Tumfafi Ward;;Tumfafi Maternity;;;;;
Shira;Tumfafi Ward;;Gaburgu Dispensary;;;;;
Shira;Tumfafi Ward;;Sorodo Maternity;;;;;
Shira;Tumfafi Ward;;Gaza  Dispensary;;;;;
Shira;Yana Ward;;Yana Town Maternity;;;;;
Shira;Yana Ward;;Shira Yana General Hospital;;;;;
Shira;Zubo Ward;;Kwanjin Dispensary;;;;;
Shira;Zubo Ward;;Darajiya Dispensary;;;;;
Shira;Zubo Ward;;Zubo Primary Health Centre;;;;;
Tafawa-Balewa;Bula A Ward;;Bulan Gawo Maternal & Child Health;;;;;
Tafawa-Balewa;Bula A Ward;;Jambil Health Clinic;;;;;
Tafawa-Balewa;Bula B Ward;;Shall Health Clinic;;;;;
Tafawa-Balewa;Bula B Ward;;Gital Primary Health Centre;;;;;
Tafawa-Balewa;Bununu A Ward;;Bununu Primary Health Centre;;;;;
Tafawa-Balewa;Bununu A Ward;;Duguryel Maternal And Child Health;;;;;
Tafawa-Balewa;Bununu A Ward;;Gwallarai Health Centre;;;;;
Tafawa-Balewa;Bununu A Ward;;Dolam Health Centre;;;;;
Tafawa-Balewa;Bununu A Ward;;Bununu Town Maternity;;;;;
Tafawa-Balewa;Bununu A Ward;;Bar Maternal & Child Health;;;;;
Tafawa-Balewa;Bununu B Ward;;Bamja Health Clinic;;;;;
Tafawa-Balewa;Bununu B Ward;;Lim Primary Health Centre;;;;;
Tafawa-Balewa;Dajin Ward;;Katsinawa Health Clinic;;;;;
Tafawa-Balewa;Dajin Ward;;Dajin Primary Health Centre;;;;;
Tafawa-Balewa;Dull A Ward;;Dull Primary Health Centre;;;;;
Tafawa-Balewa;Dull A Ward;;Taki Health Clinic;;;;;
Tafawa-Balewa;Dull A Ward;;Gid Gid Hamma Health Clinic;;;;;
Tafawa-Balewa;Dull B Ward;;Burga Health Clinic;;;;;
Tafawa-Balewa;Dull B Ward;;Wurno Primary Health Centre;;;;;
Tafawa-Balewa;Kardam A Ward;;Kundum Health Clinic;;;;;
Tafawa-Balewa;Kardam A Ward;;Kardam Health Clinic;;;;;
Tafawa-Balewa;Kardam B Ward;;Boto General Hospital;;;;;
Tafawa-Balewa;Kardam B Ward;;Juwa Health Clinic;;;;;
Tafawa-Balewa;Kardam B Ward;;Zabir Health Clinic;;;;;
Tafawa-Balewa;Kardam B Ward;;Maijuju Tasha Health Clinic;;;;;
Tafawa-Balewa;Kardam C Ward;;Zari Health Clinic;;;;;
Tafawa-Balewa;Kardam C Ward;;Daranji  Health Clinic;;;;;
Tafawa-Balewa;Kardam C Ward;;Kwaptin Rimi Health Clinic;;;;;
Tafawa-Balewa;Kardam C Ward;;Murno Health Clinic;;;;;
Tafawa-Balewa;Lere North Ward;;Jigi H/C;;;;;
Tafawa-Balewa;Lere North Ward;;Lere Primary Health Centre;;;;;
Tafawa-Balewa;Lere North Ward;;S/Shehu Health Clinic;;;;;
Tafawa-Balewa;Lere North Ward;;Zuya Health Clinic;;;;;
Tafawa-Balewa;Lere North Ward;;Luggere Health Centre;;;;;
Tafawa-Balewa;Lere South Ward;;Sara Health Clinic;;;;;
Tafawa-Balewa;Lere South Ward;;Marti Maternal And Child Health;;;;;
Tafawa-Balewa;Lere South Ward;;Martin Daji Heath Clinic;;;;;
Tafawa-Balewa;Lere South Ward;;Sara Maternal and Child Health Clinic;;;;;
Tafawa-Balewa;Mball Ward;;Sabongida Health Centre;;;;;
Tafawa-Balewa;Mball Ward;;Mball Health Clinic;;;;;
Tafawa-Balewa;Mball Ward;;Yola Norah Health Clinic;;;;;
Tafawa-Balewa;Mball Ward;;Burwat Health Clinic;;;;;
Tafawa-Balewa;Mball Ward;;Sakare Health Clinic;;;;;
Tafawa-Balewa;Tapshin Ward;;Tapshin Model Primary Health Centre ;;;;;
Tafawa-Balewa;Tapshin Ward;;St. Margret Gambar Health Clinic;;;;;
Tafawa-Balewa;Tapshin Ward;;Duklin Bauchi Health Clinic;;;;;
Tafawa-Balewa;Tapshin Ward;;Dasham Health Centre;;;;;
Tafawa-Balewa;Wai A Ward;;Zwall Health Clinic;;;;;
Tafawa-Balewa;Wai A Ward;;Gwashe Health Clinic;;;;;
Tafawa-Balewa;Wai A Ward;;Burgel Health Clinic;;;;;
Tafawa-Balewa;Wai A Ward;;Gori Primary Health Clinic;;;;;
Tafawa-Balewa;Wai A Ward;;Zango Health Clinic;;;;;
Tafawa-Balewa;Wai B Ward;;Town Maternity T/Balewa;;;;;
Tafawa-Balewa;Wai B Ward;;Mawurni Bisa Preimary Health Centre;;;;;
Toro;Jama'a Ward;;Wom Health Post;;;;;
Toro;Jama'a Ward;;Dori Health Clinic;;;;;
Toro;Jama'a Ward;;Jama'a Primary Health Clinic;;;;;
Toro;Jama'a Ward;;Garin Jama'a Health Post;;;;;
Toro;Jama'a Ward;;Tashan Durumi Health Post;;;;;
Toro;Jama'a Ward;;Tashan Durumi Primary Health Clinic;;;;;
Toro;Lame Ward;;Saminakan Giwa Primary Health Clinic;;;;;
Toro;Lame Ward;;Shau Health Post;;;;;
Toro;Lame Ward;;Lame Primary Health Clinic;;;;;
Toro;Lame Ward;;Jange Health Post;;;;;
Toro;Mara Ward;;Sutumi Health Post;;;;;
Toro;Mara Ward;;Rimin Zayam Primary Health Clinic;;;;;
Toro;Mara Ward;;Rimin Zayam Health Post;;;;;
Toro;Mara Ward;;Taka Bundu Health Post;;;;;
Toro;Mara Ward;;Rinjin Gingin Health Post;;;;;
Toro;Mara Ward;;Mara Health Post;;;;;
Toro;Palama Ward;;Zari Muku Health Post;;;;;
Toro;Palama Ward;;Gandi Health Post;;;;;
Toro;Palama Ward;;Zakshi Primary Health Clinic;;;;;
Toro;Palama Ward;;Kufai Primary Health Centre;;;;;
Toro;Rahama Ward;;Model Primary Health Centre;;;;;
Toro;Rahama Ward;;Matawai Maternity;;;;;
Toro;Rahama Ward;;Nasarawan samanja Maternity;;;;;
Toro;Rahama Ward;;Zirya Health Clinic;;;;;
Toro;Rahama Ward;;Wurno Dispensary;;;;;
Toro;Rahama Ward;;Samanja Health Post;;;;;
Toro;Rahama Ward;;Gana Dispensary;;;;;
Toro;Rauta Gaji Ward;;Bichiki Health Post;;;;;
Toro;Rauta Gaji Ward;;Gaji Health Post;;;;;
Toro;Rauta Gaji Ward;;Felun AbbaPrimary Health Clinic;;;;;
Toro;Rauta Gaji Ward;;Nahuta Primary Health Clinic;;;;;
Toro;Rauta Gaji Ward;;Natsirankawo Health Post;;;;;
Toro;Rauta Gaji Ward;;Rauta Primary Health Clinic;;;;;
Toro;Rauta Gaji Ward;;Rauta Health Post;;;;;
Toro;Rauta Gaji Ward;;Runtu Health Post;;;;;
Toro;Ribina East Ward;;Rinjin Gaini Health Post;;;;;
Toro;Ribina East Ward;;Rinjin Gaini Maternity ;;;;;
Toro;Ribina West Ward;;Tudun Wadan Ribina Health post;;;;;
Toro;Ribina West Ward;;Ganye Health Post;;;;;
Toro;Ribina West Ward;;Ganye Primary Health Clinic;;;;;
Toro;Ribina West Ward;;Gwaifada Primary Health Clinic;;;;;
Toro;Rishi Ward;;Zukku Health Post;;;;;
Toro;Rishi Ward;;Rishi Primary Health Centre;;;;;
Toro;Rishi Ward;;Wandi Primary Health Clinic ;;;;;
Toro;Rishi Ward;;Kayauri Marternity;;;;;
Toro;Tama Ward;;Sabon Garin Tulu Primary Health Centre;;;;;
Toro;Tama Ward;;Lau Health Clinic;;;;;
Toro;Tama Ward;;Tulu Primary Health Clinic;;;;;
Toro;Tilden Fulani Ward;;Tummu Health Post;;;;;
Toro;Tilden Fulani Ward;;Sabon Garin Narabi Health Clinic;;;;;
Toro;Tilden Fulani Ward;;Tilden Fulani Health Post;;;;;
Toro;Tilden Fulani Ward;;Tilden FulaniPrimary Health Clinic;;;;;
Toro;Tilden Fulani Ward;;Bujiel Dispensary;;;;;
Toro;Toro Ward;;Loro Health Post;;;;;
Toro;Toro Ward;;Toro General Hospital;;;;;
Toro;Toro Ward;;Toro Primary Health Clinic;;;;;
Toro;Toro Ward;;Toro Health Post;;;;;
Toro;Toro Ward;;Magama Gumau Primary Health Clinic;;;;;
Toro;Tulai Ward;;Balarabe  Health Clinic;;;;;
Toro;Tulai Ward;;Kwacciyel Health Post;;;;;
Toro;Tulai Ward;;Tashan Maiturare Health Post;;;;;
Toro;Tulai Ward;;Magama Gari Health Post;;;;;
Toro;Tulai Ward;;Polchi Primary Health Clinic;;;;;
Toro;Tulai Ward;;Tashan Mai'allo Health Post;;;;;
Toro;Tulai Ward;;Bukka Tulai Primary Health Clinic;;;;;
Toro;Tulai Ward;;Yakanaji Health Post;;;;;
Toro;Tulai Ward;;Rinjin Mukur Health Post;;;;;
Toro;Wonu North Ward;;Pingel Health Post;;;;;
Toro;Wonu North Ward;;Pingel Primary Heath Clinic ;;;;;
Toro;Wonu North Ward;;Riruwai Health Post;;;;;
Toro;Wonu North Ward;;Gumau Primary Health Clinic;;;;;
Toro;Wonu South Ward;;Badikko Health Post;;;;;
Toro;Wonu South Ward;;Geljaule Primary Health Clinic;;;;;
Toro;Wonu South Ward;;Kadage Dispensary;;;;;
Toro;Zalau Ward;;Zalau Primary Health Centre;;;;;
Toro;Zalau Ward;;Cediya Health Post;;;;;
Toro;Zalau Ward;;Rinjin Gura Health Post;;;;;
Toro;Zalau Ward;;Motto Primary Health Clinic;;;;;
Toro;Zalau Ward;;Motto Health Post;;;;;
Toro;Zaranda Ward;;Nabordo Primary Health Centre;;;;;
Toro;Zaranda Ward;;Zaranda Primary Health Centre;;;;;
Toro;Zaranda Ward;;Takandan Giwa Health Post;;;;;
Toro;Zaranda Ward;;BSADP  Health Clinic;;;;;
Toro;Zaranda Ward;;Zaranda Health Post;;;;;
Toro;Zaranda Ward;;Kafin Durumi Health Post;;;;;
Toro;Zaranda Ward;;Makera Primary Health Clinic;;;;;
Toro;Zaranda Ward;;Mundu Health Post;;;;;
Toro;Zaranda Ward;;Yuga Primary Health Clinic;;;;;
Toro;Zaranda Ward;;Galda Health Post;;;;;
Warji;Baima Ward;;Gawo Dispensary;;;;;
Warji;Baima Ward;;Muda Maternity;;;;;
Warji;Baima Ward;;Muda B Maternal and Child Health Clinic;;;;;
Warji;Baima Ward;;Baima Maternity;;;;;
Warji;Baima Ward;;Lallan HC;;;;;
Warji;Dagu Ward;;Bunga Health Clinic;;;;;
Warji;Dagu Ward;;Kagadama Dispensary;;;;;
Warji;Dagu Ward;;Badiyeso Primary Health Clinic;;;;;
Warji;Dagu Ward;;Dagu Primary Health Clinic;;;;;
Warji;Dallaji Ward;;Dallaji PHC;;;;;
Warji;Dallaji Ward;;Marasuwa Dispensary;;;;;
Warji;Dallaji Ward;;Wuha Dispensary;;;;;
Warji;Gabanga A Ward;;K/Kanawa Maternity;;;;;
Warji;Gabanga A Ward;;K/Kanawa Dispensary;;;;;
Warji;Gabanga A Ward;;Gabanga Health Centre;;;;;
Warji;Katanga Ward;;  ECWA Health Clinic (Private);;;;;
Warji;Katanga Ward;;Danina Health Centre;;;;;
Warji;Katanga Ward;;Katanga Maternity;;;;;
Warji;Katanga Ward;;Katanga Dispensary;;;;;
Warji;Ranga A  Ward;;Tuya Dispensary;;;;;
Warji;Ranga A  Ward;;Katanga General Hospital;;;;;
Warji;Ranga A  Ward;;Burarana Primary Health Centre;;;;;
Warji;Ranga A  Ward;;Jawa Maternity;;;;;
Warji;Tiyin A Ward;;Bujala Primary Health Centre;;;;;
Warji;Tiyin A Ward;;Unguwan Danya Dispensary;;;;;
Warji;Tiyin A Ward;;Kankari Health Centre;;;;;
Warji;Tiyin A Ward;; Aru Primary Health Centre;;;;;
Warji;Tiyin B Ward;;Tiyin Model Primary Health Centre;;;;;
Warji;Tudun Wada Ward;;Tudun Wada Primary Health Clinic;;;;;
Warji;Tudun Wada Ward;;Gidan mada  Dispensary;;;;;
Warji;Tudun Wada Ward;; Yayari Health Clinic;;;;;
Warji;Wando Ward;;Ganji  PHC;;;;;
Warji;Wando Ward;;Disa Health Clinic;;;;;
Warji;Wando Ward;; Haya  Dispensary;;;;;
Warji;Wando Ward;; Wando Maternity;;;;;
Warji;Zurgwai Ward;;Bakwi Dispensary;;;;;
Warji;Zurgwai Ward;;Zurgwai Maternity;;;;;
Warji;Zurgwai Ward;;Unguwan Jaji Dispensary;;;;;
Warji;Zurgwai Ward;;Ingila  Health Clinic;;;;;
Warji;Zurgwai Ward;;Bakwi Health Clinic;;;;;
Zaki;Alangawari Ward;;Alangawari Primary Health Clinic;;;;;
Zaki;Amarmari Ward;;Amarmari Dispensary;;;;;
Zaki;Amarmari Ward;;Jajiri Dispensary;;;;;
Zaki;Amarmari Ward;;Kameme Dispensary;;;;;
Zaki;Bursali Ward;;Bursali Primary Health Centre;;;;;
Zaki;Bursali Ward;;Tikirkije Dispensary;;;;;
Zaki;Bursali Ward;;Masaje Dispensary;;;;;
Zaki;Gadai Ward;;Futti Dispensary;;;;;
Zaki;Gadai Ward;;Maikore Dispensary;;;;;
Zaki;Gadai Ward;;Kurchibuwa Dispensary;;;;;
Zaki;Gadai Ward;;Gadai Dispensary;;;;;
Zaki;Gumai Ward;;Sabon Sara Dispensary;;;;;
Zaki;Gumai Ward;;Galdimari Dispensary (Zaki);;;;;
Zaki;Gumai Ward;;Anshi Dispensary;;;;;
Zaki;Gumai Ward;;Birchinka Dispensary;;;;;
Zaki;Gumai Ward;;Gumai Dispensary;;;;;
Zaki;Gumai Ward;;Gumai Maternal and Child Health Clinic;;;;;
Zaki;Kafin Larabawa Ward;;Jodinga Dispensary;;;;;
Zaki;Kafin Larabawa Ward;;Kafin Larabawa Primary Health Centre;;;;;
Zaki;Katagum Ward;;Katagum General Hospital;;;;;
Zaki;Katagum Ward;;Katagum Maternal and Child Health Clinic;;;;;
Zaki;Lodiyo Ward;;Ladari Dispensary;;;;;
Zaki;Lodiyo Ward;;Lodiyo Primary Health Centre;;;;;
Zaki;Madufa Ward;;Chacharam Dispensary;;;;;
Zaki;Madufa Ward;;Madufa Maternal and Child Health Clinic;;;;;
Zaki;Madufa Ward;;Madufa Dispensary;;;;;
Zaki;Mainako  North Ward;;Alganari Dispensary;;;;;
Zaki;Mainako  North Ward;;Ariri Primary Health Centre;;;;;
Zaki;Mainako  North Ward;;Sabaguwa Dispensary;;;;;
Zaki;Mainako South Ward;;Gauya Dispensary;;;;;
Zaki;Mainako South Ward;;saradugum Maternity;;;;;
Zaki;Mainako South Ward;;Mainako Dispensary;;;;;
Zaki;Mainako South Ward;;Tabak  Dispensary;;;;;
Zaki;Maiwa Ward;;Sabon Gari Dispensary;;;;;
Zaki;Maiwa Ward;;Kaskindin Dispensary;;;;;
Zaki;Makawa Ward;;Manawaki Dispensary;;;;;
Zaki;Makawa Ward;;Barwari Dispensary;;;;;
Zaki;Makawa Ward;;Makawa Primary Health Centre;;;;;
Zaki;Mur Mur North Ward;;Murmur Model Primary Health Centre;;;;;
Zaki;Mur Mur South Ward;;Chibiyayi Maternity;;;;;
Zaki;Mur Mur South Ward;;Chibiyayi Dispensary;;;;;
Zaki;Mur Mur South Ward;;Maraba  Gumai Dispensary;;;;;
Zaki;Mur Mur South Ward;;Sandigalau Dispensary;;;;;
Zaki;Mur Mur South Ward;;Bakari Dispensary;;;;;
Zaki;Mur Mur South Ward;;Bura Primary Health Centre;;;;;
Zaki;Sakwa Ward;;Sakwa Primary Health Centre;;;;;
Zaki;Sakwa Ward;;Sakwa Dispensary;;;;;
Zaki;Tarbuwa Ward;;Kujjin Dispensary;;;;;
Zaki;Tashena Ward;;Tashena Model  Primary Health Centre;;;;;
Zaki;Tashena Ward;;Barnisu Model Primary Health Centre;;;;;
Zaki;Tashena Ward;;Sansan Dispensary;;;;;
Zaki;Tashena Ward;;Garin  Gami Dispensary;;;;;
