LGA;Ward;Settlement;Facility;Type;Ownership;Address;Longitude;Latitude
Ado;Akpoge/Ogbilolo Ward;;Aganacha Family Support Programme Clinic;;;;;
Ado;Akpoge/Ogbilolo Ward;;Agila Primary Health Centre;;;;;
Ado;Apa Ward;;Okpobila LG Health Post;;;;;
Ado;Apa Ward;;Ogebe LG Health Post;;;;;
Ado;Apa Ward;;Apa Basic Health Clinic;;;;;
Ado;Ekile Ward;;Ekpufu Health Post;;;;;
Ado;Ekile Ward;;Ekile Primary Health Centre;;;;;
Ado;Igumale Ward I;;Igumale Primary Health Centre;;;;;
Ado;Igumale Ward II;;Etenyi I Primary Health Centre;;;;;
Ado;Ijigban Ward;;Ijigban Primary Health Centre;;;;;
Ado;Ogege Ward;;Ogi LG Health Post;;;;;
Ado;Ogege Ward;;Ikpomolokpo Health Post;;;;;
Ado;Ogege Ward;;Rijo Primary Health Centre;;;;;
Ado;Ogege Ward;;Ikara LG Health Post;;;;;
Ado;Ogege Ward;;Watuolo LG Health Post;;;;;
Ado;Okwonyo Ward;;Ndekema Primary Health Centre;;;;;
Ado;Okwonyo Ward;;Ojije LG Health Post;;;;;
Ado;Okwonyo Ward;;Utonkon Comprehensive Health Centre;;;;;
Ado;Royongo Ward;;Udebo Igba Health Post;;;;;
Ado;Royongo Ward;;Ujol Health Post;;;;;
Ado;Royongo Ward;;Ojenyo Primary Health Centre;;;;;
Ado;Royongo Ward;;Adochi LG Health Post;;;;;
Ado;Royongo Ward;;Udebo-Ojenyo Primary Health Centre;;;;;
Ado;Ulayi Ward;;Ulayi Primary Health Centre;;;;;
Ado;Ulayi Ward;;Inikiri LG Health Post;;;;;
Agatu;Egba Ward;;Adagbo Health Post;;;;;
Agatu;Egba Ward;;Abugbe Primary Health Centre;;;;;
Agatu;Egba Ward;;Egba Health Post;;;;;
Agatu;Enungba Ward;;Enungba Primary Health Centre;;;;;
Agatu;Enungba Ward;;Ichogolugwu Health Post;;;;;
Agatu;Enungba Ward;;Ogbangede Primary Health Centre;;;;;
Agatu;Obagaji Ward;;Obagaji Primary Health Centre;;;;;
Agatu;Obagaji Ward;;Obagaji Comprehensive Health Centre;;;;;
Agatu;Obagaji Ward;;Obishu Health Post;;;;;
Agatu;Odugbeho Ward;;Odejo Primary Health Centre;;;;;
Agatu;Odugbeho Ward;;Odugbeho Primary Health Centre;;;;;
Agatu;Odugbeho Ward;;Ugboju Health Post;;;;;
Agatu;Ogbaulu Ward;;Olegabulu Health Post;;;;;
Agatu;Ogbaulu Ward;;Ogbaulu Primary Health Centre;;;;;
Agatu;Ogwule-Kaduna Ward;;Olegentonu Health Post;;;;;
Agatu;Ogwule-Kaduna Ward;;Akele Health Post;;;;;
Agatu;Ogwule-Kaduna Ward;;Ekwo-Okpanchenyi Primary Health Centre;;;;;
Agatu;Ogwule-Kaduna Ward;;Ogwule-Kaduna Primary Health Centre;;;;;
Agatu;Ogwule-Ogbaulu Ward;;Ogwule-Ogbaulu Primary Health Centre;;;;;
Agatu;Ogwule-Ogbaulu Ward;;Ogwule-Ankpa Health Post;;;;;
Agatu;Ogwule-Ogbaulu Ward;;Ajomachi Health Post;;;;;
Agatu;Ogwule-Ogbaulu Ward;;Egwuma Primary Health Centre;;;;;
Agatu;Okokolo Ward;;Okokolo Primary Health Centre;;;;;
Agatu;Okokolo Ward;;Akwu Primary Health Centre;;;;;
Agatu;Okokolo Ward;;Ocholonya Health Post;;;;;
Agatu;Oshigbudu Ward;;Atakpa Health Post;;;;;
Agatu;Oshigbudu Ward;;Enogaje Health Post;;;;;
Agatu;Oshigbudu Ward;;Oshigbudu Primary Health Centre;;;;;
Agatu;Usha Ward;;Usha Primary Health Centre;;;;;
Agatu;Usha Ward;;Warri Health Post;;;;;
Agatu;Usha Ward;;Ogwufa Health Post;;;;;
Agatu;Usha Ward;;Okpokpolo Health Post;;;;;
Agatu;Usha Ward;;Oweto Primary Health Centre;;;;;
Agatu;Usha Ward;;Adeka Health Post;;;;;
Agatu;Usha Ward;;Ogam Health Post;;;;;
Apa;Auke Ward;;Auke Ibadon Primary Health Centre;;;;;
Apa;Auke Ward;;Auke Igerri Primary Health Centre;;;;;
Apa;Edikwu 1 Ward;;Edikwu Icho Primary Health Centre;;;;;
Apa;Edikwu 1 Ward;;Ukpogo Primary Health Centre;;;;;
Apa;Edikwu 1 Ward;;Oladoga Primary Health Centre;;;;;
Apa;Edikwu 2 Ward;;Opaha Model Primary Health Centre;;;;;
Apa;Edikwu 2 Ward;;Obinda Primary Health Centre;;;;;
Apa;Edikwu 2 Ward;;Ankpali Primary Health Centre;;;;;
Apa;Igah Ward;;Okpokwu Primary Health Centre (Apa);;;;;
Apa;Igah Ward;;Ologbeche Health Post;;;;;
Apa;Igah Ward;;Igah Comprehensive Health Centre;;;;;
Apa;Igah Ward;;Ochekele Primary Health Centre;;;;;
Apa;Igoro Ward;;Ikaduna Health Post;;;;;
Apa;Igoro Ward;;Oweko Primary Health Centre;;;;;
Apa;Igoro Ward;;Igoro Primary Health Centre;;;;;
Apa;Ikobi Ward;;Ijaha-Ikobi Primary Health Centre;;;;;
Apa;Ikobi Ward;; Imana-Ikobi Primary Health Centre;;;;;
Apa;Ikobi Ward;;Oloke Ikobi Primary Health Centre;;;;;
Apa;Ikobi Ward;;Ugbobi Primary Health Centre;;;;;
Apa;Ikobi Ward;;Ikobi Primary Health Centre;;;;;
Apa;Oba Ward;;Alifeti Primary Health Centre;;;;;
Apa;Oba Ward;;Otakpa Primary Health Centre;;;;;
Apa;Oba Ward;;Oba Primary Health Centre;;;;;
Apa;Ofoke Ward;;Ofoke Primary Health Centre;;;;;
Apa;Ofoke Ward;;Ikor Primary Health Centre;;;;;
Apa;Ofoke Ward;;Amoke Primary Health Centre;;;;;
Apa;Oiji Ward;;Oiji Primary Health Centre;;;;;
Apa;Oiji Ward;;Idada Primary Health Centre;;;;;
Apa;Ojantelle/Akpete Ward;;Ojantele Primary Health Centre;;;;;
Apa;Ugbokpo Ward;;Ugbokpo Comprehensive Health Centre;;;;;
Apa;Ugbokpo Ward;;Ochumeku Primary Health Centre;;;;;
Apa;Ugbokpo Ward;;Adija Primary Health Centre;;;;;
Buruku;Binev Ward;;Dogo LG Health Post;;;;;
Buruku;Binev Ward;;Mbashian LG Health Post Ortese Mbashian;;;;;
Buruku;Binev Ward;;Terseer Udza Health Clinic Abuku;;;;;
Buruku;Binev Ward;;Ikov Agudu Health Post;;;;;
Buruku;Binev Ward;;Agwabi LG Health Post;;;;;
Buruku;Etulo Ward;;Otsafu LG Health Post;;;;;
Buruku;Etulo Ward;;Adi HSF Primary Health Centre;;;;;
Buruku;Mbaade Ward;;Tofi Primary Health Centre;;;;;
Buruku;Mbaakura Ward;;Mbagen Comprehensive Health Centre (Abwa);;;;;
Buruku;Mbaakura Ward;;Ugbema Primary Health Centre;;;;;
Buruku;Mbaapen Ward;;Kur LG Health Post;;;;;
Buruku;Mbaapen Ward;;Uatsor NKST Health Centre;;;;;
Buruku;Mbaapen Ward;;Gbajar Primary Health Centre;;;;;
Buruku;Mbaapen Ward;;Adingi Primary Health Centre;;;;;
Buruku;Mbaapen Ward;;Ijer Primary Health Centre;;;;;
Buruku;Mbaapen Ward;;Buruku General Hospital;;;;;
Buruku;Mbaapen Ward;;Buruku Primary Health Centre;;;;;
Buruku;Mbaapen Ward;;Doose Health Clinic Buruku;;;;;
Buruku;Mbaatirkyaa Ward;;Akuraga Primary Health Centre;;;;;
Buruku;Mbaatirkyaa Ward;;Jingir Primary Health Centre;;;;;
Buruku;Mbaatirkyaa Ward;;Ako Primary Health Care;;;;;
Buruku;Mbaatirkyaa Ward;;Vongu Primary Health Centre;;;;;
Buruku;Mbaatirkyaa Ward;;Awuapila Primary Health Centre;;;;;
Buruku;Mbaazagee Ward;;Anongu Primary Health Centre;;;;;
Buruku;Mbaazagee Ward;;Ajohol LG Health Centre;;;;;
Buruku;Mbaikyaan Ward;;Utsombi Primary Health Centre;;;;;
Buruku;Mbaikyaan Ward;;Mbanzegh LG Health Post;;;;;
Buruku;Mbaikyaan Ward;;Anvambe Primary Health Centre;;;;;
Buruku;Mbaikyongo Ward;;Ugah Primary Health Centre;;;;;
Buruku;Mbatyough Ward (Buruku);;Apaa LG Health Centre;;;;;
Buruku;Mbatyough Ward (Buruku);;Dzua Mbatser Primary Health Centre;;;;;
Buruku;Mbaya Ward;;Biliji NKST Health Centre;;;;;
Buruku;Mbaya Ward;;Usen Primary Health Centre;;;;;
Buruku;Mbaya Ward;;bn Ortese Mbaatsua Primary Health Centre;;;;;
Buruku;Mbaya Ward;;Adogo Primary Health Centre (Buruku);;;;;
Buruku;Mbayaka Ward;;Mbakuragba Primary Health Centre;;;;;
Buruku;Mbayaka Ward;;Anshav Primary Health Centre;;;;;
Buruku;Shorov Ward;;Tyowanye Primary Health Centre;;;;;
Buruku;Shorov Ward;;Tyowanye Township Health Clinic;;;;;
Gboko;Gboko Central Ward;;Gboko Township Clinic;;;;;
Gboko;Gboko East Ward;;Gboko East NKST Comprehensive Health Centre;;;;;
Gboko;Gboko North-West Ward;;Fidei Polytech Clinic Gboko;;;;;
Gboko;Gboko North-West Ward;;Gboko Primary Health Centre;;;;;
Gboko;Gboko North-West Ward;;Gboko TBT Hospital;;;;;
Gboko;Gboko North-West Ward;;Gboko General Hospital;;;;;
Gboko;Gboko South Ward;;Gboko South Primary Health Centre;;;;;
Gboko;Igyorov Ward;;Kumbur/Anyia Community Health Centre;;;;;
Gboko;Igyorov Ward;;Chembe Community Health Centre;;;;;
Gboko;Igyorov Ward;;Mbashabu Community Health Centre;;;;;
Gboko;Igyorov Ward;;Ambighir Primary Health Centre;;;;;
Gboko;Mbaanku Ward;;Mbaandar Community Health Centre;;;;;
Gboko;Mbaanku Ward;;Mbatswar Comprehensive Health Centre;;;;;
Gboko;Mbaanku Ward;;Tyo-Ado Primary Health Centre;;;;;
Gboko;Mbaanku Ward;;Abagen Women In Health Clinic;;;;;
Gboko;Mbaavarakaa Ward;;Mbaagbanya Community Health Centre;;;;;
Gboko;Mbaavarakaa Ward;;Gbemacha Health Centre;;;;;
Gboko;Mbadim Ward;;Ngodoo Clinic and Maternity Luga;;;;;
Gboko;Mbadim Ward;;Ukough Community Health Clinic;;;;;
Gboko;Mbadim Ward;;St Veronica's Clinic (Agidi);;;;;
Gboko;Mbadim Ward;;Ikyumbur Women in Health Clinic;;;;;
Gboko;Mbadim Ward;;Akpagher Primary Health Centre;;;;;
Gboko;Mbadim Ward;;Kuhe NKST Health Clinic;;;;;
Gboko;Mbaiwar Ward;;Affoh Comprehensive Health Centre;;;;;
Gboko;Mbaiwar Ward;;Kusuv Comprehensive Health Centre;;;;;
Gboko;Mbakpegh Ward;;Mbakyundu Community Health Centre;;;;;
Gboko;Mbakpegh Ward;;Ameladu Health Clinic;;;;;
Gboko;Mbakpegh Ward;;Mbaakanaku Health Clinic;;;;;
Gboko;Mbakpegh Ward;;Mbaakom Community Health Clinic (Ipav);;;;;
Gboko;Mbakwen Ward;;Mgbangun Health Centre;;;;;
Gboko;Mbakwen Ward;;Wohiev Modern Primary Health Care Centre;;;;;
Gboko;Mbakwen Ward;;Adumbe Community Health Centre;;;;;
Gboko;Mbakwen Ward;;Ikpa NKST Health Centre;;;;;
Gboko;Mbakwen Ward;;Ukazo Community Health Centre;;;;;
Gboko;Mbatan Ward;;Abetse Community Health Centre;;;;;
Gboko;Mbatan Ward;;Mbaihyande Community Health Centre;;;;;
Gboko;Mbatser Ward;;Mbaswa Health Centre;;;;;
Gboko;Mbatyu Ward;;Tsekucha Health Centre;;;;;
Gboko;Mbatyu Ward;;Atume Health Clinic and Maternity;;;;;
Gboko;Ukpekpe Ward;;Mbagar Community Health Centre;;;;;
Gboko;Ukpekpe Ward;;Ishundugh Modern Primary Health Centre;;;;;
Gboko;Utabar Ward;;Genyi NKST Health Centre;;;;;
Gboko;Utabar Ward;;Tse Akeme Health Centre;;;;;
Guma;Mbabai Ward;;Ukpiam Comprehensive Health Centre;;;;;
Guma;Mbabai Ward;;Atongo LG Health Centre;;;;;
Guma;Mbawa Ward;;Tugudu Health Centre;;;;;
Guma;Mbayer Yandev Ward;;Mbaniange Community Health Centre;;;;;
Guma;Mbayer Yandev Ward;;Yogbo LG Health Centre;;;;;
Guma;Mbayer Yandev Ward;;Beeku Guma Health Centre;;;;;
Guma;Nyiev Ward;;Yelewata LG Health Centre;;;;;
Guma;Nyiev Ward;;Ukohol Health Clinic;;;;;
Guma;Nyiev Ward;;Udei Comprehensive Health Centre;;;;;
Guma;Nzorov Ward;;Iordye LG Health Centre;;;;;
Guma;Uvir Ward;;Iye LG Health Centre;;;;;
Gwer East;Akpachayi Ward;;Akpachayi Primary Health Centre;;;;;
Gwer East;Aliade/Mbalav Ward;;Aliade Comprehensive Health Centre;;;;;
Gwer East;Gbemacha Ward;;Tswardyugh LG Health Centre;;;;;
Gwer East;Gbemacha Ward;;Tse-Aje Health Clinic;;;;;
Gwer East;Gbemacha Ward;;Adetsav LG Health Centre;;;;;
Gwer East;Gee Ward;;Kyon Family Support Programme Health Centre;;;;;
Gwer East;Gee Ward;;Ullam LG Health Centre;;;;;
Gwer East;Gee Ward;;Mbakine LG Health Centre;;;;;
Gwer East;Ikwe Ward;;Shanna Primary Health Centre;;;;;
Gwer East;Ikwe Ward;;Uva LG Health Centre;;;;;
Gwer East;Ikwe Ward;;Igbor LG Health Centre;;;;;
Gwer East;Ikyonov Ward;;Ashina Health Post;;;;;
Gwer East;Mbabur Ward;;Gyungu Primary Health Centre;;;;;
Gwer East;Mbabur Ward;;Ahumbe LG Health Centre;;;;;
Gwer East;Mbabur Ward;;Usar LG Health Centre;;;;;
Gwer East;Mbakyaan Ward;;Taraku Primary Health Centre;;;;;
Gwer East;Mbalom Ward;;Hundu Primary Health Centre;;;;;
Gwer East;Mbalom Ward;;Agana Health Clinic;;;;;
Gwer East;Mbalom Ward;;Paka Health Clinic;;;;;
Gwer East;Mbasombo Ward;;Ikpayongo Primary Health Centre;;;;;
Gwer East;Mbayom Ward;;Gbache LG Health Centre;;;;;
Gwer East;Shough Ward;;Chihichan LG Health Centre;;;;;
Gwer East;Ugee Ward;;Howe LG Health Centre;;;;;
Gwer East;Ugee Ward;;Kuegh LG Health Centre;;;;;
Gwer West;Avihijime Ward;;Mbaiwar Primary Health Centre;;;;;
Gwer West;Avihijime Ward;;Achu Primary Health Clinic;;;;;
Gwer West;Avihijime Ward;;Jor Primary Health Centre;;;;;
Gwer West;Gbaange/Tongov Ward;;Tongov Primary Health Care Clinic;;;;;
Gwer West;Gbaange/Tongov Ward;;Ugende-Agberagba Health Post;;;;;
Gwer West;Ikyaghev Ward;;Father Matthias Health Centre;;;;;
Gwer West;Ikyaghev Ward;;Naka Comprehensive Health Centre;;;;;
Gwer West;Mbabuande Ward;;Tseagbe Primary Health Centre;;;;;
Gwer West;Mbabuande Ward;;Mbaakem Primary Health Centre;;;;;
Gwer West;Mbachohon Ward;;Agagbe Primary Health Centre;;;;;
Gwer West;Mbachohon Ward;;Agagbe EEC Primary Health Centre;;;;;
Gwer West;Mbapa Ward;;Ushakaa Health Clinic;;;;;
Gwer West;Mbapa Ward;;Ukyongu Primary Health Clinic;;;;;
Gwer West;Mbapa Ward;;Mbalosu Primary Health Centre;;;;;
Gwer West;Mbapupuu/Tswarev  Ward;;Mbapupuu Primary Health Centre;;;;;
Gwer West;Mbapupuu/Tswarev  Ward;;Tswarev Primary Health Centre;;;;;
Gwer West;Merkyen Ward;;Kwashon Primary Health Centre;;;;;
Gwer West;Nyamshi Ward;;Nyamshi Primary Health Centre;;;;;
Gwer West;Saghev/Ukusu Ward;;Ukusu Primary Health Care Clinic;;;;;
Gwer West;Saghev/Ukusu Ward;;Jimba Primary Health Care Centre;;;;;
Gwer West;Sengev /Yengev  Ward;;Mbashija Primary Health Centre;;;;;
Gwer West;Sengev /Yengev  Ward;;Agbo Health Post Sengev;;;;;
Gwer West;Sengev Ward;;Abian (FSP) Primary Health Centre;;;;;
Gwer West;Sengev Ward;;Kunav Health Clinic;;;;;
Gwer West;Tijime Ward;;Nyadafa Health Post;;;;;
Gwer West;Tijime Ward;;Aondoana Primary Health Centre;;;;;
Gwer West;Tijime Ward;;Koti Akpoghoul Health Post;;;;;
Gwer West;Tsambe Mbasev Ward;;Onmbaaondo Primary Health Centre;;;;;
Gwer West;Tsambe Mbasev Ward;;Yogbo Health Post;;;;;
Gwer West;Tsambe Mbasev Ward;;Orawe Health Clinic;;;;;
Gwer West;Tyoughatee/Injaha Ward;;Mbaier Primary Health Centre;;;;;
Gwer West;Tyoughatee/Injaha Ward;;Gidan Pepa Primary Health Centre;;;;;
Katsina-Ala;Ikurav-Tiev 1 Ward;;Soho Primary Health Centre;;;;;
Katsina-Ala;Ikurav-Tiev 1 Ward;;Ikowe LG Health Centre;;;;;
Katsina-Ala;Ikurav-Tiev 1 Ward;;NKST Health Centre Anber;;;;;
Katsina-Ala;Ikurav-Tiev 1 Ward;;Ndele Loca Government Health Clinic;;;;;
Katsina-Ala;Ikurav-Tiev 1 Ward;;Ayua Primary Health Centre;;;;;
Katsina-Ala;Ikurav-Tiev 2 Ward;;Joo-Mbatyough Comprehensive Health Centre;;;;;
Katsina-Ala;Ikurav-Tiev 2 Ward;;Mbasar LG Health Centre;;;;;
Katsina-Ala;Iwar Ward;;Une Primary Health Centre;;;;;
Katsina-Ala;Iwar Ward;;Numbeve Primary Health Centre;;;;;
Katsina-Ala;Iwar Ward;;Mbajiir LG Health Centre;;;;;
Katsina-Ala;Iwar Ward;;Amarfu Primary Health Centre;;;;;
Katsina-Ala;Iwar Ward;;Akugh LG Health Centre;;;;;
Katsina-Ala;Katsina-Ala Township Ward;;Nguher Clinic;;;;;
Katsina-Ala;Katsina-Ala Township Ward;;Katsina-Ala Township Comprehensive Health Centre;;;;;
Katsina-Ala;Katsina-Ala Township Ward;;Nahuta Hospital Katsina-Ala;;;;;
Katsina-Ala;Katsina-Ala Township Ward;;Katsina-Ala General Hospital;;;;;
Katsina-Ala;Katsina-Ala Township Ward;;Hiitom Primary Health Centre;;;;;
Katsina-Ala;Katsina-Ala Township Ward;;Bem Clinic Katsina - Ala;;;;;
Katsina-Ala;Mbacher Ward;;Harga NKST Hospital;;;;;
Katsina-Ala;Mbacher Ward;;Mdue Health Centre;;;;;
Katsina-Ala;Mbacher Ward;;Ikpaukur LG Health Centre;;;;;
Katsina-Ala;Mbajir Ward;;Abako LG Health Centre;;;;;
Katsina-Ala;Mbajir Ward;;Sai Ward Health System;;;;;
Katsina-Ala;Mbatyula Ward;;Mbatyula LG Health Centre;;;;;
Katsina-Ala;Mbatyula Ward;;Agu - Centre Ward Health System;;;;;
Katsina-Ala;Mbayongo Ward (Katsina-Ala);;Nagu LG Health Centre;;;;;
Katsina-Ala;Mbayongo Ward (Katsina-Ala);;Gbise LG Health Centre;;;;;
Katsina-Ala;Mbayongo Ward (Katsina-Ala);;Igyudu LG Health Clinic;;;;;
Katsina-Ala;Mbayongo Ward (Katsina-Ala);;Imande Ahungwa Health Clinic;;;;;
Katsina-Ala;Michihe Ward;;Ucha Primary Health Centre;;;;;
Katsina-Ala;Michihe Ward;;Abaji Community Health Centre;;;;;
Katsina-Ala;Michihe Ward;;Tavachan Primary Health Centre;;;;;
Katsina-Ala;Michihe Ward;;Kpiliki Health Clinic and Maternity Abaji;;;;;
Katsina-Ala;Michihe Ward;;Abaji NKST Health Centre;;;;;
Katsina-Ala;Michihe Ward;;Abah LG Health Centre;;;;;
Katsina-Ala;Tiir Ward;;Mbaton LG Health Centre;;;;;
Katsina-Ala;Tiir Ward;;Tse-Makar LG Health Centre;;;;;
Katsina-Ala;Tiir Ward;;Adikpo LG Health Centre (Tiir);;;;;
Katsina-Ala;Tiir Ward;;Tyogbenda Udende Primary Health Centre;;;;;
Katsina-Ala;Tiir Ward;;Gbor Comprehensive Health Centre;;;;;
Katsina-Ala;Tiir Ward;;Ukuusu LG Health Centre;;;;;
Katsina-Ala;Tiir Ward;;Hembafan Local Government Health Centre Bwaja;;;;;
Katsina-Ala;Tiir Ward;;Salem Medical Clinic;;;;;
Katsina-Ala;Tiir Ward;;Achough Primary Health Centre;;;;;
Katsina-Ala;Utange Ward (Katsina-Ala);;Dooter Health Clinic and Maternity Tor-Donga;;;;;
Katsina-Ala;Utange Ward (Katsina-Ala);;Nyitar LG Health Centre;;;;;
Katsina-Ala;Utange Ward (Katsina-Ala);;Imande Adamu LG Health Centre;;;;;
Katsina-Ala;Utange Ward (Katsina-Ala);;Tor-Donga Comprehensive Health Centre;;;;;
Katsina-Ala;Yooyo Ward;;Ubu - Utenge Primary Health Centre;;;;;
Katsina-Ala;Yooyo Ward;;Tacha LG Health Centre;;;;;
Katsina-Ala;Yooyo Ward;;Tionkwase LG Health Centre;;;;;
Konshisha;Ikyurav/Mbatwer Ward;;Agera Community Health Clinic;;;;;
Konshisha;Ikyurav/Mbatwer Ward;;Mbagbaa Primary Health Centre;;;;;
Konshisha;Iwarnyam Ward;;Anwuma Primary Health Centre;;;;;
Konshisha;Iwarnyam Ward;;Jija Clinic;;;;;
Konshisha;Iwarnyam Ward;;Huma Primary Health Centre;;;;;
Konshisha;Iwarnyam Ward;;Awajir Primary Health Centre;;;;;
Konshisha;Iwarnyam Ward;;Guleya Primary Health Centre;;;;;
Konshisha;Mbagusa-Tse Ward;;Ochoro Health Clinic;;;;;
Konshisha;Mbagusa-Tse Ward;;Bonta Family Support Programme Primary Health Centre;;;;;
Konshisha;Mbagusa-Tse Ward;;Manta Community Health Centre;;;;;
Konshisha;Mbake Ward;;Korinya Primary Health Centre;;;;;
Konshisha;Mbake Ward;;Mbatyough Primary Health Centre;;;;;
Konshisha;Mbake Ward;;Sauki Primary Health Centre;;;;;
Konshisha;Mbake Ward;;Ikumbur Memorial Health Clinic;;;;;
Konshisha;Mbakyaise Ward;;Tyoate Primary Health Centre;;;;;
Konshisha;Mbakyaise Ward;;Anyiranya Community Health Centre;;;;;
Konshisha;Mbakyaise Ward;;Jovkyundan Community Health Clinic;;;;;
Konshisha;Mbanor Ward;;C S D Health Clinic Mbaatim;;;;;
Konshisha;Mbanor Ward;;Ubo-Agera Primary Health Centre;;;;;
Konshisha;Mbanor Ward;;Adyorough Health Clinic;;;;;
Konshisha;Mbatem Ward;;Leke Health Clinic (Tse-Agberagba);;;;;
Konshisha;Mbatem Ward;;Tyough Primary Health Centre;;;;;
Konshisha;Mbatem Ward;;Tse-Agberagba Comprehensive Health Centre;;;;;
Konshisha;Mbatem Ward;;Tse-Agberagba General Hospital;;;;;
Konshisha;Mbatsen Ward;;Mbaasham Primary Health Centre;;;;;
Konshisha;Mbatsen Ward;;Amua Community Health Centre;;;;;
Konshisha;Mbatsen Ward;;Agbeede Community Health Centre;;;;;
Konshisha;Mbavaa Ward;;Akputu Primary Health Centre;;;;;
Konshisha;Mbavaa Ward;;Nguuma Clinic (Annex);;;;;
Konshisha;Mbavaa Ward;;Sev Primary Health Centre;;;;;
Konshisha;Mbavaa Ward;;Jov-Mbavaa Primary Health Centre;;;;;
Konshisha;Mbawar Ward;;Mbaikpande Primary Health Centre;;;;;
Konshisha;Mbawar Ward;;Igbuugh Health Centre;;;;;
Konshisha;Mbawar Ward;;Agudu Primary Health Centre;;;;;
Konshisha;Mbawar Ward;;Dooshima Clinic (Wuese);;;;;
Konshisha;Mbawar Ward;;Community Health Clinic Wuese;;;;;
Konshisha;Mbayegh-Kyer Ward;;Ubwa Primary Health Centre;;;;;
Konshisha;Mbayegh-Kyer Ward;;Ikpeakor Community Health Centre;;;;;
Konshisha;Mbayegh-Kyer Ward;;Ashido Health Clinic (Agera);;;;;
Kwande;Adikpo Township Ward;;Adikpo Holy Child Clinic and Maternity;;;;;
Kwande;Adikpo Township Ward;;Adikpo LG Health Clinic (Adikpo);;;;;
Kwande;Agbakyan Ward;;Abenga Comprehensive Health Centre;;;;;
Kwande;Agbakyan Ward;;Gbe LG Health Centre;;;;;
Kwande;Agbakyan Ward;;Ihonam Comprehensive Health Centre;;;;;
Kwande;Agbakyan Ward;;Adikpo Primary Health Centre;;;;;
Kwande;Kumakwagh Ward;;Manyam Community Health Centre;;;;;
Kwande;Kumakwagh Ward;;Agura Community Health Centre;;;;;
Kwande;Liev 1 Ward;;Idyo-Mbaikyo Comprehensive Health Centre;;;;;
Kwande;Liev 1 Ward;;Usambe Tomahar Comprehensive Health Centre;;;;;
Kwande;Liev 1 Ward;;Begha Comprehensive Health Centre;;;;;
Kwande;Liev 1 Ward;;Achia Local Government Health Clinic;;;;;
Kwande;Liev 2 Ward;;Ikyogen LG Health Centre;;;;;
Kwande;Liev 2 Ward;;Agenogo Comprehensive Health Centre;;;;;
Kwande;Mbadura Ward;;Boagundu Comprehensive Health Centre;;;;;
Kwande;Mbadura Ward;;Wende Local Government Health Clinic;;;;;
Kwande;Mbaikyor Ward;;Gyubua Comprehensive Health Centre;;;;;
Kwande;Mbaikyor Ward;;Anwase Comprehensive Health Centre;;;;;
Kwande;Mbaikyor Ward;;Nyihemba Comprehensive Health Centre;;;;;
Kwande;Mbaikyor Ward;;Amahundu LG Health Centre;;;;;
Kwande;Mbaketsa Ward;;Ageraga Comprehensive Health Centre;;;;;
Kwande;Mbaketsa Ward;;Ajio LG Health Centre;;;;;
Kwande;Mbayoo Ward;;Tse- Ugbena Gabriel Suswan Cottaage Clinic;;;;;
Kwande;Mbayoo Ward;;Ikyoor Primary Health Care Clinic;;;;;
Kwande;Menev Ward;;Injiov Comprehensive Health Centre;;;;;
Kwande;Menev Ward;;Ayindi Primary Health Care Centre;;;;;
Kwande;Menev Ward;;Igyom Primary Health Centre;;;;;
Kwande;Menev Ward;;Mbachile Nyamkyume LG Health Centre;;;;;
Kwande;Menev Ward;;Ugugu Primary Health Care Centre;;;;;
Kwande;Menev Ward;;Adagi LG Clinic;;;;;
Kwande;Tondov Ward 1;;Mbakunu Comprehensive Health Centre;;;;;
Kwande;Tondov Ward 1;;Iyon Ishangev-ya Comprehensive Health Centre;;;;;
Kwande;Tondov Ward 2;;Koti Comprehensive Health Centre;;;;;
Kwande;Tondov Ward 2;;Ada Comprehensive Health Centre;;;;;
Kwande;Usar Ward;;Gube LG Clinic;;;;;
Kwande;Yaav Ward;;Gbodi LG Health Centre;;;;;
Kwande;Yaav Ward;;Jato-Aka Primary Health Centre;;;;;
Logo;Mbadyul Ward;;Kukwa Health Clinic;;;;;
Logo;Mbadyul Ward;;Abeda Family Support Programme Primary Health Centre;;;;;
Logo;Mbadyul Ward;;Gondozua LG Health Centre;;;;;
Logo;Mbagber Ward;;Mchia Primary Health Centre;;;;;
Logo;Mbagber Ward;;Isaiah Memorial Comprehensive Health Centre;;;;;
Logo;Mbagber Ward;;Anyiin NKST Hospital;;;;;
Logo;Mbater Ward;;Mbaalom Primary Health Centre;;;;;
Logo;Mbater Ward;;Gboragayo LG Health Centre;;;;;
Logo;Mbater Ward;;Imande Adega LG Health Centre;;;;;
Logo;Mbavuur Ward;;Agov NKST Health Clinic;;;;;
Logo;Mbavuur Ward;;Indyer Primary Health Centre;;;;;
Logo;Mbavuur Ward;;Igboghul Primary Health Centre;;;;;
Logo;Mbavuur Ward;;Abeda Shitile LG Health Centre;;;;;
Logo;Mbayam Ward;;Doo-Doo Clinic (Mbayam);;;;;
Logo;Mbayam Ward;;Ugba General Hospital;;;;;
Logo;Mbayam Ward;;Ugba Comprehensive Health Centre;;;;;
Logo;Nenzev Ward;;Ikyor LG Health Centre;;;;;
Logo;Tombo Ward;;Uzer LG Health Centre;;;;;
Logo;Tombo Ward;;Ayilamo Comprehensive Health Centre;;;;;
Logo;Tombo Ward;;Kurungu LG Health Centre;;;;;
Logo;Tombo Ward;;Mbakighir Primary Health Centre;;;;;
Logo;Tombo Ward;;Iwendyer LG Health Centre;;;;;
Logo;Turan Ward;;Dooshima Primary Health Centre;;;;;
Logo;Turan Ward;;Jun LG Health Centre;;;;;
Logo;Ukembergya/Tswarev Ward;;Jootar Federal Model Centre;;;;;
Logo;Ukembergya/Tswarev Ward;;Iorza LG Health Centre;;;;;
Logo;Ukembergya/Tswarev Ward;;Meeme Primary Health Centre;;;;;
Logo;Yonov Ward;;Wende Comprehensive Health Centre;;;;;
Logo;Yonov Ward;;Agbungu LG Health Centre;;;;;
Logo;Yonov Ward;;Akaa NKST Health Centre;;;;;
Logo;Yonov Ward;;Zanzan LG Health Centre;;;;;
Makurdi;Agan Ward;;Ayaka Comprehensive Health Centre;;;;;
Makurdi;Agan Ward;;Tse-Chagu Health Post;;;;;
Makurdi;Agan Ward;;Agan Family Support Programme Primary Health Centre;;;;;
Makurdi;Agan Ward;;Origbo Primary Health Clinic;;;;;
Makurdi;Agan Ward;;Orowa Health Clinic;;;;;
Makurdi;Ankpa Wadata Ward;;Wadata Health Clinic;;;;;
Makurdi;Ankpa Wadata Ward;;Hope Hospital;;;;;
Makurdi;Ankpa Wadata Ward;;Multi Care Hospital;;;;;
Makurdi;Ankpa Wadata Ward;;First Fertility Hospital;;;;;
Makurdi;Ankpa Wadata Ward;;Jolua Hospital;;;;;
Makurdi;Bar Ward;;Adem Primary Health Centre;;;;;
Makurdi;Bar Ward;;Yaikyo Health Clinic;;;;;
Makurdi;Bar Ward;;Hemko Hospital;;;;;
Makurdi;Bar Ward;;Adeke Health Clinic;;;;;
Makurdi;Central South Mission Ward;;Makurdi Federal Medical Centre;;;;;
Makurdi;Central South Mission Ward;;Makurdi Family Support Programme Clinic;;;;;
Makurdi;Central South Mission Ward;;Nigerian Police Force Health Clinic;;;;;
Makurdi;Central South Mission Ward;;Sandra Hospital;;;;;
Makurdi;Central South Mission Ward;;Makurdi LG Staff Health Clinic;;;;;
Makurdi;Fiidi Ward;;Yima Hospital;;;;;
Makurdi;Fiidi Ward;;Poor Health Clinic;;;;;
Makurdi;Fiidi Ward;;Fiidi Health Clinic;;;;;
Makurdi;Fiidi Ward;;Akpehe Health Clinic;;;;;
Makurdi;Fiidi Ward;;Adorough Primary Health Post;;;;;
Makurdi;Fiidi Ward;;Air Force Medical Centre;;;;;
Makurdi;Fiidi Ward;;Apir NKST Health Centre;;;;;
Makurdi;Fiidi Ward;;Akile NKST Health Centre;;;;;
Makurdi;Fiidi Ward;;Benue State University Teaching Hospital;;;;;
Makurdi;Mbalagh Ward;;Ibume Health Post;;;;;
Makurdi;Mbalagh Ward;;Ikyaan Health Post;;;;;
Makurdi;Mbalagh Ward;;Anter Family Support Programme Health Clinic;;;;;
Makurdi;Modern Market Ward;;Tse-Aho Health Post;;;;;
Makurdi;Modern Market Ward;;Pishon Specialist Women Hospital;;;;;
Makurdi;Modern Market Ward;;Adaka Health Clinic;;;;;
Makurdi;North Bank 2 Ward;;Asase Primary Health Centre;;;;;
Makurdi;Walomayo Ward;;Ushakaa Clinic;;;;;
Makurdi;Walomayo Ward;;Madonna Hospital;;;;;
Makurdi;Walomayo Ward;;Family Practice Comprehensive Health Centre;;;;;
Makurdi;Walomayo Ward;;Queens Clinic;;;;;
Makurdi;Walomayo Ward;;Pampas Hospital;;;;;
Makurdi;Walomayo Ward;;Bishop Murray Medical Centre;;;;;
Makurdi;Walomayo Ward;;Benonil Hospital;;;;;
Obi;Adiko Ward;;Ojenya Primary Health Care;;;;;
Obi;Adum West Ward;;Okwumaye Health Post;;;;;
Obi;Adum West Ward;;Akwunda Health Post;;;;;
Obi;Adum West Ward;;Adum West Health Post;;;;;
Obi;Adum West Ward;;Owo Health Post;;;;;
Obi;Ikwokwu Ward;;Udegi Primary Health Centre;;;;;
Obi;Irabi Ward;;Obijago Health Post;;;;;
Obi;Itogo Ward;;Igbegi Primary Health Centre;;;;;
Obi;Itogo Ward;;Iyaho Health Post;;;;;
Obi;Itogo Ward;;Ipinu Family Support Programme Clinic;;;;;
Obi;Itogo Ward;;Ekingo Health Post;;;;;
Obi;Obarike Ward;;Obarike Ito Primary Health Centre;;;;;
Obi;Obeko Ward;;Otokwe Health Post;;;;;
Obi;Obeko Ward;;Adona Health Post;;;;;
Obi;Obeko Ward;;Adum East Comprehensive Health Centre;;;;;
Obi;Obeko Ward;;Edii Anyode Health Post;;;;;
Obi;Obeko Ward;;Adugodu Health Post;;;;;
Obi;Odiapa Ward;;Okpaga Health Post;;;;;
Obi;Odiapa Ward;;Odiakpa Health Post;;;;;
Obi;Odiapa Ward;;Ameka Health Post;;;;;
Obi;Ogore Ward;;Ojegbe Health Post;;;;;
Obi;Okpokwu Ward;;Itakpa Primary Health Centre;;;;;
Obi;Okpokwu Ward;;Echori Health Post;;;;;
Obi;Okwutungbe Ward;;Ohuehe Health Post;;;;;
Obi;Okwutungbe Ward;;Ojou Health Post;;;;;
Obi;Okwutungbe Ward;;Igwe Health Post;;;;;
Obi;Orihi Ward;;Oyinyi Health Post;;;;;
Obi;Orihi Ward;;Ijege Health Post;;;;;
Obi;Orihi Ward;;Okponyire Health Post;;;;;
Obi;Orihi Ward;;Oyi-Obi Health Post;;;;;
Obi;Orihi Ward;;Ohuma Health Post;;;;;
Obi;Orihi Ward;;Ojo Health Post;;;;;
Obi;Orihi Ward;;Ikirihe Health Post;;;;;
Ogbadibo;Aioodo 1 Ward;;Ago Community Health Centre;;;;;
Ogbadibo;Aioodo 1 Ward;;Orido Community Health Centre;;;;;
Ogbadibo;Aioodo 1 Ward;;Abo Primary Health Centre;;;;;
Ogbadibo;Aioodo 1 Ward;;Adum Community Health Centre;;;;;
Ogbadibo;Aioodo 2 Ward;;Ogene-Ago Community Health Centre;;;;;
Ogbadibo;Aioodo 2 Ward;;Ochagwu Comprehensive Health Centre;;;;;
Ogbadibo;Aioodo 2 Ward;;Otukpa General Hospital;;;;;
Ogbadibo;Aioodo 2 Ward;;Otto Community Health Centre;;;;;
Ogbadibo;Aioodo 2 Ward;;Epeilo Community Health Centre;;;;;
Ogbadibo;Aioono 1 Ward;;Olaogwuche Communitty Health Centre;;;;;
Ogbadibo;Aioono 1 Ward;;Adepe LG Health Centre;;;;;
Ogbadibo;Aioono 1 Ward;;Odoba Community Health Centre;;;;;
Ogbadibo;Aioono 1 Ward;;Olabochai Community Health Centre;;;;;
Ogbadibo;Aioono 2 Ward;;Efugo Community Health Centre;;;;;
Ogbadibo;Aioono 2 Ward;;Olaidede Community Health Centre;;;;;
Ogbadibo;Aioono 2 Ward;;Ipiga Staff Clinic;;;;;
Ogbadibo;Aioono 3 Ward;;Obu Primary Health Centre;;;;;
Ogbadibo;Aioono 3 Ward;;Agbafu Primary Health Centre;;;;;
Ogbadibo;Ehaje 1 Ward;;Ibeina Aiodu Health Post;;;;;
Ogbadibo;Ehaje 1 Ward;;Ipole Owukpa Health Post;;;;;
Ogbadibo;Ehaje 1 Ward;;Owukpa Basic Health Centre;;;;;
Ogbadibo;Ehaje 1 Ward;;Aifam Community Health Centre;;;;;
Ogbadibo;Ehaje 2 Ward;;Ekere Primary Health Centre;;;;;
Ogbadibo;Ehaje 2 Ward;;Aho-Ogbo Community Health Centre;;;;;
Ogbadibo;Ehaje 2 Ward;;Adu Maternity;;;;;
Ogbadibo;Itabono 1 Ward;;Eke-Akpa Community Health Centre;;;;;
Ogbadibo;Itabono 2 Ward;;Ejaa Community Health Centre;;;;;
Ogbadibo;Olachagbaha Ward;;Ogbadibo Community Health Centre;;;;;
Ogbadibo;Olachagbaha Ward;;Olachagbaha Community Health Centre;;;;;
Ogbadibo;Orokam 1 Ward;;Adupi Primary Health Centre;;;;;
Ogbadibo;Orokam 1 Ward;;Ukporo Community Health Centre;;;;;
Ogbadibo;Orokam 2 Ward;;Adum-Oko Primary Health Centre;;;;;
Ogbadibo;Orokam 2 Ward;;Orokam Basic Health Centre;;;;;
Ogbadibo;Orokam 2 Ward;;Ipole-Ako Primary Health Centre;;;;;
Ogbadibo;Orokam 3 Ward;;Adum-Aiona Community Health Centre;;;;;
Ogbadibo;Orokam 3 Ward;;Ugbogidi LG Health Centre;;;;;
Ohimini;Agadagba Ward;;Emichi Health Post;;;;;
Ohimini;Agadagba Ward;;Akwunu Primary Health Centre;;;;;
Ohimini;Awume Ehaje Ward;;Ipiga Primary Health Care;;;;;
Ohimini;Awume Ehaje Ward;;Ajegbe Primary Health Centre;;;;;
Ohimini;Awume Ehicho Ward;;Otoli Primary Health Centre;;;;;
Ohimini;Awume Ehicho Ward;;Ondo Primary Health Centre;;;;;
Ohimini;Ehatokpe Ward;;Ehatokpe Primary Health Centre;;;;;
Ohimini;Ehatokpe Ward;;Anmeji Primary Health Centre;;;;;
Ohimini;Ehatokpe Ward;;Ugene Family Support Programme Health Clinic;;;;;
Ohimini;Idekpa Ward;;Ukpobi Primary Health Centre;;;;;
Ohimini;Ochobo Ward;;Ochobo Primary Health Centre;;;;;
Ohimini;Ochobo Ward;;Ochobo Model Primary Health Centre;;;;;
Ohimini;Oglewu Ehaje Ward;;Atlo Primary Health Centre;;;;;
Ohimini;Oglewu Ehicho Ward;;Eboya Health Post;;;;;
Ohimini;Oglewu Ehicho Ward;;Omutele Primary Health Centre;;;;;
Ohimini;Oglewu Ehicho Ward;;Alaglanu Primary Health Centre;;;;;
Ohimini;Oglewu Ehicho Ward;;Aiegaji Primary Health Care;;;;;
Ohimini;Oglewu Ehicho Ward;;Ankpechi Primary Health Care;;;;;
Ohimini;Onyagede Ehaje Ward;;Onyagede Primary Health Centre;;;;;
Ohimini;Onyagede Ehicho Ward;;Inland Clinic (Onyagede Ehicho);;;;;
Oju;Adokpa Ward;;Ogori-Uwokwu Primary Health Centre;;;;;
Oju;Adokpa Ward;;Edde Primary Health Centre;;;;;
Oju;Ainu Ward;;Itikpala Ororu Primary Health Centre;;;;;
Oju;Ainu Ward;;Okpoma Primary Health Centre;;;;;
Oju;Ainu Ward;;Obusa Primary Health Centre;;;;;
Oju;Ainu Ward;;Akiraba Primary Health Centre;;;;;
Oju;Ainu Ward;;Ekpong Primary Health Centre;;;;;
Oju;Ainu Ward;;Okoyongo Primary Health Centre;;;;;
Oju;Ainu Ward;;Obijegwu Primary Health Centre;;;;;
Oju;Ainu Ward;;Agwala Health Post;;;;;
Oju;Ibilla Ward;;Andibilla Primary Health Centre;;;;;
Oju;Ibilla Ward;;Oju General Hospital;;;;;
Oju;Ibilla Ward;;Holy Cross Hospital;;;;;
Oju;Ibilla Ward;;Rohis Clinic and Maternity;;;;;
Oju;Ibilla Ward;;Epwa-Ibilla Primary Health Centre;;;;;
Oju;Ibilla Ward;;Okileme Primary Health Centre;;;;;
Oju;Ibilla Ward;;Adiyama Clinic;;;;;
Oju;Ibilla Ward;;Igede Central Primary Health Centre;;;;;
Oju;Ibilla Ward;;Ibilla-Ilache Primary Health Centre;;;;;
Oju;Idelle Ward;;Ogege Idelle Primary Health Centre;;;;;
Oju;Idelle Ward;;St. Mark Clinic  Izzi-Ogbala;;;;;
Oju;Iyeche Ward;;Okpenehi Primary Health Centre;;;;;
Oju;Iyeche Ward;;Akwuda Primary Health Centre;;;;;
Oju;Oboru/Oye Ward;;Oboru Primary Health Centre;;;;;
Oju;Oboru/Oye Ward;;Oye Clinic;;;;;
Oju;Oju Ward;;Ihigile-Oju Primary Health Centre;;;;;
Oju;Okpokpo Ward;;Owori Obotu Primary Health Centre;;;;;
Oju;Okpokpo Ward;;Ebenta Primary Health Centre;;;;;
Oju;Okpokpo Ward;;Arigede Primary Health Centre;;;;;
Oju;Okpokpo Ward;;Igwe-Ebong Primary Health Centre;;;;;
Oju;Okwudu Ward;;Ette-Adum Primary Health Centre;;;;;
Oju;Okwudu Ward;;Ojokwe Primary Health Centre;;;;;
Oju;Owo Ward;;Ameka Owo Primary Health Centre;;;;;
Oju;Owo Ward;;Opiem Primary Health Centre;;;;;
Oju;Owo Ward;;Ohuhu-Owo Primary Health Centre;;;;;
Oju;Ukpa/Ainu Ette Ward;;Bethesda Missionary Hospital;;;;;
Oju;Ukpa/Ainu Ette Ward;;Ohuma-Ukpa Primary Health Centre;;;;;
Oju;Ukpa/Ainu Ette Ward;;Ukpute Primary Health Centre;;;;;
Oju;Ukpa/Ainu Ette Ward;;Ochodu-Ukpa Primary Health Centre;;;;;
Oju;Ukpa/Ainu Ette Ward;;Ikachi Primary Health Centre;;;;;
Okpokwu;Amejo Ward;;Opidlo Health Post;;;;;
Okpokwu;Amejo Ward;;Ogene LG Health Post;;;;;
Okpokwu;Amejo Ward;;Otobi LG Health Post;;;;;
Okpokwu;Amejo Ward;;Olanyega Maternal and Child Health Clinic;;;;;
Okpokwu;Amejo Ward;;Opene LG Health Post;;;;;
Okpokwu;Eke Ward;;Ajide LG Health Centre;;;;;
Okpokwu;Eke Ward;;Ekwu LG Health Post;;;;;
Okpokwu;Eke Ward;;Ogbelega Health Centre;;;;;
Okpokwu;Eke Ward;;Jericho LG Health Clinic;;;;;
Okpokwu;Eke Ward;;Aikpasu Primary Health Centre;;;;;
Okpokwu;Eke Ward;;Olengbencho Primary Health Centre;;;;;
Okpokwu;Eke Ward;;Ogodumu Primary Health Centre (Eke);;;;;
Okpokwu;Ichama 1 Ward;;Ipole Ichama LG Health Centre;;;;;
Okpokwu;Ichama 1 Ward;;Ojoga Primary Health Centre;;;;;
Okpokwu;Ichama 2 Ward;;Ichama LG Health Centre;;;;;
Okpokwu;Ojigo Ward;;Oladegbo LG Health Post;;;;;
Okpokwu;Ojigo Ward;;Ojapo LG Health Post;;;;;
Okpokwu;Ojigo Ward;;Akpodo 1 Health Post;;;;;
Okpokwu;Ojigo Ward;;Opialu LG Primary Health Centre;;;;;
Okpokwu;Ojigo Ward;;Ogege Primary Health Centre;;;;;
Okpokwu;Ojigo Ward;;Omusu LG Health Post;;;;;
Okpokwu;Ojigo Ward;;Anmoda LG Health Post;;;;;
Okpokwu;Ojigo Ward;;Effiom Primary Health Centre;;;;;
Okpokwu;Ojigo Ward;;Ojigo Family Support Programme Clinic;;;;;
Okpokwu;Okonobo Ward;;Effoyo Primary Health Centre;;;;;
Okpokwu;Okonobo Ward;;Eboya Primary Health Centre;;;;;
Okpokwu;Okonobo Ward;;Okpafie LG Health Post;;;;;
Okpokwu;Okonobo Ward;;Ollo LG Health Post;;;;;
Okpokwu;Okpale-Ingle  Ward;;Ogbolagodo Health Clinic;;;;;
Okpokwu;Okpale-Ingle  Ward;;Okpale Primary Health Centre;;;;;
Okpokwu;Okpale-Ingle  Ward;;Ingle 1 Health Post;;;;;
Okpokwu;Okpoga Central Ward;;Okpoga LG Clinic and Maternity;;;;;
Okpokwu;Okpoga North Ward;;Aidogodo LG Primary Health Centre;;;;;
Okpokwu;Okpoga North Ward;;Okpudu  Primary Health Centre;;;;;
Okpokwu;Okpoga South Ward;;Adiga LG Health Centre;;;;;
Okpokwu;Okpoga South Ward;;Ikomija Health Post;;;;;
Okpokwu;Okpoga South Ward;;Effeche Idibe LG Health Post;;;;;
Okpokwu;Okpoga South Ward;;Odokpo Primary Health Centre;;;;;
Okpokwu;Okpoga South Ward;;Akpakpa Primary Health Centre;;;;;
Okpokwu;Okpoga West Ward;;Oklenyi Health Post;;;;;
Okpokwu;Okpoga West Ward;;Ede Primary Health Centre;;;;;
Okpokwu;Ugbokolo Ward;;Ondo Primary Health Centre (Okpokwu);;;;;
Okpokwu;Ugbokolo Ward;;Effa LG Health Centre;;;;;
Okpokwu;Ugbokolo Ward;;Akpali Primary Health Centre;;;;;
Okpokwu;Ugbokolo Ward;;Obotu LG Health Post;;;;;
Okpokwu;Ugbokolo Ward;;Odumu Local Government Health Post;;;;;
Okpokwu;Ugbokolo Ward;;Ankpa Primary Health Centre;;;;;
Okpokwu;Ugbokolo Ward;;Ogbokolo Local Government Health Centre;;;;;
Otukpo;Adoka-Ehaje Ward;;Opa Primary Health Centre;;;;;
Otukpo;Adoka-Ehaje Ward;;Aibeli Adoka Primary Health Centre;;;;;
Otukpo;Adoka-Ehaje Ward;;Obena Primary Health Centre;;;;;
Otukpo;Adoka-Ehaje Ward;;Adoka Holy Rosary Clinic;;;;;
Otukpo;Adoka-Ehaje Ward;;Onipi Primary Health Centre;;;;;
Otukpo;Adoka-Ehaje Ward;;Aukpa-Adoka Health Clinic;;;;;
Otukpo;Adoka-Ehaje Ward;;Aune-Adoka Health Clinic;;;;;
Otukpo;Adoka-Icho Ward;;Ojinebe Health Clinic;;;;;
Otukpo;Adoka-Icho Ward;;Okpaflo-Adoka Primary Health Centre;;;;;
Otukpo;Adoka-Icho Ward;;Ofiloko Primary Health Centre;;;;;
Otukpo;Adoka-Icho Ward;;Ogodumu Primary Health Centre (Adoka-Ehaje);;;;;
Otukpo;Adoka-Icho Ward;;Ipole Primary Health Centre;;;;;
Otukpo;Adoka-Icho Ward;;Uga Family Support Programme Health Clinic;;;;;
Otukpo;Adoka-Icho Ward;;Ojakpama Health Clinic;;;;;
Otukpo;Adoka-Icho Ward;;Ekantili Health Clinic;;;;;
Otukpo;Adoka-Icho Ward;;Adoka Centre Primary Health Centre;;;;;
Otukpo;Allan Ward;;Ejor Primary Health Centre;;;;;
Otukpo;Allan Ward;;Ogyoma Primary Health Centre;;;;;
Otukpo;Allan Ward;;Adim Health Clinic;;;;;
Otukpo;Entekpa Ward;;Olakpoga Health Clinic;;;;;
Otukpo;Entekpa Ward;;Umogidi Primary Health Centre;;;;;
Otukpo;Ewulo Ward;;Upu Otukpo Health Clinic;;;;;
Otukpo;Ewulo Ward;;Akpegede Primary Health Centre;;;;;
Otukpo;Okete Ward;;Otukpo-Icho Health Clinic;;;;;
Otukpo;Okete Ward;;Otukpo-Nobi Health Clinic;;;;;
Otukpo;Okete Ward;;Odudaje Clinic;;;;;
Otukpo;Otobi Ward;;Adankari Health Clinic;;;;;
Otukpo;Otobi Ward;;Aturukpo Primary Health Centre;;;;;
Otukpo;Otobi Ward;;Onyiwuei Primary Health Centre;;;;;
Otukpo;Otobi Ward;;Otobi Primary Health Centre;;;;;
Otukpo;Otukpo 1 Ward;;Sev-Av Foundation Clinic;;;;;
Otukpo;Otukpo 1 Ward;;Otukpo General Hospital;;;;;
Otukpo;Otukpo 1 Ward;;Otukpo Family Planning Clinic;;;;;
Otukpo;Otukpo 1 Ward;;Otia Maternity Hospital;;;;;
Otukpo;Otukpo 1 Ward;;Wesley High School Health Post (Otukpo);;;;;
Otukpo;Otukpo 1 Ward;;Jesus College School Clinic;;;;;
Otukpo;Otukpo 1 Ward;;Comfort Clinic (Otukpo);;;;;
Otukpo;Otukpo 1 Ward;;Otukpo Epidemiology Unit;;;;;
Otukpo;Otukpo 2 Ward;;St Anne's School Clinic;;;;;
Otukpo;Otukpo 2 Ward;;Maranatha Hospital (Otukpo);;;;;
Otukpo;Otukpo 2 Ward;;Otukpo Town Primary Health Centre;;;;;
Otukpo;Otukpo 3 Ward;;Otukpo GSS Primary Health Centre;;;;;
Otukpo;Otukpo 3 Ward;;St Veronica Clinic and Maternity (Otukpo);;;;;
Otukpo;Otukpo 3 Ward;;St Theresa Clinic (Otukpo);;;;;
Otukpo;Otukpo 3 Ward;;St Daniel Clinic;;;;;
Otukpo;Otukpo 3 Ward;;St Monica's Clinic;;;;;
Otukpo;Otukpo 3 Ward;;Salem Hospital;;;;;
Otukpo;Otukpo 3 Ward;;St Francis Clinic;;;;;
Otukpo;Otukpo 3 Ward;;New Era Clinic and Maternity;;;;;
Otukpo;Otukpo 3 Ward;;Mount Zion Hospital (Otukpo);;;;;
Otukpo;Ugboju-Ehaje Ward;;Ondo Health Clinic;;;;;
Otukpo;Ugboju-Ehaje Ward;;St Joseph RHC (Ogobia);;;;;
Otukpo;Ugboju-Ehaje Ward;;Igaluwa Primary Health Centre;;;;;
Otukpo;Ugboju-Icho Ward;;Ogoli Methodist Hospital;;;;;
Otukpo;Ugboju-Icho Ward;;Ipolo Health Clinic;;;;;
Otukpo;Ugboju-Icho Ward;;Ipom Health Clinic;;;;;
Otukpo;Ugboju-Icho Ward;;Ogoli Health Clinic;;;;;
Otukpo;Ugboju-Icho Ward;;Obotu Primary Health Centre;;;;;
Otukpo;Ugboju-Otahe Ward;;Okoto Primary Health Centre;;;;;
Otukpo;Ugboju-Otahe Ward;;Efeyi Health Clinic;;;;;
Otukpo;Ugboju-Otahe Ward;;Uwaba Oju Primary Health Centre;;;;;
Otukpo;Ugboju-Otahe Ward;;Eyokpa Primary Health Centre;;;;;
Tarka;Mbaayo Ward;;Aboho LG Health Centre;;;;;
Tarka;Mbacaver Kyondo Ward;;Akpa LG Health Centre;;;;;
Tarka;Mbacaver Kyondo Ward;;Subesa Clinic And Maternity (Asukunya);;;;;
Tarka;Mbacaver Kyondo Ward;;Asukunya NKST Health Clinic;;;;;
Tarka;Mbacaver Kyondo Ward;;Asukunya Primary Health Centre;;;;;
Tarka;Mbaigba Ward;;Yazema LG Health Clinic;;;;;
Tarka;Mbaigba Ward;;Tse-Akiishi Health Clinic;;;;;
Tarka;Mbaigba Ward;;Leemp Health Clinic (Twar);;;;;
Tarka;Mbaikyo/Yia Ward;;Wannune Township Clinic;;;;;
Tarka;Mbaikyo/Yia Ward;;Annune General Hospital;;;;;
Tarka;Mbaikyo/Yia Ward;;Akoodo Health Clinic;;;;;
Tarka;Mbaikyo/Yia Ward;;St Christopher`s Health Centre;;;;;
Tarka;Mbaikyo/Yia Ward;;Salem LG Health Centre;;;;;
Tarka;Mbaikyo/Yia Ward;;St Michael Health Clinic (Annune);;;;;
Tarka;Mbajirekaa Ward;;Aso Health Clinic;;;;;
Tarka;Mbajirekaa Ward;;Wuatsa Family Support Programme Health Centre;;;;;
Tarka;Mbajirekaa Ward;;Leemp Health Clinic (Uyorako);;;;;
Tarka;Mbakwakem Ward;;Awenabo LG Health Clinic;;;;;
Tarka;Mbakwakem Ward;;Kontien Family Support Programme Health Centre;;;;;
Tarka;Mbakwakem Ward;;Kpeambila Health Clinic;;;;;
Tarka;Mbakyaa Ward;;Gwarche Health Clinic;;;;;
Tarka;Mbakyaa Ward;;Leemp Health Clinic (Konkyar);;;;;
Tarka;Mbanyagber Ward;;Avande Health Clinic;;;;;
Tarka;Mbanyagber Ward;;Tse-Tia Health Clinic;;;;;
Tarka;Shitile Ward;;Leemp Health Clinic (Anchiha);;;;;
Tarka;Shitile Ward;;Azungur LG Health Centre;;;;;
Tarka;Shitile Ward;;Tse-Kwa Health Clinic;;;;;
Tarka;Shitile Ward;;Tiortyu Health Clinic;;;;;
Tarka;Tongov Ward;;Atighiir Health Clinic;;;;;
Tarka;Tongov Ward;;Uchi NKST Primary Health Centre;;;;;
Tarka;Tongov Ward;;Uchi National Priamry Health Care Centre;;;;;
Ukum;Aterayange Ward;;Aterayange Primary Health Centre;;;;;
Ukum;Aterayange Ward;;Leke Primary Health Centre;;;;;
Ukum;Aterayange Ward;;Uma Clinic (Chito);;;;;
Ukum;Azendeshi Tsaav Ward;;Abwer Primary Health Centre;;;;;
Ukum;Azendeshi Tsaav Ward;;Tyungu NKST Health Clinic;;;;;
Ukum;Azendeshi Tsaav Ward;;Lufah Health Centre (Gbagir);;;;;
Ukum;Azendeshi Tsaav Ward;;Chito LG Primary Health Centre;;;;;
Ukum;Azendeshi Tsaav Ward;;Hur NKST Health Centre;;;;;
Ukum;Azendeshi Tsaav Ward;;St Mary Health Centre (Chito);;;;;
Ukum;Azendeshi Tsaav Ward;;Dyako Primary Health Centre;;;;;
Ukum;Borikyo Ward;;Ayati LG Primary Health Centre;;;;;
Ukum;Borikyo Ward;;Sankera Family Support Programme Health Clinic;;;;;
Ukum;Borikyo Ward;;Alabar LG Health Centre;;;;;
Ukum;Kendev Ward;;Tornajime Primary Health Centre;;;;;
Ukum;Kendev Ward;;Ansambe Primary Health Centre;;;;;
Ukum;Kendev Ward;;Bosua NKST Health Centre;;;;;
Ukum;Kundav Ward;;Tiza Health Centre;;;;;
Ukum;Kundav Ward;;Ihungwa Primary Health Centre;;;;;
Ukum;Kundav Ward;;Alabar (Kundav) Community Health Centre;;;;;
Ukum;Lumbuv Ward;;Igyodo Community Health Centre;;;;;
Ukum;Lumbuv Ward;;Gyenku NKST Primary Health Centre;;;;;
Ukum;Lumbuv Ward;;Vaase LG Health Centre;;;;;
Ukum;Lumbuv Ward;;Iorna Clinic Annex (Maladu);;;;;
Ukum;Lumbuv Ward;;Alabar Primary Health Centre;;;;;
Ukum;Mbatyan Ward;;Tse-Ule Primary Health Centre;;;;;
Ukum;Mbatyan Ward;;Samco Clinic (Tinenune);;;;;
Ukum;Mbatyan Ward;;Dyom Primary Health Centre;;;;;
Ukum;Mbayenge Ward;;Iorna Clinic (Jootar);;;;;
Ukum;Mbayenge Ward;;Melabu LG Health Centre;;;;;
Ukum;Mbayenge Ward;;Duku Health Centre;;;;;
Ukum;Mbayenge Ward;;Pevikyaa NKST Comprehensive Health Centre;;;;;
Ukum;Mbazun Ward;;Kyado LG Health Centre;;;;;
Ukum;Mbazun Ward;;Royal Medical Annex Clinic (Kyado);;;;;
Ukum;Mbazun Ward;;Chia LG Primary Health Centre;;;;;
Ukum;Mbazun Ward;;Kyado NKST Health Centre;;;;;
Ukum;Mbazun Ward;;Akpuuna Community Health Centre;;;;;
Ukum;Mbazun Ward;;Akpuuna Community Health Centre;;;;;
Ukum;Mbazun Ward;;Bom Community Health Centre;;;;;
Ukum;Tsaav  Ward;;Gbayier Primary Health Centre;;;;;
Ukum;Tsaav  Ward;;Afia LG Primary Health Centre;;;;;
Ukum;Tyuluv Ward;;Ukyongo Primary Health Centre;;;;;
Ukum;Tyuluv Ward;;Gbagir NKST Health Centre;;;;;
Ukum;Tyuluv Ward;;Gbagir Primary Health Centre;;;;;
Ukum;Tyuluv Ward;;Tachia Primary Health Centre;;;;;
Ukum;Ugbaam Ward;;Uyoo Family Support Programme Primary Health Centre;;;;;
Ukum;Ugbaam Ward;;Adogo Primary Health Centre;;;;;
Ukum;Uyam Ward;;Salvation Hospital Zaki-Biam;;;;;
Ukum;Uyam Ward;;Mdema Maternity/Clinic (Zaki Biam);;;;;
Ukum;Uyam Ward;;Woma Clinic and Maternity;;;;;
Ukum;Uyam Ward;;Imande Primary Health Centre;;;;;
Ukum;Uyam Ward;;Mbagir Community Health Centre;;;;;
Ukum;Uyam Ward;;Hwembe Primary Health Centre;;;;;
Ukum;Uyam Ward;;Jidds Hospital;;;;;
Ukum;Uyam Ward;;Light of Grace Hospital Zaki-Biam;;;;;
Ukum;Uyam Ward;;King of Kings Clinic;;;;;
Ukum;Uyam Ward;;Akenawe Clinic and Maternity;;;;;
Ukum;Uyam Ward;;Kate Health Clinic (Zaki Biam);;;;;
Ushongo;Atikyese Ward;;Ahula Health Clinic;;;;;
Ushongo;Atikyese Ward;;Adikpo Mbagwa Comprehensive Health Centre;;;;;
Ushongo;Atikyese Ward;;Adikpo Mbaagwa NKST Health Centre;;;;;
Ushongo;Atikyese Ward;;Anongo Health Clinic;;;;;
Ushongo;Atikyese Ward;;Ge-Mbayem Health Centre;;;;;
Ushongo;Atikyese Ward;;Tiam Health Clinic;;;;;
Ushongo;Atikyese Ward;;Laadi Ugee Helth Centre;;;;;
Ushongo;Atikyese Ward;;Boor Health Clinic;;;;;
Ushongo;Ikov Ward;;Hiitom Comprehensive Health Centre;;;;;
Ushongo;Ikov Ward;;Sati-Ikov Health Centre;;;;;
Ushongo;Ikov Ward;;Manor Health Centre;;;;;
Ushongo;Ikov Ward;;Wanze Family Support Programme Health Centre;;;;;
Ushongo;Lessel Township Ward;;Lessel NKST Health Centre;;;;;
Ushongo;Lessel Township Ward;;Baki Clinic And Maternity Lesser;;;;;
Ushongo;Lessel Township Ward;;Lessel HSF Basic Health Clinic;;;;;
Ushongo;Lessel Township Ward;;Lessel Maternal and Child Health Primary Health Centre;;;;;
Ushongo;Mbaagir Ward;;Nienga Comprehensive Health Centre;;;;;
Ushongo;Mbaagir Ward;;Waapera Community Health Centre;;;;;
Ushongo;Mbaagir Ward;;Shawon Health Clinic;;;;;
Ushongo;Mbaagir Ward;;Yanibo Health Bay Clinic;;;;;
Ushongo;Mbaaka Ward;;Tomahar Community Health Clinic;;;;;
Ushongo;Mbaaka Ward;;Mayange NKST Health Clinic;;;;;
Ushongo;Mbaaka Ward;;Tseghem Community Health Centre;;;;;
Ushongo;Mbaaka Ward;;Wajir Health Centre;;;;;
Ushongo;Mbaaka Ward;;Jombo Primary Health Care;;;;;
Ushongo;Mbaawe Ward;;Kartyo Community Health Clinic;;;;;
Ushongo;Mbaawe Ward;;Sati Abayol Health Centre;;;;;
Ushongo;Mbagba Ward;;Tsumba Health Centre;;;;;
Ushongo;Mbagba Ward;;Atekombo Comprehensive Health Centre;;;;;
Ushongo;Mbagba Ward;;Mbahime Health Clinic;;;;;
Ushongo;Mbagwaza Ward;;Igboor Community Health Clinic;;;;;
Ushongo;Mbagwaza Ward;;Ubonav Commnuity Health Centre;;;;;
Ushongo;Mbagwaza Ward;;Korinjo NKST Primary Health Centre;;;;;
Ushongo;Mbagwaza Ward;;Ikpakpiam Health Centre;;;;;
Ushongo;Mbagwaza Ward;;Hegha Comprehensive Health Centre;;;;;
Ushongo;Mbakuha Ward;;Yaakur Community Health Centre;;;;;
Ushongo;Mbakuha Ward;;Orgba Community Health Centre;;;;;
Ushongo;Mbakuha Ward;;Mbaachi Health Centre;;;;;
Ushongo;Mbakuha Ward;;Mbachivin Health Centre;;;;;
Ushongo;Mbakuha Ward;;Agbinda Health Centre;;;;;
Ushongo;Mbayegh Ward;;Biontyiev Community Health Centre;;;;;
Ushongo;Mbayegh Ward;;Kpor Community Health Clinic;;;;;
Ushongo;Mbayegh Ward;;Tor Medical Centre;;;;;
Ushongo;Mbayegh Ward;;Ushongo Community Health Centre;;;;;
Ushongo;Mbayegh Ward;;Nor Community Health Centre;;;;;
Ushongo;Mbayegh Ward;;Oostra Gum Clinic and Maternity;;;;;
Ushongo;Utange Ward (Ushongo);;Ikyoazande Health Clinic;;;;;
Ushongo;Utange Ward (Ushongo);;Akerior Community Health Centre;;;;;
Ushongo;Utange Ward (Ushongo);;Tse-Namase Health Clinic;;;;;
Ushongo;Utange Ward (Ushongo);;Taangahar NKST Health Centre;;;;;
Vandeikya;Mbadede Ward;;St Thomas Hospital Ihugh;;;;;
Vandeikya;Mbadede Ward;;Mbabagu Community Health Centre;;;;;
Vandeikya;Mbadede Ward;;Mbaakon Geri LG Health Centre;;;;;
Vandeikya;Mbadede Ward;;Tyam Community Health Centre;;;;;
Vandeikya;Mbadede Ward;;Mbaakon NKST Hospital;;;;;
Vandeikya;Mbadede Ward;;Ihugh LG Health Centre;;;;;
Vandeikya;Mbadede Ward;;Kiishi Community Health Centre;;;;;
Vandeikya;Mbagbam Ward;;Taatihi Community Health Centre;;;;;
Vandeikya;Mbagbam Ward;;Bako-Ute Primary Health Centre;;;;;
Vandeikya;Mbagbera Ward;;Tsua Community Health Centre;;;;;
Vandeikya;Mbagbera Ward;;Gbatse Comprehensive Health Centre;;;;;
Vandeikya;Mbajor Ward;;Gbagbongom Community Health Centre (Mbajor);;;;;
Vandeikya;Mbajor Ward;;Anongu Community Health Centre;;;;;
Vandeikya;Mbakaange Ward;;Dyegh Comprehensive Health Centre;;;;;
Vandeikya;Mbakaange Ward;;St. Paul Primary Health Care Ikyaator;;;;;
Vandeikya;Mbakyaha Ward;;Tse-Kpum Comprehensive Health Centre;;;;;
Vandeikya;Mbakyaha Ward;;Ayila Health Clinic;;;;;
Vandeikya;Mbakyaha Ward;;Zor-Pev Community Health Centre;;;;;
Vandeikya;Mbakyaha Ward;;Kpamo NKST Primary Health Centre;;;;;
Vandeikya;Mbatyough Ward (Vandeikya);;Mbaause Comprehensive Health Centre;;;;;
Vandeikya;Mbatyough Ward (Vandeikya);;Tsar Primary Health Centre;;;;;
Vandeikya;Mbatyough Ward (Vandeikya);;Tsar Model Primary Health Care;;;;;
Vandeikya;Mbayongo Ward (Vandeikya);;Ageva Community Health Centre;;;;;
Vandeikya;Mbayongo Ward (Vandeikya);;Shangbum NKST Primary Health Centre;;;;;
Vandeikya;Mbayongo Ward (Vandeikya);;Ityemimongo LG Health Centre;;;;;
Vandeikya;Ningev Ward;;Bako-Ningev Community Health Centre;;;;;
Vandeikya;Ningev Ward;;Mbaagir Community Health Centre;;;;;
Vandeikya;Nyimagbagh Ward;;Abwa NKST Health Centre;;;;;
Vandeikya;Nyimagbagh Ward;;Ikpoikpo Comprehensive Health Centre;;;;;
Vandeikya;Tsambe Ward;;Gbem Primary Health Centre;;;;;
Vandeikya;Tsambe Ward;;Adeiyongo NKST Clinic and Maternity;;;;;
Vandeikya;Vandeikya Township Ward;;Umah Clinic (Vandeikya);;;;;
Vandeikya;Vandeikya Township Ward;;Vandeikya Family Support Programme Clinic;;;;;
Vandeikya;Vandeikya Township Ward;;Sevav Foundation Clinic;;;;;
Vandeikya;Vandeikya Township Ward;;Vandeikya Primary Health Centre;;;;;
