LGA;Ward;Settlement;Facility;Type;Ownership;Address;Longitude;Latitude
Askira/Uba;Askira East Ward;;Askira Family Support Programme Clinic;;;;;
Askira/Uba;Askira East Ward;;Yimit Ali Health Clinic;;;;;
Askira/Uba;Delle Huyam Ward;;Delle Dispensary;;;;;
Askira/Uba;Hussara Tampul Ward;;Hussara Health Clinic;;;;;
Askira/Uba;Hussara Zajawa Ward;;Askira General Hospital;;;;;
Askira/Uba;Hussara Zajawa Ward;;Leho Dispensary;;;;;
Askira/Uba;Lassa Ward;;Lassa General Hospital;;;;;
Askira/Uba;Mussa Ward;;Mussa Primary Health Centre;;;;;
Askira/Uba;Mussa Ward;;Mussa Dispensary;;;;;
Askira/Uba;Ngohi Ward;;Kilangal Dispensary;;;;;
Askira/Uba;Ngohi Ward;;Ngohi Dispensary;;;;;
Askira/Uba;Ngulde Ward;;Grambal Health Clinic;;;;;
Askira/Uba;Ngulde Ward;;Ngulde Dispensary;;;;;
Askira/Uba;Rumirgo Chull Ward;;Remirgo Dispensary;;;;;
Askira/Uba;Uba Ward;;Uba Dispensary;;;;;
Askira/Uba;Uba Ward;;Uba General Hospital;;;;;
Askira/Uba;Uvu Uda Ward;;Udah Dispensary;;;;;
Askira/Uba;Uvu Uda Ward;;Uvu Health Clinic;;;;;
Askira/Uba;Wamdio Ward;;Wamdio Dispensary;;;;;
Askira/Uba;Wamdio Ward;;Giwi Dispensary;;;;;
Askira/Uba;Wamdio Ward;;EYN Dispensary (Askira/Uba);;;;;
Bayo;Balbaya Ward;;Balbaya Dispensary;;;;;
Bayo;Briyel Ward;;Fikeheil Dispensary;;;;;
Bayo;Briyel Ward;;Briyel Maternal and Child Health Centre;;;;;
Bayo;Gamadadi Ward;;Gamadadi Health Clinic;;;;;
Bayo;J/Gol Ward;;Korko Dispensary;;;;;
Bayo;Jaradali Ward;;Guvayako Dispensary;;;;;
Bayo;Jaradali Ward;;Zange Dispensary;;;;;
Bayo;Jaradali Ward;;Jaradali Dispensary;;;;;
Bayo;Teli Ward;;Garingado Dispensary;;;;;
Bayo;Teli Ward;;Limanti Dispensary;;;;;
Bayo;Teli Ward;;Teli Dispensary;;;;;
Bayo;Wuyo Ward;;Gaidam Dispensary;;;;;
Bayo;Wuyo Ward;;Guburnde Dispensary;;;;;
Bayo;Wuyo Ward;;Wuyo Dispensary;;;;;
Bayo;Zara Ward;;Laro Health Post;;;;;
Biu;Buratai Ward;;Bam Health Post;;;;;
Biu;Buratai Ward;;Buratai Health Clinic;;;;;
Biu;Dugja Ward;;Tum Health Post;;;;;
Biu;Dugja Ward;;Hizhi Dispensary;;;;;
Biu;Galdimari Ward;;Galdimari Family Support Programme Clinic;;;;;
Biu;Garunbula Ward;;Mathlau Health Post;;;;;
Biu;Garunbula Ward;;Charangi Health Post;;;;;
Biu;Garunbula Ward;;Garubula Sabo Dispensary;;;;;
Biu;Gunda Ward;;Gunda Dispensary;;;;;
Biu;Gur Ward;;Kimba Health Post;;;;;
Biu;Gur Ward;;Gur Lawan Dispensary;;;;;
Biu;Mandaragirau Ward;;Mandaragirau Dispensary;;;;;
Biu;Mandaragirau Ward;;Liya Dispensary;;;;;
Biu;Mandaragirau Ward;;Debiro Dispensary;;;;;
Biu;Sul-Umthla Ward;;Biu Health Clinic;;;;;
Biu;Yawi Ward;;Yawi Health Post;;;;;
Biu;Yawi Ward;;Biu General Hospital;;;;;
Biu;Yawi Ward;;Army Barrack Health Clinic;;;;;
Biu;Zarawuyaku Ward;;Abboat Health Clinic;;;;;
Biu;Zarawuyaku Ward;;Biu Maternal and Child Health Centre;;;;;
Chibok;Chibok Unknown Ward;;Likama Health Clinic;;;;;
Chibok;Garu Ward;;Garu General Hospital;;;;;
Chibok;Garu Ward;;Chibok Maternal and Child Health Centre;;;;;
Chibok;Gatamarwa Ward;;Paya Yesu Dispensary;;;;;
Chibok;Gatamarwa Ward;;Gatamurwa Dispensary;;;;;
Chibok;Kautikari Ward;;Kautikari Dispensary;;;;;
Chibok;Korongilin Ward;;Korogila Dispensary;;;;;
Chibok;Kuburbula Ward;;Kuburmbula Dispensary;;;;;
Chibok;Mbalala Ward;;Mbalala Dispensary;;;;;
Chibok;Mbalala Ward;;Mbalala Eyn Dispensary;;;;;
Chibok;Mbokura Ward;;Mboakura Dispensary;;;;;
Chibok;Pemi Ward;;Pemi Dispensary;;;;;
Chibok;Shikarkir Ward;;Shikalkir Dispensary;;;;;
Chibok;Whuntaku Chibok Ward;;Njilan Dispensary;;;;;
Chibok;Whuntaku Chibok Ward;;Bwalangyang Dispensary;;;;;
Chibok;Whuntaku Chibok Ward;;Hirpaya Dispensary;;;;;
Damboa;Azir Ward;;Azir Health Clinic;;;;;
Damboa;Azir Ward;;Sabongari Health Clinic;;;;;
Damboa;Damboa Ward;;Damboa General Hospital;;;;;
Damboa;Damboa Ward;;Damboa Dispensary;;;;;
Damboa;Damboa Ward;;Damboa Maternal and Child Health Centre;;;;;
Damboa;Gumsuri Ward;;Gumsuri Health Clinic;;;;;
Dikwa;Dikwa Ward;;Dikwa General Hospital;;;;;
Dikwa;Dikwa Ward;;Dikwa Maternal and Child Health Centre;;;;;
Gubio;Dunga Ward;;Dunga Dispensary;;;;;
Gubio;Gubio 1 Ward;;Gubio Maternal and Child Health Centre;;;;;
Gubio;Gubio 2 Ward;;Bazam Dispensary;;;;;
Gubio;Ngetra Ward;;Ngetra Dispensary;;;;;
Gubio;Zowa Ward;;Zowa Dispensary;;;;;
Guzamala;Mairari Ward;;Mairari Health Clinic;;;;;
Gwoza;Bita Izge Ward;;Izge Health Clinic;;;;;
Gwoza;Hambagda Limankara Jaje Ward;;Limankara Health Clinic;;;;;
Gwoza;Hausari Gadamayo Ward;;Gwoza Health Clinic;;;;;
Gwoza;Hausari Gadamayo Ward;;Gwoza General Hospital;;;;;
Gwoza;Pulka Bokko Ward;;Pulka Health Clinic;;;;;
Hawul;Bilingwi Ward;;Ghumma Clinic;;;;;
Hawul;Gwanzang Chata Ward;;Mbula Tawiwi Dispensary;;;;;
Hawul;Gwanzang Chata Ward;;Chata Dispensary;;;;;
Hawul;Hizihi Ward;;Pelathdom Dispensary;;;;;
Hawul;Kida Ward;;Yimirshika Community Dispensary;;;;;
Hawul;Kwajaffa Harang Ward;;Kirputu Primary Health Centre;;;;;
Hawul;Kwajaffa Harang Ward;;Tashan Alade Clinic;;;;;
Hawul;Kwajaffa Harang Ward;;Gang Shaffa Dispensary;;;;;
Hawul;Kwajaffa Harang Ward;;Kwajaffa Clinic;;;;;
Hawul;Kwaya Bura Ward;;Kwaya Bura Maternal and Child Health Centre;;;;;
Hawul;Pama Whitambaya Ward;;Poma Dispensary;;;;;
Hawul;Puba Vidor Ward;;Gwallam Dispensary;;;;;
Hawul;Puba Vidor Ward;;Hyera Clinic;;;;;
Hawul;Puba Vidor Ward;;Kukarampu Dispensary;;;;;
Hawul;Sakwa Ward;;Sakwa Primary Health Centre;;;;;
Hawul;Shaffa Ward;;Shaffa Primary Health Centre;;;;;
Jere;Dusuman Ward;;CBDA Dispensary;;;;;
Jere;Galtimari Ward;;Fori Dispensary;;;;;
Jere;Galtimari Ward;;Jiddari Polo Comprehensive Health Centre;;;;;
Jere;Maimusari Ward;;Maimusari Health Clinic;;;;;
Jere;Mashamari Ward;;Mashamari Health Clinic;;;;;
Kaga;Benishiek Ward;;Benishiek Maternal and Child Health Centre;;;;;
Kaga;Mainok Ward;;Mainok Maternal and Child Health Centre;;;;;
Kaga;Ngamdu Ward;;Ngamdu Maternal and Child Health Centre;;;;;
Kala/Balge;Rann Ward;;Rann Primary Health Centre;;;;;
Konduga;Auno Ward;;Chabbal Dispensary;;;;;
Konduga;Auno Ward;;Auno Health Clinic;;;;;
Konduga;Auno Ward;;Pompomari Maternal and Child Health Centre;;;;;
Konduga;Auno Ward;;Tungule Health Clinic;;;;;
Konduga;Auno Ward;;Njimtilo Health Clinic;;;;;
Konduga;Auno Ward;;777 Housing Estate Health Clinic;;;;;
Konduga;Auno Ward;;1000 Housing Estate Health Clinic;;;;;
Konduga;Dalori Ward;;Dalori Health Clinic;;;;;
Konduga;Dalori Ward;;Wannori Dispensary;;;;;
Konduga;Dalori Ward;;Dengeti Health Clinic;;;;;
Konduga;Konduga Ward;;Konduga Maternal and Child Health Centre;;;;;
Konduga;Malari Ward;;Malari Dispensary;;;;;
Kukawa;Baga Ward;;Baga Health Clinic;;;;;
Kukawa;Kukawa Ward;;Kukawa Maternal and Child Health Centre;;;;;
Kukawa;Kukawa Ward;;Cross Kauwa Health Clinic;;;;;
Kwaya Kusar;Billa Gussi Ward;;Gusi Dispensary;;;;;
Kwaya Kusar;Guwal Ward;;Guwal Dispensary;;;;;
Kwaya Kusar;Hongai Ward;;Wandali Eyn Dispensary;;;;;
Kwaya Kusar;Kurbagayi Ward;;Kurbagayi Dispensary;;;;;
Kwaya Kusar;Kwardum Ward;;Kwardum Dispensary;;;;;
Kwaya Kusar;Kwaya-kusar Ward;;Kwaya-Kusar Maternal and Child Health Centre;;;;;
Kwaya Kusar;Kwaya-kusar Ward;;Kwaya-kusar Dispensary;;;;;
Kwaya Kusar;Kwaya-kusar Ward;;Kwaya-Kusar General Hospital;;;;;
Kwaya Kusar;Peta Ward;;Peta Dispensary;;;;;
Kwaya Kusar;Yimirdalang Ward;;Yimirdalang Primary Health Centre;;;;;
Mafa;Mafa Ward;;Mafa Maternal and Child Health Centre;;;;;
Mafa;Mala Kyariri Ward;;Mala kyariri Health Centre;;;;;
Mafa;Tamsu Ngamduwa Ward;;T/Ngamduwa Dispensary;;;;;
Magumeri;Furram Ward;;Furram Health Clinic;;;;;
Magumeri;Gajigana Ward;;Gajigana Maternal and Child Health Centre;;;;;
Magumeri;Hoyo Chingowa Ward;;Hoyo Health Clinic;;;;;
Magumeri;Kareram Lawanti Ward;;Kareram Health Clinic;;;;;
Magumeri;Magumeri Ward;;Magumeri Clinic;;;;;
Magumeri;Titiwa Ward;;Titiwa Dispensary;;;;;
Maiduguri;Bolori Ward;;Bolori Comprehensive Health Centre;;;;;
Maiduguri;Bulabulin Ward;;Bulabulin Dispensary (Maiduguri);;;;;
Maiduguri;Gamboru Ward;;Gamboru Martat Dispensary;;;;;
Maiduguri;Gamboru Ward;;Gamboru Male Dispensary;;;;;
Maiduguri;Gwange Ward;;Gwange Maternal and Child Health Centre;;;;;
Maiduguri;Lamisula Jabbamari Ward;;Borno Medical Health Clinic;;;;;
Maiduguri;Lamisula Jabbamari Ward;;Kanem Hospital;;;;;
Maiduguri;Lamisula Jabbamari Ward;;Abbaganaram Maternal and Child Health Centre;;;;;
Maiduguri;Shehuri South Ward;;Yerwa Maternal and Child Health Centre;;;;;
Mobbar;Damasak Ward;;Damasak Maternal and Child Health Centre;;;;;
Ngala;Gamboru C Ward;;Gamboru Maternal and Child Health Centre (Ngala);;;;;
Ngala;Ngala Ward;;Ngala General Hospital;;;;;
Nganzai;Gajiram Ward;;Gajiram Maternal and Child Health Centre;;;;;
Shani;Bakaina Ward;;Lakundum Health Clinic;;;;;
Shani;Bargu Ward;;Gunduri Health Clinic;;;;;
Shani;Bargu Ward;;Bargu Maternal and Child Health Centre;;;;;
Shani;Gora Ward;;Gora Maternal and Child Health Centre;;;;;
Shani;Gora Ward;;Lakolam G Dispensary;;;;;
Shani;Gwalasha Ward;;Kashim Dispensary;;;;;
Shani;Kubo Ward;;Kombo Health Clinic;;;;;
