LGA;Ward;Settlement;Facility;Type;Ownership;Address;Longitude;Latitude
Abakaliki;Abakpa Ward (Abakaliki);;Holy Trinity Hospital and Maternity;;;;;
Abakaliki;Abakpa Ward (Abakaliki);;West End Maternity Home;;;;;
Abakaliki;Abakpa Ward (Abakaliki);;Ekeaba Health Centre;;;;;
Abakaliki;Abakpa Ward (Abakaliki);;Felly Sussy Hospital and Maternity;;;;;
Abakaliki;Abakpa Ward (Abakaliki);;St Theresa Hospital;;;;;
Abakaliki;Abakpa Ward (Abakaliki);;St Edward Maternity Home;;;;;
Abakaliki;Abakpa Ward (Abakaliki);;Holy Family Hospital and Maternity;;;;;
Abakaliki;Abakpa Ward (Abakaliki);;Mercy Hospital and Maternity;;;;;
Abakaliki;Agbaja Ward (Abakaliki);;God Grace Clinic;;;;;
Abakaliki;Amachi Ndiagu Ward;;Nwanwu Health Post;;;;;
Abakaliki;Amachi Ndiagu Ward;;Mgbabeleuzor Health Centre;;;;;
Abakaliki;Amachi Ndiagu Ward;;Akpe Amachi Health Centre;;;;;
Abakaliki;Amachi Ndiebor Ward;;Uburu Health Centre;;;;;
Abakaliki;Amachi Ndiebor Ward;;St. Vincent Hospital;;;;;
Abakaliki;Amachi Ndiechi Ward;;Success Hospital;;;;;
Abakaliki;Amagu Ward;;Nkwegu Military Cantonement Medical Clinic;;;;;
Abakaliki;Amagu Ward;;Obulechi Health Centre;;;;;
Abakaliki;Amagu Ward;;New Timbershed Health Centre;;;;;
Abakaliki;Amagu Ward;;Elinwovbu General Hospital;;;;;
Abakaliki;Amagu Ward;;Model Primary Health Centre Nkwegu;;;;;
Abakaliki;Amegu Unuhu Ward;;Ukamaka Egwu Health Centre;;;;;
Abakaliki;Azuiyiokwu Ward;;Azuiyiokwu Maternal and Child Health Clinic;;;;;
Abakaliki;Azuiyiokwu Ward;;Christ The King Hospital Azuiyiokwu;;;;;
Abakaliki;Azuiyiokwu Ward;;St. John Hospital;;;;;
Abakaliki;Azuiyiokwu Ward;;Smiles Hospital;;;;;
Abakaliki;Azuoffia Edda Ward;;Offiaoji Health Centre;;;;;
Abakaliki;Azuoffia Edda Ward;;Azuoffia Millenuim Development Goal Health Centre;;;;;
Abakaliki;Azuoffia Edda Ward;;Ephuenyim Health Centre;;;;;
Abakaliki;Ebia Unuhu Ward;;Ebia Unuhu Health Centre;;;;;
Abakaliki;Ebia Unuhu Ward;;Azuakpara Health Center MDGs;;;;;
Abakaliki;Edda Ndiagu Ward;;Edda Dispensary;;;;;
Abakaliki;Edda Ndiagu Ward;;Okaria Echiedda Health Centre;;;;;
Abakaliki;Enyigba Ward;;Eketube Health Centre;;;;;
Abakaliki;Enyigba Ward;;Enyigba Primary Health Centre;;;;;
Abakaliki;Iyiudele Ward;;Eke Aba Health Centre;;;;;
Abakaliki;Izzi Unuhu Ward;;Nkaliki Staff Clinic;;;;;
Abakaliki;Izzi Unuhu Ward;;Izzi Unuhu Health Centre;;;;;
Abakaliki;Izzi Unuhu Ward;;Mother Theresa Institute For Health Clinic;;;;;
Abakaliki;Izzi Unuhu Ward;;Okaria Edda MDGs;;;;;
Abakaliki;Ndiagu Ward;;Onuebonyi Health Centre MDGs;;;;;
Abakaliki;Okpaugwu Ward;;Ebonyi State University Clinic (CAS Campus);;;;;
Abakaliki;Okpaugwu Ward;;Our Lady's Hospital;;;;;
Abakaliki;Okpaugwu Ward;;Unagboke Health Centre;;;;;
Abakaliki;Okpaugwu Ward;;Felix Memorial Clinic;;;;;
Abakaliki;Okpuitomo Ndiebor Ward;;Gmelina Health Centre;;;;;
Abakaliki;Okpuitumo Ndiegu Ward;;Okpanku Millenuim Development Goals PHC;;;;;
Abakaliki;Okpuitumo Ndiegu Ward;;Okpuitumo Health Centre (Abakaliki);;;;;
Abakaliki;Timbershed Ward;;Nonyelum Maternity Home;;;;;
Afikpo North;Ama ogu Akpoha Ward;;Ohanwegu HC;;;;;
Afikpo North;Ama ogu Akpoha Ward;;Ibii Health Centre;;;;;
Afikpo North;Ama ogu Akpoha Ward;;Akpoha Basic Health Clinic;;;;;
Afikpo North;Amaekwu Ward;;Amaekwu Health Centre;;;;;
Afikpo North;Amata Akpoha Ward;;Ndukwe Health Centre;;;;;
Afikpo North;Amata Akpoha Ward;;MDG Amata Akpoha;;;;;
Afikpo North;Amata Ward B;;MDG Evo-Uko Akpoha;;;;;
Afikpo North;Amata Ward B;;Amaechi  Health Centre;;;;;
Afikpo North;Enohia Itim Ward;;Itim Ukwu General Hospital;;;;;
Afikpo North;Ezeke Amasiri Ward;;PHC Amasiri;;;;;
Afikpo North;Ezeke Amasiri Ward;;Ezeke Health Centre;;;;;
Afikpo North;Ihie Ward;;Ihie Health Post (Afrikpo);;;;;
Afikpo North;Ihie Ward;;St Charles Hospital;;;;;
Afikpo North;Itim Mgbom Ward;;Romic Hospital;;;;;
Afikpo North;Itim Mgbom Ward;;Mgbom Health Centre;;;;;
Afikpo North;Itim Mgbom Ward;;Enohia Nkalu Health Centre;;;;;
Afikpo North;Itim Mgbom Ward;;Amuro Health Center;;;;;
Afikpo North;Kpoghirikpo Ward;;Enohia Itim Health Centre;;;;;
Afikpo North;Kpoghirikpo Ward;;Kpoghirikpo Health Centre;;;;;
Afikpo North;Ndukwe Amasiri Ward;;Ogoubi Health Centre;;;;;
Afikpo North;Ndukwe Amasiri Ward;;Ndukwe Amasiri Health Centre;;;;;
Afikpo North;Ndukwe Amasiri Ward;;MDG Akanto;;;;;
Afikpo North;Ndukwe Amasiri Ward;;Obioma Medical Clinic;;;;;
Afikpo North;Ngodo Amachi Ward;;MDG Amachi;;;;;
Afikpo North;Ngodo Amachi Ward;;Ngodo H/C;;;;;
Afikpo North;Ngodo Amachi Ward;;Afikpo North Local Government Staff Clinic;;;;;
Afikpo North;Ngodo Amachi Ward;;Ausun Specialist Hospital;;;;;
Afikpo North;Nkagbogo Ward;;Nkagbogo Health Centre;;;;;
Afikpo North;Nkpoghoro Ward;;Ndibe Health Centre;;;;;
Afikpo North;Nkpoghoro Ward;;MDG Amankwor;;;;;
Afikpo North;Ohaechara Ward;;Amasiri Health Centre;;;;;
Afikpo North;Ohaisu Afikpo A Ward;;Niger Optical Service (Afrikpo);;;;;
Afikpo North;Ohaisu Afikpo A Ward;;Amachara HC;;;;;
Afikpo North;Ohaisu Afikpo A Ward;;Ohaisu Maternal and Health Centre;;;;;
Afikpo North;Ohaisu Afikpo A Ward;;BY His Grace Mission Hospital & Clinic;;;;;
Afikpo North;Ohaisu Afikpo B Ward;;Victory Hospital;;;;;
Afikpo North;Ohaisu Afikpo B Ward;;Maranatha Home Clinic;;;;;
Afikpo North;Ohaisu Afikpo B Ward;;Afikpo Medical Centre;;;;;
Afikpo North;Ohaisu Afikpo B Ward;;Matermisercordiae Hospital;;;;;
Afikpo North;Ohaisu Afikpo B Ward;;St Paul's Hospital and Maternity;;;;;
Afikpo North;Ohaisu Afikpo B Ward;;Chinemerem Maternity Home;;;;;
Afikpo North;Ohaisu Afikpo B Ward;;Amangbala Health Centre;;;;;
Afikpo North;Ohaisu Afikpo B Ward;;Atims family Health Centre;;;;;
Afikpo North;Ohaisu Afikpo B Ward;;Divine Mercy Care Clinic;;;;;
Afikpo North;Ozziza Ward;;MDG Amikpo;;;;;
Afikpo North;Ozziza Ward;;Ugo Hospital;;;;;
Afikpo North;Ozziza Ward;;Ozizza Health Centre;;;;;
Afikpo North;Ozziza Ward;;Imama Health Post;;;;;
Afikpo North;Ozziza Ward;;Amata ozizza HC;;;;;
Afikpo North;Ozziza Ward;;Ora HC;;;;;
Afikpo North;Ozziza Ward;;Ozaka Okangwu Health Post;;;;;
Afikpo North;Poperi Amasiri Ward;;Poperi Health Post;;;;;
Afikpo North;Ugwuegu Ward;;Ugwuegu Health Centre;;;;;
Afikpo North;Uwana Afikpo 1 Ward;;Akanu Ibiam Memorial Comprehensive Health Centre;;;;;
Afikpo North;Uwana Afikpo 1 Ward;;Amaokom Health Centre;;;;;
Afikpo North;Uwana Afikpo 1 Ward;;Unwana Health Centre;;;;;
Afikpo South;Amaigbo Ward;;Amaoba Health Post;;;;;
Afikpo South;Amairi  Ward;;Ugwuama Health Centrre;;;;;
Afikpo South;Amairi  Ward;;Libolo Health Centre;;;;;
Afikpo South;Amangwu Ward;;Amangwu Millennium Development Goal Health Centre;;;;;
Afikpo South;Amangwu Ward;;Asaga Health Post;;;;;
Afikpo South;Amangwu Ward;;Amangwu Health Centre (Afrikpo South);;;;;
Afikpo South;Ebiri  Ward;;Amaiyi Health Post;;;;;
Afikpo South;Ebunwana Ward;;Igbara Health Post;;;;;
Afikpo South;Ebunwana Ward;;Model Health Centre;;;;;
Afikpo South;Ekoli A Ward;;Ekoli Health Centre;;;;;
Afikpo South;Ekoli A Ward;;Chioma Maternity Home;;;;;
Afikpo South;Ekoli A Ward;;Ekoli Edda Presbyterian Joint Hospital;;;;;
Afikpo South;Etiti B/Amoso Ward;;Model PHC Etiti;;;;;
Afikpo South;Etiti B/Amoso Ward;;Etiti Health Post;;;;;
Afikpo South;Idima Ward;;Amaeta Health Centre;;;;;
Afikpo South;Idima Ward;;Amato Millennium Development Goal Health Centre;;;;;
Afikpo South;Ndioke  Ward;;Okpontor Mellinium Development Goal;;;;;
Afikpo South;Ndioke  Ward;;Ekula Health centre;;;;;
Afikpo South;Ndioke  Ward;;Ogwuma Health Centre;;;;;
Afikpo South;Ndioke  Ward;;Ndiolughu Health Post;;;;;
Afikpo South;Nguzu Ward;;Nguzu Health Centre;;;;;
Afikpo South;Ogbu Ward;;Ogbu Health Centre;;;;;
Afikpo South;Ogbu Ward;;Itim Health Centre MDG;;;;;
Afikpo South;Osso Ward;;Ndi Okpo Health Center MDG;;;;;
Afikpo South;Osso Ward;;en Ndi Obsi Health Post;;;;;
Afikpo South;Osso Ward;;Amasonta Health Centre;;;;;
Afikpo South;Owutu  Ward;;Owutu Edda General Hospital;;;;;
Afikpo South;Owutu  Ward;;Amaepiti Health Post ;;;;;
Afikpo South;Owuu Ward;;Ebunwana Millennium Development Goal Health Centre;;;;;
Afikpo South;Owuu Ward;;Owutu Health Centre;;;;;
Ebonyi;Abaofia Ward;;Abofia Health Centre;;;;;
Ebonyi;Abaofia Ward;;Good Shepherd Clinic;;;;;
Ebonyi;Agalegu Ward;;Abarigwe Health Centre;;;;;
Ebonyi;Agalegu Ward;;Obobo Health Centre;;;;;
Ebonyi;Echi Aba Ward;;Chidima Clinic and Maternity;;;;;
Ebonyi;Egwudinagu Ward;;Edukwuegbu Health Centre;;;;;
Ebonyi;Egwudinagu Ward;;Onyirigbo Health Centre MDG;;;;;
Ebonyi;Egwudinagu Ward;;MDGs Ndiechi;;;;;
Ebonyi;Egwudinagu Ward;;Uloenwu Health Centre;;;;;
Ebonyi;Egwudinagu Ward;;New Era Health Centre;;;;;
Ebonyi;Enyibuchiri 1 Ward;;Ogbala Health Post;;;;;
Ebonyi;Enyibuchiri 1 Ward;;Ntezi Health Centre(Randa) Millennium Development Goal;;;;;
Ebonyi;Enyibuchiri 1 Ward;;Ogbaga Health Post (Ebonyi);;;;;
Ebonyi;Enyibuchiri 1 Ward;;Okaria Health Post;;;;;
Ebonyi;Enyibuchiri 1 Ward;;Ndioffia Health Centre;;;;;
Ebonyi;Enyibuchiri 2 Ward;;Ukpachacha Health Centre;;;;;
Ebonyi;Kpiri-Kpiri Ward;;Chidera Health Clinic and Maternity;;;;;
Ebonyi;Kpiri-Kpiri Ward;;Mile 4 Hospital;;;;;
Ebonyi;Mbeke Ward;;Ohgelode Health Centre;;;;;
Ebonyi;Mbeke Ward;;Mbeke Health Centre;;;;;
Ebonyi;Mbeke Ward;;Holy Trinty Motherless And Maternity Home;;;;;
Ebonyi;Mbeke Ward;;Ndiefi Health Centre;;;;;
Ebonyi;Mbeke Ward;;Mbeke Nwaji Health Centre;;;;;
Ebonyi;Ndiebor II Ward;;Ededagu Millennium Development Goal Health Centre ;;;;;
Ebonyi;Nduebor Ward;;Odomoke General Hospital;;;;;
Ebonyi;New Layout Ward;;Ugo Dorcas Mercy Maternity Home;;;;;
Ebonyi;New Layout Ward;;Nsugbe Maternal and Child Health Centre;;;;;
Ebonyi;Ntezi Aba Ward;;Ntezi Aba Health Post;;;;;
Ebonyi;Oguzoronweya Ward;;Oguzoronweya Health Post;;;;;
Ebonyi;Onuenyim Ward;;Ndioffia Health Centre;;;;;
Ebonyi;Onuenyim Ward;;Onuenyim Millennium Development Goal;;;;;
Ebonyi;Onuenyim Ward;;Ndiugo Health Centre;;;;;
Ebonyi;Ugbodo Ward;;Ugbodo Health Centre;;;;;
Ebonyi;Ugbodo Ward;;Okpanku Health Post;;;;;
Ebonyi;Ukpachacha Ward;;Ette Nkaliki Health Centre;;;;;
Ezza North;Amuda Ward;;Amaewula HC;;;;;
Ezza North;Amuda Ward;;Amuda Health Centre;;;;;
Ezza North;Azuituma Ward;;Azuituma Health Clinic;;;;;
Ezza North;Ekka Ward;;Ekka Health Centre;;;;;
Ezza North;Ekka Ward;;Ekka  Millennium Development Goal Health Centre;;;;;
Ezza North;Inyere Ward;;Inyere  Millennium Development Goal Health Centre;;;;;
Ezza North;Nkomoro Ward;;Nkomoro Health Centre;;;;;
Ezza North;Nkomoro Ward;;Ndubuisi Hospital;;;;;
Ezza North;Ogboji Ward;;Ndiagu Ogboji MDGs;;;;;
Ezza North;Ogboji Ward;;Imoha Cottage Hospital;;;;;
Ezza North;Ogboji Ward;;Achiagu Health Centre;;;;;
Ezza North;Ogbuinyagu Ward;;Ndiegu Ogbuinyaga Health Centre;;;;;
Ezza North;Okposi Ward;;St. Anthony Maternity;;;;;
Ezza North;Omege Umuezekoha Ward;;Omege Health Centre;;;;;
Ezza North;Oriuzor Ward;;Oriuzor Basic Health Clinic;;;;;
Ezza North;Oriuzor Ward;;Ngamgbo Azu Health Post;;;;;
Ezza North;Oriuzor Ward;;Umuome Health Centre;;;;;
Ezza North;Oriuzor Ward;;Odeligbo MCH;;;;;
Ezza North;Oshiegbe Ward;;Oshiegbe Health Centre;;;;;
Ezza North;Oshiegbe Ward;;Baptist Hospital and Maternity;;;;;
Ezza North;Umuezekoha Ward;;St Deakins Maternity Home;;;;;
Ezza North;Umuezekoha Ward;;Okpoku Egbe Health Centre;;;;;
Ezza North;Umuezekoha Ward;;Okaleru Health Centre Millennium Development Goals;;;;;
Ezza North;Umuezekoha Ward;;Okaleru  Health Centre;;;;;
Ezza North;Umuezekoha Ward;;Enirina Health Post;;;;;
Ezza North;Umuezekoha Ward;;Azueboka Health Post;;;;;
Ezza North;Umuezeoka Ward;;Udenyi staff clinic;;;;;
Ezza North;Umuoghara Ward;;Ugbalaba Umuoghara Health Centre;;;;;
Ezza North;Umuoghara Ward;;Umuoghara Millennium Development Goal Health Centre;;;;;
Ezza North;Umuoghara Ward;;Okposi Health Centre;;;;;
Ezza North;Umuoghara Ward;;Ogharugo Health Clinic;;;;;
Ezza North;Umuoghara Ward;;Azunramura Health Clinic;;;;;
Ezza North;Umuoghara Ward;;Maternal Child Health Okposi;;;;;
Ezza North;Umuoghara Ward;;Umugboke Oriuzor Health Centre;;;;;
Ezza North;Umuoghara Ward;;M.D.Gs Ebiaji;;;;;
Ezza North;Umuoghara Ward;;Izundu Clinic and Maternity;;;;;
Ezza North;Umuoghara Ward;;Ebiaji Maternal and Child Health Centre;;;;;
Ezza South;Amaezekwe Ward;;Amaezekwe Health Centre;;;;;
Ezza South;Amagu Ward;;Amagu Health Centre;;;;;
Ezza South;Amajim Ward;;Amajim Health Centre;;;;;
Ezza South;Amana Ward;;Amana Health Centre;;;;;
Ezza South;Amana Ward;;Amana Millennium Development Goal;;;;;
Ezza South;Ameka Ward;;Ihotor Health Centre;;;;;
Ezza South;Ameka Ward;;Amalekuna Health Centre;;;;;
Ezza South;Amudo Okoffia Ward;;Amudo Health Centre;;;;;
Ezza South;Amudo Okoffia Ward;;Okoffia Azuebonyi Health Centre;;;;;
Ezza South;Amudo Okoffia Ward;;St Vincent Hosiptal Amudo;;;;;
Ezza South;Amudo Okoffia Ward;;Okoffia Health Centre;;;;;
Ezza South;Amuzu Ward;;Amuzu Health Centre;;;;;
Ezza South;Azuebonyi Idembia Ward;;Azuebonyi Idembia Health Centre;;;;;
Ezza South;Echara Ward;;Echara Millenium Development Goal Health Centre;;;;;
Ezza South;Echara Ward;;Chidindu Medical Clinic;;;;;
Ezza South;Ezeburugbala Ward;;Ezeburugbala Health Post;;;;;
Ezza South;Ezzama Ward;;Ezzama Health Centre;;;;;
Ezza South;Ezzama Ward;;Ejinnaka Maternity Home;;;;;
Ezza South;Ezzama Ward;;Imeabali Health Centre;;;;;
Ezza South;Ezzama Ward 2;;Uzodinma Hospital;;;;;
Ezza South;Ikwuato Idembia Ward;;Ikwuator Health Centre;;;;;
Ezza South;Nsokkara (Omege) Ward;;Nsokkara Health Centre;;;;;
Ezza South;Onueke Ward;;Onueke General Hospital;;;;;
Ezza South;Onueke Ward;;Onueke Maternal and Child Health Care;;;;;
Ezza South;Onueke Ward;;Divine Favour Maternity Home;;;;;
Ezza South;Umunwagu Idembia Ward;; Ezza East  Maternal and Child Health Care ;;;;;
Ezza South;Umunwagu Idembia Ward;;Umunwagu Health P0st;;;;;
Ikwo;Abina Ward;;Abina Health Centre;;;;;
Ikwo;Abina Ward;;Abina Millennium Developement Goal Health;;;;;
Ikwo;Amainyima Ward;;Odeligbo Health Centre;;;;;
Ikwo;Echialike Ward;;Echialike Health Centre;;;;;
Ikwo;Eka Awoke Ward;;Onuafiukwa Health Post;;;;;
Ikwo;Eka Awoke Ward;;Ndufu Umota Millennium Development Goal Health Centre;;;;;
Ikwo;Ekpaomaka Ward;;Ebiem Health Centre;;;;;
Ikwo;Ekpaomaka Ward;;Igboji General Hospital;;;;;
Ikwo;Ekpaomaka Ward;;Imeabali/Ndiechi Health Post;;;;;
Ikwo;Ekpelu Ward;;Amainyima Health Post;;;;;
Ikwo;Ekpelu Ward;;Ameka Health Post;;;;;
Ikwo;Ekpelu Ward;;Inyimagu Ameka Health Centre;;;;;
Ikwo;Enyibichiri Ward;;Model Health Centre Enyibichiri;;;;;
Ikwo;Enyibichiri Ward;;Enyibichiri Millennium Development Goal Health Centre ;;;;;
Ikwo;Ettam Ward;;Elugwu Ettam Health Centre;;;;;
Ikwo;Ettam Ward;;Ettam Health Centre;;;;;
Ikwo;Igbudu Ward;;Ogagbo Health Post;;;;;
Ikwo;Ndegu Echara Ward;;Nzashi Health Post;;;;;
Ikwo;Ndegu Echara Ward;;Uzochi Clinic and Maternity;;;;;
Ikwo;Ndegu Echara Ward;;RIM Hospital (Ndegu Echara);;;;;
Ikwo;Ndegu Igbudu Ward;;Ogagbo Millennium Development Goal Health Centre;;;;;
Ikwo;Ndiagu Amagu Ward 1;;Ndiagu Amagu Health Centre;;;;;
Ikwo;Ndiagu Amagu Ward 1;;Ororia Health Centre;;;;;
Ikwo;Ndiagu Amagu Ward 1;;Millennium Development Goal Health Centre, Ndiagu Amagu;;;;;
Ikwo;Ndiagu Amagu Ward 2;;Item Health Centre;;;;;
Ikwo;Ndiagu Inyimagu Ward ;;Oferekpe Dispensary;;;;;
Ikwo;Ndiagu Inyimagu Ward ;;Odomowo Health Centre;;;;;
Ikwo;Ndiagu Inyimagu Ward ;;Odomowo Millennium Development Goal Health Centre;;;;;
Ikwo;Ndufu  Inyimagu Ward;;Agubia Cottage Hospital;;;;;
Ikwo;Ndufu  Inyimagu Ward;;Amunu Health Post;;;;;
Ikwo;Ndufu  Inyimagu Ward;;Effemgbabu Health Center;;;;;
Ikwo;Ndufu Alike Ward;;Onunwakpu Health Post;;;;;
Ikwo;Ndufu Alike Ward;;Ndufu Alike Millennium Development Goal Health Centre;;;;;
Ikwo;Ndufu Amagu 1 Ward;;Ndiegwo Health Post;;;;;
Ikwo;Ndufu Amagu 2 Ward;;Ohatekwe Health Centre;;;;;
Ikwo;Ndufu Amagu 2 Ward;;Igweledoha Health Post;;;;;
Ikwo;Ndufu Echara Ward;;Echara Health Centre (Ndufu Echara);;;;;
Ikwo;Ndufu Echara Ward;;Obegu Eleke Health Centre;;;;;
Ikwo;Ndufu Igbudu Ward;;Imogo Health Post;;;;;
Ikwo;Noyo Ward;;Noyo Millennium Development Goal Health Centre;;;;;
Ikwo;Noyo Ward;;Noyo Health Centre;;;;;
Ishielu;Agba Ward;;Amagu Agba Health Post;;;;;
Ishielu;Aguoza Ward;;Aguozu Health Post;;;;;
Ishielu;Amaokwe Ward;;Amaokwe Health Post;;;;;
Ishielu;Amazu Ward;;Amazu Health Post;;;;;
Ishielu;Ezekuna/Nkomoro/ Eguhuo Ward;;Ugboenyim Health Centre;;;;;
Ishielu;Ezekuna/Nkomoro/ Eguhuo Ward;;Ezzagu Health Centre;;;;;
Ishielu;Ezekuna/Nkomoro/ Eguhuo Ward;;Eguto Health Centre;;;;;
Ishielu;Ezekuna/Nkomoro/ Eguhuo Ward;;Ezekuna Health Centre;;;;;
Ishielu;Ezekuna/Nkomoro/ Eguhuo Ward;;Marist Hospital and Maternity;;;;;
Ishielu;Ezzilo Ward;;Amozanu Millennium Development Goal Health Centre Amozanu;;;;;
Ishielu;Ezzilo Ward;;Ezillo Health Post;;;;;
Ishielu;Ezzilo Ward;;Ndiagu Umuezeoke Health Post;;;;;
Ishielu;Ezzilo Ward;;Ukamaka Health Centre;;;;;
Ishielu;Ikwuano Ward;;Azituma Health Post;;;;;
Ishielu;Ikwuano Ward;;Agba General Hospital;;;;;
Ishielu;Inyaba Ward;;Azuofia Health Centre;;;;;
Ishielu;Iyionu Ward;;Iyonu Health Post;;;;;
Ishielu;Ndiegu Ward;;Ndiegu Okpoto Health Post;;;;;
Ishielu;Nkalagu Ward;;Nkalagu Health Centre;;;;;
Ishielu;Nkalagu Ward;;Amavu HC;;;;;
Ishielu;Nkalaha Ward;;Nkalaha Health Centre;;;;;
Ishielu;Ntezi Ward;;Ntezi Health Centre;;;;;
Ishielu;Ntezi Ward;;Ohage Health Post;;;;;
Ishielu;Obegu Ward;;Obeagu Health Centre;;;;;
Ishielu;Ogbogun/Onuoji Ward;;Azuinyaba Health Centre;;;;;
Ishielu;Ogbogun/Onuoji Ward;;Ogbogum Health Post;;;;;
Ishielu;Ogboji Eguhuo Ward;;Eguhuo Health Centre;;;;;
Ishielu;Ohafia Ward;;Ohofia Agba Health Centre;;;;;
Ishielu;Okpoto Ward;;Ebonyi Okpoto Health Post;;;;;
Ishielu;Okpoto Ward;;Okpoto Health Centre;;;;;
Ishielu;Onunweke Ward;;Onunweke Health Centre;;;;;
Ishielu;Umuezoke Ward;;Umuezoke Health Post;;;;;
Ishielu;Umuhuali Ward;;Umuhuali Health Centre;;;;;
Ishielu;Umuhuali Ward;;Onunwafor Health Post;;;;;
Ishielu;Umuhuali Ward;;Azuogbagu Health Post;;;;;
Ivo;Akaeze Ukwu Ward;;Mgbede Health Post;;;;;
Ivo;Akaeze Ukwu Ward;;Akaeze Ukwu Health Post;;;;;
Ivo;Akaeze Ukwu Ward;;Mgbede Akanto Millennium Development Goal Health Centre;;;;;
Ivo;Amaeze Ward;;Amaeze Health Centre;;;;;
Ivo;Amaeze Ward;;Amata Health Centre;;;;;
Ivo;Amaeze Ward;;Nyeche Hospital;;;;;
Ivo;Amagu Ward (Ivo);;Amagu Ihie Health Centre;;;;;
Ivo;Amagu Ward (Ivo);;Ishiagu Basic Health Centre ;;;;;
Ivo;Amonye Ward;;Amonye Health Post;;;;;
Ivo;Ihenta Ward;;Akaeze Basic Health Centre Ugwuagba;;;;;
Ivo;Ihenta Ward;;Blessed Hospital Ogidin Akaeze;;;;;
Ivo;Iyioji Ward;;Iyioji Health Centre;;;;;
Ivo;Iyioji Ward;;Mama Theresa Maternity Home;;;;;
Ivo;Iyioji Ward;;Obulor Health Centre;;;;;
Ivo;Ndiokoro Ukwu Ward;;Afikpo Road Health Centre;;;;;
Ivo;Ndiokoro Ukwu Ward;;Ekembe Health Post;;;;;
Ivo;Ndiokoro Ukwu Ward;;Ndiokoro Ukwu MDG;;;;;
Ivo;Ndiokoro Ukwu Ward;;Ndiobasi Health Post;;;;;
Ivo;Ndiokoro Ukwu Ward;;Ndiugbugbo Health Post;;;;;
Ivo;Ngwogwo Ward;;Ishiagu General Hospital;;;;;
Ivo;Ngwogwo Ward;;Ngwogwo H/C;;;;;
Ivo;Obinagu Ward;;Isiaka Model Health Centre;;;;;
Ivo;Obinagu Ward;;Ayaragu Health Post;;;;;
Ivo;Okue Ward;;Nzerem Health Post;;;;;
Ivo;Okue Ward;;Okue Health Centre;;;;;
Ivo;Okue Ward;;Okofia H/C;;;;;
Ivo;Okue Ward;;Ogwor Health Centre;;;;;
Ivo;Umuobor Akaeze Ward;;Ndiachi Health Post;;;;;
Izzi;Agbaja Mgbo Ward;;Ominyi Health Centre;;;;;
Izzi;Agbaja Mgbo Ward;;Mgbo Agbaja Health Centre;;;;;
Izzi;Agbaja Offia Onwe Ward;;Ndiakpurata Health Post;;;;;
Izzi;Agbaja Offia Onwe Ward;;Faviour Health Centre;;;;;
Izzi;Agbaja Offia Onwe Ward;;Ndienyi Health Post;;;;;
Izzi;Agbaja Ward;;Opherekpe Health Centre;;;;;
Izzi;Anyanwigwe Ward;;Sudan United Mission Clinic (Izza);;;;;
Izzi;Anyanwigwe Ward;;Okaleru Health Centre;;;;;
Izzi;Anyanwigwe Ward;;Nwofe Health Centre;;;;;
Izzi;Anyanwigwe Ward;;Amachara Health Centre;;;;;
Izzi;Ete Ward;;Ette Health Centre;;;;;
Izzi;Ete Ward;;Achacha Health Post;;;;;
Izzi;Ezza Inyimagu Igbuhu Ward;;MDG Mkporume;;;;;
Izzi;Ezza Inyimagu Igbuhu Ward;;Ikenyi Health Centre;;;;;
Izzi;Ezza Inyimagu Igbuhu Ward;;Igbuhu Otuma Health Centre;;;;;
Izzi;Ezza Inyimagu Izzi-Ogo Ward;;Iziogo Health Centre;;;;;
Izzi;Ezza Inyimagu Ndiagu Ward;;Offiankwu HC;;;;;
Izzi;Ezza Ofu Ward;;Ezzaofu Health Centre;;;;;
Izzi;Ezza Ofu Ward;;God is Able Clinic;;;;;
Izzi;Ezza Ofu Ward;;Ezzagu Health Centre (Izzi);;;;;
Izzi;Ezza Ofu Ward;;Ndinwamgba Health Post;;;;;
Izzi;Iboko Ward;; Agbaenyim Millennium Development Goal Health Centre;;;;;
Izzi;Igbeagu 2 Ndietta Ward;;Nchoko Health Centre;;;;;
Izzi;Igbeagu 2 Ndietta Ward;;Amuzu Health Centre (Izzi);;;;;
Izzi;Igbeagu 2 Ndietta Ward;;Oferekpe Health Centre;;;;;
Izzi;Igbeagu 3 Ward;;Ndiofutu Health Post;;;;;
Izzi;Igbeagu 3 Ward;;Ochafu Health Centre;;;;;
Izzi;Igbeagu 3 Ward;;Onu-Nwakpu Health Centre;;;;;
Izzi;Igbeagu 3 Ward;;Ndubia Health Centre;;;;;
Izzi;Igbeagu 3 Ward;;Oferekpe Ezza Inyi;;;;;
Izzi;Igbeagu Nduogbu Ward;;Onuebonyi Health Centre;;;;;
Izzi;Igbeagu Nduogbu Ward;;Nwezenyi Health Centre;;;;;
Izzi;Igbeagu Nduogbu Ward;;St Veronica Clinic;;;;;
Izzi;Igbuhu Ward;;Ikenyi Millennium Development Goal Health Centre ;;;;;
Izzi;Mgbabeluzor Ward;;God's Time (Otam) Hospital;;;;;
Izzi;Mgbabeluzor Ward;;Izinyi HF;;;;;
Izzi;Mgbalukwu Inyimagu Ward;;Ndingele Health Post;;;;;
Izzi;Mgbalukwu Inyimagu Ward;;Iboko Staff Clinic;;;;;
Izzi;Mgbalukwu Inyimagu Ward;;Opefia Health Centre;;;;;
Izzi;Ndibokote Ward;;Offianka Millennium Development Goal Health Centre;;;;;
Izzi;Ndieze /Inyimagu Ward;;Ndieborishiagu Health Center;;;;;
Izzi;Ndieze /Inyimagu Ward;;Enyibichiri Health Centre (Izzi);;;;;
Izzi;Ndieze /Inyimagu Ward;;Izicha Health Post;;;;;
Izzi;Ndieze /Inyimagu Ward;;Utsuenyim Health Post;;;;;
Izzi;Ndieze /Inyimagu Ward;;Mkpuma Health Centre;;;;;
Izzi;Ndieze/Inyimagu/ Ndiagbo Ishiagu Ward;;Eb Iboko General Hospital;;;;;
Izzi;Ndieze/Inyimagu/ Ndiagbo Ishiagu Ward;;Ndiogbu Health Post;;;;;
Izzi;Ndieze/Inyimagu/ Ndiagbo Ishiagu Ward;;Izhokoma Health Centre;;;;;
Izzi;Ndieze/Inyimagu/ Ndiagbo Ishiagu Ward;;Izaleme Health Centre;;;;;
Izzi;Ndingele Ward;;Ndibulofia Health Centre;;;;;
Izzi;Ndinkwuda Igbeagu Ward;;Mkpuma Millennium Development Goal Health Centre ;;;;;
Izzi;Ndinkwuda Igbeagu Ward;;Ndinkwuda Health Post;;;;;
Izzi;Ndinkwuda Igbeagu Ward;;Ododokpa Millennium Development Goal Health Centre ;;;;;
Izzi;Ngbo Agbaja Ward;;Ngbo Agbaja Health Centre;;;;;
Izzi;Nwanu Ward;;Nwanu Health Facility;;;;;
Izzi;Nwophe Ward;;Sunshine Clinic;;;;;
Izzi;Oferekpe Ward;;Edukwachi Millennium Development Goal Health Centre ;;;;;
Izzi;Ogbagharu Ward;;Model PHC Ette;;;;;
Izzi;Osebi Ward;;Ndinwezuma Health Centre;;;;;
Izzi;Oyege Ward;;Oyege Health Centre;;;;;
Izzi;Ndietta Ward;;Uloenwu Health Facility;;;;;
Izzi;Ndietta Ward;;Oguzoronweya Health Facility;;;;;
Ohaozara;Amaechi Okposi Ward;;Umuka Millenuim Development Goals Clinic;;;;;
Ohaozara;Amaechi Okposi Ward;;Umuka Health Post;;;;;
Ohaozara;Amaechi Okposi Ward;;Umunuka Health Post;;;;;
Ohaozara;Amaechi Okposi Ward;;Chidera Clinic/Maternity;;;;;
Ohaozara;Amaechi Okposi Ward;;Obuchiri Health Post;;;;;
Ohaozara;Amaechi Okposi Ward;;Udoka Maternity Home;;;;;
Ohaozara;Amaechi Okposi Ward;;Umuakuma Health Post;;;;;
Ohaozara;Mgbom Okposi Ward;;Urban Health Post;;;;;
Ohaozara;Mgbom Okposi Ward;;Onuaviankwo Health Post;;;;;
Ohaozara;Mgbom Okposi Ward;;Okposi General Hospital;;;;;
Ohaozara;Mgbom Okposi Ward;;Ojigwe Health Centre;;;;;
Ohaozara;Mgbom Okposi Ward;;Ndiunuhu Health Centre;;;;;
Ohaozara;Obioha Ward;;Obiagu Mebowa Health Post;;;;;
Ohaozara;Obiozara Ward;;Obiozara Health Centre;;;;;
Ohaozara;Obiozara Ward;;Ogudunwantuzor MDG;;;;;
Ohaozara;Obiozara Ward;;Eke-Aja H.P;;;;;
Ohaozara;Ogbogologo Ward;;Ugwulangwu Health Centre;;;;;
Ohaozara;Ogbogologo Ward;;en Amenu Health Post;;;;;
Ohaozara;Ogbogologo Ward;;Amene Health Post;;;;;
Ohaozara;Okposi Okwu Ward;;Okposi Okwu Model Health Post;;;;;
Ohaozara;Okposi Okwu Ward;;Ndiagu Health Centre;;;;;
Ohaozara;Okposi Okwu Ward;;Obodoma Health Post;;;;;
Ohaozara;Okposi Okwu Ward;;Ogoachi Health Post;;;;;
Ohaozara;Ugwulangwu Ward;;Umueze Health Post;;;;;
Ohaozara;Uhuofaru Ugwulangwu Ward;;Akpameke Health Post;;;;;
Ohaozara;Uhuotaru Ward;;Enyimanu Millenuim Development Goals Health Centre;;;;;
Ohaozara;Uhuotaru Ward;;Amata Health Post;;;;;
Ohaozara;Uhuotaru Ward;;Eguinyima HP;;;;;
Ohaozara;Uhuotaru Ward;;Okeffia Health Post;;;;;
Ohaozara;Umuchima Ward;;Ihenu Health Post;;;;;
Ohaozara;Umuchima Ward;;Umuchima Health Post;;;;;
Ohaozara;Umuchima Ward;;Enueba Health Post;;;;;
Ohaozara;Umunaga Ward;;Urobo Health Post;;;;;
Ohaozara;Umunaga Ward;;Umunaga Millennium Development Goals Clinic ;;;;;
Ohaozara;Umunaga Ward;;Ogbuoma Millennium Development Goal Health Centre ;;;;;
Ohaozara;Umunaga Ward;;Egugwu Health Centre;;;;;
Ohaozara;Umunaga Ward;;Enuagu Umunaga Health Post;;;;;
Ohaozara;Umuobuna Ward;;Uburu Presbyterian Joint Hospital;;;;;
Ohaozara;Umuobuna Ward;;Ogwu Millenuim Development Goals Clinic;;;;;
Ohaukwu;Amovu Ward;;Amaovu Health Centre;;;;;
Ohaukwu;Effium III;;Ibenda Health Centre;;;;;
Ohaukwu;Effium III;;Okporo MDG;;;;;
Ohaukwu;Effium IV ;;Akpurata Health Clinic;;;;;
Ohaukwu;Effium Ward 1;; Ekwashi Millenium Development Goal;;;;;
Ohaukwu;Effium Ward 1;;Effium Health centre;;;;;
Ohaukwu;Effium Ward 1;;Umueze Enyoagu Health Centre;;;;;
Ohaukwu;Ezeokugo Ward;;Pascal Health Centre;;;;;
Ohaukwu;Ezzamgbo Ward;;Ezzangbo Maternity;;;;;
Ohaukwu;Ezzamgbo Ward;;Amike Health Centre;;;;;
Ohaukwu;Ezzamgbo Ward;;Umuagara HC;;;;;
Ohaukwu;Ezzamgbo Ward;;Charity Maternity Home;;;;;
Ohaukwu;Ezzamgbo Ward;;Amanamta Health Centre;;;;;
Ohaukwu;Ezzamgbo Ward;;Ekwashi HC;;;;;
Ohaukwu;Ezzamgbo Ward;;Ezzangbo General Hospital;;;;;
Ohaukwu;Ezzamgbo Ward;;Nkpufuru Health Centre;;;;;
Ohaukwu;Ijinike/Aminyi Ward;;Staff Clinic Ijinike;;;;;
Ohaukwu;Ishi Ngbo 1 Ward;;Ndiagu Eze Health Clinic;;;;;
Ohaukwu;Ishi Ngbo 1 Ward;;Ndiagu Igwe Health Centre;;;;;
Ohaukwu;Ishi Ngbo 1 Ward;;Ndiagu Idaka Health Clinic;;;;;
Ohaukwu;Ishi-Izhia Amaogetewu Ward;;MDG Ogwawo;;;;;
Ohaukwu;Isi Ngbo 2 Ward;;Aguorie Health Centre;;;;;
Ohaukwu;Isi Ngbo 2 Ward;;Ukwagba Primary Health Care Centre;;;;;
Ohaukwu;Isi Ngbo 2 Ward;;Ejilewe Health Centre;;;;;
Ohaukwu;Isi Ngbo 2 Ward;;Ndulo Ukwagba Health Centre;;;;;
Ohaukwu;Ngbo Ward;;MDGs Amoffia ;;;;;
Ohaukwu;Ngbo Ward;;Ndiagu onwe Amoffia health centre;;;;;
Ohaukwu;Ohia Ndaburu Ward;;MDG Ugum;;;;;
Ohaukwu;Okposhi 1 Ward;;Little Seed Maternity Ngbo;;;;;
Ohaukwu;Okposhi 3 Ward;;Akpaka Mellinium Development Goal;;;;;
Ohaukwu;Okposhi 3 Ward;;Abarigwe Health Centre (Ohaukwu);;;;;
Ohaukwu;Okposhi 4 Ward;;Ngbo Maternity ;;;;;
Ohaukwu;Okposhi 4 Ward;;Ndiagu Ubochi Health Centre;;;;;
Ohaukwu;Okposhi 4 Ward;;Abogodo Health Centre;;;;;
Ohaukwu;Okposhi Ward;;Ndiagu Iyiogwe Health Centre;;;;;
Ohaukwu;Umuaguma/ Ufuevene Ward;;Urevene Health Centre;;;;;
Ohaukwu;Umuaguma/ Ufuevene Ward;;Amoba Health Centre;;;;;
Ohaukwu;Umuebe Ward;;Umuebe Health Centre;;;;;
Ohaukwu;Umugadu Ward;;Umugadu Health Centre;;;;;
Ohaukwu;Umuogudu Akpu 2 Ward;;Oshaegu Amia Health Centre;;;;;
Ohaukwu;Umuogudu Akpu 2 Ward;;Oshaegu Umuzaka HC;;;;;
Ohaukwu;Umuogudu Akpu Ward;;MDG PHC Ijinike;;;;;
Ohaukwu;Umuogudu Oshia (Ndaburu Ebenyi) Ward;;Effia Ukwu Health Centre;;;;;
Ohaukwu;Umuogudu Oshia Ward;;Abarigwe Amoffia Health Centre;;;;;
Ohaukwu;Umuogudu Oshia Ward;;Oriji Afor Health Centre;;;;;
Ohaukwu;Wigbeke 1 Ward;;St Patrick's Maternity;;;;;
Ohaukwu;Wigbeke 2 Ward;;Inikiri Health Centre;;;;;
Onicha;Abaomege Ward;;Abaomege Millenuim Development Goals Health Centre;;;;;
Onicha;Abaomege Ward;;Abaomege Dispensary;;;;;
Onicha;Agbabor Isu Ward;;Isu Health Centre;;;;;
Onicha;Agbabor Isu Ward;;Evergreen Foundation Clinic;;;;;
Onicha;Agbabor Isu Ward;;Agbabor Health Post;;;;;
Onicha;Agbabor Isu Ward;;Aguenu Health Post;;;;;
Onicha;Amanator Isu Ward;;Mgbom Health Post;;;;;
Onicha;Amanator Isu Ward;;Mgbalaeze Health Centre;;;;;
Onicha;Amanator Isu Ward;;Umuifi Health Centre;;;;;
Onicha;Amankalu Ward;;Amankalu Health Post;;;;;
Onicha;Ebia Oshiri Ward;;Oshiri Health Centre;;;;;
Onicha;Ebriogu Ward;;Ebiriogu Millenuim Development Goals Health Centre;;;;;
Onicha;Enuegu Ward;;Ugwuenu Health Post;;;;;
Onicha;Enuegu Ward;;Ogonogonuja Health Post;;;;;
Onicha;Enuegu Ward;;Rapha Medical Centre;;;;;
Onicha;Enuegu Ward;;Anike Health Post;;;;;
Onicha;Enyibichiri Ward;;Enyibichiri Health Centre;;;;;
Onicha;Ezube Ward;;Ochege Health Centre;;;;;
Onicha;Ezube Ward;;Oguduali Health Post;;;;;
Onicha;Ezukwa Ward;;Okpoma Health Post;;;;;
Onicha;Ezukwa Ward;;Onicha Health Centre;;;;;
Onicha;Ezukwa Ward;;Isiama Health Post;;;;;
Onicha;Ishinkwo Ukawu Ward;;Ishinkwo Millenium Development Goals Clinic;;;;;
Onicha;Ishinkwo Ukawu Ward;;Ndufu Amoffia Health Post;;;;;
Onicha;Ishinkwo Ukawu Ward;;Ohoffia Health Post;;;;;
Onicha;Ishinkwo Ukawu Ward;;Ukawu Health Centre;;;;;
Onicha;Ishinkwo Ukawu Ward;;Azuebonyi Health Post;;;;;
Onicha;Isi Onicha Ward;;Eziga Health Post;;;;;
Onicha;Isi Onicha Ward;;Amanator Millenuim Development Goals Health Centre;;;;;
Onicha;Isi Onicha Ward;;Akanu Health Post;;;;;
Onicha;Isi Onicha Ward;;Umubo Health Post;;;;;
Onicha;Obeagu Isu Ward;;Onuani Health Post;;;;;
Onicha;Obeagu Isu Ward;;Obeagu Health Post;;;;;
Onicha;Ogudu Okwor Ward;;Oshiri Model Health Centre;;;;;
Onicha;Okuzzu-Ukawu Ward;;Okuzzu Health Post;;;;;
Onicha;Ugwu Ward;;Ugwu Health Post;;;;;
Onicha;Uhuobia Ward;;Uhuobia Health Post;;;;;
Onicha;Umudomi Ward;;Ogudu Memorial Clinic and Maternity;;;;;
Onicha;Umudomi Ward;;Amoja Mellinuim Development Goals;;;;;
Onicha;Umudomi Ward;;Onicha General Hospital;;;;;
Onicha;Umudomi Ward;;Amakporo Health Post;;;;;
Onicha;Umudomi Ward;;Amas Health Post;;;;;
Onicha;Umudomi Ward;;Nwadinafor Maternity;;;;;
Onicha;Umuoka Ward;;Ukawu Dispensary;;;;;
