LGA;Ward;Settlement;Facility;Type;Ownership;Address;Longitude;Latitude
Akoko-Edo;Aiyegunle Ward;;Ogbe Primary Health Centre;;;;;
Akoko-Edo;Aiyegunle Ward;;Ugboshi-Afe Primary Health Centre;;;;;
Akoko-Edo;Aiyegunle Ward;;Somorika Primary Health Centre;;;;;
Akoko-Edo;Aiyegunle Ward;;Ogugu Primary Health Centre;;;;;
Akoko-Edo;Aiyegunle Ward;;Sasaro Primary Health Centre;;;;;
Akoko-Edo;Aiyegunle Ward;;Ugboshi-Ele Primary Health Centre;;;;;
Akoko-Edo;Aiyegunle Ward;;Aiyegunle Primary Health Centre;;;;;
Akoko-Edo;Aiyegunle Ward;;Onumu Primary Health Centre;;;;;
Akoko-Edo;Ewan/Atte Ward;;Atte Primary Health Centre;;;;;
Akoko-Edo;Ewan/Atte Ward;;Enwan I Primary Health Centre;;;;;
Akoko-Edo;Ewan/Atte Ward;;Enwan II Primary Health Centre;;;;;
Akoko-Edo;Ewan/Atte Ward;;Egbigere II Primary Health Centre;;;;;
Akoko-Edo;Ewan/Atte Ward;;Egbigere I Primaey Health Centre;;;;;
Akoko-Edo;Ewan/Atte Ward;;Ikpeshi Primary Health Centre;;;;;
Akoko-Edo;Ibillo Ward;;Ekpesa Primary Health Centre;;;;;
Akoko-Edo;Ibillo Ward;;Ikiran-Oke Primary Health Centre;;;;;
Akoko-Edo;Ibillo Ward;;Ibillo Primary Health Centre;;;;;
Akoko-Edo;Ibillo Ward;;Ikiran-Ile Primary Health Centre;;;;;
Akoko-Edo;Igarra  Ward I;;Alafia Specialist Hospital;;;;;
Akoko-Edo;Igarra  Ward I;;Igarra Primary Health Centre;;;;;
Akoko-Edo;Igarra  Ward I;;Akuku Primary Health Centre;;;;;
Akoko-Edo;Igarra Ward;;Ugbogbo Primary Health Centre;;;;;
Akoko-Edo;Imoga/Lampese Ward;;Bekuma Primary Health Centre;;;;;
Akoko-Edo;Imoga/Lampese Ward;;Ekpe Primary Health Centre;;;;;
Akoko-Edo;Imoga/Lampese Ward;;Imoga Primary Health Centre;;;;;
Akoko-Edo;Imoga/Lampese Ward;;Lampese Primary Health Centre;;;;;
Akoko-Edo;Makeke/Ojah Ward;;Ojirami Primary Health Centre;;;;;
Akoko-Edo;Makeke/Ojah Ward;;Dagnala Primary Health Centre;;;;;
Akoko-Edo;Makeke/Ojah Ward;;Makeke Primary Health Centre;;;;;
Akoko-Edo;Makeke/Ojah Ward;;Ojah Primary Health Centre;;;;;
Akoko-Edo;Okpe/Kakumo Ward;;Ikakumo Primary Health Centre;;;;;
Akoko-Edo;Okpe/Kakumo Ward;;Ijaja Primary Health Centre;;;;;
Akoko-Edo;Okpe/Kakumo Ward;;Ayanran Primary Health Centre;;;;;
Akoko-Edo;Okpe/Kakumo Ward;;Okpe Primary Health Centre;;;;;
Akoko-Edo;Ososo Ward;;Ososo (Egbetua) Primary Health Centre;;;;;
Akoko-Edo;Ososo Ward;;Ososo (Yola) Primary Health Centre;;;;;
Akoko-Edo;Uneme-Nakhua Ward;;Ekpedo Primary Health Centre;;;;;
Akoko-Edo;Uneme-Nakhua Ward;;Uneme-Erhunru Primary Health Centre;;;;;
Akoko-Edo;Uneme-Nakhua Ward;;Uneme-Nekhua Primary Health Centre;;;;;
Egor;Egor Unknown Ward;;Police training school staff clinic;;;;;
Egor;Egor Ward;;Egor primary health centre;;;;;
Egor;Egor Ward;;Fortune Iyare Clinic;;;;;
Egor;Evbuotubu Ward;;Rophecan Hospital;;;;;
Egor;Ogida 1 Ward;;Ogida Primary Health Centre;;;;;
Egor;Ogida 1 Ward;;Evbogida PHC;;;;;
Egor;Ogida 1 Ward;;Bambi Children/Maternity Hospital;;;;;
Egor;Okhoro Ward;;Epid Unit PHC;;;;;
Egor;Ugbowo Ward;;Standard Hospital;;;;;
Egor;Ugbowo Ward;;Ebony Hospital;;;;;
Egor;Ugbowo Ward;;Echo Hospital;;;;;
Egor;Useh Ward;;Tega Hospital;;;;;
Egor;Useh Ward;;Mega clinic maternity;;;;;
Egor;Useh Ward;;Useh Primary Health Centre;;;;;
Egor;Uselu 2 Ward;;Mountain Care Hospital ;;;;;
Egor;Uselu 2 Ward;;Staff Clinic;;;;;
Egor;Uwelu Ward ;;Uwelu primary health centre;;;;;
Esan Central;Ewu Ward;;Ewu Primary Health Centre;;;;;
Esan Central;Ikekato Ward;;Agua Primary Health Center;;;;;
Esan Central;Ikekato Ward;;Ugbokhare Primary Health Centre;;;;;
Esan Central;Otoruwa Ward 1;;Irrua Primary Health Centre;;;;;
Esan Central;Otoruwa Ward 2;;District Hospital Usugbenu;;;;;
Esan Central;Ugbegun/Ebudin Ward;;Ebudin Primary Health Centre;;;;;
Esan Central;Ugbegun/Ebudin Ward;;Ugbegun Primary Health Centre;;;;;
Esan Central;Uneah Ward;;Ibore Primary Health Centre;;;;;
Esan Central;Uwessan Ward 1;;Unogbo Primary Health Centre;;;;;
Esan Central;Uwessan Ward 2;;Ibhiolulu Primary Health Centre;;;;;
Esan Central;Uwessan Ward 2;;Ohe Primary Health Centre;;;;;
Esan North-East;Arue Ward;;Eror Primary Health Care Centre;;;;;
Esan North-East;Efandion Ward;;Efandion PHC;;;;;
Esan North-East;Egbele Ward;;Uromi Urban Health Centre;;;;;
Esan North-East;Ewoyi 1 Ward;;Uwalor -Oke PHC;;;;;
Esan North-East;Idumu-Okojie Ward;;Medical Store;;;;;
Esan North-East;Obeidu Ward;;Obeidu Primary Health Centre;;;;;
Esan North-East;Obiyon/Amedokhian Ward;;Obiyon Primary Health Centre;;;;;
Esan North-East;Obiyon/Amedokhian Ward;;Awo Primary Health Centre;;;;;
Esan North-East;Obiyon/Amedokhian Ward;;Amanfoh Nsa Maternity Home;;;;;
Esan North-East;Uzea Ward;;Ohilin Primary Health Centre;;;;;
Esan North-East;Uzea Ward;;Uzea Ebun Primary Health Centre;;;;;
Esan South-East;Emu Ward;;Emu Primary Health Centre;;;;;
Esan South-East;Emu Ward;;Okhuesan Primary Health Centre;;;;;
Esan South-East;Emu Ward;;Ikeke PHC;;;;;
Esan South-East;Ewatto Ward;;Ewatto 1 Primary Health Centre;;;;;
Esan South-East;Ewohimi 2 Ward;;Ewatto Primary Health Centre;;;;;
Esan South-East;Ewohimi 2 Ward;;Ewohimi PHC II;;;;;
Esan South-East;Ewohimi 2 Ward;;Okede Primary Health Centre;;;;;
Esan South-East;Illushi 1 Ward;;Illishi Primary Health Centre;;;;;
Esan South-East;Ohordua Ward;;Ohordua Comprehensive Health Centre;;;;;
Esan South-East;Ohordua Ward;;Ohordua Primary Health Centre;;;;;
Esan South-East;Oria Ward;;Oria 1 Primary Health Centre;;;;;
Esan South-East;Ubiaja 1 Ward;;Suru Medical Centre;;;;;
Esan South-East;Ubiaja 1 Ward;;Equare Ubiaja Primary Health Centre;;;;;
Esan South-East;Ubiaja 2 Ward;;Ahia primary health centre;;;;;
Esan South-East;Ubiaja 2 Ward;;Ubiaja Health Centre;;;;;
Esan South-East;Ugboha Ward;;Comprehensive health centre;;;;;
Esan South-East;Ugboha Ward;;Ugboha Primary Health Centre;;;;;
Esan West;Egoro/Idoa Ward;;Ikhideu Egoro Primary Health Centre;;;;;
Esan West;Egoro/Idoa Ward;;Egoro Naoka Primary Health Centre;;;;;
Esan West;Egoro/Idoa Ward;;Ukhun Primary Health Centre;;;;;
Esan West;Egoro/Idoa Ward;;Afolugua Idoa Primary Health Centre;;;;;
Esan West;Egoro/Idoa Ward;;Eguare Egoro Health Clinic;;;;;
Esan West;Emaudo Ward;;Eguare Primary Health Centre;;;;;
Esan West;Emuhi/Ukpenu Ward;;Eguare Urohi Primary Health Centre;;;;;
Esan West;Esan West Unknown Ward;;NYSC Basic Health Centre;;;;;
Esan West;Esan West Unknown Ward;;Idumebo Primary Health Centre;;;;;
Esan West;Esan West Unknown Ward;;Ujoeken Primary Health Centre;;;;;
Esan West;Esan West Unknown Ward;;Ihumudumu Primary Health Centre;;;;;
Esan West;Illeh/ Eko-Ine Ward;;Uguoben Illeh Primary Health Centre;;;;;
Esan West;Iruekpen Ward;;Eromolese Medical Centre;;;;;
Esan West;Iruekpen Ward;;Iruekpen Primary Health Centre;;;;;
Esan West;Iruekpen Ward;;Iruekpen  Comprehensive Center;;;;;
Esan West;Ogwa/Ujiogba Ward;;Eguare Ujiogba Ukhun Primary Health Centre;;;;;
Esan West;Ogwa/Ujiogba Ward;;ogwa Primary Health Centre;;;;;
Esan West;Ogwa/Ujiogba Ward;;Upper Izogen Primary Health Centre;;;;;
Esan West;Uhiele Ward;;Uhiele Primary Health Centre;;;;;
Etsako Central;Anegbette Ward;;Anegbette Primary Health Centre;;;;;
Etsako Central;Iraokhor Ward;;Iraokhor Primary Health Centre;;;;;
Etsako Central;Iviadachi Ward;;UKHO PRIMARY HEALTH CENTRE;;;;;
Etsako Central;Iviadachi Ward;;ADACHI PRIMARY HEALTH CENTRE;;;;;
Etsako Central;Iviarua Ward;;Arua-Fugar Primary Health Centre;;;;;
Etsako Central;Ivinone Ward;;Unone-Fugar Primary Health Centre;;;;;
Etsako Central;Ivinone Ward;;Iviavia Primary Health Centre;;;;;
Etsako Central;Ogbona Ward;;Ogbona Primary Health Centre;;;;;
Etsako Central;Oghomere Ward;;Oghomere Primary Health Centre;;;;;
Etsako Central;Oghomere Ward;;ODAME PRIMARY HEALTH CENTRE;;;;;
Etsako Central;Oghomere Ward;;Ogochi Primary Health Centre;;;;;
Etsako Central;Oghomere Ward;;Okpenaeda PHC;;;;;
Etsako Central;Osomegbe Ward;;Udaba Primary Health Centre;;;;;
Etsako Central;Osomegbe Ward;;Osomegbe Primary Health Centre;;;;;
Etsako Central;Osomegbe Ward;;Ofukpo Primary Health Centre;;;;;
Etsako Central;Udochi Ward;;Udochi Primary Health Centre;;;;;
Etsako Central;Udochi Ward;;IMIAVA PRIMARY HEALTH CENTRE;;;;;
Etsako Central;Ugbekpe Ward;;Azukhala Primary Health Centre;;;;;
Etsako Central;Ugbekpe Ward;;Ugbekpe-Ekperi Primary Health Centre;;;;;
Etsako Central;Ugbekpe Ward;;Ivianake Primary Health Centre;;;;;
Etsako East;Afokpella Ward;;Imiamuneafokpella Primary Health Centre;;;;;
Etsako East;Afokpella Ward;;Ogiriga Health Centre;;;;;
Etsako East;Agenebode Ward;;Agenebode Primary Health Centre;;;;;
Etsako East;Egori Ward;;Ivianokpodi Primary Health Centre;;;;;
Etsako East;Egori Ward;;Iviebua Health Centre;;;;;
Etsako East;Egori Ward;;Iviukhua Health Centre;;;;;
Etsako East;Iddo Ward;;Iddo PHC;;;;;
Etsako East;Imiegba Ward;;Imiegba Health Centre;;;;;
Etsako East;Imiegba Ward;;Itsukwi PHC;;;;;
Etsako East;Imiegba Ward;;Imiekebu Health Centre;;;;;
Etsako East;Iviari Ward;;Iviari (Weppa) Primary Health Centre;;;;;
Etsako East;Iviari Ward;;Ekwotsor Primary Health Centre;;;;;
Etsako East;Iviari Ward;;Agiere Health Centre;;;;;
Etsako East;Iviukwe Ward;;Uzanu Health Centre;;;;;
Etsako East;Iviukwe Ward;;Ivioghe Primary Health Centre;;;;;
Etsako East;Ogute Ward;;Ogute-Oke Health Centre;;;;;
Etsako East;Ogute Ward;;Ogute-Okpella Primary Health Centre;;;;;
Etsako East;Okhashie Ward;;Okhashie Primary Health Centre;;;;;
Etsako East;Okpekpe Ward;;Okpekpe Primary Health Centre;;;;;
Etsako East;Okpekpe Ward;;Ebelle Primary Health Centre;;;;;
Etsako West;Anwain Ward;;Idegun Primary Health Centre;;;;;
Etsako West;Anwain Ward;;Otteh Primary Health Centre;;;;;
Etsako West;Anwain Ward;;Eware Primary Health Centre;;;;;
Etsako West;Anwain Ward;;Ovughu ewora primary health centre;;;;;
Etsako West;Auchi 3 Ward;;Primary Health Center Usokwili;;;;;
Etsako West;Auchi 4 Ward;;Auchi Primary Health Centre;;;;;
Etsako West;Auchi 4 Ward;;Poly Health Centre;;;;;
Etsako West;Aviele Ward;;Ubiane Primary Health Centre;;;;;
Etsako West;Aviele Ward;;Ughiole Primary Health Centre;;;;;
Etsako West;Aviele Ward;;Odigie Primary Health Centre;;;;;
Etsako West;Jagbe Ward;;Jagbe Primary Health Centre;;;;;
Etsako West;South Ibie Ward;;Ibienefe Primary Health Centre;;;;;
Etsako West;South Ibie Ward;;Iyerekhu Primary Health Centre;;;;;
Etsako West;South Ibie Ward;;Sabo Iyakpi Primary Health Centre;;;;;
Etsako West;Uzairue N E Ward;;Uloke Primary Health Centre;;;;;
Etsako West;Uzairue N E Ward;;Ogbido Primary Health Centre;;;;;
Etsako West;Uzairue N E Ward;;Apana Primary Health Centre;;;;;
Etsako West;Uzairue N E Ward;;Iyora Primary Health Centre;;;;;
Etsako West;Uzairue N E Ward;;Iyamoh Comprehensive Health Centre;;;;;
Etsako West;Uzairue N W Ward;;Imeke primary health centre;;;;;
Etsako West;Uzairue N W Ward;;Elele Primary Health Centre;;;;;
Etsako West;Uzairue N W Ward;;Ayua primary health centre;;;;;
Etsako West;Uzairue N W Ward;;Iyuku Primary Health Centre;;;;;
Etsako West;Uzairue S E Ward;;Ikabigbo Primary Health Centre;;;;;
Etsako West;Uzairue S E Ward;;Irekhai Primary Health Centre;;;;;
Etsako West;Uzairue S E Ward;;Ayogwiri Primary Health Centre;;;;;
Etsako West;Uzairue S E Ward;;Jattu Primary Health Centre;;;;;
Etsako West;Uzairue S W Ward;;Afowa Primary Health Care;;;;;
Etsako West;Uzairue S W Ward;;Eko ihilamen primary health centre;;;;;
Igueben;Amahor/Ugun Ward;;Idumogin Primary Health Centre;;;;;
Igueben;Ebelle Ward;;Ebele Ebele Primary Health Centre;;;;;
Igueben;Eguare Ward;;Eguare-Iguegben Primary Health Centre;;;;;
Igueben;Ekekhen Ward;;Egbeiki Primary Health Centre;;;;;
Igueben;Ekekhen Ward;;Ekekhen Primary Health Centre;;;;;
Igueben;Idumeka Ward;;Idumeka Primary Health Centre;;;;;
Igueben;Idumeka Ward;;Uhe Primary Health Centre;;;;;
Igueben;Okalo Ward;; Okalo Primary Health Centre;;;;;
Ikpoba-Okha;Aduwawa/ Evbmodu Ward;;Aduwawa PHC;;;;;
Ikpoba-Okha;Aduwawa/ Evbmodu Ward;;Aduwawa Narrow Way Hospital;;;;;
Ikpoba-Okha;Evboriaria/Gorretti Ward;;Edo School of Health Technology Clinic;;;;;
Ikpoba-Okha;Evboriaria/Gorretti Ward;;Vinda Clinic and Maternity;;;;;
Ikpoba-Okha;Evboriaria/Gorretti Ward;;Hosanna Nursing and Maternity Home;;;;;
Ikpoba-Okha;Idogbo/Ukhiri Ward;;Egba primary health centre;;;;;
Ikpoba-Okha;Idogbo/Ukhiri Ward;;Okabere Primary Health Centre;;;;;
Ikpoba-Okha;Idogbo/Ukhiri Ward;;St Oghosa Nursing Home;;;;;
Ikpoba-Okha;Idogbo/Ukhiri Ward;;Osamagbe Nursing and Maternity Home;;;;;
Ikpoba-Okha;Idogbo/Ukhiri Ward;;Akugbe Medical Centre;;;;;
Ikpoba-Okha;Idogbo/Ukhiri Ward;;Ukhiri Primary Health Centre;;;;;
Ikpoba-Okha;Idogbo/Ukhiri Ward;;Utesi Primary Health Centre;;;;;
Ikpoba-Okha;Ihinmwinhin Ward;;St David Clinic and Maternity;;;;;
Ikpoba-Okha;Ihinmwinhin Ward;;Umelu primary health centre;;;;;
Ikpoba-Okha;Obayantor/OghegheWard;;Obagie Primary Health Centre;;;;;
Ikpoba-Okha;Obayantor/OghegheWard;;Oghoghobi primary health centre;;;;;
Ikpoba-Okha;Obayantor/OghegheWard;;Ogheghe PHC;;;;;
Ikpoba-Okha;Obayantor/OghegheWard;;Ogheghe Primary Health Centre;;;;;
Ikpoba-Okha;Obayantor/OghegheWard;;Evbuabogun Primary Health Centre;;;;;
Ikpoba-Okha;Ogbeson Ward;;Ogbeson Primary Health Centre;;;;;
Ikpoba-Okha;Ologbo Ward;;Ologbo Primary Health Centre;;;;;
Ikpoba-Okha;Ologbo Ward;;Ologbo NNDC Primary Health Centre;;;;;
Ikpoba-Okha;Ologbo Ward;;Ajoki PHC;;;;;
Ikpoba-Okha;Oregbeni Ward;;Oregbeni primary health centre;;;;;
Ikpoba-Okha;Oregbeni Ward;;Tino Medical Centre;;;;;
Ikpoba-Okha;St Saviour Ward;;Egbe Clinic and Maternity;;;;;
Ikpoba-Okha;Ugbekun Ward;;Omosele Maternity Home;;;;;
Ikpoba-Okha;Ugbekun Ward;;Ugbekun Primary Health Centre;;;;;
Ikpoba-Okha;Ugbekun Ward;;Rephaniah Nursing and Maternity Home;;;;;
Ikpoba-Okha;Ute/Iwogban Ward;;Ute Primary Health Centre;;;;;
Ikpoba-Okha;Ute/Iwogban Ward;;Iwogban primary health centre;;;;;
Oredo;Oredo Ward 1;;Modic Medical Centre;;;;;
Oredo;Oredo Ward 1;;Bethel Faith Medical Centre;;;;;
Oredo;Oredo Ward 1;;God's Care Hospital;;;;;
Oredo;Oredo Ward 1;;Ihenyen Medical Centre;;;;;
Oredo;Oredo Ward 1;;Epid Unit;;;;;
Oredo;Oredo Ward 10;;Christ Medical Centre;;;;;
Oredo;Oredo Ward 11;;St. Matthias Anglican Hospital;;;;;
Oredo;Oredo Ward 11;;Irowa Medical Centre;;;;;
Oredo;Oredo Ward 12;;St Philomena Catholic Hospital;;;;;
Oredo;Oredo Ward 2;;Military Base Hospital;;;;;
Oredo;Oredo Ward 2;;Airforce Medical Centre;;;;;
Oredo;Oredo Ward 2;;Stella Obasanjo Women/Children Hospital;;;;;
Oredo;Oredo Ward 2;;Ugbor Primary Health Centre;;;;;
Oredo;Oredo Ward 2;;Utagban Primary Health Centre;;;;;
Oredo;Oredo Ward 2;;Evbuodia Primary Health Centre;;;;;
Oredo;Oredo Ward 2;;NNPC CLINIC;;;;;
Oredo;Oredo Ward 2;;Uholor Primary Health Centre;;;;;
Oredo;Oredo Ward 2;;Oredo Primary Health Centre;;;;;
Oredo;Oredo Ward 2;;Emwinyomwanru Primaru Health Centre;;;;;
Oredo;Oredo Ward 2;;Ekae Primary Health Centre;;;;;
Oredo;Oredo Ward 2;;Aruogba Primary Health Centre;;;;;
Oredo;Oredo Ward 2;;Ugogogi Primary Health Centre;;;;;
Oredo;Oredo Ward 2;;Ediale Hospital;;;;;
Oredo;Oredo Ward 2;;Faith Medical Centre;;;;;
Oredo;Oredo Ward 3;;Safe Haven Clinic;;;;;
Oredo;Oredo Ward 3;;Uniben Health Centre;;;;;
Oredo;Oredo Ward 3;;Time Medical Clinic and Maternity;;;;;
Oredo;Oredo Ward 3;;Ideal Clinic;;;;;
Oredo;Oredo Ward 3;;Chisi Cottage Clinic/Maternity;;;;;
Oredo;Oredo Ward 4;;Osa Amadin maternity;;;;;
Oredo;Oredo Ward 4;;Gift Hospital;;;;;
Oredo;Oredo Ward 5;;Edo maternity;;;;;
Oredo;Oredo Ward 6;;Unity Hospital;;;;;
Oredo;Oredo Ward 7;;New Benin Primary Health Centre;;;;;
Oredo;Oredo Ward 7;;Hope clinic;;;;;
Oredo;Oredo Ward 8;;Suyi Medical Centre;;;;;
Oredo;Oredo Ward 9;;Urban Health Centre;;;;;
Orhionmwon;Abiokunla 1 Ward;;Abudu Primary Health Centre;;;;;
Orhionmwon;Abiokunla 1 Ward;;Aigbogun Clinic and Maternity;;;;;
Orhionmwon;Abiokunla 1 Ward;;Ogan Health Centre;;;;;
Orhionmwon;Abiokunla 2 Ward;;Evbobanosa Primary Health Centre;;;;;
Orhionmwon;Abiokunla 2 Ward;;Iru Primary Health Centre;;;;;
Orhionmwon;Abiokunla 2 Ward;;Oza Primary Health Centre;;;;;
Orhionmwon;Evboesi Ward;;Evboesi Primary Health Centre;;;;;
Orhionmwon;Evboesi Ward;;Evbonogbon Health Centre;;;;;
Orhionmwon;Igbanke East Ward;;Igbanke Primary Health Centre;;;;;
Orhionmwon;Igbanke East Ward;;Oligie Primary Health Centre;;;;;
Orhionmwon;Iyoba Ward;;Evbobemwen Primary Health Centre;;;;;
Orhionmwon;Ugbeka Ward;;Evboeghae Primary Health Centre;;;;;
Orhionmwon;Ugbeka Ward;;Okhuor Health Centre;;;;;
Orhionmwon;Ugboko Ward;;Idumweke Primary Health Centre;;;;;
Orhionmwon;Ugboko Ward;;Ugo Primary Health Centre;;;;;
Orhionmwon;Ugboko Ward;;Iduwe-Eke PHC;;;;;
Orhionmwon;Ugu Ward;;Obanakhoro Primary Health Centre;;;;;
Orhionmwon;Ugu Ward;;Urhehue Primary Health Centre;;;;;
Orhionmwon;Ugu Ward;;Ed Umoghun-nokhua Community Hospital;;;;;
Orhionmwon;Ugu Ward;;Umoghunokhua Primary Health Centre;;;;;
Orhionmwon;Ugu Ward;;Orogho Primary Health Centre;;;;;
Orhionmwon;Ugu Ward;;Iguelaba Health Centre                  ;;;;;
Orhionmwon;Ukpato Ward;;Evbuarhue Health Centre;;;;;
Orhionmwon;Ukpato Ward;;Igbekhue Health Centre;;;;;
Orhionmwon;Ukpato Ward;;Okogbo Primary Health Centre;;;;;
Orhionmwon;Urhonigbe Ward;;Urhorugbe Primary Health Centre;;;;;
Orhionmwon;Urhonigbe Ward;; Urhomeheh Primary Health Centre;;;;;
Ovia North-East;Adolor Ward;;Eghudu Health Centre;;;;;
Ovia North-East;Adolor Ward;;Ekiadolor Primary Health Centre;;;;;
Ovia North-East;Adolor Ward;;Ekiadolor primary health centre;;;;;
Ovia North-East;Adolor Ward;;Utekon Primary Health Centre;;;;;
Ovia North-East;Adolor Ward;;Ovbiogie Primary Health Centre;;;;;
Ovia North-East;Iguoshodin Ward;;Negbemaba Primary Health Centre;;;;;
Ovia North-East;Iguoshodin Ward;;Iguoshodin PHC;;;;;
Ovia North-East;Iguoshodin Ward;;Iguadolor Health Post;;;;;
Ovia North-East;Iguoshodin Ward;;Obagie Health Post;;;;;
Ovia North-East;Iguoshodin Ward;;Nebudin Primary Health Centre;;;;;
Ovia North-East;Isiuwa Ward;;Nifor Maternal and Child Health Center;;;;;
Ovia North-East;Isiuwa Ward;;Evboneka Primary Health Centre;;;;;
Ovia North-East;Isiuwa Ward;;Ugbogiobo Primary Health Centre;;;;;
Ovia North-East;Itoka Ward;;Utoka Primary Health Centre;;;;;
Ovia North-East;Itoka Ward;;Ite Primary Health Centre;;;;;
Ovia North-East;Oduna Ward;;Ekenwan Primary Health Centre;;;;;
Ovia North-East;Oduna Ward;;Ugbinen Primary Health Centre;;;;;
Ovia North-East;Oduna Ward;;Oduna Primary Health Centre;;;;;
Ovia North-East;Oduna Ward;;Eghudu Primary Health Cenre;;;;;
Ovia North-East;Oduna Ward;;Ughoton Health Post;;;;;
Ovia North-East;Ofunwengbe Ward;;Ogua Health Post;;;;;
Ovia North-East;Oghede Ward;;Iguogie Primary Health Centre;;;;;
Ovia North-East;Oghede Ward;;Oghede Health Post;;;;;
Ovia North-East;Okada  West Ward;;Okada Primary Health Centre;;;;;
Ovia North-East;Okada  West Ward;;Igbinedion University Teaching Hospital;;;;;
Ovia North-East;Okada  West Ward;;Iguomon Health Post;;;;;
Ovia North-East;Okada East Ward;;Iyanomo Primary Health Centre;;;;;
Ovia North-East;Okada East Ward;; Ugbokun Primary Health Centre;;;;;
Ovia North-East;Okada East Ward;;Iguiye Primary Health Centre;;;;;
Ovia North-East;Okada East Ward;;Isiwuwa Primary Health Centre;;;;;
Ovia North-East;Okada East Ward;;Oghobahon Primary Health Centre;;;;;
Ovia North-East;Okokhuo Ward;;Iguhoro Primary Health Centre;;;;;
Ovia North-East;Okokhuo Ward;;Okokhuo Primary Health Centre;;;;;
Ovia North-East;Oluku Ward;;Ekosodin Primary Health centre ;;;;;
Ovia North-East;Oluku Ward;;Oluku Primary Health Centre;;;;;
Ovia North-East;Oluku Ward;;Iguosa primary health centre;;;;;
Ovia North-East;Uhen Ward;;Egbeta Primary Health Centre;;;;;
Ovia North-East;Uhen Ward;;Olumoye Primary Health Centre;;;;;
Ovia North-East;Uhen Ward;;Ogbesse Primary Health Centre;;;;;
Ovia North-East;Uhen Ward;;Uhen Primary Health Centre;;;;;
Ovia North-East;Uhen Ward;;Utese Primary Health Centre;;;;;
Ovia North-East;Uhiere Ward;;Uhiere Primary Health Centre;;;;;
Ovia North-East;Uhiere Ward;;Aihuobabekun Primary Health Centre;;;;;
Ovia North-East;Uhiere Ward;;Ofitebe Primary Health Centre;;;;;
Ovia North-East;Uhiere Ward;;ODIGHI PRIMARY HEALTH CENTRE;;;;;
Ovia North-East;Uhiere Ward;;Odiguetue Primary Health Centre;;;;;
Ovia North-East;Uhiere Ward;;Owan Primary Health Centre;;;;;
Ovia South-West;Iguobazuwa East Ward;;Iguobazuwa Primary Health Centre;;;;;
Ovia South-West;Iguobazuwa East Ward;;Iguatakpa Primary Health Centre;;;;;
Ovia South-West;Iguobazuwa East Ward;;Iguogun Health Post;;;;;
Ovia South-West;Iguobazuwa West Ward;;Omorodion Primary Health Centre;;;;;
Ovia South-West;Iguobazuwa West Ward;;Okokpon Health Post;;;;;
Ovia South-West;Nikorogha Ward;;Ajamajie Primary Health Centre;;;;;
Ovia South-West;Nikorogha Ward;;Nikrogha Primary Health Centre;;;;;
Ovia South-West;Ofunama Ward;;Abere Primary Health Centre;;;;;
Ovia South-West;Ofunama Ward;;Ofunama Primary Health Centre;;;;;
Ovia South-West;Ofunama Ward;;Ajakurama Primary Health Centre;;;;;
Ovia South-West;Ora Ward;;Iguoriakhi Health Post;;;;;
Ovia South-West;Ora Ward;;Ora Comprehensive Health Centre;;;;;
Ovia South-West;Ora Ward;;Ikpoba Primary Health Centre;;;;;
Ovia South-West;Siluko Ward;;Okomu Ijaw Health Post;;;;;
Ovia South-West;Siluko Ward;;Madagbayo Primary Health Centre;;;;;
Ovia South-West;Siluko Ward;;Gbelebu Primary Health Centre;;;;;
Ovia South-West;Siluko Ward;;Siluko Primary Health Centre;;;;;
Ovia South-West;Siluko Ward;;Aibeiyi Primary Health Centre;;;;;
Ovia South-West;Siluko Ward;;Izide Water Side Health Post;;;;;
Ovia South-West;Udo Ward (Ovia South West);;Udo Primary Health Centre;;;;;
Ovia South-West;Udo Ward (Ovia South West);;Okomu Clinic;;;;;
Ovia South-West;Udo Ward (Ovia South West);;Iguafole Primary Health Centre;;;;;
Ovia South-West;Udo Ward (Ovia South West);;Udo Comprehensive Health Centre ;;;;;
Ovia South-West;Udo Ward (Ovia South West);;Ureheze Health Post;;;;;
Ovia South-West;Ugbogui Ward;;Ofunmwengbe Primary Health Centre;;;;;
Ovia South-West;Ugbogui Ward;;Aden Health Post;;;;;
Ovia South-West;Ugbogui Ward;;Inner Ugbogui Health Post;;;;;
Ovia South-West;Ugbogui Ward;;Evbonogbon Primary Health Centre;;;;;
Ovia South-West;Ugbogui Ward;;Ikoha Health Post;;;;;
Ovia South-West;Ugbogui Ward;;Adebayo Primary Health Centre;;;;;
Ovia South-West;Ugbogui Ward;;Ugbogui Primary Health Centre;;;;;
Ovia South-West;Umaza Ward;;Iquerahon Health Post;;;;;
Ovia South-West;Umaza Ward;;Essi Primary Health Centre;;;;;
Ovia South-West;Umaza Ward;;Iguelahio Hospital;;;;;
Ovia South-West;Umaza Ward;;Obabofio Primary Health Centre;;;;;
Ovia South-West;Umaza Ward;;Ugbokua Primary Health Centre;;;;;
Ovia South-West;Usen Ward;;Usen Primary Health Centre;;;;;
Ovia South-West;Usen Ward;;Okoro Health Post;;;;;
Ovia South-West;Usen Ward;;Okha Primary Health Centre;;;;;
Owan East;4 Bimion Ward;;Arokho Primary Health Centre;;;;;
Owan East;4 Bimion Ward;;Ikhin Primary Health Centre;;;;;
Owan East;4 Bimion Ward;;Ohami Primary Health Centre;;;;;
Owan East;Emai 1 Ward;;Okpokhunmi Primary Health Centre;;;;;
Owan East;Emai 1 Ward;;Afuze General Hospital;;;;;
Owan East;Emai 1 Ward;;Afuze Referral Centre;;;;;
Owan East;Emai 2 Ward;;Ovbiomu Primary Health Centre;;;;;
Owan East;Emai 2 Ward;;Evbiamen Primary Health Centre;;;;;
Owan East;Ihievbe Ward;;Ekhueye Primary Health Centre;;;;;
Owan East;Ihievbe Ward;;Okhuamen Primary Health Centre;;;;;
Owan East;Ihievbe Ward;;Ihienvbe Primary Health Centre;;;;;
Owan East;Otuo 1 Ward;;Idesa PHC;;;;;
Owan East;Otuo 1 Ward;;Oluma Primary Health Centre;;;;;
Owan East;Otuo 2 Ward;;Imafun-Osi PHC;;;;;
Owan East;Otuo 2 Ward;;Amoya Primary Health Centre;;;;;
Owan East;Uokha/Ake Ward;;UROE PHC;;;;;
Owan East;Uokha/Ake Ward;;Uokha Primary Health Centre;;;;;
Owan East;Uokha/Ake Ward;;Ake Primary Health Centre;;;;;
Owan East;Warrake Ward;;Aforbokhire Warrake PHC;;;;;
Owan East;Warrake Ward;;Warrake Primary Health Centre;;;;;
Owan West;Avbiosi Ward;;Avbiosi Primary Health Centre;;;;;
Owan West;Eme-Ora/Oke Ward;;Eme Primary Health Centre;;;;;
Owan West;Eme-Ora/Oke Ward;;Chirsitabel Maternity Home;;;;;
Owan West;Eme-Ora/Oke Ward;;Oke Old Primary Health Centre;;;;;
Owan West;Eme-Ora/Oke Ward;;Osamaye Maternity Home;;;;;
Owan West;Eruere Ward;;Eruere Primary Health Centre;;;;;
Owan West;Ogbagun/Iloje Ward;;Ukuse Oke Primary Health Centre;;;;;
Owan West;Ogbagun/Iloje Ward;;Ukhuse Osi Primary Health Centre;;;;;
Owan West;Ogbagun/Iloje Ward;;Ohia Primary Health Centre;;;;;
Owan West;Ogbagun/Iloje Ward;;Iloje Primary Health Centre;;;;;
Owan West;Okpuje Ward;;Ivbiodhen Primary Health Centre;;;;;
Owan West;Okpuje Ward;;Oah Primary Health Centre;;;;;
Owan West;Okpuje Ward;;Oromen Primary Health Centre;;;;;
Owan West;Ozalla Ward;;Ozala Primary Health Centre;;;;;
Owan West;Sabogidda-Ora Ward;;Joe Alufohal Medical Centre;;;;;
Owan West;Sabogidda-Ora Ward;;Sabo Ora General Hospital;;;;;
Owan West;Sabogidda-Ora Ward;;Atoruru Primary Health Centre;;;;;
Owan West;Sabogidda-Ora Ward;;Michael Imuodu Primary Health Centre;;;;;
Owan West;Sobe Ward;;Sobe 1 Primary Health Centre;;;;;
Owan West;Sobe Ward;;Sobe Michgrace Maternity Home;;;;;
Owan West;Sobe Ward;;Sobe Modern Primary Health Centre;;;;;
Owan West;Uhonmora Ward;;Uhonmora Primary Health Centre;;;;;
Owan West;Uhonmora Ward;;Odion Medical Centre;;;;;
Owan West;Uhonmora Ward;;Ora Grace Maternity Home;;;;;
Owan West;Uhonmora Ward;;Ora Anointed Maternity Home;;;;;
Owan West;Uzebba 1 Ward;;Okugha Medical Centre;;;;;
Owan West;Uzebba 1 Ward;;Uzebba General Hospital;;;;;
Owan West;Uzebba 2 Ward;;Uzeba Primary Health Centre;;;;;
Owan West;Uzebba 2 Ward;;Hebrew Ann Maternity Home;;;;;
Owan West;Uzebba 2 Ward;;Uzebba Gods Will Clinic;;;;;
Owan West;Uzebba 2 Ward;;Uzebba Nursing and Maternity Home;;;;;
Uhunmwonde;Egbede Ward;;Ugoneki primary health care ;;;;;
Uhunmwonde;Egbede Ward;;UVBE PHC;;;;;
Uhunmwonde;Ehor Ward;;Ehor Primary Health Centre;;;;;
Uhunmwonde;Ehor Ward;;Ugiamwen Primary Health Centre;;;;;
Uhunmwonde;Igieduma Ward;;Igieduma Primary Health Centre;;;;;
Uhunmwonde;Igieduma Ward;;Ugha Primary Health Centre;;;;;
Uhunmwonde;Igieduma Ward;;Erua PHC;;;;;
Uhunmwonde;Irhue Ward;;Orhua Primary Health Centre;;;;;
Uhunmwonde;Irhue Ward;;Umokpe primary health centre;;;;;
Uhunmwonde;Irhue Ward;;Oke Primary Health Centre;;;;;
Uhunmwonde;Isi North Ward;;Eguaholor Primary Health Centre;;;;;
Uhunmwonde;Isi South Ward;;Izikhiri Primary Health Centre;;;;;
Uhunmwonde;Ohuan Ward;;Ebueneki PHC;;;;;
Uhunmwonde;Ohuan Ward;;Iguehana PHC;;;;;
Uhunmwonde;Ohuan Ward;;Ebueneki primary health centre;;;;;
Uhunmwonde;Uhi Ward;;Igieghudu Primary Health Centre;;;;;
Uhunmwonde;Umagbae North Ward;;Urhokuosa Primary Health Centre;;;;;
Uhunmwonde;Umagbae North Ward;;Iguomon Primary Health Centre;;;;;
Uhunmwonde;Umagbae North Ward;;Iguwangue PHC;;;;;
Uhunmwonde;Umagbae South Ward;;Eyean Primary Health Centre;;;;;
Uhunmwonde;Umagbae South Ward;;Azagbe primary health centre;;;;;
Uhunmwonde;Umagbae South Ward;;Idunmwugha PHC;;;;;
Uhunmwonde;Umagbae South Ward;;Ahor Primary Health Centre;;;;;
