LGA;Ward;Settlement;Facility;Type;Ownership;Address;Longitude;Latitude
Ado Ekiti;Ago Aduloju Ward;;Ago Adoluju Basic Health Clinic;;;;;
Ado Ekiti;Ago Aduloju Ward;;Eminrin Health Centre;;;;;
Ado Ekiti;Ago Aduloju Ward;;Erifun Basic Health Clinic;;;;;
Ado Ekiti;Ago Aduloju Ward;;Temidire Esumo Primary Health Centre;;;;;
Ado Ekiti;Basiri Ward;;Victory Hospital;;;;;
Ado Ekiti;Basiri Ward;;Judiciary Staff Clinic Ado-Ekiti;;;;;
Ado Ekiti;Basiri Ward;;Mercyland Clinic;;;;;
Ado Ekiti;Basiri Ward;;Bikky Maximum Hospital;;;;;
Ado Ekiti;Basiri Ward;;St Gregory Hospital;;;;;
Ado Ekiti;Basiri Ward;;Basiri Basic Health Clinic;;;;;
Ado Ekiti;Basiri Ward;;Oreofe Oluwa Clinic;;;;;
Ado Ekiti;Ekute Ward;;Okeoniyo Basic Health Clinic;;;;;
Ado Ekiti;Ekute Ward;;Ade Tade Hospital;;;;;
Ado Ekiti;Ekute Ward;;Itunuoluwa Medical Centre;;;;;
Ado Ekiti;Ekute Ward;;EK FOLA MAYOWA CLINIC & MATERNITY;;;;;
Ado Ekiti;Igirigiri Ward;;Igirigiri Basic Health Clinic;;;;;
Ado Ekiti;Ijigbo Ward;;Idolofin Basic Health Clinic;;;;;
Ado Ekiti;Irona Wad;;Ile Abiye Hospital;;;;;
Ado Ekiti;Irona Wad;;Oke Aso Basic Health Clinic;;;;;
Ado Ekiti;Irona Wad;;Irona Basic Health Clinic;;;;;
Ado Ekiti;Irona Wad;;Oke Osun Basic Health Clinic;;;;;
Ado Ekiti;Irona Wad;;Ileri Oluwa Clinic;;;;;
Ado Ekiti;Irona Wad;;Oguntoye Hospital;;;;;
Ado Ekiti;Odo Ward;;Eden Life Specialist Hospital;;;;;
Ado Ekiti;Odo Ward;;Odo Basic Health Clinic;;;;;
Ado Ekiti;Odo Ward;;Gilead Specialist Hospital;;;;;
Ado Ekiti;Odo-Ado Ward;;Ado Grammar School;;;;;
Ado Ekiti;Odo-Ado Ward;;Odo Ado Basic Health Clinic;;;;;
Ado Ekiti;Odo-Ado Ward;;Fountain of Hope Medical Centre;;;;;
Ado Ekiti;Odo-Ado Ward;;Idofin Basic Health Clinic;;;;;
Ado Ekiti;Odo-Ado Ward;;Shekinah medical clinic;;;;;
Ado Ekiti;Oke Ila Ward;;Abek Hospital;;;;;
Ado Ekiti;Oke Ila Ward;;Ilamoo Basic Health Clinic;;;;;
Ado Ekiti;Oke Ila Ward;;Shalom Medical;;;;;
Ado Ekiti;Oke Ila Ward;;Oke Ila Basic Health Clinic;;;;;
Ado Ekiti;Oke Ila Ward;;Fed Housing Basic Health Centre;;;;;
Ado Ekiti;Oke Ila Ward;;Igbaye Basic Health Centre;;;;;
Ado Ekiti;Oke Ila Ward;;Life Spring Hospital;;;;;
Ado Ekiti;Okesa Ward;;Adetoyin Hospital;;;;;
Ado Ekiti;Okeyinmi Ward;;Okesa Comprehensive Health Centre;;;;;
Ado Ekiti;Okeyinmi Ward;;Oba Market Health Post;;;;;
Ado Ekiti;Okeyinmi Ward;;Ado Family Support Programme Clinic;;;;;
Ado Ekiti;Opopogboro Ward;;Adesoye Memorial Clinic;;;;;
Ado Ekiti;Opopogboro Ward;;"EK	FASANMADE HOSPTAL";;;;;
Ado Ekiti;Opopogboro Ward;;Afolabi Hospital;;;;;
Ado Ekiti;Opopogboro Ward;;Mother And Child Clinic;;;;;
Ado Ekiti;Opopogboro Ward;;Joe Jane Medical Centre;;;;;
Ado Ekiti;Opopogboro Ward;;Glorious Clinic;;;;;
Ado Ekiti;Opopogboro Ward;;"Ek	OLUMORIN CLINIC";;;;;
Ado Ekiti;Opopogboro Ward;;Opopogboro Basic Health Clinic;;;;;
Ado Ekiti;Opopogboro Ward;;Subeb Health Clinic;;;;;
Ado Ekiti;Opopogboro Ward;;Olorunda Basic Health Centre;;;;;
Ado Ekiti;Opopogboro Ward;;Sunshine Hospital;;;;;
Ado Ekiti;Opopogboro Ward;;Ado Christ Girls School Health Clinic;;;;;
Ado Ekiti;Opopogboro Ward;;Dominion Specialist Hospital;;;;;
Ado Ekiti;Opopogboro Ward;;Ado Christ Boys School Health Clinic;;;;;
Ado Ekiti;Ureje Ward;;Maria Assumpta Hospital;;;;;
Ado Ekiti;Ureje Ward;;Moferere Basic Health Clinic;;;;;
Ado Ekiti;Ureje Ward;;Demak Hospital;;;;;
Aiyekire (Gbonyin);Agbado Ward 4;;Ipole Basic Health Clinic;;;;;
Aiyekire (Gbonyin);Agbado Ward 4;;Agbado Comprehensive Health Centre;;;;;
Aiyekire (Gbonyin);Agbado Ward 4;;Agbado Basic Health Clinic;;;;;
Aiyekire (Gbonyin);Aisegba Ward 10;;Aisegba Basic Health Centre;;;;;
Aiyekire (Gbonyin);Aisegba Ward 9;;Aisegba Comprehensive Health Centre;;;;;
Aiyekire (Gbonyin);Egbe/Iro Ward 8;;Iro Basic Health Clinic;;;;;
Aiyekire (Gbonyin);Egbe/Iro Ward 8;;Iro Ayeteju Basic Health Clinic;;;;;
Aiyekire (Gbonyin);Ijan Ward 6;;Ijan 1 Health Centre;;;;;
Aiyekire (Gbonyin);Ijan Ward 6;;Ilupeju Basic Health Clinic;;;;;
Aiyekire (Gbonyin);Iluomoba Ward 5;;Ilumoba Health Centre;;;;;
Aiyekire (Gbonyin);Imesi Ward 7;;Imesi Health Centre;;;;;
Aiyekire (Gbonyin);Ode Ward 1;;Ode Comprehensive Health Centre;;;;;
Aiyekire (Gbonyin);Ode Ward 2;;Ode Basic Health Clinic;;;;;
Aiyekire (Gbonyin);Ode Ward 2;;Ode General Hospital;;;;;
Aiyekire (Gbonyin);Ode Ward 3;;Model Health Centre, Ode-Ekiti;;;;;
Efon;Efon Ward 1;;Erekesan Comprehensive Health Centre;;;;;
Efon;Efon Ward 10;;Oba ayetoro Health Post;;;;;
Efon;Efon Ward 10;;Araromi Health Post;;;;;
Efon;Efon Ward 10;;Alagbamesan Health Post;;;;;
Efon;Efon Ward 10;;Federal Girls Grammar School Clinic;;;;;
Efon;Efon Ward 3;;Isaja Apare Basic Health Centre;;;;;
Efon;Efon Ward 3;;Government College Clinic;;;;;
Efon;Efon Ward 3;;Ojo Clinic;;;;;
Efon;Efon Ward 4;;Itunu Ayo Clinic;;;;;
Efon;Efon Ward 4;;Alawaye Health Post;;;;;
Efon;Efon Ward 4;;Ita Ido Basic Health Clinic;;;;;
Efon;Efon Ward 4;;Efon General Hospital;;;;;
Efon;Efon Ward 4;;Surulere 1 Health Post;;;;;
Efon;Efon Ward 4;;Ek Layemi Clinic;;;;;
Efon;Efon Ward 4;;Aladura Health Post;;;;;
Efon;Efon Ward 4;;Alajo Basic Health Clinic;;;;;
Efon;Efon Ward 4;;Efon Staff Clinic;;;;;
Efon;Efon Ward 4;;Subeb Clinic;;;;;
Efon;Efon Ward 5;;Obake Health Post;;;;;
Efon;Efon Ward 6;;Igbo Olofin Health Post;;;;;
Efon;Efon Ward 7;;Alanaka Basic Health Clinic;;;;;
Efon;Efon Ward 8;;Iwaji Health Post;;;;;
Efon;Efon Ward 9;;Iloro Health Centre (Efon);;;;;
Ekiti East;Araromi Ward 3;;Araromi Basic Health Centre;;;;;
Ekiti East;Ijero Ward 6;;Ijero Basic Health Clinic;;;;;
Ekiti East;Ikun Ward 5;;Ikun Ara Basic Health Clinic;;;;;
Ekiti East;Ilasa Ward 10;; Eda Basic Health Centre;;;;;
Ekiti East;Ilasa Ward 11;;Ilasa Basic Health Centre;;;;;
Ekiti East;Ilasa Ward 11;;Ilasa Model Health Centre;;;;;
Ekiti East;Ilisa Ward 8;;Ilisa  Comprehensive Health Centre;;;;;
Ekiti East;Iludofin Ward 9;;Omuo Ekiti General Hospital;;;;;
Ekiti East;Iludofin Ward 9;;LGA Staff Clinic;;;;;
Ekiti East;Iludofin Ward 9;;Iludofin Basic Health Clinic;;;;;
Ekiti East;Isinbode Ward 12;;Isinbode Ekiti Comprehensive Health Centre;;;;;
Ekiti East;Isinbode Ward 12;;Isinbode Ekiti Basic Health Clinic;;;;;
Ekiti East;Iworo Ward 7;;Iworo Basic Health Centre;;;;;
Ekiti East;Kota Ward 4;;Kota Ekiti Araromi Comprehensive Health Centre;;;;;
Ekiti East;Kota Ward 4;;Basic Health Centre, kota;;;;;
Ekiti East;Omuo-oke Ward 1;;Omuo Oke Comprehensive Health Centre;;;;;
Ekiti East;Omuo-oke Ward 2;;Surulere Basic Health Centre;;;;;
Ekiti South West;Aaye Ilawe Ward;;Aaye Ilawe Basic Health Centre;;;;;
Ekiti South West;Adin Ilawe Ward;;Ilawe Comprehensive Health Centre;;;;;
Ekiti South West;Adin Ilawe Ward;;Corpus Christy School Clinic;;;;;
Ekiti South West;Adin Ilawe Ward;;Ekiti South West LGA Staff Clinic;;;;;
Ekiti South West;Ifakin Ilawe Ward;;Ogotun Basic Health Centre;;;;;
Ekiti South West;Iro/Okeloye/Okepa Ward;;Ilawe Old People's Home;;;;;
Ekiti South West;Iro/Okeloye/Okepa Ward;;okepa Health post;;;;;
Ekiti South West;Iro/Okeloye/Okepa Ward;;ALGON Comprehensive Health Centre;;;;;
Ekiti South West;Irorin Ilawe Ward;;Irorin Health Post;;;;;
Ekiti South West;Odo Igbara Ward;;Igbara Odo Basic Health Clinic;;;;;
Ekiti South West;Okebedo  Ward 1;;Okebedo 1 Health Post;;;;;
Ekiti South West;Okebedo Ward 2;;Ilawe Ekiti General Hospital;;;;;
Ekiti South West;Okebedo Ward 2;;Okebedo 2 Health Post;;;;;
Ekiti South West;Oke-emo Ilawe Ward;;Ilawe Ekiti Basic Health Clinic;;;;;
Ekiti South West;Okemi Ogotun Ward;;Edetedo Basic Health Clinic;;;;;
Ekiti South West;Okemi Ogotun Ward;;Ogotun Ekiti Comprehensive Health Centre;;;;;
Ekiti South West;Okemi Ogotun Ward;;Oshogbotedo Basic Health Clinic;;;;;
Ekiti South West;Okemi Ogotun Ward;;Olorioko Basic Health Clinic;;;;;
Ekiti South West;Oke-ode Igbaraodo Ward;;Igbara Odo Comprehensive Health Centre;;;;;
Ekiti South West;Oke-ode Igbaraodo Ward;;Igbara Odo Model Health Centre;;;;;
Ekiti South West;Oke-ode Igbaraodo Ward;;Bolorunduro Basic Health Clinic;;;;;
Ekiti West;Aramoko Ward 1;;Ajaye Health Post;;;;;
Ekiti West;Aramoko Ward 1;;Ile Ona Health Centre;;;;;
Ekiti West;Aramoko Ward 1;;Aramoko General Hospital;;;;;
Ekiti West;Aramoko Ward 1;;Staff Clinic;;;;;
Ekiti West;Aramoko Ward 1;;Ajebadmidele Health Post;;;;;
Ekiti West;Aramoko Ward 1;;Iwaro Comprehensive Health Centre;;;;;
Ekiti West;Aramoko Ward 2;;Kajola Health Post;;;;;
Ekiti West;Aramoko Ward 2;;Alafe Health Post;;;;;
Ekiti West;Aramoko Ward 2;;Surulere Odeyemi Health Post;;;;;
Ekiti West;Aramoko Ward 2;;Oke Oja Health Centre (Aramako);;;;;
Ekiti West;Aramoko Ward 2;;Alele Basic Health centre;;;;;
Ekiti West;Erijyan Ward A;;Erijiyan Model Primary Health Centre;;;;;
Ekiti West;Erijyan Ward A;;Ogburu Erinjiyan Health Post;;;;;
Ekiti West;Erijyan Ward B;;Erinyiyan Comprehensive Health Centre;;;;;
Ekiti West;Erio Ward;;Erio Health Centre;;;;;
Ekiti West;Erio Ward;;Subeb Nursery and Primary School;;;;;
Ekiti West;Ido-Ile Ward;;Ido Ajinare Basic Health Clinic;;;;;
Ekiti West;Ido-Ile Ward;;Ido ile Comprehensive Health Centre;;;;;
Ekiti West;Ikogosi Ward;;Ikogosi Health Centre;;;;;
Ekiti West;Ikogosi Ward;;Ikogosi Comprehensive Health Centre;;;;;
Ekiti West;Ikogosi Ward;;Aba Osun Health Post;;;;;
Ekiti West;Ikogosi Ward;;Asa Oriokuta Health Post;;;;;
Ekiti West;Ipole-Iloro Ward;;Iloro Comm Health Post;;;;;
Ekiti West;Ipole-Iloro Ward;;Ipole Iloro Health Centre;;;;;
Ekiti West;Ipole-Iloro Ward;;Araromi Ipole Iloro Health Centre;;;;;
Ekiti West;Okemesi Ward A;;Ajindo Health Post;;;;;
Ekiti West;Okemesi Ward A;;Okemesi Comprehensive Health Centre;;;;;
Ekiti West;Okemesi Ward A;;Okemesi General Hospital;;;;;
Ekiti West;Okemesi Ward A;;Epinrin Via Okemesi Health Post;;;;;
Ekiti West;Okemesi Ward B;;Okemesi Basic Health Clinic (Ekiti West);;;;;
Ekiti West;Okemesi Ward B;;Emmanuel Health Clinic;;;;;
Ekiti West;Okemesi Ward B;;Okoiro Okemesi Health Post;;;;;
Emure;Ariyasi ;;Ariyasi Model Health centre;;;;;
Emure;Ariyasi ;;Science College Emure;;;;;
Emure;Eporo ;;Eporo Maternity Centre;;;;;
Emure;Idamudu ;;Idamudu Basic Health Clinic;;;;;
Emure;Odo-Emure Ibeji;;Ibeji Shittu Maternity Centre;;;;;
Emure;Odo-Emure Ward 1;;Child Health Welfare Clinic;;;;;
Emure;Odo-Emure Ward 2;;Emure Basic Health Clinic;;;;;
Emure;Ogbontioro ;;Ogbontioro Basic Health Clinic;;;;;
Emure;Oke-Emure Oge;;Emure General Hospital;;;;;
Emure;Oke-Emure Oge;;Oge Basic Health Clinic;;;;;
Emure;Oke-Emure Oge;;Emure Comprehensive Health Centre;;;;;
Emure;Oke-Emure Sasere;;Sasere Health Centre;;;;;
Emure;Oke-Emure Sasere;;Ajebamidele Basic Health Centre;;;;;
Emure;Owode Ose;;Okeseri Health Centre;;;;;
Emure;Owode Ose;;Alapoto Health Centre;;;;;
Emure;Owode Ose;;Owode Health Centre;;;;;
Emure;Owode Ose;;Anaye Basic Health Clinic;;;;;
Ido-Osi;Aaye/Ifisin Ward;;Aaye Health Centre;;;;;
Ido-Osi;Aaye/Ifisin Ward;;Ifishin Health Centre;;;;;
Ido-Osi;Ayetoro Ward 1;;Ayetoro Model Health Centre;;;;;
Ido-Osi;Ayetoro Ward 2;;Ayetoro Comprehensive Health Centre;;;;;
Ido-Osi;Ido Ward 1;;Ido Osi Staff Clinic;;;;;
Ido-Osi;Ido Ward 1;;Ido 1 Health Centre;;;;;
Ido-Osi;Ido Ward 2;;Ido Comprehensive Health Centre (sharpcorner);;;;;
Ido-Osi;Ido Ward 2;;Ido-Ekiti Federal Medical Centre;;;;;
Ido-Osi;Ifaki Ward 1;;St. David Medical Centre;;;;;
Ido-Osi;Ifaki Ward 1;;Ifaki Comprehensive Health Centre;;;;;
Ido-Osi;Ifaki Ward 2;;Ifaki Unique Clinic;;;;;
Ido-Osi;Ifaki Ward 2;;Basic Health Centre,Ifaki;;;;;
Ido-Osi;Ifaki Ward 2;;Ifaki General Hospital;;;;;
Ido-Osi;Ifaki Ward 2;;Marvelous Clinic;;;;;
Ido-Osi;Ilogbo Ward;;Ilogbo National Primary Health Centre;;;;;
Ido-Osi;Ilogbo Ward;;Ilogbo Comprehensive Health Centre;;;;;
Ido-Osi;Orin/Ora Ward;;Ora Health Centre;;;;;
Ido-Osi;Orin/Ora Ward;;Orin Health Centre;;;;;
Ido-Osi;Osi/Igbole Ward;;Igbole Basic Health Centre;;;;;
Ido-Osi;Osi/Igbole Ward;;Osi Comprehensive Health Centre;;;;;
Ido-Osi;Osi/Igbole Ward;;Osi Basic Health Centre;;;;;
Ido-Osi;Usi Ward;;Usi Comprehensive Health Centre;;;;;
Ido-Osi;Usi Ward;;usi basic health centre;;;;;
Ido-Osi;Usi Ward;;Usi Folasade Clinic;;;;;
Ijero;Ekamarun Ward;;Iroko Health Centre;;;;;
Ijero;Ekamarun Ward;;Temidire Health Centre;;;;;
Ijero;Ekamarun Ward;;Oke Oro Health Centre;;;;;
Ijero;Ekamarun Ward;;Ayegunle Health Centre;;;;;
Ijero;Ekamarun Ward;;Ilukuno Health Centre;;;;;
Ijero;Ekameta Ward;;AraromiBasic Health Centre;;;;;
Ijero;Ekameta Ward;;Epe Health Centre;;;;;
Ijero;Ekameta Ward;;Ara Basic Health Centre;;;;;
Ijero;Ijero Ward A;;Odo Ese Health Centre;;;;;
Ijero;Ijero Ward A;;Yetade Clinic;;;;;
Ijero;Ijero Ward B;;Ijero State Specialist Hospital;;;;;
Ijero;Ijero Ward B;;Odo Oye Basic Health Clinic;;;;;
Ijero;Ijero Ward C;;School of Health Technology Clinic;;;;;
Ijero;Ijero Ward C;;Ijero LGA Staff Clinic;;;;;
Ijero;Ijero Ward C;;Tolaj Clinic;;;;;
Ijero;Ijero Ward C;;Oju Oro Health Centre;;;;;
Ijero;Ijero Ward C;;SUBEB Health Clinic;;;;;
Ijero;Ijero Ward C;;Ologbodu Health Centre;;;;;
Ijero;Ijero Ward D;;Saloro Health Centre;;;;;
Ijero;Ijero Ward D;;Olusegun Clinic;;;;;
Ijero;Ikoro Ward;;Ikoro Basic Health Centre;;;;;
Ijero;Ikoro Ward;;Soso Arapate Health Centre;;;;;
Ijero;Ikoro Ward;;Ikoro Comp Health Centre;;;;;
Ijero;Iloro Ward A;;Iloro Basic Health Centre;;;;;
Ijero;Iloro Ward A;;Igboata Comprehensive Health Centre;;;;;
Ijero;Iloro/Ijurin Ward;;Iloro Comprehensive Health Centre;;;;;
Ijero;Iloro/Ijurin Ward;;Ijurin Health Centre;;;;;
Ijero;Ipoti Ward A;;Iwaro Ipoti Health Centre;;;;;
Ijero;Ipoti Ward A;;Ipoti Comprehensive Health Centre;;;;;
Ijero;Ipoti Ward B;;Eijiyan Basic Health Centre;;;;;
Ijero;Odo-Owa Ward;;Odo Owa Health Centre;;;;;
Ikere;Afao/Kajola Ward;;Afao Comprehensive Health Centre;;;;;
Ikere;Afao/Kajola Ward;;annunciation  Grammar School Health Clinic;;;;;
Ikere;Afao/Kajola Ward;;Ilupeju H C;;;;;
Ikere;Afao/Kajola Ward;;Model Health Centre Oke Opa;;;;;
Ikere;Afao/Kajola Ward;;st. Louis Health Centre;;;;;
Ikere;Afao/Kajola Ward;;Ilutuntun Health Centre;;;;;
Ikere;Afao/Kajola Ward;;Afao Basic health center;;;;;
Ikere;Agbado-Oyo Ward;;Agbado Oyo Basic Health Centre;;;;;
Ikere;Are/Araromi Ward;;SUBEB Model Nursery and Pry Schl, Health centre;;;;;
Ikere;Are/Araromi Ward;;Are Araromi Health Centre;;;;;
Ikere;Are/Araromi Ward;;Ikere State Specialist Hospital;;;;;
Ikere;Atiba/Aafin Ward;;Ikoyi Basic Health Clinic;;;;;
Ikere;Atiba/Aafin Ward;;Atiba Ikere Health Centre;;;;;
Ikere;Idemo Ward;;Idemo Health Centre;;;;;
Ikere;Ijao/Ilapetu Ward;;Okekere Health Centre;;;;;
Ikere;Odose Ward;;Staff Clinic;;;;;
Ikere;Odose Ward;;Odose Basic Health Clinic;;;;;
Ikere;Ogbonjana Ward;;Krista Hospital;;;;;
Ikere;Ogbonjana Ward;;Ogbonjana Health Centre;;;;;
Ikere;Okeosun Ward;;Government College Clinic, Ikere Ekiti;;;;;
Ikere;Okeosun Ward;;Oke Osun Health Centre;;;;;
Ikere;Okeosun Ward;;School for the Deaf;;;;;
Ikere;Okeosun Ward;;Oke Osun 2 Health Centre;;;;;
Ikere;Okeruku Ward;;Okeruku Health Centre;;;;;
Ikere;Ugele Ward;;Ugele Health Centre;;;;;
Ikere;Ugele Ward;;Ikere College of Education Health Centre;;;;;
Ikole;Asin Ward;;Otunja Health Centre;;;;;
Ikole;Asin Ward;;Abaoyo Health Centre;;;;;
Ikole;Asin Ward;;living well hospital;;;;;
Ikole;Asin Ward;;Asin Health Centre;;;;;
Ikole;Ijesa Isu Ward;;Fatumla Health Centre;;;;;
Ikole;Ijesa Isu Ward;;Ijesa Isu Health Centre;;;;;
Ikole;Ijesa Isu Ward;;Ijesa Isu General Hospital;;;;;
Ikole;Ijesa Isu Ward;;Ikoyi Ile Health Centre;;;;;
Ikole;Ikole Ara Ward;;Ara Health Centre (Ikole);;;;;
Ikole;Ikole Ara Ward;;Kolayemi Clinic;;;;;
Ikole;Ikole Central Ward;;Methodist Comp Health Centre;;;;;
Ikole;Ikole Central Ward;;Ademolawe Medical Centre;;;;;
Ikole;Ikole Central Ward;;Ikole State Specialist Hospital;;;;;
Ikole;Ipao/Okeako/Irele Ward;;Ipao Health Centre;;;;;
Ikole;Ipao/Okeako/Irele Ward;;Irele Health Centre;;;;;
Ikole;Ipao/Okeako/Irele Ward;;Oke Ako Health Centre;;;;;
Ikole;Itapaji/Iyemero Ward;;Itapaji Health Centre;;;;;
Ikole;Itapaji/Iyemero Ward;;Iyemero Health Centre;;;;;
Ikole;Odo-Ayedun Ward;;Ayedun Comprehensive Health Centre;;;;;
Ikole;Odo-Ayedun/Ayebode Ward;;Arabire health centre;;;;;
Ikole;Odo-Ayedun/Ayebode Ward;;Ayebode Health Centre;;;;;
Ikole;Odo-Oro Ward;;Odo Oro Basic Health Centre;;;;;
Ikole;Oke-Ayedun/Esun Ward;;Oke Ayedun Health centre;;;;;
Ikole;Oke-Ayedun/Esun Ward;;Esun  health Centre;;;;;
Ikole;Orin-Odo Ward;;Ikole Market Health Clinic;;;;;
Ikole;Orin-Odo Ward;;Ikole SUBEB Primary School Clinic;;;;;
Ikole;Orin-Odo Ward;;Titilope Clinic;;;;;
Ikole;Usin/Isaba Ward;;Usin  health Centre;;;;;
Ikole;Usin/Isaba Ward;;Isaba Basic Health Centre;;;;;
Ilejemeje;Eda Obada Ward;;Obada Basic Health Centre;;;;;
Ilejemeje;Edaoniyo Ward;;Eda Oniyo National Primary Health Care Centre;;;;;
Ilejemeje;Edaoniyo Ward;;Eda Oniyo Comprehensive Health Centre;;;;;
Ilejemeje;Ewu Ward;;Ewu Basic Health Clinic;;;;;
Ilejemeje;Ewu Ward;;Ewu National Primary Health Care Centre;;;;;
Ilejemeje;Ijesamodu Ward;;Ijesa Modu Basic Health Clinic;;;;;
Ilejemeje;Ilefon Ward;;Iye Comprehensive Health Centre;;;;;
Ilejemeje;Iludun Ward 1;;Iludun Comprehensive Health Centre;;;;;
Ilejemeje;Iludun Ward 1;;Model Health Center Ijaro;;;;;
Ilejemeje;Iludun Ward 2;;Iludun National Primary Health Care Centre;;;;;
Ilejemeje;Ipere Ward;;Ipere Basic Health Clinic;;;;;
Ilejemeje;Isapa Ward;;Iye General Hospital;;;;;
Ilejemeje;Isapa Ward;;Health Post Isapa;;;;;
Ilejemeje;Oke Iye Ward;;Iye National Primary Health Centre;;;;;
Ilejemeje;Oke Iye Ward;;Staff Clinic;;;;;
Ilejemeje;Oke Iye Ward;;Juli Comfort Memorial Clinic;;;;;
Irepodun/Ifelodun;Afao Ward;; Basic Health Centre Araromi Obo;;;;;
Irepodun/Ifelodun;Afao Ward;;Comprehensive Health Centre Afao;;;;;
Irepodun/Ifelodun;Are Ward;;Are Comp Health Centre;;;;;
Irepodun/Ifelodun;Awo Ward;;Awo Basic Health Centre;;;;;
Irepodun/Ifelodun;Esure Ward;;Esure Health Centre;;;;;
Irepodun/Ifelodun;Eyio Ward;;Eyio Health Centre;;;;;
Irepodun/Ifelodun;Igbemo Ward;;Igbemo Comp Health Centre;;;;;
Irepodun/Ifelodun;Igbemo Ward;;Igbemo Basic Health Clinic;;;;;
Irepodun/Ifelodun;Igede Ward A;;Igede Comp Health Centre;;;;;
Irepodun/Ifelodun;Igede Ward B;;Igede Basic Health Centre (Aaye);;;;;
Irepodun/Ifelodun;Igede Ward C;;Ilamoye Basic Health Clinic;;;;;
Irepodun/Ifelodun;Iropora Ward;;Iropora Basic Health Centre;;;;;
Irepodun/Ifelodun;Iworoko Ward;;Iworoko Health Centre;;;;;
Irepodun/Ifelodun;Iyin Ward A;;Adeomi Basic Health Centre;;;;;
Irepodun/Ifelodun;Iyin Ward A;;Oketoro Basic Health Centre;;;;;
Irepodun/Ifelodun;Iyin Ward B;;Iro Health Post;;;;;
Irepodun/Ifelodun;Iyin Ward B;;Ibedoyin Health Post;;;;;
Irepodun/Ifelodun;Iyin Ward B;;okelawe Health Post;;;;;
Irepodun/Ifelodun;Iyin Ward B;;Aroto Basic Health Clinic;;;;;
Ise/Orun;Erinwa Ward I;;Ifofin Health Centre;;;;;
Ise/Orun;Erinwa Ward I;;SUBEB Model School;;;;;
Ise/Orun;Erinwa Ward II;;Abaonisu Basic Health Centre;;;;;
Ise/Orun;Erinwa Ward II;;Ogbese Basic Health Centre;;;;;
Ise/Orun;Erinwa Ward II;;Afolu  BasicHealth Centre;;;;;
Ise/Orun;Erinwa Ward II;;Obada Basic Health Centre;;;;;
Ise/Orun;Odose Ward I;;Basic Health Centre;;;;;
Ise/Orun;Odose Ward II;;Okeyard Comprehensive Health Centre;;;;;
Ise/Orun;Odose Ward III;;Ajegunle Basic Health Centre;;;;;
Ise/Orun;Odose Ward III;;Ise General Hospital;;;;;
Ise/Orun;Oraye Ward I;;Basic Health Centre;;;;;
Ise/Orun;Oraye Ward II;;Ajebadmidele Health Centre;;;;;
Ise/Orun;Oraye Ward II;;Oraye Basic Health Centre;;;;;
Ise/Orun;Oraye Ward III;;Temidire Basic Health Centre (Ise/Orun);;;;;
Ise/Orun;Oraye Ward III;;Odole Basic Health Centre;;;;;
Ise/Orun;Oraye Ward III;;Kajola Basic Health Centre;;;;;
Ise/Orun;Orun Ward I;;Basic Health Centre;;;;;
Ise/Orun;Orun Ward II;;Orun Basic Health Centre;;;;;
Moba;Erinmope Ward I;;Erimope Health Centre;;;;;
Moba;Erinmope Ward II;;Aaye Oja Health Centre;;;;;
Moba;Erinmope Ward II;;Irare Health Centre;;;;;
Moba;Igogo Ward I;;Igogo Comprehensive Health Centre;;;;;
Moba;Igogo Ward I;;Igogo Model Health Centre;;;;;
Moba;Igogo Ward II;;Ikosun Health Centre;;;;;
Moba;Igogo Ward II;;Isaoye Health Centre;;;;;
Moba;Ikun Ward;;Ogo Oluwa Clinic;;;;;
Moba;Ikun Ward;;Ikun Health Centre;;;;;
Moba;Ikun ward II;;Health Post Ikun;;;;;
Moba;Osan Ward;;Osan Health Centre;;;;;
Moba;Osun Ward;;Osun Health Centre;;;;;
Moba;Osun Ward;;Ira Health Centre;;;;;
Moba;Osun Ward;;Orisunmibare Health Post;;;;;
Moba;Osun Ward;;Iro Health Centre;;;;;
Moba;Osun Ward;;Epe Health Centre (Annex);;;;;
Moba;Otun Ward I;;Otun General Hospital;;;;;
Moba;Otun Ward I;;Adebayo Hospital;;;;;
Moba;Otun Ward II;;Ibironke  Clinic;;;;;
Moba;Otun Ward II;;Otun Model Health Centre;;;;;
Moba;Otun Ward III;;Emiloju Clinic;;;;;
Moba;Otun Ward III;;Oluwatosin Clinic;;;;;
Moba;Otun Ward III;;Otun Comprehensive Health Centre;;;;;
Oye;Ayede N Ward;;Ayede Health Centre;;;;;
Oye;Ayede N Ward;;Ayede Government Science College Clinic;;;;;
Oye;Ayede N Ward;;Ayede General Hospital;;;;;
Oye;Ayegbaju Ward;;Ayegbaju Health Centre;;;;;
Oye;Ilupeju Ward I;;Ilupeju Model Health Centre;;;;;
Oye;Ilupeju Ward II;;Ilupeju Itapa General Hospital;;;;;
Oye;Ilupeju Ward II;;Ilupeju Basic Health Centre;;;;;
Oye;Ire Ward I;;Ire Model Health Centre;;;;;
Oye;Ire Ward II;;Ire Basic Health Centre;;;;;
Oye;Isan/Ila/Ilem Ward;;Isan Health Centre;;;;;
Oye;Isan/Ila/Ilem Ward;;Ilafon Health Centre;;;;;
Oye;Isan/Ila/Ilem Ward;;Ilemeso Health Centre;;;;;
Oye;Itaji/Ayede Ward;;Oloje Model Health Centre;;;;;
Oye;Itaji/Ayede Ward;;Itaji Health Centre;;;;;
Oye;Itaji/Ayede Ward;;Orisumbare Health Centre;;;;;
Oye;Itaji/Ayede Ward;;Imojo Health Centre;;;;;
Oye;Itapa/Osin Ward;;Itapa Health Centre;;;;;
Oye;Itapa/Osin Ward;;Osin Health Centre;;;;;
Oye;Omu/Ijelu Ward;;Omu Oke Health Centre;;;;;
Oye;Omu/Ijelu Ward;;Ijelu Health Centre;;;;;
Oye;Omu/Ijelu Ward;;Omu Odo Health Centre;;;;;
Oye;Oye Ward I;;Oye Comprehensive Health Centre;;;;;
Oye;Oye Ward I;;Staff Clinic;;;;;
Oye;Oye Ward II;;Egbe Basic Health Centre,;;;;;
Oye;Oye Ward II;;Oye General Hospital;;;;;
