LGA;Ward;Settlement;Facility;Type;Ownership;Address;Longitude;Latitude
Aninri;Mpu Ward;;Mpu Comprehensive Health Centre;;;;;
Aninri;Mpu Ward;;Umuosigide Health Post;;;;;
Aninri;Mpu Ward;;Mpu Health Centre;;;;;
Aninri;Ndeaboh Ward;;Ndeaboh Health Centre;;;;;
Aninri;Ndeaboh Ward;;Agboechara Health Centre;;;;;
Aninri;Nenwe Ward I;;Nenwe Cottage Hospital;;;;;
Aninri;Nenwe Ward I;;Zion Hospital Nenwe;;;;;
Aninri;Nenwe Ward II;;Nenwe Health Centre;;;;;
Aninri;Nenwe Ward II;;St Peter's Hospital Agbada Nenwe ;;;;;
Aninri;Nenwe Ward III;;Ndiagu Enugwunator Health Centre;;;;;
Aninri;Nenwe Ward III;;Emudo Nenwe Health Centre;;;;;
Aninri;Oduma Ward I;;Oduma Achara Health Centre;;;;;
Aninri;Oduma Ward II;;Amokwe Health Centre - (Aninri);;;;;
Aninri;Oduma Ward II;;Ameke Health Centre;;;;;
Aninri;Oduma Ward II;;Uhueze Obeagu Health Centre;;;;;
Aninri;Oduma Ward III;;Oduma Basic Health Centre;;;;;
Aninri;Oduma Ward III;;St. Luke Hospital;;;;;
Aninri;Oduma Ward IV;;Ohofia Nduneze Health Centre;;;;;
Aninri;Oduma Ward IV;;Ezinator Health Post;;;;;
Aninri;Okpanku Ward;;Okpanku Health Centre;;;;;
Awgu;Agbogugu Ward;;Chinonyelum Hospital;;;;;
Awgu;Anikenand Ward;;Awgunta Health Post;;;;;
Awgu;Anikenand Ward;;Ezere Health Centre;;;;;
Awgu;Anikenand Ward;;Nkwe Health Centre;;;;;
Awgu;Anikenand Ward;;Nenwenta Health Clinic;;;;;
Awgu;Anikenand Ward;;Ugwueme Health Centre;;;;;
Awgu;Awgu Ward 1;;Mayo Hospital (Awgu);;;;;
Awgu;Awgu Ward 1;;Jideofor Hospital and Maternity Ohaja;;;;;
Awgu;Awgu Ward 1;;Jideofor Hospital Annex Owelli;;;;;
Awgu;Awgu Ward 1;;Awgu Maternal and Child Health Clinic;;;;;
Awgu;Awgu Ward 11;;Onoli Cottage Hospital;;;;;
Awgu;Awgu Ward 11;;Sacrede Heart Hospital;;;;;
Awgu;Awgu Ward 11;;Ugwulesi Health Centre;;;;;
Awgu;Ihe Ward;;St Ann's Hospital;;;;;
Awgu;Ihe Ward;;Rhema Hospital and Maternity;;;;;
Awgu;Ihe Ward;;Beacon Hospital;;;;;
Awgu;Ihe Ward;;St Anthony Hospital (Awgu);;;;;
Awgu;Ihe Ward;;Mother of Mercy Hospital;;;;;
Awgu;Isuawaa/Agbudu Ward;;Agbudu Health Clinic (Awgu);;;;;
Awgu;Mgbidi/Mmaku Ward;;Mmaku Health Centre;;;;;
Awgu;Mgbidi/Mmaku Ward;;Mmaku Cottage Hospital;;;;;
Awgu;Mgbidi/Mmaku Ward;;Mmaku Health Post;;;;;
Awgu;Mgbidi/Mmaku Ward;;enThe Eagle Hospital and Maternity Awgu;;;;;
Awgu;Mgbidi/Mmaku Ward;;Mgbidi Cottage Hospital;;;;;
Awgu;Mgbidi/Mmaku Ward;;St Monica's Memorial Hospital,Ezioha;;;;;
Awgu;Mgbowo Ward;;Ekpulato Mgbowo Health Centre;;;;;
Awgu;Mgbowo Ward;;Mgbowo Health Clinic;;;;;
Awgu;Ogbaku Ward;;Ogbaku Cottage Hospital;;;;;
Awgu;Ogbaku Ward;;Ogbaku Health Centre;;;;;
Awgu;Ogbaku Ward;;Ogbaku Health Post;;;;;
Awgu;Ugbo/Ogugu Ward;;Ugbo Health Centre;;;;;
Awgu;Ugbo/Ogugu Ward;;Ngene Ugbo Health Centre;;;;;
Enugu East;Abakpa Ward I;;Obuchineme Hospital & Maternity;;;;;
Enugu East;Abakpa Ward I;;Our Lady of Fatima Hospital;;;;;
Enugu East;Abakpa Ward I;;Basic Clinic, College Road Abakpa Nike;;;;;
Enugu East;Abakpa Ward I;;Ifeoma Maternity Home;;;;;
Enugu East;Abakpa Ward I;;Daberechi Hospital;;;;;
Enugu East;Abakpa Ward I;;Favour Maternity Home;;;;;
Enugu East;Abakpa Ward I;;De Adonai Hospital;;;;;
Enugu East;Abakpa Ward I;;Abakpa Health Centre;;;;;
Enugu East;Abakpa Ward I;;Morning star Maternity Home;;;;;
Enugu East;Abakpa Ward I;;Chinwendu Hospital;;;;;
Enugu East;Abakpa Ward I;;Infant Jesus Maternity Home;;;;;
Enugu East;Abakpa Ward I;;Ujodo Health Centre;;;;;
Enugu East;Abakpa Ward I;;Chrisantius Hospital & Maternity;;;;;
Enugu East;Abakpa Ward I;;Divine Grace Hospital & Maternity;;;;;
Enugu East;Abakpa Ward I;;St Theresa's Hospital, Abakpa;;;;;
Enugu East;Abakpa Ward I;;Ogechukwu Hospital & Maternity;;;;;
Enugu East;Abakpa Ward I;;Julius Memorial Hospital & Maternity;;;;;
Enugu East;Abakpa Ward I;;Ugo Maternity Ugbodogwu;;;;;
Enugu East;Abakpa Ward I;;Ogechukwu Maternity Home;;;;;
Enugu East;Abakpa Ward I;;Orthopedic Hospital;;;;;
Enugu East;Abakpa Ward I;;Chukwuebuka Hospital and Maternity;;;;;
Enugu East;Abakpa Ward I;;Kenechukwu Specialist Hospital;;;;;
Enugu East;Abakpa Ward I;;Redeemer Maternity;;;;;
Enugu East;Abakpa Ward I;;Kamusiyochukwu Hospital and Maternity;;;;;
Enugu East;Abakpa Ward I;;Medster Specialist Hospital;;;;;
Enugu East;Abakpa Ward I;;Hope Hospital (Enugu East);;;;;
Enugu East;Abakpa Ward II;;Ndubisi Clinic;;;;;
Enugu East;Abakpa Ward II;;Mary Land Hospital;;;;;
Enugu East;Abakpa Ward II;;Charity Hospital, Maternity& Child Care;;;;;
Enugu East;Abakpa Ward II;;Ivory Clinic;;;;;
Enugu East;Abakpa Ward II;;Semino Hospital;;;;;
Enugu East;Abakpa Ward II;;St Joseph's Clinic (Enugu East);;;;;
Enugu East;Abakpa Ward II;;Nike Medical centre;;;;;
Enugu East;Abakpa Ward II;;Lifeguard Specialist Clinic;;;;;
Enugu East;Abakpa Ward II;;St Christopher Clinic;;;;;
Enugu East;Ibagwa Ward;;Ibeagwa Nike Health Centre;;;;;
Enugu East;Mbulu Iyiukum Ward II;;Neke Odenigbo Health Centre;;;;;
Enugu East;Mbulu Iyiukum Ward II;;Neke Uno Health Post;;;;;
Enugu East;Mbulu Iyiukum Ward II;;Agbogazi Nike Health Centre;;;;;
Enugu East;Mbuluiyiukwu Ward I;;Ogbeke Health Centre;;;;;
Enugu East;Mbuluiyiukwu Ward I;;Ako Nike Health Centre;;;;;
Enugu East;Mbulujodo Ward I;;Ugwuomu Health Clinic;;;;;
Enugu East;Mbulujodo Ward II;;Nchatancha Health Centre;;;;;
Enugu East;Mbulujodo Ward II;;Onuogba Nike Health Centre;;;;;
Enugu East;Mbulujodo Ward II;;Obodo Nike Health Centre;;;;;
Enugu East;Trans Ekulu Ward;;Holy Family Maternity;;;;;
Enugu East;Trans Ekulu Ward;;Ijeoma Medical Centre;;;;;
Enugu East;Trans Ekulu Ward;;Ntasi Obi Ndi N'Afufu Specialist Hospital;;;;;
Enugu East;Ugwoyo Ward;;Ugwogo Nike Health Centre;;;;;
Enugu East;Umuchigbo Ward;;Umuchigbo Health Centre;;;;;
Enugu North;Artizan Ward;;Artizan Health Post;;;;;
Enugu North;Asata Ward IV;;Nnamdi Azikiwe Clinic Ogui Rd;;;;;
Enugu North;Asata Ward IV;;Poly Sub District Hospital;;;;;
Enugu North;Asata Ward IV;;Asata Health Centre;;;;;
Enugu North;Asata Ward IV;;St Hildas Hospital & Maternity;;;;;
Enugu North;Asata Ward IV;;Vita Clinics;;;;;
Enugu North;Asata Ward IV;;Jubilee Hospital & Maternity;;;;;
Enugu North;GRA East Ward;;Police Headquarter Clinic;;;;;
Enugu North;GRA East Ward;;82 Division Hospital;;;;;
Enugu North;GRA East Ward;;Airforce Medical Centre;;;;;
Enugu North;GRA West Ward;;Parklane Specialist Hospital;;;;;
Enugu North;GRA West Ward;;Enugu Family Support Programme Medical Centre;;;;;
Enugu North;GRA West Ward;;St Mary Hospital, GRA;;;;;
Enugu North;Independent Layout Ward;;Overveiw Clinics;;;;;
Enugu North;Independent Layout Ward;;Bethsaida Clinic and Maternity Home;;;;;
Enugu North;Independent Layout Ward;;Niger Foundation Hospital ;;;;;
Enugu North;Independent Layout Ward;;Galaxy Specialist Hospital;;;;;
Enugu North;Independent Layout Ward;;Eastside Hospital;;;;;
Enugu North;Independent Layout Ward;;Christian Miracle Hospital,Atuku Crescent;;;;;
Enugu North;Independent Layout Ward;;Enugu Government House Hospital;;;;;
Enugu North;Iva Valley Ward;;Coal Camp Medical Centre;;;;;
Enugu North;Iva Valley Ward;;Hill Top Health Centre (Ngwo);;;;;
Enugu North;Iva Valley Ward;;Christ The King Hospital and Maternity;;;;;
Enugu North;Iva Valley Ward;;Ugwu Aron Health Centre;;;;;
Enugu North;Iva Valley Ward;;Iva Pottery Health Centre;;;;;
Enugu North;Iva Valley Ward;;Enugu North Government Dental Centre;;;;;
Enugu North;Iva Valley Ward;;Aria Market Health Post;;;;;
Enugu North;Iva Valley Ward;;Planned Parenthood Federation;;;;;
Enugu North;Iva Valley Ward;;Royal Hospital (Enugu North);;;;;
Enugu North;New Haven East Ward;;Childlife Medical Centre;;;;;
Enugu North;New Haven East Ward;;New Heaven Health Centre;;;;;
Enugu North;New Haven East Ward;;Neuro-Psychiatric Hospial;;;;;
Enugu North;Ogbete Central Ward;;University of Nigeria Teaching Hospital ICH (Enugu North);;;;;
Enugu North;Ogbete Central Ward;;Obed Camp Health Post;;;;;
Enugu North;Ogbete Central Ward;;Ugwu Alfred Health Post;;;;;
Enugu North;Ogbete East Ward;;Calvary Foundation Hospital, Ogbete;;;;;
Enugu North;Ogbete West Ward;;Mother of Christ Specialist Hospital;;;;;
Enugu North;Ogbete West Ward;;Enugu North LGA Headquarters Health Centre;;;;;
Enugu North;Ogbete West Ward;;Ogbete Main Market Health Post (CPS);;;;;
Enugu North;Ogbete West Ward;;Civil Service Medical Centre (Enugu North);;;;;
Enugu North;Ogbete West Ward;;First Metrodame Specialist Hospital;;;;;
Enugu North;Ogui New Layout Ward;;Ogui Nike Health Centre;;;;;
Enugu North;Ogui Township Ward;;St Patrick Hospital (Enugu North);;;;;
Enugu North;Ogui Township Ward;;Carter Street Health Clinic;;;;;
Enugu North;Onu Asata Ward;;Central Maternity Home;;;;;
Enugu North;Onuatu Ward;;Semino Hospital and Maternity Home;;;;;
Enugu North;Onuatu Ward;;Onu Ato Health Centre;;;;;
Enugu South;Achara East Ward;;Almond Hospital;;;;;
Enugu South;Achara East Ward;;Light Of God Hospital and Maternity;;;;;
Enugu South;Akwuke Ward XII;;Akwuke Health Centre;;;;;
Enugu South;Amechi East Ward I;;Amechi Cottage Hospital;;;;;
Enugu South;Awkunanaw East Ward VIII;;Ikiriki Health Centre;;;;;
Enugu South;Awkunanaw East Ward VIII;;Sata Health Centre;;;;;
Enugu South;Awkunanaw West Ward;;Goodnews Clinic and Maternity;;;;;
Enugu South;Mary Land Ward;;St Gertrude Maternity and Home;;;;;
Enugu South;Obeagu Amechi Uno Ward XI;;Ugwuagba Health Centre;;;;;
Enugu South;Obeagu Amechi Uno Ward XI;;Amaegbu Health Post;;;;;
Enugu South;Obeagu Ward I;;Obeagu Health Centre;;;;;
Enugu South;Obeagu Ward I;;Ndiagu Health Centre;;;;;
Enugu South;Ugwuaji Ward;;Ugwuaji Health Centre;;;;;
Enugu South;Ugwuaji Ward;;Eke Health Centre (Enugu South);;;;;
Enugu South;Uwani East Ward;;Divine Providence Hospital;;;;;
Enugu South;Uwani East Ward;;Uwani Cottage Hospital;;;;;
Enugu South;Uwani Wast Ward;;Comprehensive Health Centre PDC Enugu     ;;;;;
Ezeagu;Agba Ward;;Isaiagu Health Centre;;;;;
Ezeagu;Agba Ward;;Agba Umana Health Centre;;;;;
Ezeagu;Agba Ward;;Neke Health Centre Ezeagu;;;;;
Ezeagu;Agba Ward;;Aguoba Umumba Health Centre;;;;;
Ezeagu;Agba Ward;;Imeama Ezema Health Centre;;;;;
Ezeagu;Agba Ward;;Ibite Olo Health Centre;;;;;
Ezeagu;Agbudu Owa Ward I;;Aguobu Owa Health Centre;;;;;
Ezeagu;Agbudu Owa Ward I;;Aguobu Owa Cottage Hospital;;;;;
Ezeagu;Agbudu Owa Ward II;;Aguobu Owa Model Health Centre;;;;;
Ezeagu;Aguobu Umumba Ward;;Umumba Ndiagu Health Clinic;;;;;
Ezeagu;Aguobu Umumba Ward;;Aguobu Umumba Health Centre;;;;;
Ezeagu;Awha Ward;;Awha Imezi Health Centre;;;;;
Ezeagu;Awha Ward;;Obioma Chukwu Maternity Home;;;;;
Ezeagu;Awha Ward;;Agba Agbo Awha Imezi Health Clinic;;;;;
Ezeagu;Awha Ward;;Awha Ndiagu Health Clinic;;;;;
Ezeagu;Imezi Owa Ward I;;Upata Ezema Imezi Owa Health Centre;;;;;
Ezeagu;Imezi Owa Ward I;;Victory Hospital and Maternity Home (Annex);;;;;
Ezeagu;Imezi Owa Ward I;;Umudim Imezi Owa Health Centre;;;;;
Ezeagu;Imezi Owa Ward I;;Umudioha Imezi Owa Health Clinic;;;;;
Ezeagu;Imezi Owa Ward I;;Umuaji Imezi Owa Health Centre;;;;;
Ezeagu;Imezi Owa Ward II;;Abunuzu Imezi Owa Health Centre;;;;;
Ezeagu;Imezi Owa Ward II;;Ogwofia Imezi Owa Health Centre;;;;;
Ezeagu;Iwollo Ward;;Mother of Mercy Maternity Home;;;;;
Ezeagu;Iwollo Ward;;Ugwuike Iwollo Health Centre;;;;;
Ezeagu;Iwollo Ward;;Niger Foundation Clinics;;;;;
Ezeagu;Iwollo Ward;;Iwollo Health Centre;;;;;
Ezeagu;Mgbagbu Owa Ward I;;Mgbagbu Owa Health Centre;;;;;
Ezeagu;Mgbagbu Owa Ward I;;Umuaji Mgbagbu Owa Health Clinic;;;;;
Ezeagu;Mgbagbu Owa Ward II;;Ozom Mgbagbu Owa Health Centre;;;;;
Ezeagu;Obeleagu Ward;;Obeleagu Umana Cottage Hospital;;;;;
Ezeagu;Obeleagu Ward;;Inye Aka Ndi Out Kristi Hospital;;;;;
Ezeagu;Obeleagu Ward;;Okpudo Health Clinic;;;;;
Ezeagu;Obeleagu Ward;;Omughu Umana Health Post;;;;;
Ezeagu;Obeleagu Ward;;Aguoba Obeleagu Health Centre;;;;;
Ezeagu;Obinofia Ward;;Obinofia Ndiuno Health Centre;;;;;
Ezeagu;Obinofia Ward;;Awo Na Eze Health Centre;;;;;
Ezeagu;Obinofia Ward;;Obinofia Ndiagu Health Centre;;;;;
Ezeagu;Oghe Ward;;Oyofo Oghe Health Clinic;;;;;
Ezeagu;Oghe Ward I;;City Maternity Home;;;;;
Ezeagu;Oghe Ward I;;Nne Nke Ebere Nayo Ayi Ayiyo Akama Health Centre;;;;;
Ezeagu;Oghe Ward I;;Amankwo Ndiagu Health Centre;;;;;
Ezeagu;Oghe Ward I;;Akama Oghe Health Clinic;;;;;
Ezeagu;Oghe Ward II;;Ihuonyia Health Centre;;;;;
Ezeagu;Oghe Ward II;;Amansiodo Imezi Cottage Hospital;;;;;
Ezeagu;Oghe Ward III;;The Good Shepherd Hospital and Maternity;;;;;
Ezeagu;Oghe Ward III;;Omega Medical Centre, Affor Oghe;;;;;
Ezeagu;Oghe Ward III;;Oghe Community Hospital;;;;;
Ezeagu;Olo Ward I;;Olo Health Centre;;;;;
Ezeagu;Olo Ward I;;Imezi Olo Health Centre;;;;;
Ezeagu;Olo Ward II;;Ogulogu Olo Health Clinic;;;;;
Ezeagu;Olo Ward II;;Olo Cottage Hospital;;;;;
Ezeagu;Umana Ward;;St Clara Maternity and Hospital, Umana;;;;;
Ezeagu;Umana Ward;;Umana Ndiuno Health Centre;;;;;
Ezeagu;Umumba Ward;;Umumba Ndiuno Health Centre;;;;;
Ezeagu;Umumba Ward;;Okpueze Health Centre;;;;;
Igbo-Etiti;Aku Ward I;;Mgboko Health Post;;;;;
Igbo-Etiti;Aku Ward II;;Amobokwu Model Primary Health Care Centre;;;;;
Igbo-Etiti;Aku Ward II;;Use Health Post;;;;;
Igbo-Etiti;Aku Ward III;;Ohemje Health Centre ;;;;;
Igbo-Etiti;Aku Ward III;;Uhomefe Health Centre;;;;;
Igbo-Etiti;Aku Ward III;;Umuezike Health Post;;;;;
Igbo-Etiti;Aku Ward III;;Uchechukwu Cottage Hospital, Eke Aku;;;;;
Igbo-Etiti;Aku Ward IV;;Ugwunani Health Post;;;;;
Igbo-Etiti;Aku Ward IV;;Nua Health Post;;;;;
Igbo-Etiti;Aku Ward V;;Aku Cottage Hospital;;;;;
Igbo-Etiti;Aku Ward V;;Amogwu Health Post;;;;;
Igbo-Etiti;Aku Ward V;;Attah Memorial Hospital;;;;;
Igbo-Etiti;Aku Ward V;;Aku Health Centre;;;;;
Igbo-Etiti;Aku Ward VI;;Udueme Health Centre;;;;;
Igbo-Etiti;Aku Ward VI;;Oshigo Health Post;;;;;
Igbo-Etiti;Aku Ward VI;;Ugwunoda Health Centre;;;;;
Igbo-Etiti;Diogbe/Umunko Ward;;Diogbe Health Post;;;;;
Igbo-Etiti;Diogbe/Umunko Ward;;Umunko Health Centre;;;;;
Igbo-Etiti;Diogbe/Umunko Ward;;Agu Umunko Health Clinic;;;;;
Igbo-Etiti;Ekwegbe Ward I;;Ukopi Health Clinic;;;;;
Igbo-Etiti;Ekwegbe Ward I;;Umuna Health Centre;;;;;
Igbo-Etiti;Ekwegbe Ward II;;Agu Ekwegbe Health Centre;;;;;
Igbo-Etiti;Ekwegbe Ward II;;Ekwegbe Comprehensive Health Centre;;;;;
Igbo-Etiti;Ekwegbe Ward II;;Chidimma Maternity Home Ekwuegbe;;;;;
Igbo-Etiti;Idoha/ Onyhor/ Ochima Ward;;Ochima Health Post;;;;;
Igbo-Etiti;Idoha/ Onyhor/ Ochima Ward;;Idoha Health Centre;;;;;
Igbo-Etiti;Idoha/ Onyhor/ Ochima Ward;;Onyohor Health Centre;;;;;
Igbo-Etiti;Ikolo/Ohebedim Ward;;Ogbede Cottage Hospital;;;;;
Igbo-Etiti;Ikolo/Ohebedim Ward;;Ohebe-Dim Health Clinic;;;;;
Igbo-Etiti;Ikolo/Ohebedim Ward;;Ikolo Health Post;;;;;
Igbo-Etiti;Ohodo Ward 1;;Zim Uzo Hospital and Maternity Home Ohodo;;;;;
Igbo-Etiti;Ohodo Ward 1;;Ohodo Health Post;;;;;
Igbo-Etiti;Ohodo Ward II;;Nkpuru Adada Health Centre;;;;;
Igbo-Etiti;Ohodo Ward II;;Achara Health Clinic;;;;;
Igbo-Etiti;Ozalla Ward I;;Ijo Ozalla Health Centre;;;;;
Igbo-Etiti;Ozalla Ward II;;Ozalla Uwelu Health Centre;;;;;
Igbo-Etiti;Ozalla Ward II;;Ozalla Health Centre (IGT);;;;;
Igbo-Etiti;Ukehe Ward I;;Ogbede Health Centre;;;;;
Igbo-Etiti;Ukehe Ward I;;Uwelle Amokofia Health Post;;;;;
Igbo-Etiti;Ukehe Ward I;;Amadim Model Primary Health Centre;;;;;
Igbo-Etiti;Ukehe Ward I;;Elechi Medical Clinic, Ugbede Ukehe;;;;;
Igbo-Etiti;Ukehe Ward II;;Umualeke Health Post;;;;;
Igbo-Etiti;Ukehe Ward II;;Ndinwara Health Post;;;;;
Igbo-Etiti;Ukehe Ward II;;Umuofiagu Health Centre;;;;;
Igbo-Etiti;Ukehe Ward II;;Obeagu Aworo Health Post;;;;;
Igbo-Etiti;Ukehe Ward III;;Munachi Maternity Home,Umuotiagu Ukehe;;;;;
Igbo-Etiti;Ukehe Ward III;;Uwelle Ukehe Health Post;;;;;
Igbo-Etiti;Ukehe Ward III;;Chikwado Maternity Home;;;;;
Igbo-Etiti;Ukehe Ward IV;;Ezi Ukehe Health Centre;;;;;
Igbo-Etiti;Ukehe Ward IV;;Amauwani Health Post;;;;;
Igbo-Etiti;Ukehe Ward IV;;Ama Ekwefu Health Post;;;;;
Igbo-Etiti;Ukehe Ward IV;;Umurusi Health Post;;;;;
Igbo-Etiti;Ukehe Ward V;;Amanefi Health Post;;;;;
Igbo-Eze North;Essodo Ward;;Uroshi Health Clinic;;;;;
Igbo-Eze North;Essodo Ward;;Uda Health Centre;;;;;
Igbo-Eze North;Essodo Ward I;;Trinity Model Clinic Hospital & Maternity;;;;;
Igbo-Eze North;Essodo Ward I;;Umuogbo Agu Clinic;;;;;
Igbo-Eze North;Essodo Ward I;;Uzoma Maternity Home;;;;;
Igbo-Eze North;Essodo Ward I;;Umuagama Health Clinic;;;;;
Igbo-Eze North;Essodo Ward II;;Ufodo Clinic;;;;;
Igbo-Eze North;Ette Ward I;;Ijekpe Health Clinic;;;;;
Igbo-Eze North;Ette Ward I;;Ette Ogodo Clinic;;;;;
Igbo-Eze North;Ette Ward II;;Ette Ulo Health Centre;;;;;
Igbo-Eze North;Ette Ward II;;Ojodomo Clinic;;;;;
Igbo-Eze North;Ette Ward II;;St Paul Clinic;;;;;
Igbo-Eze North;Ezzodo Ward;;Aji Health Clinic;;;;;
Igbo-Eze North;Ezzodo Ward;;Chineme Hospital &Maternity , Essodo;;;;;
Igbo-Eze North;Umuitodo Ward I;;Unity Hospital;;;;;
Igbo-Eze North;Umuitodo Ward I;;Amufie Health Centre;;;;;
Igbo-Eze North;Umuitodo Ward I;;Umuadonuowo Clinic;;;;;
Igbo-Eze North;Umuitodo Ward II;;Onuorah Maternity Home;;;;;
Igbo-Eze North;Umuitodo Ward II;;Eucharistic Jesus Medical Centre;;;;;
Igbo-Eze North;Umuitodo Ward II;;Umuagbedo Agu Clinic;;;;;
Igbo-Eze North;Umuitodo Ward III;;Imufu Clinic;;;;;
Igbo-Eze North;Umuozzi Ward III;;Chima Hospital ,Ugbaike Village;;;;;
Igbo-Eze North;Umuozzi Ward III;;Ugbaike Health Centre;;;;;
Igbo-Eze North;Umuozzi Ward IV;;Inyi Health Centre (Igbo Eze);;;;;
Igbo-Eze North;Umuozzi Ward IV;;Inyi Health Clinic;;;;;
Igbo-Eze North;Umuozzi Ward IX;;Umuopu Health Clinic;;;;;
Igbo-Eze North;Umuozzi Ward V;;Enugu Ezike District Hospital;;;;;
Igbo-Eze North;Umuozzi Ward V;;St Vincent's Hospital& Maternity (Ogrute;;;;;
Igbo-Eze North;Umuozzi Ward V;;New Testament Hospital and Maternity;;;;;
Igbo-Eze North;Umuozzi Ward V;;St Helen's Hospital & Maternity (Ogurute);;;;;
Igbo-Eze North;Umuozzi Ward V;;Chiamaka Specialist Hospital, Ogrute;;;;;
Igbo-Eze North;Umuozzi Ward V;;St. Mary's Hospital ,Ogrute;;;;;
Igbo-Eze North;Umuozzi Ward VI;;Odugwu Memorial Hospital , Enugu;;;;;
Igbo-Eze North;Umuozzi Ward VI;;Onicha Enugu-ezike Health Centre;;;;;
Igbo-Eze North;Umuozzi Ward VI;;Zika Hospital , Essodo;;;;;
Igbo-Eze North;Umuozzi Ward VI;;Okata Health Centre;;;;;
Igbo-Eze North;Umuozzi Ward VII;;Umuida Clinic;;;;;
Igbo-Eze North;Umuozzi Ward VIII;;Isiugwu Clinic;;;;;
Igbo-Eze North;Umuozzi Ward VIII;;Owerre Eze Health Clinic;;;;;
Igbo-Eze North;Umuozzi Ward VIII;;Amaja Basic Health Clinic;;;;;
Igbo-Eze North;Umuozzi Ward X;;Okpo Umuozi Ossy Hospital and Maternity;;;;;
Igbo-Eze North;Umuozzi Ward X;;Ikpamodo Clinic;;;;;
Igbo-Eze South;Ajuona Ward;;Chidera Maternity & Clinic;;;;;
Igbo-Eze South;Ajuona Ward;;Model Health Centre ;;;;;
Igbo-Eze South;Alor Agu Ward;;Alor Agu Clinic;;;;;
Igbo-Eze South;Amebo Ward;;Anyanwuanyasi Health Clinic;;;;;
Igbo-Eze South;Amebo Ward;;Eburumiri Health Clinic;;;;;
Igbo-Eze South;Amebo Ward;;Our Lady's Health Clinic Ibagwa_Aka;;;;;
Igbo-Eze South;Amebo Ward;;St. Raphael's Hospital and Maternity Ibagwu;;;;;
Igbo-Eze South;Amebo Ward;;Chukwuemeka Hospital and Maternity Home  ;;;;;
Igbo-Eze South;Amebo Ward;;Chukwubuikem Maternity Home;;;;;
Igbo-Eze South;Ezema Ward;;Uburu Health Post;;;;;
Igbo-Eze South;Iheaka Ward I;;Ekoyi Health Clinic;;;;;
Igbo-Eze South;Iheaka Ward II;;Iheaka Basic Health Clinic;;;;;
Igbo-Eze South;Iheakpau Awka Ward I;;Chinonye Maternity Home;;;;;
Igbo-Eze South;Iheakpau Awka Ward I;;Iheakpu Awka Ulo Health Clinic;;;;;
Igbo-Eze South;Iheakpu-Awka Ward II;;Iheakpu Awka Agu Health Clinic;;;;;
Igbo-Eze South;Iheakpu-Awka Ward II;;Mother of Christ Maternity;;;;;
Igbo-Eze South;Isiagu/Achara Ward;;Grace Land Hospital and Maternity Home;;;;;
Igbo-Eze South;Isiagu/Achara Ward;;Ibagwa Aka Health Centre;;;;;
Igbo-Eze South;Isiagu/Achara Ward;;Salvation Hospital (Igboeze South);;;;;
Igbo-Eze South;Isiagu/Achara Ward;;Our Lord's Hospital and Maternity Home;;;;;
Igbo-Eze South;Isiagu/Achara Ward;;Isi Agu Health Clinic;;;;;
Igbo-Eze South;Itchi Uwani Word;;Umuogbu Itchi Health Clinic;;;;;
Igbo-Eze South;Itchi Uwani Word;;Itchi Cottage Hospital;;;;;
Igbo-Eze South;Itchi-Uwenu Ward;;Umuakenyi Health Clinic;;;;;
Igbo-Eze South;Itchi-Uwenu Ward;;Itchi Agu Health Clinic;;;;;
Igbo-Eze South;Nkalagu-Obukpa Ward;;Nkalagu Obukpa Health Clinic;;;;;
Igbo-Eze South;Uhunowere Ward;;Uhunowere Health Centre;;;;;
Igbo-Eze South;Umuelo Ward;;Umueze Avuru Health Post (Amachalla Health Post);;;;;
Igbo-Eze South;Umuelo Ward;;Ovoko Health Centre;;;;;
Igbo-Eze South;Umuelo Ward;;Ovoko Cottage Hospital;;;;;
Igbo-Eze South;Umuelo Ward;;Ovoko Agu Health Clinic;;;;;
Igbo-Eze South;Umulolo Ward;;Zim-Uzo Hospital and Maternity Home Ovoko;;;;;
Igbo-Eze South;Umulolo Ward;;Chukwuemeka Hospital and Maternity Home;;;;;
Igbo-Eze South;Umulolo Ward;;Chinezim Clinic and Maternity (Annex);;;;;
Igbo-Eze South;Unadu Ward;;Unadu Basic Health Clinic;;;;;
Igbo-Eze South;Unadu Ward;;Obaka Unadu Health Clinic;;;;;
Igbo-Eze South;Unadu Ward;;Nwachukwu Clinic;;;;;
Igbo-Eze South;Unadu Ward;;Chiamaka Hospital and Maternity Home;;;;;
Igbo-Eze South;Unadu Ward;;New Testament Hospital ;;;;;
Isi-Uzo;Eha_Amufu Ward I;;Isu Model Primary Health Centre;;;;;
Isi-Uzo;Eha_Amufu Ward I;;Odenigbo Health Post;;;;;
Isi-Uzo;Eha_Amufu Ward I;;Aguamede Health Centre;;;;;
Isi-Uzo;Eha_Amufu Ward I;;Ikpakpara Health Post;;;;;
Isi-Uzo;Eha_Amufu Ward II;;Eha Amufu Health Centre;;;;;
Isi-Uzo;Eha_Amufu Ward II;;Umuhu Health Post;;;;;
Isi-Uzo;Eha_Amufu Ward III;;Ape Health Post;;;;;
Isi-Uzo;Eha_Amufu Ward III;;Okpokwu Health Post;;;;;
Isi-Uzo;Eha_Amufu Ward III;;Abor Health Post (Isi Uzo);;;;;
Isi-Uzo;Eha_Amufu Ward III;;Umujiovu Health Post;;;;;
Isi-Uzo;Eha_Amufu Ward III;;Ngele Aguiyi Health Post;;;;;
Isi-Uzo;Eha_Amufu Ward III;;Mgbuji Health Centre;;;;;
Isi-Uzo;Eha_Amufu Ward IV;;Amede Health Post;;;;;
Isi-Uzo;Eha_Amufu Ward IV;;Ihenyi -Agarama Health Centre;;;;;
Isi-Uzo;Eha_Amufu Ward IV;;Ogbuzor Ihenyi Health Post;;;;;
Isi-Uzo;Ikem Ward I;;Isioroto Health Post;;;;;
Isi-Uzo;Ikem Ward I;;Ikem Health Centre;;;;;
Isi-Uzo;Ikem Ward II;;Ikem Nkwo Health Post;;;;;
Isi-Uzo;Ikem Ward II;;Headquarters Health Clinic;;;;;
Isi-Uzo;Ikem Ward II;;Umuaram Health Centre;;;;;
Isi-Uzo;Ikem Ward II;;Ebia Health Centre;;;;;
Isi-Uzo;Mbu ward I;;Ugwuanama Mbu Health Post;;;;;
Isi-Uzo;Mbu ward I;;Mbu Amon Health Centre;;;;;
Isi-Uzo;Mbu ward I;;Akpoga Mbu Health Post;;;;;
Isi-Uzo;Mbu ward II;;Agudene Mbu Health Post;;;;;
Isi-Uzo;Mbu ward II;;Mbu Akpoti Health Centre;;;;;
Isi-Uzo;Mbu ward II;;Aharu Health Post;;;;;
Isi-Uzo;Mbu ward II;;Mbu Cottage Hospital;;;;;
Isi-Uzo;Neke Ward I;;Agudene Neke Health Centre;;;;;
Isi-Uzo;Neke Ward I;;Onueme Neke Health Post;;;;;
Isi-Uzo;Neke Ward I;;Uzohu Health Centre;;;;;
Isi-Uzo;Neke Ward I;;Ngene-Adubor Health Post;;;;;
Isi-Uzo;Neke Ward I;;Ugwuakparata Health Post;;;;;
Isi-Uzo;Neke Ward II;;Neke Health Centre;;;;;
Isi-Uzo;Umualor Ward;;Chisom Maternity Home;;;;;
Isi-Uzo;Umualor Ward;;Umualor Health Centre;;;;;
Isi-Uzo;Umualor Ward;;Umuezeogbu Health Centre;;;;;
Nkanu East;Amaechi Idodo/Oruku Ward;;Oruku Health Centre;;;;;
Nkanu East;Amaechi Idodo/Oruku Ward;;Amaechi Idodo Health Centre;;;;;
Nkanu East;Amafor Ward;;Amafor Ugbawka Health Centre;;;;;
Nkanu East;Amafor Ward;;Isienu Ugbawka Health Clinic;;;;;
Nkanu East;Ihuokpala Ward;;Ihuokpala Health Centre;;;;;
Nkanu East;Isienu Akpaowfu Ward;;Amagunze Model Health Centre;;;;;
Nkanu East;Isienu Akpaowfu Ward;;Ndiagu Amagunze Health Clinic;;;;;
Nkanu East;Isienu Akpaowfu Ward;;Ebeano Akpafwu Health Centre;;;;;
Nkanu East;Isienu Akpaowfu Ward;;Light House Hospital, Agudene ,Akpawfu;;;;;
Nkanu East;Mburubu Ward;;Mburubu Health Centre;;;;;
Nkanu East;Nara Ward I;;Nara Health Centre;;;;;
Nkanu East;Nara Ward I;;Ndiagu Umuiba Nara Health Clinic;;;;;
Nkanu East;Nara Ward II;;Isiogbo Nara Health Centre;;;;;
Nkanu East;Nkerefi Ward I;;Nkerefi Health Centre;;;;;
Nkanu East;Nkerefi Ward I;;Family Hospital and Maternity;;;;;
Nkanu East;Nkerefi Ward I;;Umuogbi Health Clinic;;;;;
Nkanu East;Nkerefi Ward II;;Enuogu Health Centre;;;;;
Nkanu East;Nomeh Ward;;Beacon Clinic;;;;;
Nkanu East;Nomeh Ward;;Nomeh Health Centre;;;;;
Nkanu East;Obinagu Ward;;Ovuorie Ugbawka Health Centre;;;;;
Nkanu East;Obinagu Ward;;Amauzam Ugbawka Health Clinic;;;;;
Nkanu East;Ohuani /Onichagu Ward;;Onitshagu Health Centre;;;;;
Nkanu East;Ohuani /Onichagu Ward;;Aniyi Ohuani Health Centre;;;;;
Nkanu East;Ohuani /Onichagu Ward;;Okeani Amagunze Health Centre;;;;;
Nkanu East;Owo Ward;;Mburu Owo Health Centre;;;;;
Nkanu East;Owo Ward;;Owoh Health Centre;;;;;
Nkanu East;Ubahu Amankanu Ward;;Idume Health Clinic;;;;;
Nkanu East;Ubahu Amankanu Ward;;Amankanu Health Post;;;;;
Nkanu East;Ubahu Amankanu Ward;;Ubahu Health Centre;;;;;
Nkanu East;Ubinagu/Amankanu Ward;;Owachi Health Post;;;;;
Nkanu West;Agbani Ward;;Mbogodo Health Centre;;;;;
Nkanu West;Agbani Ward;;Ogbeke Health Clinic;;;;;
Nkanu West;Agbani Ward;;Agbani District Hospital;;;;;
Nkanu West;Agbani Ward;;Ojiagu Health Centre;;;;;
Nkanu West;Agbani Ward;;Divine Love Maternity Health Centre;;;;;
Nkanu West;Agbani Ward;;Alpha Clinic, Agbani;;;;;
Nkanu West;Agbani Ward;;Orient Hospital;;;;;
Nkanu West;Agbani Ward;;Agbani Health Centre;;;;;
Nkanu West;Agbani Ward;;Madam Chinedu Maternity;;;;;
Nkanu West;Akegbe Ugwu Ward;;Our Lady Health of Sick Akegbe Ugwu Health Centre;;;;;
Nkanu West;Akegbe Ugwu Ward;;Akegbe Ugwu Health Centre;;;;;
Nkanu West;Akegbe Ugwu Ward;;Ikenna Hospital and Maternity, Akegbe Ugwu ;;;;;
Nkanu West;Akegbe Ugwu Ward;;Amana Clinics (Njoku Mat. Home),Akegbe;;;;;
Nkanu West;Akegbe Ugwu Ward;;Amigbo Health Centre;;;;;
Nkanu West;Amodu Ward;;Amodu Model Primary Health Centre;;;;;
Nkanu West;Amodu Ward;;Amodu Health Centre;;;;;
Nkanu West;Amurr Ward II;;Amurri 2 Health Clinic;;;;;
Nkanu West;Amurri Ward I;;Amurri 1 Health Centre;;;;;
Nkanu West;Ndiuno Uwani Ward;;Ndiuno Uwani Health Centre;;;;;
Nkanu West;Ndiuno Uwani Ward;;Chiazo Maternity Home, Ndiuno Uwani;;;;;
Nkanu West;O' Ejindiagu Ward;;O'eji Ndiagu Health Centre;;;;;
Nkanu West;O' Ejindiuno Akpugo Ward;;O'eji Ndiuno Clinic (Akpugo Health Centre);;;;;
Nkanu West;Obe Ward;;Obe Health Centre;;;;;
Nkanu West;Obe Ward;;Obe Uno Health Centre;;;;;
Nkanu West;Obinagu Uwani Ward;;Obinagu Uwani Health Centre;;;;;
Nkanu West;Obuno Akpugo Ward;;Ndiagu Obuno Akpugo Health Centre;;;;;
Nkanu West;Obuno Akpugo Ward;;Ndiagu Obuno Akpugo Cottage Hospital;;;;;
Nkanu West;Obuoiffia Ward;;Amangwu Oboffia Health Centre;;;;;
Nkanu West;Obuoiffia Ward;;Obuoffia Cottage Hospital;;;;;
Nkanu West;Obuoiffia Ward;;Chimaoke Hospital & Maternity;;;;;
Nkanu West;Ozalla Ward;;Ozalla Model Health Centre;;;;;
Nkanu West;Ozalla Ward;;Ozalla Health Centre (Nkanu West);;;;;
Nkanu West;Umeeze Ward;;Umueze Health Clinic;;;;;
Nsukka;Agbamere/Umabor Ward;;Daughters' of Divine Love Hospital;;;;;
Nsukka;Agbamere/Umabor Ward;;Agbamere Model Health Centre;;;;;
Nsukka;Edem - Ani Ward;;Edem Ani Health Post;;;;;
Nsukka;Eha Uno Ward;;Isienu Health Centre;;;;;
Nsukka;Ehandiagu Ward;;Ezebunagu Health Post;;;;;
Nsukka;Ehandiagu Ward;;Ehandiagu Health Centre;;;;;
Nsukka;Ehandiagu Ward;;Agudele Umambor Health Post;;;;;
Nsukka;Ejuona/Uwani Ward;;Lejja Basic Health Clinic;;;;;
Nsukka;Ibagwa-Ani Ward;;Ibagwani Health Centre;;;;;
Nsukka;Ibagwa-Ani Ward;;Ibagwa Agu Health Post;;;;;
Nsukka;Ibeku Ward;;Ibeku Health Centre;;;;;
Nsukka;Idi/Ogbozara Ward;;Opi Health Centre;;;;;
Nsukka;Idi/Ogbozara Ward;;Owere Ogbozara Health Post;;;;;
Nsukka;Idi/Ogbozara Ward;;Osondu Hospital & Maternity Home;;;;;
Nsukka;Idi/Ogbozara Ward;;Opiagu Health Clinic;;;;;
Nsukka;Idi/Ogbozara Ward;;Amukpa Health Centre;;;;;
Nsukka;Ihe Ward (Nsukka);;All Saints Medical Centre;;;;;
Nsukka;Mkpunano Ward;;Micheal Obayi Memorial;;;;;
Nsukka;Mkpunano Ward;;Royal Cross Hospital & Maternity;;;;;
Nsukka;Mkpunano Ward;;Faith Foundation Commision;;;;;
Nsukka;Mkpunano Ward;;Odoru Health Post;;;;;
Nsukka;Mkpunano Ward;;Chinemelu Hospital;;;;;
Nsukka;Mkpunano Ward;;Utobolo Health Post;;;;;
Nsukka;Mkpunano Ward;;Chukwudi Clinic and Maternity;;;;;
Nsukka;Mkpunano Ward;;Divine Intervention Clinic;;;;;
Nsukka;Mkpunano Ward;;Obayi Memorial Hospital;;;;;
Nsukka;Mkpunano Ward;;Ogbabu Ngwuru Health Centre;;;;;
Nsukka;Mkpunano Ward;;St Anthony's Hospital;;;;;
Nsukka;Nru Ward;;Nru Health Post;;;;;
Nsukka;Nru Ward;;Nsukka Medical Clinic,Hospital & Maternity;;;;;
Nsukka;Obimo Ward;;Obimo Health Post;;;;;
Nsukka;Obimo Ward;;Ajuona Obimo Health Clinic;;;;;
Nsukka;Obukpa Ward;;Okpaligbo Health Post;;;;;
Nsukka;Okpuje/Okutu/Anuka Ward;;Okutu Health Centre;;;;;
Nsukka;Okpuje/Okutu/Anuka Ward;;Okpuje Health Post;;;;;
Nsukka;Okpuje/Okutu/Anuka Ward;;Anuka Health Clinic;;;;;
Nsukka;Owere/Umuoyo Ward;;St Jude's Hospital & Maternity;;;;;
Nsukka;Owere/Umuoyo Ward;;Mount Arafat Hospital;;;;;
Nsukka;Owere/Umuoyo Ward;; Good Shepherd Hospital Nsukka;;;;;
Nsukka;Owere/Umuoyo Ward;;Zim-Uzo Medical Clinic and Maternity;;;;;
Nsukka;Owere/Umuoyo Ward;;Nsukka Health Centre;;;;;
Oji River;Achi Agu Ward I;;Achi Agu 1 Health Centre;;;;;
Oji River;Achi Agu Ward I;;Ahani Amaetiti Clinic;;;;;
Oji River;Achi Agu Ward I;;Ahani Maternity Home ,Achi;;;;;
Oji River;Achi Agu Ward I;;Ahani Model Health Centre;;;;;
Oji River;Achi Agu Ward II;;Achi Agu 2 Health Centre;;;;;
Oji River;Achi Agu Ward II;;Obodo Ukwu Health Clinic;;;;;
Oji River;Achi Agu Ward III;;Enugu Agu Achi Health Centre;;;;;
Oji River;Achi Agu Ward III;;Umuori Health Centre;;;;;
Oji River;Achi Uno Ward I;;Achi Uno Cottage Hospital;;;;;
Oji River;Achi Uno Ward I;;Isikwe Health Centre;;;;;
Oji River;Achi Uno Ward II;;Amankpunato Health Clinic;;;;;
Oji River;Achi Uno Ward III;;Agbadala Achi Health Centre;;;;;
Oji River;Achi Uno Ward III;;Loyal Clinic;;;;;
Oji River;Achi Uno Ward III;;Achi Joint Hospital, Achi;;;;;
Oji River;Achi Uno Ward III;;Nkpokolo Health Centre;;;;;
Oji River;Achi Uno Ward IV;;Egwu Achi Health Clinic;;;;;
Oji River;Agbalaenyi Ward;;Ojide Foundation Hospital & Maternity;;;;;
Oji River;Akpugoeze Ward;;Ohaechem Clinic;;;;;
Oji River;Akpugoeze Ward;;Abo Abo Health Post;;;;;
Oji River;Akpugoeze Ward;;Umuokpara Health Clinic;;;;;
Oji River;Akpugoeze Ward;;Amagu Health Post (Oji River);;;;;
Oji River;Akpugoeze Ward;;Akpugoeze Health Centre;;;;;
Oji River;Awlaw Ward;;Awlaw Health Centre;;;;;
Oji River;Awlaw Ward;;Awlaw Etiti Health Centre ;;;;;
Oji River;Inyi Ward I;;Alum Inyi Health Clinic;;;;;
Oji River;Inyi Ward I;;Enugu Inyi Health Clinic;;;;;
Oji River;Inyi Ward II;;Inyi Health Centre (Oji River);;;;;
Oji River;Inyi Ward II;;SoloKing Maternity Home;;;;;
Oji River;Inyi Ward II;;Agbalaji Health Centre;;;;;
Oji River;Inyi Ward II;;Genesis Foundation Hospital , Alum Inyi;;;;;
Oji River;Inyi Ward II;;Inyi Cottage Hospital;;;;;
Oji River;Inyi Ward III;;Obune Inyi Health Centre;;;;;
Oji River;Inyi Ward III;;Umulopu Obune Inyi Health Centre;;;;;
Oji River;Inyi Ward IV;;True Testimony Clinic and Maternity;;;;;
Oji River;Inyi Ward IV;;Umuagu Inyi Health Post;;;;;
Oji River;Okwe Ward;;Ekemesie Maternity Home;;;;;
Oji River;Ozondu Ward;;Bishop Orris Walker Medical Centre;;;;;
Oji River;Ozondu Ward;;Izundu Medical Centre(Clinic & Maternity);;;;;
Oji River;Ozondu Ward;;Oji River General Hospital (Sub District Hospital);;;;;
Oji River;Ozondu Ward;;Oji River Basic Health Centre;;;;;
Oji River;Ugwoba Ward I;;Ugwuoba Health Centre;;;;;
Oji River;Ugwoba Ward II;;Ify Standard Maternity Home;;;;;
Oji River;Ugwoba Ward II;;Umuonwu Health Post;;;;;
Oji River;Ugwoba Ward III;;Aguabosi Health Clinic;;;;;
Oji River;Ugwoba Ward IV;;Ogbudu Health Clinic;;;;;
Oji River;Utazi Ugwu Ward;;Choice Maternity Home;;;;;
Udenu;Amalla Ward;;Amalla Egazi Health Centre;;;;;
Udenu;Amalla Ward;;Nkalagu Amalla Health Post;;;;;
Udenu;Ezimo Ward;;Ezimo Uno Health Clinic;;;;;
Udenu;Ezimo Ward;;Ibagwa Ezimo Health Centre;;;;;
Udenu;Ezimo Ward;;Ezimo Agu Health Post;;;;;
Udenu;Ezimo Ward;;Ozalla Ezimo Health Centre;;;;;
Udenu;Imilike Ward;;Imilike Agu Health Clinic;;;;;
Udenu;Imilike Ward;;Imilike Uno Health Centre;;;;;
Udenu;Imilike Ward;;Uno Nagu Health Post;;;;;
Udenu;Imilike Ward;;Imilike Etiti Health Post;;;;;
Udenu;Imilike Ward;;Nkpagu Health Post;;;;;
Udenu;Imilike Ward;;Imilike Ani Health Post;;;;;
Udenu;Obollo-Afor Ward;;Cottage Hospital Obollo Afor ;;;;;
Udenu;Obollo-Afor Ward;;Ndubuisi Hospital Obollo-Afor;;;;;
Udenu;Obollo-Afor Ward;;Marcus Nnadi Memorial Hospital& Maternity;;;;;
Udenu;Obollo-Afor Ward;;Prince Eze Hospital and Maternity Obollo Afor;;;;;
Udenu;Obollo-Afor Ward;;Iheakpu Obollo Afor Health Centre;;;;;
Udenu;Obollo-Afor Ward;;Tochinos Maternity Home Obollo Afo;;;;;
Udenu;Obollo-Afor Ward;;Chiamaka Maternity Home;;;;;
Udenu;Obollo-Afor Ward;;St Theresa Hospital;;;;;
Udenu;Obollo-Afor Ward;;Ogbelle Ohulor Health Post;;;;;
Udenu;Obollo-Afor Ward;;Summit Hospital Obollo-Afor;;;;;
Udenu;Obollo-Afor Ward;;Ogwu Obollo Afor Health Post;;;;;
Udenu;Obollo-Afor Ward;;Obollo Afor Health Centre ;;;;;
Udenu;Obollo-Afor Ward;;Mater Amabillis Maternity Home;;;;;
Udenu;Obollo-Afor Ward;;Vero Maternity Home;;;;;
Udenu;Obollo-Afor Ward;;Bridget Memorial Hospital& Maternity;;;;;
Udenu;Obollo-Eke Ward;;Okpaligbo Obollo-Eke Health Post;;;;;
Udenu;Obollo-Eke Ward;;Ogwu Obollo Eke Health Post;;;;;
Udenu;Obollo-Eke Ward;;Obollo Eke Health Centre (Udenu);;;;;
Udenu;Obollo-Eke Ward;;Eze Obollo Primary Health Centre;;;;;
Udenu;Obollo-Eke Ward;;Umuezojor Obollo Eke Health Post;;;;;
Udenu;Obollo-Eke Ward;;Ibenda Health Clinic;;;;;
Udenu;Obollo-Etiti Ward;;Obollo Etiti (BHC) Health Centre;;;;;
Udenu;Obollo-Etiti Ward;;Umuitodo Health Centre;;;;;
Udenu;Obollo-Etiti Ward;;Agudele Ada Health Post;;;;;
Udenu;Ogbodu Aba Ward;;Ogboduaba Health Centre;;;;;
Udenu;Ogbodu Aba Ward;;Ukwuagba Health Clinic;;;;;
Udenu;Orba Ward I;;Nwa-Ossai Foundation Hospital and Maternity;;;;;
Udenu;Orba Ward I;;Chineyenwa Maternity Home;;;;;
Udenu;Orba Ward I;;Amalla Orba Comprehensive Health Centre;;;;;
Udenu;Orba Ward I;;Owerre Eze Orba Health Centre;;;;;
Udenu;Orba Ward I;;Algon Comprehensive Health Centre Nkwo-Obra ;;;;;
Udenu;Orba Ward II;;Holy Family Hospital and Maternity Ohom Orba ;;;;;
Udenu;Orba Ward II;;Orba Health Centre (MPHCC);;;;;
Udenu;Orba Ward II;;Ama Orba Health Centre;;;;;
Udenu;Orba Ward II;;Agu Orba Health Centre (Udenu);;;;;
Udenu;Orba Ward II;;Ohebe Orba Health Post;;;;;
Udenu;Udunedem Ward;;Umundu Health Centre;;;;;
Udenu;Udunedem Ward;;Igugu Health Centre;;;;;
Udi;Abia Ward;;Abia Health Clinic;;;;;
Udi;Abia Ward;;Victoria Hospital;;;;;
Udi;Abor Ward;;Umuavulu Health Clinic;;;;;
Udi;Abor Ward;;Abor Health Centre (Udi);;;;;
Udi;Affa/Oghu Ward;;Affa (Ikedimkpa) Health Centre;;;;;
Udi;Affa/Oghu Ward;;Affa Cottage Hospital;;;;;
Udi;Affa/Oghu Ward;;Oghu Health Post;;;;;
Udi;Akpakume/Nze Ward;;Ukamaka Cottage Hospital and Maternity;;;;;
Udi;Akpakume/Nze Ward;;Ibute Nze Health Centre;;;;;
Udi;Amokwe Ward;;Chika Hospital and Maternity;;;;;
Udi;Amokwe Ward;;Amokwe Health Clinic;;;;;
Udi;Amokwe Ward;;Ogbogo Amokwe Uwani Health Centre ;;;;;
Udi;Amokwe Ward;;DENSA Hospital and Maternity, Amokwe Station;;;;;
Udi;Amokwe Ward;;Victoria Hospital and Maternity Amokwe Station;;;;;
Udi;Ebe Ward;;Ebe Basic Health Clinic;;;;;
Udi;Eke Ward;;Eke Health Centre;;;;;
Udi;Eke Ward;;Ogui-Agu Eke Health Centre ;;;;;
Udi;Ngwo-Asaa Ward;;Ekwomibe Hospital and Maternity Home Ngwo;;;;;
Udi;Ngwo-Asaa Ward;;7up Bottling Co. PLC Medical Centre;;;;;
Udi;Ngwo-Asaa Ward;;Ekochin Hospital Ngwo;;;;;
Udi;Ngwo-Asaa Ward;;Ngwo Asaa Dispensary;;;;;
Udi;Ngwo-Asaa Ward;;Ngwo Family Clinic;;;;;
Udi;Ngwo-Asaa Ward;;Ngwo Charity Clinics;;;;;
Udi;Ngwo-Uno Ward;;Ngwo Uno Model Health Centre;;;;;
Udi;Ngwo-Uno Ward;;Our Refuge Hospital and Maternity, 9th Mile;;;;;
Udi;Ngwo-Uno Ward;;Mount Zion Medical Centre;;;;;
Udi;Ngwo-Uno Ward;;Divine Providence Hospital and Maternity;;;;;
Udi;Ngwo-Uno Ward;;Union Hospital and Maternity;;;;;
Udi;Ngwo-Uno Ward;;Emmanuel and Dorcas Memorial Hospital & Maternity;;;;;
Udi;Ngwo-Uno Ward;;Our Saviour Medical Centre;;;;;
Udi;Ngwo-Uno Ward;;Benem Hospital;;;;;
Udi;Ngwo-Uno Ward;;Our Refuge Diagnostic and Dental Clinic;;;;;
Udi;Ngwo-Uno Ward;;Divine Medical Centre;;;;;
Udi;Nsude Ward;;Hossana Hospital and Maternity Home;;;;;
Udi;Nsude Ward;;Nsude Health Clinic;;;;;
Udi;Obinagu Ward (Udi);;Obinagu Health Centre;;;;;
Udi;Obioma Ward;;Obioma Health Clinic;;;;;
Udi;Okpatu Ward;;Okpatu Cottage Hospital;;;;;
Udi;Okpatu Ward;;Okpatu Basic Health Clinic;;;;;
Udi;Udi/Agbudu Ward;;Anglican Maternity Home;;;;;
Udi;Udi/Agbudu Ward;;Eze Medical Hospital;;;;;
Udi;Udi/Agbudu Ward;;Udi Maternal and Child Health Clinic;;;;;
Udi;Ukana/Awhum Ward;;Ukana Health Clinic;;;;;
Udi;Ukana/Awhum Ward;;Awhum Dispensary;;;;;
Udi;Umuabi Ward;;Umuabi Health Centre;;;;;
Udi;Umuaga Ward;;Umuaga Health Clinic;;;;;
Udi;Umulumgbe Ward;;Umulumgbe Health Clinic;;;;;
Uzo-Uwani;Abbi Ward;;Ajona Ogbo Health Post;;;;;
Uzo-Uwani;Abbi Ward;;Abbi Health Centre;;;;;
Uzo-Uwani;Abbi Ward;;Ugwuobi Health Post ;;;;;
Uzo-Uwani;Adaba/Nkume Ward;;Nkume Health Post;;;;;
Uzo-Uwani;Adaba/Nkume Ward;;Immaculate Heart Hospital;;;;;
Uzo-Uwani;Adaba/Nkume Ward;;Adaba Health Post;;;;;
Uzo-Uwani;Adani Ward;;Our Lady Health of the Sick;;;;;
Uzo-Uwani;Adani Ward;;Adani Health Centre;;;;;
Uzo-Uwani;Adani Ward;;Adarice Health Post;;;;;
Uzo-Uwani;Adani Ward;;Chukwudi Hospital and Maternity;;;;;
Uzo-Uwani;Adani Ward;;St Anthony Hospital , Adani;;;;;
Uzo-Uwani;Akpugo Ward;;Akpugo Health Centre;;;;;
Uzo-Uwani;Igga/Asaba Ward;;Asaba Health Post;;;;;
Uzo-Uwani;Igga/Asaba Ward;;Igga Clinic;;;;;
Uzo-Uwani;Nimbo Ward I;;Nimbo Health Centre;;;;;
Uzo-Uwani;Nimbo Ward I;;Opanda Health Post;;;;;
Uzo-Uwani;Nimbo Ward II;;Onueke Health Post;;;;;
Uzo-Uwani;Nkpologu Ward;;Ogba Health Post;;;;;
Uzo-Uwani;Nkpologu Ward;;Nkpologu Primary Health Centre;;;;;
Uzo-Uwani;Nkpologu Ward;;Umuobira Health Post;;;;;
Uzo-Uwani;Nkpologu Ward;;Nkpunator Health Post;;;;;
Uzo-Uwani;Ogurugu Ward;;Ogurugu Health Centre;;;;;
Uzo-Uwani;Ojjor Ward;;Ojjor Health Post;;;;;
Uzo-Uwani;Ugbene-Ajima Ward I;;Ugbene Model Primary Health Centre;;;;;
Uzo-Uwani;Ugbene-Ajima Ward I;;Ajona Ugwu Health Post;;;;;
Uzo-Uwani;Ugbene-Ajima Ward II;;Akutara Oda Health Post;;;;;
Uzo-Uwani;Ukpata Ward;;Ukpata Health Centre;;;;;
Uzo-Uwani;Umulokpa Ward;;Ogbosu Health Post;;;;;
Uzo-Uwani;Umulokpa Ward;;Umulokpa Health Centre;;;;;
Uzo-Uwani;Umulokpa Ward;;Eziora Health Post;;;;;
Uzo-Uwani;Umulokpa Ward;;Umulokpa CHC;;;;;
Uzo-Uwani;Umulokpa Ward;;Awkunitor Health Post;;;;;
Uzo-Uwani;Uvuru Ward;;Uvuru Oda Health Post;;;;;
Uzo-Uwani;Uvuru Ward;;Ogwu Health Post;;;;;
Uzo-Uwani;Uvuru Ward;;Uvuru Health Centre;;;;;
