LGA;Ward;Settlement;Facility;Type;Ownership;Address;Longitude;Latitude
Abaji;Alumamagi Ward;;Mawogi Health Clinic;;;;;
Abaji;Alumamagi Ward;;Mamagi Health Clinic;;;;;
Abaji;Central (Abaji) Ward;;Abaji Town Clinic;;;;;
Abaji;Central (Abaji) Ward;;Abaji Central Primary Health Clinic;;;;;
Abaji;Ebagi Rimba Ward;;Rimba Health Clinic;;;;;
Abaji;Ebagi Rimba Ward;;Ebagi Health Clinic;;;;;
Abaji;Gawu Ward;;Gigbe Clinic;;;;;
Abaji;Gawu Ward;;Gasakpa Clinic;;;;;
Abaji;Gawu Ward;;Gawu Comprehensive Health Centre;;;;;
Abaji;Gawu Ward;;Dogon Ruwa Clinic;;;;;
Abaji;Gurdi Ward;;Rafin Daji Clinic;;;;;
Abaji;Gurdi Ward;;Bari Bari Health Post;;;;;
Abaji;Gurdi Ward;;Gurdi Health Centre;;;;;
Abaji;North East Ward;;Waleco Clinic;;;;;
Abaji;North East Ward;;Abaji Maternal and Child Health Clinic;;;;;
Abaji;North East Ward;;Lafiak Hospital;;;;;
Abaji;North East Ward;;Abaji General Hospital;;;;;
Abaji;North East Ward;;Ayaura Comprehensive Health Centre;;;;;
Abaji;Nuku Sabon Gari Ward;;Nuku Primary Health Centre;;;;;
Abaji;Nuku Sabon Gari Ward;;Manderegi Clinic;;;;;
Abaji;Nuku Sabon Gari Ward;;Kekeshi Clinic;;;;;
Abaji;Nuku Sabon Gari Ward;;Abattior Clinic;;;;;
Abaji;Pandagi Agyana Ward;;Pandagi Comprehensive Health Centre;;;;;
Abaji;Pandagi Agyana Ward;;Agyana Health Clinic;;;;;
Abaji;South East Ward;;Nahareti Health Clinic;;;;;
Abaji;South East Ward;;Nima Clinic;;;;;
Abaji;Yaba Ward;;Kpache Clinic;;;;;
Abaji;Yaba Ward;;Yaba Comprehensive Health Centre;;;;;
Abaji;Yaba Ward;;Adgba Clinic;;;;;
Abuja Municipal;City Centre Ward;;Bepos Clinic and Fertility Centre;;;;;
Abuja Municipal;City Centre Ward;;Supreme Court Of Nigeria Clinic;;;;;
Abuja Municipal;Garki Ward;;Garki Hospital;;;;;
Abuja Municipal;Garki Ward;;Asokoro General Hospital;;;;;
Abuja Municipal;Garki Ward;;Dutsen Garki Health Post;;;;;
Abuja Municipal;Garki Ward;;Independent National Electoral Commission Staff Clinic (Garki);;;;;
Abuja Municipal;Garki Ward;;Kapital Hospital;;;;;
Abuja Municipal;Garki Ward;;Abuja Clinic;;;;;
Abuja Municipal;Garki Ward;;Cedar Crest Hospital;;;;;
Abuja Municipal;Garki Ward;;Ruz Medical;;;;;
Abuja Municipal;Garki Ward;;Kinectic Hospital;;;;;
Abuja Municipal;Garki Ward;;Diamond Medical Centre;;;;;
Abuja Municipal;Garki Ward;;Amana Medical Centre;;;;;
Abuja Municipal;Garki Ward;;Apo Primary Health Centre;;;;;
Abuja Municipal;Garki Ward;;Abuja Police Hospital;;;;;
Abuja Municipal;Garki Ward;;Praise Hospital;;;;;
Abuja Municipal;Garki Ward;;Kobi Health Post;;;;;
Abuja Municipal;Gui Ward;;Gosa  Primary Health Centre;;;;;
Abuja Municipal;Gui Ward;;Tungan Madaki Health Post;;;;;
Abuja Municipal;Gui Ward;;Iddo Pada Health Post;;;;;
Abuja Municipal;Gui Ward;;Al - Nur Maternity Home;;;;;
Abuja Municipal;Gwagwa Ward;;Getwell Hospital;;;;;
Abuja Municipal;Gwagwa Ward;;Kagini Primary Health Centre;;;;;
Abuja Municipal;Gwagwa Ward;;Dei Dei Primary Health Centre;;;;;
Abuja Municipal;Gwagwa Ward;;Marvellous Clinic;;;;;
Abuja Municipal;Gwagwa Ward;;Una Clinic;;;;;
Abuja Municipal;Gwagwa Ward;;Crown Hospital;;;;;
Abuja Municipal;Gwagwa Ward;;Gwagwa Health Centre;;;;;
Abuja Municipal;Gwagwa Ward;;God's Time Clinic and Maternity;;;;;
Abuja Municipal;Gwagwa Ward;;Our Lady Clinic and Maternity;;;;;
Abuja Municipal;Gwagwa Ward;;Access Hospital;;;;;
Abuja Municipal;Gwarimpa Ward;;Wildof Clinic;;;;;
Abuja Municipal;Gwarimpa Ward;;Gwarimpa General Hospital;;;;;
Abuja Municipal;Gwarimpa Ward;;Kuchingoro Primary Health Centre;;;;;
Abuja Municipal;Gwarimpa Ward;;Everlasting Care Hospital;;;;;
Abuja Municipal;Gwarimpa Ward;;Mabushi Primary Health Centre;;;;;
Abuja Municipal;Gwarimpa Ward;;Silver Fountain Medical Center;;;;;
Abuja Municipal;Gwarimpa Ward;;Piwoyi Primary Health Centre;;;;;
Abuja Municipal;Gwarimpa Ward;;Federal Staff Hospital (Abuja);;;;;
Abuja Municipal;Gwarimpa Ward;;Jahi Primary Health Centre;;;;;
Abuja Municipal;Jiwa Ward;;Hulumi Health Post;;;;;
Abuja Municipal;Jiwa Ward;;Ellan Clinic and Maternity;;;;;
Abuja Municipal;Jiwa Ward;;Jiwa Health Post;;;;;
Abuja Municipal;Jiwa Ward;;Dakwa 2 Primary Health Centre;;;;;
Abuja Municipal;Jiwa Ward;;Idu-Karmo Health Post;;;;;
Abuja Municipal;Jiwa Ward;;Precious Clinic;;;;;
Abuja Municipal;Jiwa Ward;;Bassan Jiwan Primary Health Centre ;;;;;
Abuja Municipal;Jiwa Ward;;National Institute For Pharmaceutical Research and Development Medical Clinic;;;;;
Abuja Municipal;Kabusa Ward;;Gnazawo Clinic;;;;;
Abuja Municipal;Kabusa Ward;;Abuja Unity Clinic and Maternity;;;;;
Abuja Municipal;Kabusa Ward;;Ketti Health Post;;;;;
Abuja Municipal;Kabusa Ward;;Lugbe Primary Health Centre;;;;;
Abuja Municipal;Kabusa Ward;;Burum Health Post;;;;;
Abuja Municipal;Kabusa Ward;;Zhidu Primary Health Centre;;;;;
Abuja Municipal;Kabusa Ward;;Massan Clinic Ltd;;;;;
Abuja Municipal;Kabusa Ward;;Health  Care Hospital;;;;;
Abuja Municipal;Kabusa Ward;;Shadalafiya Clinic;;;;;
Abuja Municipal;Kabusa Ward;;Aleiyta Primary Health Centre;;;;;
Abuja Municipal;Kabusa Ward;;Pyakasa Health Post;;;;;
Abuja Municipal;Kabusa Ward;;Waru Primary Health Centre;;;;;
Abuja Municipal;Kabusa Ward;;Sheretti Health Post;;;;;
Abuja Municipal;Kabusa Ward;;Lugbe Clinic and Maternity;;;;;
Abuja Municipal;Kabusa Ward;;Kabusa Health Post;;;;;
Abuja Municipal;Karshi Ward;;Karshi Health Post;;;;;
Abuja Municipal;Karshi Ward;;Kuseki Health Post;;;;;
Abuja Municipal;Karu Ward;;Karu Primary Health Centre;;;;;
Abuja Municipal;Karu Ward;;Jikwoyi Primary Health Centre;;;;;
Abuja Municipal;Karu Ward;;First Hospital & Maternity;;;;;
Abuja Municipal;Nyanya Ward;;Pan Raf Hospital;;;;;
Abuja Municipal;Nyanya Ward;;Saffron Hospital;;;;;
Abuja Municipal;Nyanya Ward;;Jalingo Medical Clinic;;;;;
Abuja Municipal;Nyanya Ward;;Gbagarape Primary Health Centre;;;;;
Abuja Municipal;Orozo Ward;;Cornelia Clinic  And Maternity;;;;;
Abuja Municipal;Orozo Ward;;Orozo Health Post;;;;;
Abuja Municipal;Orozo Ward;;Kpeyegyi Primary Health Centre;;;;;
Abuja Municipal;Orozo Ward;;Mumape Primary Health Centre;;;;;
Abuja Municipal;Orozo Ward;;Kurudu Health Post;;;;;
Abuja Municipal;Orozo Ward;;Gidan Mangoro Health Post;;;;;
Abuja Municipal;Wuse Ward;;Horizons Medical Centre;;;;;
Abuja Municipal;Wuse Ward;;Wuse General Hospital;;;;;
Abuja Municipal;Wuse Ward;;Samiwadata Clinic;;;;;
Abuja Municipal;Wuse Ward;;St Francois Medical Centre;;;;;
Abuja Municipal;Wuse Ward;;Sauki Private Hospital;;;;;
Abuja Municipal;Wuse Ward;;Queen Clinic;;;;;
Abuja Municipal;Wuse Ward;;Arewa Specialist and Diagnostic Hospital;;;;;
Bwari;Bwari Central Ward;;Gaba Health Clinic;;;;;
Bwari;Bwari Central Ward;;Yaupe Health Post;;;;;
Bwari;Bwari Central Ward;;Laura Hospital and Maternity;;;;;
Bwari;Bwari Central Ward;;Barangoni Health Clinic;;;;;
Bwari;Bwari Central Ward;;Bwari Medical Centre;;;;;
Bwari;Bwari Central Ward;;Gabic Divine Clinic and Maternity;;;;;
Bwari;Bwari Central Ward;;Summi Hospital;;;;;
Bwari;Bwari Central Ward;;Kogo Primary Health Centre;;;;;
Bwari;Bwari Central Ward;;Our Lady of Fatima Hospital and Maternity;;;;;
Bwari;Bwari Central Ward;;Bwari General Hospital;;;;;
Bwari;Byazhin Ward;;Kuchibuyi Health Clinic;;;;;
Bwari;Byazhin Ward;;Kugbobokun Health Centre;;;;;
Bwari;Byazhin Ward;;Byazhin Health Clinic;;;;;
Bwari;Byazhin Ward;;Zhiko Health Clinic;;;;;
Bwari;Dutse Ward;;Jikoko Health Centre;;;;;
Bwari;Dutse Ward;;Nukuchi Health Centre;;;;;
Bwari;Dutse Ward;;Dawaki Health Centre;;;;;
Bwari;Dutse Ward;;Shishipe Primary Health Centre;;;;;
Bwari;Dutse Ward;;Mpape Primary Health Centre;;;;;
Bwari;Dutse Ward;;Dutse Makaranta Primary Health Centre;;;;;
Bwari;Dutse Ward;;Dutse Alhaji Health Centre;;;;;
Bwari;Dutse Ward;;BAC Cedamb Hospital;;;;;
Bwari;Dutse Ward;;Royal Lord Hospital and Maternity;;;;;
Bwari;Dutse Ward;;Zhigakuchi Primary Health Centre;;;;;
Bwari;Dutse Ward;;Mapa Primary Health Centre;;;;;
Bwari;Igu Ward;;Kaima Health Clinic;;;;;
Bwari;Igu Ward;;Panunuke Primary Health Centre;;;;;
Bwari;Igu Ward;;Igu Health Clinic;;;;;
Bwari;Igu Ward;;Tokulo Health Post;;;;;
Bwari;Kawu Ward;;Kurmi Daudu Model Primary Health Centre;;;;;
Bwari;Kawu Ward;;Pada Gwari Health Clinic;;;;;
Bwari;Kawu Ward;;Kute Health Post;;;;;
Bwari;Kawu Ward;;Tunga Bijimi Health Post;;;;;
Bwari;Kawu Ward;;Kawu Health Clinic;;;;;
Bwari;Kubwa Ward;;Express Hospital;;;;;
Bwari;Kubwa Ward;;Kenony Clinic;;;;;
Bwari;Kubwa Ward;;Dei Dei Comprehensive Health Centre;;;;;
Bwari;Kubwa Ward;;Jethrone Hospital;;;;;
Bwari;Kubwa Ward;;Grace of God Hospital;;;;;
Bwari;Kubwa Ward;;Denion Clinic;;;;;
Bwari;Kubwa Ward;;Dakwa Primary Health Centre;;;;;
Bwari;Kubwa Ward;;Old Dei Dei Health Clinic;;;;;
Bwari;Kubwa Ward;;Ugonma Hospital;;;;;
Bwari;Kuduru Ward;;Kuchiko Health Clinic;;;;;
Bwari;Kuduru Ward;;Kuduru Primary Health Centre;;;;;
Bwari;Kuduru Ward;;Sabon Gari Primary Health Centre;;;;;
Bwari;Kuduru Ward;;Nativity Clinic & Maternity;;;;;
Bwari;Shere Ward;;Gudupe Health Clinic;;;;;
Bwari;Shere Ward;;Shere Health Clinic;;;;;
Bwari;Shere Ward;;Sumpe Primary Health Centre;;;;;
Bwari;Shere Ward;;Durumi Primary Health Centre;;;;;
Bwari;Shere Ward;;Galuwyi Health Clinic;;;;;
Bwari;Shere Ward;;Piko Primary Health Centre;;;;;
Bwari;Ushafa Ward;;Lower Usman Dam Health Clinic;;;;;
Bwari;Ushafa Ward;;Jigo Health Clinic;;;;;
Bwari;Ushafa Ward;;Ushafa Health Clinic;;;;;
Bwari;Ushafa Ward;;Ushafa New Layout Health Centre;;;;;
Bwari;Usuma Ward;;Pison Hospital;;;;;
Bwari;Usuma Ward;;Unity Clinic;;;;;
Bwari;Usuma Ward;;Kubwa General Hospital;;;;;
Bwari;Usuma Ward;;Owner Occupier Primary Health Centre;;;;;
Bwari;Usuma Ward;;AJ Lifetime Hospital and Maternity;;;;;
Gwagwalada;Central Ward;;Gonita Hospital;;;;;
Gwagwalada;Central Ward;;Dagiri  Comprehensive Health Clinic;;;;;
Gwagwalada;Central Ward;;Anguwa Dodo Primary Health Centre;;;;;
Gwagwalada;Central Ward;;Jamad Clinic;;;;;
Gwagwalada;Dobi Ward;;Pabeyi Health Post;;;;;
Gwagwalada;Dobi Ward;;Tsauni Health Post;;;;;
Gwagwalada;Dobi Ward;;Wumi Health Clinic;;;;;
Gwagwalada;Dobi Ward;;Kaida Sabo Health Post;;;;;
Gwagwalada;Dobi Ward;;Ledi Health Post;;;;;
Gwagwalada;Dobi Ward;;Dobi Health Clinic;;;;;
Gwagwalada;Gwako Ward;;Giri Health Clinic;;;;;
Gwagwalada;Gwako Ward;;Viprona Health Clinic Ltd;;;;;
Gwagwalada;Gwako Ward;;Ojochgbe Clinic (Giri);;;;;
Gwagwalada;Gwako Ward;;Gwako Health Clinic;;;;;
Gwagwalada;Gwako Ward;;Kpakuru Liman Health Post;;;;;
Gwagwalada;Gwako Ward;;Joetag Alheri Clinic and Maternity;;;;;
Gwagwalada;Ibwa Ward;;Ibwa Pada Health Clinic;;;;;
Gwagwalada;Ibwa Ward;;Rafin Zurfi Health Post;;;;;
Gwagwalada;Ibwa Ward;;Gurfata Health Post;;;;;
Gwagwalada;Ibwa Ward;;Wuna Health Post;;;;;
Gwagwalada;Ibwa Ward;;Ibwa Primary Health Centre;;;;;
Gwagwalada;Ibwa Ward;;Dukwa Health Post;;;;;
Gwagwalada;Ikwa Ward;;Tungan Gaya Health Post;;;;;
Gwagwalada;Ikwa Ward;;Chitumu Primary Health Centre;;;;;
Gwagwalada;Ikwa Ward;;Ikwa Health Clinic;;;;;
Gwagwalada;Ikwa Ward;;Yimi Health Post;;;;;
Gwagwalada;Kutunku Ward;;Jeraba Hospital;;;;;
Gwagwalada;Kutunku Ward;;Kutunku 2 Primary Health Centre;;;;;
Gwagwalada;Kutunku Ward;;Gwagwalada Township Clinic;;;;;
Gwagwalada;Paikon Ward;;Kaida Tsoho Health Post;;;;;
Gwagwalada;Paikon Ward;;Paikon Kore Health Clinic;;;;;
Gwagwalada;Tungan Maje Ward;;Nancy Clinic and Maternity;;;;;
Gwagwalada;Tungan Maje Ward;;Hope Clinic;;;;;
Gwagwalada;Tungan Maje Ward;;Nasara Clinic;;;;;
Gwagwalada;Tungan Maje Ward;;Shenagu Health Post;;;;;
Gwagwalada;Tungan Maje Ward;;Anagada Health Clinic;;;;;
Gwagwalada;Tungan Maje Ward;;Minat Clinic and Maternity;;;;;
Gwagwalada;Tungan Maje Ward;;Tungan Maje Health Clinic;;;;;
Gwagwalada;Zuba Ward;;Zuba Health Clinic;;;;;
Kuje;Chibiri Ward;;Chibiri Primary Health Centre;;;;;
Kuje;Chibiri Ward;;Allison Clinic and Maternity;;;;;
Kuje;Chibiri Ward;;Lanto Primary Health Centre;;;;;
Kuje;Chibiri Ward;;Kiyi Primary Health Centre;;;;;
Kuje;Chibiri Ward;;Chukuku Primary Health Centre;;;;;
Kuje;Gaube Ward;;Gbaukuchi Primary Health Centre;;;;;
Kuje;Gaube Ward;;Yanga Primary Health Centre;;;;;
Kuje;Gaube Ward;;Kuwyizhi Primary Health Centre;;;;;
Kuje;Gaube Ward;;Gidanbawa Primary Health Clinic;;;;;
Kuje;Gaube Ward;;Capital Doctor Hospital;;;;;
Kuje;Gaube Ward;;Gbaupe Primary Health Centre;;;;;
Kuje;Gaube Ward;;Pagi Primary Health Centre;;;;;
Kuje;Gaube Ward;;Kusaki Primary Health Centre;;;;;
Kuje;Gaube Ward;;Gaube Primary Health Centre;;;;;
Kuje;Gaube Ward;;Kahodahannu Primary Health Centre;;;;;
Kuje;Gaube Ward;;Kasada Primary Health Centre;;;;;
Kuje;Gaube Ward;;Dafara Primary Health Centre;;;;;
Kuje;Gudunkarya Ward;;Gova Primary Health Centre;;;;;
Kuje;Gudunkarya Ward;;Huni Primary Health Centre;;;;;
Kuje;Gudunkarya Ward;;Tashara Primary Health Centre;;;;;
Kuje;Gudunkarya Ward;;Gudunkarya Primary Health Centre;;;;;
Kuje;Gudunkarya Ward;;Zagabutu Primary Health Centre;;;;;
Kuje;Gwargwada Ward;;Gwargada Primary Health Centre;;;;;
Kuje;Gwargwada Ward;;Gombe Primary Health Centre;;;;;
Kuje;Kabi Ward;;Duda Primary Health Centre;;;;;
Kuje;Kabi Ward;;Kabin Kassa Primary Health Centre;;;;;
Kuje;Kabi Ward;;Tude Primary Health Centre;;;;;
Kuje;Kabi Ward;;Agwai Primary Health Centre;;;;;
Kuje;Kabi Ward;;Achimbi Primary Health Centre;;;;;
Kuje;Kabi Ward;;Kabin Mangoro Primary Health Centre;;;;;
Kuje;Kuje Central Ward;;Kuje Primary Health Centre;;;;;
Kuje;Kuje Central Ward;;Alfad Specialist Clinic;;;;;
Kuje;Kuje Central Ward;;Tukpechi Primary Health Centre;;;;;
Kuje;Kuje Central Ward;;Kuje General Hospital;;;;;
Kuje;Kuje Central Ward;;Ila Universal Hospital;;;;;
Kuje;Kuje Central Ward;;Kuchiyako Primary Health Centre;;;;;
Kuje;Kuje Central Ward;;Jidan Hospital;;;;;
Kuje;Kuje Central Ward;;Kuje Science Primary School Clinic;;;;;
Kuje;Kuje Central Ward;;Buzunkure Primary Health Centre;;;;;
Kuje;Kujekwa Ward;;Kujekwa Primary Health Centre;;;;;
Kuje;Kujekwa Ward;;Bida Primary Health Centre;;;;;
Kuje;Kwaku Ward;;Kwaku Primary Health Centre;;;;;
Kuje;Kwaku Ward;;Sabo Primary Health Centre;;;;;
Kuje;Kwaku Ward;;Gawu Primary Health Centre;;;;;
Kuje;Rubochi Ward;;Kulo Primary Health Centre;;;;;
Kuje;Rubochi Ward;;Rubochi Primary Health Centre;;;;;
Kuje;Rubochi Ward;;Zokotu Primary Health Centre;;;;;
Kuje;Rubochi Ward;;Rubochi General Hospital;;;;;
Kuje;Yanche Ward;;Yanche Primary Health Centre;;;;;
Kwali;Ashara Ward;;Ashara Basic Health Clinic;;;;;
Kwali;Ashara Ward;;Kamadi Tsoho Primary Health Centre;;;;;
Kwali;Ashara Ward;;Fogbe Health Clinic;;;;;
Kwali;Ashara Ward;;Maikwari Primary Health Centre;;;;;
Kwali;Ashara Ward;;Ike Primary Health Centre;;;;;
Kwali;Dafa Ward;;Dafa Health Clinic;;;;;
Kwali;Dafa Ward;;Fuka Primary Health Clinic;;;;;
Kwali;Gumbo Ward;;Piri Health Clinic;;;;;
Kwali;Gumbo Ward;;Kwaita Primary Health Centre;;;;;
Kwali;Gumbo Ward;;Gumbo Health Post;;;;;
Kwali;Kilankwa Ward;;Sheda Health Clinic;;;;;
Kwali;Kilankwa Ward;;Chukuku Tsoho Primary Health Entre;;;;;
Kwali;Kilankwa Ward;;Kilankwa 1 Health Post;;;;;
Kwali;Kilankwa Ward;;Kilankwa 2 Health Post;;;;;
Kwali;Kilankwa Ward;;Petti Health Clinic;;;;;
Kwali;Kundu Ward;;Damakusa Health Post;;;;;
Kwali;Kundu Ward;;Kundu Primary Health Centre;;;;;
Kwali;Kundu Ward;;Tungan Sarki Primary Health Centre;;;;;
Kwali;Kundu Ward;;Gomani Health Post;;;;;
Kwali;Kwali Ward;;Kwali Basic Health Clinic;;;;;
Kwali;Kwali Ward;;Kwali General Hospital;;;;;
Kwali;Kwali Ward;;Rhema Foundation Hospital;;;;;
Kwali;Pai Ward;;Pai Health Clinic;;;;;
Kwali;Pai Ward;;Bako Wisdom Clinic;;;;;
Kwali;Pai Ward;;Leleyi Gwari Primary Health Centre;;;;;
Kwali;Pai Ward;;Dabi Bako Comprehensive Health Centre;;;;;
Kwali;Wako Ward;;Wako Health Clinic;;;;;
Kwali;Wako Ward;;Ubosharu Primary Health Centre;;;;;
Kwali;Wako Ward;;Yewuti Health Post;;;;;
Kwali;Wako Ward;;Chida Health Post;;;;;
Kwali;Wako Ward;;Dapa Primary Health Centre;;;;;
Kwali;Wako Ward;;Bukpe Health Post;;;;;
Kwali;Wako Ward;;Dangara Health Clinic;;;;;
Kwali;Yangoji Ward;;Sukuku Primay Health Centre;;;;;
Kwali;Yangoji Ward;;Yangoji Family Support Programme Clinic;;;;;
Kwali;Yangoji Ward;;Koroko Primary Health Centre;;;;;
Kwali;Yangoji Ward;;Ijah Sarki  Primary Health Centre;;;;;
Kwali;Yangoji Ward;;Alheri Special Village Clinic;;;;;
Kwali;Yebu Ward;;Yebu Health Clinic;;;;;
Kwali;Yebu Ward;;Farakuti Health Post;;;;;
Kwali;Yebu Ward;;Kigbe Health Clinic;;;;;
Kwali;Yebu Ward;;Kwaita Model Primary Health Centre;;;;;
Kwali;Yebu Ward;;Yambabu Primary Health Centre;;;;;
Kwali;Yebu Ward;;Leda Health Clinic;;;;;
