LGA;Ward;Settlement;Facility;Type;Ownership;Address;Longitude;Latitude
Akko;Akko Ward;;Bula Model Health Center;;;;;
Akko;Garko Ward;;Garko Model Health Center;;;;;
Akko;Garko Ward;;Shongo Health Clinic;;;;;
Akko;Garko Ward;;Gona Health Clinic;;;;;
Akko;Garko Ward;;Tumpure Health Clinic;;;;;
Akko;Garko Ward;;Yelwan Bogo Health Clinic;;;;;
Akko;Garko Ward;;Kundulum Health Clinic;;;;;
Akko;Garko Ward;;Gidim Health Clinic;;;;;
Akko;Garko Ward;;Arawa Health Post;;;;;
Akko;Garko Ward;;Hammadu Kafi Health Clinic;;;;;
Akko;Garko Ward;;Bogo Health Clinic;;;;;
Akko;Garko Ward;;Tabra Health Clinic;;;;;
Akko;Garko Ward;;Shongo Hamma Health Post;;;;;
Akko;Garko Ward;;Bogo Model Primary Health Center;;;;;
Akko;Kalshingi Ward;;Kalshingi Primary Health Centre;;;;;
Akko;Kalshingi Ward;;Pandaya Health Clinic;;;;;
Akko;Kalshingi Ward;;Chilo Health Clinic;;;;;
Akko;Kashere Ward;;Dongol Health Clinic;;;;;
Akko;Kashere Ward;;Kaltanga Health Post;;;;;
Akko;Kashere Ward;;Yelwa Health Post;;;;;
Akko;Kashere Ward;;Kashere Model Primary Health Centre;;;;;
Akko;Kumo Central Ward;;Kumo General Hospital;;;;;
Akko;Kumo East Ward;;Kunji Health Clinic;;;;;
Akko;Kumo East Ward;;Garin Bakari Health Clinic;;;;;
Akko;Kumo East Ward;;Kidda Health Clinic;;;;;
Akko;Kumo North Ward;;Gamawa Health Clinic;;;;;
Akko;Kumo West Ward;;Kayel Nabaga Health Post;;;;;
Akko;Kumo West Ward;;Tambe Yelo Health Clinic;;;;;
Akko;Kumo West Ward;;Gadawo Health Clinic;;;;;
Akko;Kumo West Ward;;Kobuwa Health Clinic;;;;;
Akko;Pindiga Ward;;Pindiga Primary Health Centre;;;;;
Akko;Pindiga Ward;;Garin Rijiya Health Post;;;;;
Akko;Pindiga Ward;;Lambo Daji Health Clinic;;;;;
Akko;Pindiga Ward;;Pindiga Cottage Hospital;;;;;
Akko;Tukulma Ward;;Taliyawa Model Health Center;;;;;
Akko;Tukulma Ward;;Jurara Health Post;;;;;
Akko;Tukulma Ward;;Tukulma Health Clinic;;;;;
Akko;Tukulma Ward;;Garin Galadima Health Post;;;;;
Akko;Tumu Ward;;Tumu Cottage Hospital;;;;;
Akko;Tumu Ward;;Maiganga Health Clinic;;;;;
Akko;Tumu Ward;;Piyau Health Clinic;;;;;
Akko;Tumu Ward;;Warra Health Post;;;;;
Balanga;Bambam Ward;;Bambam Primary Health Centre;;;;;
Balanga;Bambam Ward;;Cottage Hospital;;;;;
Balanga;Bangu Ward;;Tiyakunu Health Post;;;;;
Balanga;Bangu Ward;;Sabon Layi Health Post;;;;;
Balanga;Bangu Ward;;Dala Waja Health Post;;;;;
Balanga;Bangu Ward;;Bangu Primary Health Center;;;;;
Balanga;Bangu Ward;;Lafiya Health Clinic;;;;;
Balanga;Dadiya Ward;;Lobati Health Post;;;;;
Balanga;Dadiya Ward;;Yelwa Health Clinic;;;;;
Balanga;Dadiya Ward;;Lotani Health Post;;;;;
Balanga;Dadiya Ward;;Lofiyo Health Post;;;;;
Balanga;Dadiya Ward;;kafin Bawa Health Clinic;;;;;
Balanga;Dadiya Ward;;Yamfiyo Health Post;;;;;
Balanga;Dadiya Ward;;Dadiya Primary Health Centre;;;;;
Balanga;Dadiya Ward;;Maitunku Health Post;;;;;
Balanga;Degri Ward;;Putoki Primary Health Center;;;;;
Balanga;Degri Ward;;Kore Health Clinic;;;;;
Balanga;Degri Ward;;Kulani Health Clinic;;;;;
Balanga;Degri Ward;;Chessi Health Post;;;;;
Balanga;Degri Ward;;Sikkam Health Clinic;;;;;
Balanga;Degri Ward;;Konogwara Health Post;;;;;
Balanga;Degri Ward;;Degri Kufai Health Clinic;;;;;
Balanga;Degri Ward;;Putoki Cottage Hospital;;;;;
Balanga;Gelengu Ward;;Gelengu Primary Health Centre;;;;;
Balanga;Gelengu Ward;;Balansame Health Post;;;;;
Balanga;Gelengu Ward;;Bakassi Health Clinic;;;;;
Balanga;Gelengu Ward;;Kembu Health Post;;;;;
Balanga;Gelengu Ward;;Gangaware Health Clinic;;;;;
Balanga;Gelengu Ward;;Gelengu Evangelical Church of West Africa (ECWA) Maternity Clinic;;;;;
Balanga;Gelengu Ward;;Balanga Health Clinic;;;;;
Balanga;Kindiyo Ward;;Salama Maternity Clinic;;;;;
Balanga;Kindiyo Ward;;Yolde Health Post;;;;;
Balanga;Kindiyo Ward;;Labun Health Post;;;;;
Balanga;Kindiyo Ward;;Kumtur Health Post;;;;;
Balanga;Kindiyo Ward;;Tiksir Health Post;;;;;
Balanga;Kindiyo Ward;;Gwenti Health Post;;;;;
Balanga;Kindiyo Ward;;Cham Primary Health Center;;;;;
Balanga;Mona Ward;;Lakun Health Post;;;;;
Balanga;Mona Ward;;Silon Primary Health Center;;;;;
Balanga;Mona Ward;;Kwarge Health Clinic;;;;;
Balanga;Mona Ward;;Mona Health Clinic;;;;;
Balanga;Nyuwar Ward;;Jessu Health Clinic;;;;;
Balanga;Nyuwar Ward;;Nyuwar Primary Health Centre;;;;;
Balanga;Swa Ward;;Gasi Health Clinic;;;;;
Balanga;Swa Ward;;Wadachi Health Post;;;;;
Balanga;Swa Ward;;Swa Primary Health Centre;;;;;
Balanga;Swa Ward;;Kolaku Health Clinic;;;;;
Balanga;Talasse Ward;;Reme Health Clinic;;;;;
Balanga;Talasse Ward;;Talasse General Hospital;;;;;
Balanga;Talasse Ward;;Jamjara Health Post;;;;;
Balanga;Talasse Ward;;Dong Health Clinic;;;;;
Balanga;Talasse Ward;;Talasse Primary Health Centre;;;;;
Billiri;Banganje North Ward;;Lakukdu Health Post;;;;;
Billiri;Banganje North Ward;;Lafurut Health Post;;;;;
Billiri;Banganje North Ward;;Lapandi-shadde Health Post;;;;;
Billiri;Banganje North Ward;;Sabon-layi Primary Health Center;;;;;
Billiri;Banganje North Ward;;Lamugu Health Post;;;;;
Billiri;Banganje South Ward;;Banganje Primary Health Centre;;;;;
Billiri;Banganje South Ward;;Banganje Health Clinic;;;;;
Billiri;Banganje South Ward;;Lakarai Health Post;;;;;
Billiri;Banganje South Ward;;Layafi Health Clinic;;;;;
Billiri;Banganje South Ward;;Pokulji Health Clinic;;;;;
Billiri;Bare Ward;;Kalkulum Health Post;;;;;
Billiri;Bare Ward;;Lafiya Health Clinic;;;;;
Billiri;Bare Ward;;Yambu dok Medical Centre;;;;;
Billiri;Bare Ward;;Kolgos Health Post;;;;;
Billiri;Bare Ward;;Ketengereng Primary Health Center;;;;;
Billiri;Bare Ward;;Tangji Health Post;;;;;
Billiri;Bare Ward;;Sikirit Health Post;;;;;
Billiri;Billiri North Ward;;Lawiltiu Health Post;;;;;
Billiri;Billiri North Ward;;Payi Health Clinic;;;;;
Billiri;Billiri North Ward;;Lasale Health Clinic;;;;;
Billiri;Billiri North Ward;;Kwibah Health Clinic;;;;;
Billiri;Billiri North Ward;;Pokwangli Health Post;;;;;
Billiri;Billiri North Ward;;Sansani Primary Health Center;;;;;
Billiri;Billiri South Ward;;Kekkel Primary Health Center;;;;;
Billiri;Billiri South Ward;;Kwilapandi Health Post;;;;;
Billiri;Billiri South Ward;;Police Health Clinic;;;;;
Billiri;Billiri South Ward;;Lawushi Daji Health Clinic;;;;;
Billiri;Billiri South Ward;;Pakla Health Post;;;;;
Billiri;Billiri South Ward;;Ladikwiwa Medical Clinic;;;;;
Billiri;Billiri South Ward;;Kufai Health Post;;;;;
Billiri;Billiri South Ward;;Lashiga Health Clinic;;;;;
Billiri;Billiri South Ward;;Kufai Evangelical Church of West Africa (ECWA) Health Clinic;;;;;
Billiri;Billiri South Ward;;Billiri General Hospital;;;;;
Billiri;Billiri South Ward;;Kalindi Health Clinic;;;;;
Billiri;Billiri South Ward;;Komta Health Post;;;;;
Billiri;Billiri South Ward;;Pissi Ukko Health Clinic;;;;;
Billiri;Kalmai Ward;;Kalmai Health Clinic;;;;;
Billiri;Kalmai Ward;;Pobawure Primary Health Center;;;;;
Billiri;Kalmai Ward;;Amtawalam Health Post;;;;;
Billiri;Kalmai Ward;;Powushi Health Clinic;;;;;
Billiri;T/kwaya Ward;;Tudu Primary Health Center;;;;;
Billiri;T/kwaya Ward;;Panguru Health Clinic;;;;;
Billiri;T/kwaya Ward;;Kwaya Health Clinic;;;;;
Billiri;T/kwaya Ward;;Koran Mota Health Post;;;;;
Billiri;Tal Ward;;Pandinkude Health Post;;;;;
Billiri;Tal Ward;;Tal Community Health Clinic;;;;;
Billiri;Tal Ward;;Lasani Health Clinic;;;;;
Billiri;Tal Ward;;Falsheje Health Post;;;;;
Billiri;Tal Ward;;Tal Health Clinic;;;;;
Billiri;Tal Ward;;Kurum Health Post;;;;;
Billiri;Tal Ward;;Kwiwulang Health Post;;;;;
Billiri;Tal Ward;;Ayaba Primary Health Center;;;;;
Billiri;Tal Ward;;Popandi Health Post;;;;;
Billiri;Tanglang Ward;;Poyali Health Clinic;;;;;
Billiri;Tanglang Ward;;Tanglang Health Clinic;;;;;
Billiri;Tanglang Ward;;Bassa Health Post;;;;;
Billiri;Tanglang Ward;;Kulgul Primary Health Center;;;;;
Billiri;Todi Ward;;Shela Health Clinic;;;;;
Billiri;Todi Ward;;Latambayo Health Post;;;;;
Billiri;Todi Ward;;Todi Primary Health Centre;;;;;
Dukku;Gombe Abba Ward;;Yole Health Post;;;;;
Dukku;Gombe Abba Ward;;Gombe - Abba Health Clinic;;;;;
Dukku;Gombe Abba Ward;;Gale Health Post;;;;;
Dukku;Gombe Abba Ward;;Walama Health Post;;;;;
Dukku;Hashidu Ward;;Hashidu Primary Health Centre;;;;;
Dukku;Jamari Ward;;Garin Bulama Health Post;;;;;
Dukku;Jamari Ward;;Dokoro Primary Health Center;;;;;
Dukku;Jamari Ward;;Jamari Model PHC;;;;;
Dukku;Kunde Ward;;Kunde Primary Health Center;;;;;
Dukku;Kunde Ward;;Bawa Health Post;;;;;
Dukku;Kunde Ward;;Daminya Health Post;;;;;
Dukku;Lafiya Tale Ward;;Lafiya Tale Health Clinic;;;;;
Dukku;Lafiya Tale Ward;;Lafiya Tale Health Post;;;;;
Dukku;Malala Ward;;Malala NYSC Clinic;;;;;
Dukku;Malala Ward;;Burari Health Post;;;;;
Dukku;Malala Ward;;Duggiri Health Post;;;;;
Dukku;Malala Ward;;Kawagol Health Post;;;;;
Dukku;Malala Ward;;Garawaji Health Post;;;;;
Dukku;Waziri North Ward;;Goringo Health Clinic;;;;;
Dukku;Waziri North Ward;;Dukku Primary Health Centre;;;;;
Dukku;Waziri North Ward;;Dukku Town Maternity Clinic;;;;;
Dukku;Waziri North Ward;;Jarkun Health Clinic;;;;;
Dukku;Waziri South Ward;;Lafiya Nursing Home;;;;;
Dukku;Waziri South Ward;;Dashi Health Clinic;;;;;
Dukku;Waziri South Ward;;Bozomshulwa Prmary Health Center;;;;;
Dukku;Waziri South Ward;;Kombi - Gabalu Health Clinic;;;;;
Dukku;Waziri South Ward;;Dukku General Hospital;;;;;
Dukku;Waziri South Ward;;Banigayi Health Clinic;;;;;
Dukku;Wuro Tale Ward;;Wuro Tale Health Clinic;;;;;
Dukku;Wuro Tale Ward;;Wuro Bagga Health Post;;;;;
Dukku;Wuro Tale Ward;;Kalam Health Post;;;;;
Dukku;Wuro Tale Ward;;Mayo Lamido Health Clinic;;;;;
Dukku;Wuro Tale Ward;;Tumbu Health Clinic;;;;;
Dukku;Zange Ward;;Garin Ahmadu Health Post;;;;;
Dukku;Zange Ward;;Wuro Kudu Health Post;;;;;
Dukku;Zange Ward;;Zange Primary Health Center;;;;;
Dukku;Zange Ward;;Tumpure Health Clinic;;;;;
Dukku;Zange Ward;;Zangala Health Post;;;;;
Dukku;Zange Ward;;Jambo Health Post;;;;;
Dukku;Zange Ward;;Paligocci Health Post;;;;;
Dukku;Zange Ward;;Kumi Health Post;;;;;
Dukku;Zaune Ward;;Dukkuyel Health Post;;;;;
Dukku;Zaune Ward;;Zaune Health Post;;;;;
Dukku;Zaune Ward;;Zaune Health Clinic;;;;;
Funakaye;Ashaka/Magaba Ward;;Magaba Maternity Clinic;;;;;
Funakaye;Ashaka/Magaba Ward;;Shaloon Clinic Private;;;;;
Funakaye;Ashaka/Magaba Ward;;Jalingo Maternity;;;;;
Funakaye;Ashaka/Magaba Ward;;Kademi Maternity;;;;;
Funakaye;Ashaka/Magaba Ward;;Mannari Maternity Clinic;;;;;
Funakaye;Ashaka/Magaba Ward;;Bulagaidam Health Clinic;;;;;
Funakaye;Ashaka/Magaba Ward;;Ashaka Cement  Clinic;;;;;
Funakaye;Ashaka/Magaba Ward;;Ashaka Gari Maternity;;;;;
Funakaye;Bage Ward;;Jungol-Barkano Dispensary;;;;;
Funakaye;Bage Ward;;Bungum Dispensary;;;;;
Funakaye;Bage Ward;;Sabon Garin Maza Maternity;;;;;
Funakaye;Bage Ward;;Gube Maternity;;;;;
Funakaye;Bage Ward;;Kafiwol Maternity Clinic;;;;;
Funakaye;Bage Ward;;Lariski Maternity Clinic;;;;;
Funakaye;Bage Ward;;Bage Primary Health Center;;;;;
Funakaye;Bage Ward;;Feshigo Maternity;;;;;
Funakaye;Bage Ward;;Badabdi Dispensary;;;;;
Funakaye;Bage Ward;;Dindi Maternity;;;;;
Funakaye;Bajoga East Ward;;Bajoga General Hospital;;;;;
Funakaye;Bajoga East Ward;;Sangaru Maternity Clinic;;;;;
Funakaye;Bajoga West Ward;;Alfijir Medical Clinic;;;;;
Funakaye;Bajoga West Ward;;Sharifuri Maternity Clinic;;;;;
Funakaye;Bajoga West Ward;;Bajoga Town Maternity Clinic;;;;;
Funakaye;Jullahi Ward;;Wuro Arsi Health Post;;;;;
Funakaye;Jullahi Ward;;Julahi Maternity Clinic;;;;;
Funakaye;Jullahi Ward;;Mituike Maternity;;;;;
Funakaye;Kupto Ward;;Kuka Bakwai Maternity Clinic;;;;;
Funakaye;Kupto Ward;;Jangade Maternity;;;;;
Funakaye;Kupto Ward;;Kupto Maternity Clinic;;;;;
Funakaye;Ribadu Ward (Funakaye);;Ngarai Dispensary;;;;;
Funakaye;Ribadu Ward (Funakaye);;Abuja Dispensary;;;;;
Funakaye;Ribadu Ward (Funakaye);;Guiwa Maternity Clinic;;;;;
Funakaye;Ribadu Ward (Funakaye);;Ribadu Maternity Clinic;;;;;
Funakaye;Ribadu Ward (Funakaye);;Garin Dogo Maternity;;;;;
Funakaye;Tilde/Bodor Ward;;Tilde Maternity Clinic;;;;;
Funakaye;Tilde/Bodor Ward;;Bodor Dispensary;;;;;
Funakaye;Tongo Ward;;Tongo Primary Health Center;;;;;
Funakaye;Wawa/Wakaltu Ward;;Wawa Maternity Clinic;;;;;
Funakaye;Wawa/Wakaltu Ward;;Wakaltu PHC;;;;;
Funakaye;Wawa/Wakaltu Ward;;Komi Maternity Clinic;;;;;
Gombe;Ajiya Ward;;Gombe Nig Prison Services Clinic;;;;;
Gombe;Bajoga Ward;;Metro Consultants Clinic;;;;;
Gombe;Bajoga Ward;;Gombe Depot NNPC Clinic;;;;;
Gombe;Bajoga Ward;;F C E (Tech) Clinic;;;;;
Gombe;Bajoga Ward;;Sabana Medical Clinic;;;;;
Gombe;Bajoga Ward;;Idi Dispensary;;;;;
Gombe;Bajoga Ward;;Bimma Medical Clinic;;;;;
Gombe;Bajoga Ward;;Heavens Specialist Clinic;;;;;
Gombe;Bajoga Ward;;Miyetti Medical Hospital;;;;;
Gombe;Bolari East Ward;;301 A. R.  Clinic;;;;;
Gombe;Bolari East Ward;;F/S Prog Maternity Clinic;;;;;
Gombe;Bolari East Ward;;Madaki Health Center;;;;;
Gombe;Bolari West Ward;;Ameerah Health Clinic;;;;;
Gombe;Bolari West Ward;;Bolari Maternity Clinic;;;;;
Gombe;Bolari West Ward;;Gombe Government House Clinic;;;;;
Gombe;Dawaki Ward;;Doma Hospital;;;;;
Gombe;Dawaki Ward;;Gombe Town Maternity Clinic;;;;;
Gombe;Dawaki Ward;;Gombe Tuberculosis/Leprosy Clinic;;;;;
Gombe;Herwa/Gana Ward;;Arewa Medical Clinic;;;;;
Gombe;Herwa/Gana Ward;;Herwa/Gana Health Clinic;;;;;
Gombe;Herwa/Gana Ward;;Sunnah Hospital;;;;;
Gombe;J/Fari Ward;;State Specialist Hospital;;;;;
Gombe;J/Fari Ward;;Yarma Memorial Hospital;;;;;
Gombe;J/Fari Ward;;GCDA Clinic;;;;;
Gombe;Kumbia/K Ward;;Kumbia/Kumbia Maternity Clinic;;;;;
Gombe;Nassarawo Ward (Gombe);;Nassarawo Maternity Clinic;;;;;
Gombe;Nassarawo Ward (Gombe);;Sabon Garin Nasarawo Health Clinic;;;;;
Gombe;Nassarawo Ward (Gombe);;El-Norf Medical Clinic;;;;;
Gombe;Pantami Ward;;Gabukka Health Clinic;;;;;
Gombe;Pantami Ward;;Salem Medical Clinic;;;;;
Gombe;Pantami Ward;;Pantami Primary Health Center;;;;;
Gombe;Pantami Ward;;Manawashi Health Clinic;;;;;
Gombe;Shamaki Ward;;Kagarawal  Comprehensive Health Centre;;;;;
Gombe;Shamaki Ward;;Tudun-Wada Primary Health Center;;;;;
Gombe;Shamaki Ward;;Gombe State university Health Clinic;;;;;
Gombe;Shamaki Ward;;Jauro Abare Health Clinic;;;;;
Gombe;Shamaki Ward;;Kasuwan Mata Health Clinic;;;;;
Gombe;Shamaki Ward;;Malam Inna Health Clinic;;;;;
Gombe;Shamaki Ward;;London Maidorowa Health Clinic;;;;;
Kaltungo;Awak Ward;;S/Layi-Awak Maternity Clinic;;;;;
Kaltungo;Awak Ward;;Soblong Maternity Clinic;;;;;
Kaltungo;Awak Ward;;Dogon Ruwa Maternity Clinic;;;;;
Kaltungo;Baule Central Ward;;Jalingo Maternity Clinic (Kaltungo);;;;;
Kaltungo;Baule Central Ward;;Baule Gari Maternity Clinic;;;;;
Kaltungo;Baule Central Ward;;Lafiya Baule Maternity Clinic;;;;;
Kaltungo;Bule-Kaltin Ward;;Kaltin Primary Health Center;;;;;
Kaltungo;Bule-Kaltin Ward;;Sabon-gari Primary Health care;;;;;
Kaltungo;Bule-Kaltin Ward;;Bule Health Clinic;;;;;
Kaltungo;Kaltungo East Ward;;Lakweme Maternity Clinic;;;;;
Kaltungo;Kaltungo East Ward;;Kalaring A T Shamaki Maternity Clinic;;;;;
Kaltungo;Kaltungo East Ward;;Poshereng Maternity Clinic;;;;;
Kaltungo;Kaltungo East Ward;;Layiro Posheren Maternity Clinic;;;;;
Kaltungo;Kaltungo East Ward;;Popandi Maternity Clinic (KAL);;;;;
Kaltungo;Kaltungo East Ward;;Bandara Health Clinic;;;;;
Kaltungo;Kaltungo East Ward;;Purmai Health Clinic;;;;;
Kaltungo;Kaltungo East Ward;;Kaluwa Health Clinic;;;;;
Kaltungo;Kaltungo East Ward;;Kale ALGON Health Clinic;;;;;
Kaltungo;Kaltungo West Ward;;Kaltungo Evangelical Church of West Africa (ECWA) Clinic;;;;;
Kaltungo;Kaltungo West Ward;;Kaltungo Fada Health Clinic;;;;;
Kaltungo;Kaltungo West Ward;;Kalorgu Maternity Clinic;;;;;
Kaltungo;Kamo Ward;;Pattuwana Model Primary Health Center;;;;;
Kaltungo;Kamo Ward;;Zange Primary Health Center;;;;;
Kaltungo;Kamo Ward;;Gujuba Maternity Clinic;;;;;
Kaltungo;Kamo Ward;;Birwai Health Clinic;;;;;
Kaltungo;Kamo Ward;;Shenge Shenge Maternity Clinic;;;;;
Kaltungo;Tungo Ward;;Limde Health Clinic;;;;;
Kaltungo;Tungo Ward;;Lakidir Health Centre;;;;;
Kaltungo;Tungo Ward;;Pokwagli Health Clinic (Kaltungo);;;;;
Kaltungo;Tungo Ward;;Wili Health Clinic;;;;;
Kaltungo;Ture Ward;;Bed Bede Health Clinic;;;;;
Kaltungo;Ture Ward;;Mai Ture Maternity Clinic;;;;;
Kaltungo;Ture Ward;;Ture Balam Maternity Clinic;;;;;
Kaltungo;Ture Ward;;Ture Okra Health Clinic;;;;;
Kaltungo;Ture Ward;;Ture Kwe Health Clinic;;;;;
Kaltungo;Wange Ward;;Bwele Maternity Clinic;;;;;
Kaltungo;Wange Ward;;Wange Maternity Clinic;;;;;
Kaltungo;Yiri Ward;;Yiri Maternity Clinic;;;;;
Kaltungo;Yiri Ward;;Bambam Yiri Health Clinic;;;;;
Kwami;Bojude Ward;;Bele Health Post;;;;;
Kwami;Bojude Ward;;Bojude Cottage Hospital;;;;;
Kwami;Bojude Ward;;Dirri PHC;;;;;
Kwami;Bojude Ward;;Jorre Health Post;;;;;
Kwami;Bojude Ward;;Bojude Health Clinic;;;;;
Kwami;Daban Fulani Ward;;Tumbushi Health Post;;;;;
Kwami;Daban Fulani Ward;;Mettako Health Post;;;;;
Kwami;Daban Fulani Ward;;Wuro Lule Health Post;;;;;
Kwami;Daban Fulani Ward;;D/Fulani Primary Health Center;;;;;
Kwami;Doho Ward;;Doho Primary Health Center;;;;;
Kwami;Doho Ward;;Jauro Gabdo Health Post;;;;;
Kwami;Doho Ward;;Wuro Dole Health Clinic;;;;;
Kwami;Doho Ward;;Shugu Health Clinic;;;;;
Kwami;Dukkul Ward;;Dukkul Maternity Home;;;;;
Kwami;Dukkul Ward;;Ahlugel Health Post;;;;;
Kwami;Dukkul Ward;;Gafara Galadima Health Post;;;;;
Kwami;Dukkul Ward;;Gwaram Health Post;;;;;
Kwami;Gadam Ward;;Yame Health Post;;;;;
Kwami;Gadam Ward;;Gadam Primary Health Care;;;;;
Kwami;Gadam Ward;;Dawo Health Post;;;;;
Kwami;Gadam Ward;;Tappi Primary Health Care;;;;;
Kwami;Jurara Ward;;Jurara Primary Health Center;;;;;
Kwami;Jurara Ward;;Jauro Isa Tongo Health Post;;;;;
Kwami;Komfulata Ward;;Shongo Health Clinic;;;;;
Kwami;Komfulata Ward;;Garin Abbasu Health Clinic;;;;;
Kwami;Komfulata Ward;;Komfulata Health Post;;;;;
Kwami;Komfulata Ward;;Dinawa Health Post;;;;;
Kwami;Komfulata Ward;;Dokari Health Post;;;;;
Kwami;Komfulata Ward;;Jamji Primary Health Center;;;;;
Kwami;Komfulata Ward;;Abuja Primary Health Center;;;;;
Kwami;Komfulata Ward;;Bomala Health Post;;;;;
Kwami;Kwami Ward;;Kwami Model Primary Health Centre;;;;;
Kwami;Kwami Ward;;Kufa'i Health Clinic;;;;;
Kwami;Kwami Ward;;Gerkwami Health Clinic;;;;;
Kwami;Kwami Ward;;Titi Health Post;;;;;
Kwami;Kwami Ward;;Madu Kellumi Health Clinic;;;;;
Kwami;Malam Sidi Ward;;Kurugu Health Post;;;;;
Kwami;Malam Sidi Ward;;Malan/Sidi Cottage Hospital;;;;;
Kwami;Malam Sidi Ward;;Kiyari Health Clinic;;;;;
Kwami;Malam Sidi Ward;;Mallan/Sidi Primary Health Center;;;;;
Kwami;Malleri Ward;;Malleri Health Clinic;;;;;
Kwami;Malleri Ward;;Laro Health Post;;;;;
Kwami;Malleri Ward;;Tinda Health Post;;;;;
Nafada;Barwo/Nasarawo Ward;;Wakkaltu Dispensary (Nafada);;;;;
Nafada;Barwo/Nasarawo Ward;;Barwo Sabo Gari Primary Health Centre;;;;;
Nafada;Barwo/Nasarawo Ward;;Barwo Nasarawo Primary Health Centre;;;;;
Nafada;Barwo/Winde Ward;;Barwo/Winde Model Primary Health Center;;;;;
Nafada;Barwo/Winde Ward;;Daba Dispensary;;;;;
Nafada;Birin Fulani West Ward;;Birin Fulani Maternity Clinic;;;;;
Nafada;Birin Fulani West Ward;;Madaki Lamu Health Clinic;;;;;
Nafada;Birin/Bolewa Ward;;Barkeyel Maternity Clinic;;;;;
Nafada;Birin/Bolewa Ward;;Birin Bolawa Cottage Hospital;;;;;
Nafada;Birin/Bolewa Ward;;Birin/Bolewa Primary Health Center;;;;;
Nafada;Birin/Bolewa Ward;;Munde Dispensary;;;;;
Nafada;Birin/Bolewa Ward;;Maudukuri Primary Health Centre;;;;;
Nafada;Birin/Fulani East Ward;;Sorodo Maternity Clinic;;;;;
Nafada;Birin/Fulani East Ward;;Birin Fulani Health Clinic;;;;;
Nafada;Birin/Fulani East Ward;;Gadi Primary Health Centre;;;;;
Nafada;Guduku Ward;;Guduku Model Primary Health Center;;;;;
Nafada;Guduku Ward;;Tasha Maternity Clinic;;;;;
Nafada;Jigawa Ward;;Kiyayo Dispensary;;;;;
Nafada;Jigawa Ward;;Jigawa Model Primary Health Center;;;;;
Nafada;Jigawa Ward;;Jolle Dispensary;;;;;
Nafada;Jigawa Ward;;Dendele Dispensary;;;;;
Nafada;Nafada Central Ward;;Njalkam Dispensary;;;;;
Nafada;Nafada Central Ward;;Wure Primary Health Centre;;;;;
Nafada;Nafada East Ward;;Nafada General Hospital;;;;;
Nafada;Nafada East Ward;;Nafada Primary Health Centre;;;;;
Nafada;Nafada East Ward;;Shole Health Clinic;;;;;
Nafada;Nafada West Ward;;Mada Dispensary;;;;;
Shongom;Bagunji Ward;;Kaloh Model Primary Health Center;;;;;
Shongom;Bagunji Ward;;Bagunji Maternity Clinic;;;;;
Shongom;Boh Ward;;Karel Maternity Clinic;;;;;
Shongom;Boh Ward;;Boh Model Primary Health Centre;;;;;
Shongom;Burak Ward;;Burak Maternity Clinic;;;;;
Shongom;Filiya Ward;;Jauro Sajo Health Clinic;;;;;
Shongom;Filiya Ward;;Farin Kasa Health Post;;;;;
Shongom;Filiya Ward;;Pero Maternity Clinic;;;;;
Shongom;Filiya Ward;;Filiya Primary Health Centre;;;;;
Shongom;Gundale Ward;;Daja Maternity Clinic;;;;;
Shongom;Gundale Ward;;Fugula Health Post;;;;;
Shongom;Gundale Ward;;Gundale Maternity Clinic;;;;;
Shongom;Gwandum Ward;;Gwandum United Methodist Church Health Clinic;;;;;
Shongom;Gwandum Ward;;Tora Health Clinic;;;;;
Shongom;Gwandum Ward;;Pamadu Health Post;;;;;
Shongom;Gwandum Ward;;Gwandum Modern Health Center;;;;;
Shongom;Gwandum Ward;;Damjigri Health Post;;;;;
Shongom;Gwandum Ward;;Majidadi Health Clinic;;;;;
Shongom;Gwandum Ward;;Keffi Health Clinic;;;;;
Shongom;Kulishin Ward;;Kulishin Maternity Clinic;;;;;
Shongom;Kulishin Ward;;Lashi Koltox Maternity Clinic;;;;;
Shongom;Kushi Ward;;Kushi Maternity Clinic;;;;;
Shongom;Kushi Ward;;Kushi Health Clinic;;;;;
Shongom;Lalaipido Ward;;Lawuyak Health Clinic;;;;;
Shongom;Lalaipido Ward;;Tedmugzu Health Clinic;;;;;
Shongom;Lalaipido Ward;;Lasadar Maternity Clinic;;;;;
Shongom;Lalaipido Ward;;Lalaipido Maternity Clinic;;;;;
Shongom;Lalaipido Ward;;Amkolan Health Clinic;;;;;
Shongom;Lalaipido Ward;;Lakenturum Health Clinic;;;;;
Shongom;Lapan Ward;;Kalaku Maternity Clinic;;;;;
Shongom;Lapan Ward;;Lasanjang Health Clinic;;;;;
Shongom;Lapan Ward;;Lapan Health Clinic;;;;;
Yamaltu/Deba;Deba Ward;;Saruje Health Post;;;;;
Yamaltu/Deba;Deba Ward;;Deba Health Clinic;;;;;
Yamaltu/Deba;Gwani/Shinga/Wade Ward;;Gwani/East Health Post;;;;;
Yamaltu/Deba;Gwani/Shinga/Wade Ward;;Wade Health Clinic;;;;;
Yamaltu/Deba;Hina Ward;;Garin Abdullahi Health Post;;;;;
Yamaltu/Deba;Hina Ward;;Hina Primary Health Center;;;;;
Yamaltu/Deba;Jagali North Ward;;Tsandon Dan Dela Health Post;;;;;
Yamaltu/Deba;Jagali South Ward;;Pata Primary Health Center;;;;;
Yamaltu/Deba;Jagali South Ward;;Jigawan Iro Health Clinic;;;;;
Yamaltu/Deba;Jagali South Ward;;Kurjale Primary Health Center;;;;;
Yamaltu/Deba;Kanawa/Wajari Ward;;Kachallari Health Clinic;;;;;
Yamaltu/Deba;Kanawa/Wajari Ward;;Wajari Health Clinic;;;;;
Yamaltu/Deba;Kanawa/Wajari Ward;;Kanawa Health Clinic;;;;;
Yamaltu/Deba;Kanawa/Wajari Ward;;Jannawo Health Clinic;;;;;
Yamaltu/Deba;Kwadon/Liji/Kurba Ward;;Kwadon Primary Health Center;;;;;
Yamaltu/Deba;Kwadon/Liji/Kurba Ward;;Liji Maternity Clinic;;;;;
Yamaltu/Deba;Lano/kuri/Lambam Ward;;Lano Primary Health Center;;;;;
Yamaltu/Deba;Lano/kuri/Lambam Ward;;Kuri Primary Health Centre;;;;;
Yamaltu/Deba;Lubo/Difa/Kinafa Ward;;Lubo Health Clinic;;;;;
Yamaltu/Deba;Lubo/Difa/Kinafa Ward;;Kinafa Health Clinic;;;;;
Yamaltu/Deba;Lubo/Difa/Kinafa Ward;;Difa Health Clinic;;;;;
Yamaltu/Deba;Nono/Kunnuwal/W/Birdaka Ward;;Kunnuwal Health Clinic;;;;;
Yamaltu/Deba;Zambuk/Kwali Ward;;Sabon Gari Health Clinic;;;;;
Yamaltu/Deba;Zambuk/Kwali Ward;;Kwali Health Clinic;;;;;
Yamaltu/Deba;Zambuk/Kwali Ward;;Zambuk Health Clinic;;;;;
