LGA;Ward;Settlement;Facility;Type;Ownership;Address;Longitude;Latitude
Auyo;Auyakayi Ward;;Auyakayi Health Post;;;;;
Auyo;Auyo Ward;;Auyo Primary Health Centre;;;;;
Auyo;Auyo Ward;;Gidan Dallah Health Post;;;;;
Auyo;Ayama Ward;;Safa Health Post;;;;;
Auyo;Ayama Ward;;Ayama Basic Health Clinics;;;;;
Auyo;Ayama Ward;;Safa karfi Health Post;;;;;
Auyo;Ayan Ward;;Ayan Health Post;;;;;
Auyo;Gamafai Ward;;Gasanya Health Post;;;;;
Auyo;Gamafai Ward;;Gamafai Health Post;;;;;
Auyo;Gamafai Ward;;Gandun Kadir Health Post;;;;;
Auyo;Gamsarka Ward;;Kalgwai Basic Health Clinic;;;;;
Auyo;Gamsarka Ward;;Gamsarka Health Post;;;;;
Auyo;Gamsarka Ward;;Hakudo Health Post;;;;;
Auyo;Gatafa Ward;;Gatafa Health Post;;;;;
Auyo;Kafur Ward;;Kafur Health Post;;;;;
Auyo;Kafur Ward;;Ganuwar Kuka Health Post;;;;;
Auyo;Tsidir Ward;;Bengeli Health Post;;;;;
Auyo;Tsidir Ward;;Tsidir Health Post;;;;;
Auyo;Unik Ward;;Guyu Health Post;;;;;
Auyo;Unik Ward;;Unik Dispensary;;;;;
Auyo;Unik Ward;;Kaban Health Post;;;;;
Auyo;Unik Ward;;Galdimari Health Clinic;;;;;
Auyo;Unik Ward;;Shinge Health Post;;;;;
Babura;Babura Ward;;Jarmai Health Post;;;;;
Babura;Babura Ward;;Aibat Health Clinic;;;;;
Babura;Babura Ward;;Babura General Hospital;;;;;
Babura;Batali Ward;;Batali Dispensary;;;;;
Babura;Batali Ward;;Danhalili Primary Health Clinic;;;;;
Babura;Dorawa Ward;;Dorawa Health Post;;;;;
Babura;Duzau Ward;;Dazau Dispensary;;;;;
Babura;Garu Ward;;Tasawa Health Post;;;;;
Babura;Garu Ward;;Garu Dispensary;;;;;
Babura;Gasakoli Ward;;Tashar D/Kyambo Health Clinic;;;;;
Babura;Gasakoli Ward;;Gasakoli Health Post;;;;;
Babura;Gasakoli Ward;;Lamintani Basic Health Clinic;;;;;
Babura;Gasakoli Ward;;Kyambo Health Post;;;;;
Babura;Insharuwa Ward;;Insharuwa Health Post;;;;;
Babura;Insharuwa Ward;;Aduware Health Post;;;;;
Babura;Jigawar Babura Ward;;Jigawa Babura Primary Health Centre;;;;;
Babura;Jigawar Babura Ward;;Gurfai Basic Health Clinic;;;;;
Babura;Kanya Ward (Babura);;Haladawa Health Post;;;;;
Babura;Kanya Ward (Babura);;Tsamiyar Kwanche Health Post;;;;;
Babura;Kanya Ward (Babura);;Rafin Tsamiya Health Post;;;;;
Babura;Kanya Ward (Babura);;Munar Waje Health Post;;;;;
Babura;Kanya Ward (Babura);;Kanya Health Clinic (Babura);;;;;
Babura;Kanya Ward (Babura);;Gana Dispensary;;;;;
Babura;Kuzunzumi Ward;;Kuzunzumi Health Post;;;;;
Babura;Takwasa Ward;;Manga Health Post;;;;;
Babura;Takwasa Ward;;Takwasa Health Clinic;;;;;
Babura;Takwasa Ward;;Masko Dispensary;;;;;
Babura;Takwasa Ward;;Giginya Health Post;;;;;
Birnin Kudu;Birnin Kudu Ward;;Chanda Health Post;;;;;
Birnin Kudu;Birnin Kudu Ward;;Birnin Kudu General Hospital;;;;;
Birnin Kudu;Birnin Kudu Ward;;Birnin Kudu Federal Medical Centre;;;;;
Birnin Kudu;Birnin Kudu Ward;;Magajin Gari Health Post;;;;;
Birnin Kudu;Kangire Ward;;Dumus Health Post;;;;;
Birnin Kudu;Kangire Ward;;Kangire Health Post;;;;;
Birnin Kudu;Kantoga Ward;;Kafin Gana Health Post;;;;;
Birnin Kudu;Kantoga Ward;;Kantoga Health Post;;;;;
Birnin Kudu;Kiyako Ward;;Babaldu Health Post;;;;;
Birnin Kudu;Kiyako Ward;;Kiyako Health Post;;;;;
Birnin Kudu;Kiyako Ward;;Bamaina Basic Health Clinic;;;;;
Birnin Kudu;Kwangwara Ward;;Kadangare Health Post;;;;;
Birnin Kudu;Lafiya B/Kudu Ward;;Lafia Health Post;;;;;
Birnin Kudu;Lafiya B/Kudu Ward;;Tukuda Dispensary;;;;;
Birnin Kudu;Sundimina Ward;;Kwari Dispensary;;;;;
Birnin Kudu;Sundimina Ward;;Sundimina Basic Health Clinic;;;;;
Birnin Kudu;Sundimina Ward;;Dukana Health Post;;;;;
Birnin Kudu;Sundimina Ward;;Kwatai Health Post;;;;;
Birnin Kudu;Sundimina Ward;;Kumbura Health Post;;;;;
Birnin Kudu;Sundimina Ward;;Nafara Health Post;;;;;
Birnin Kudu;Surko Ward;;Surko Health Post;;;;;
Birnin Kudu;Surko Ward;;Badingu Health Post;;;;;
Birnin Kudu;Unguwar Ya Ward;;Jiboga Basic Health Clinic ;;;;;
Birnin Kudu;Unguwar Ya Ward;;Kawo Health Post;;;;;
Birnin Kudu;Unguwar Ya Ward;;Yarma Health Post;;;;;
Birnin Kudu;Unguwar Ya Ward;;Unguwar Ya Basic Health Clinic;;;;;
Birnin Kudu;Wurno Ward;;Samamiya Dispensary;;;;;
Birnin Kudu;Wurno Ward;;Wurno Basic Health Clinic;;;;;
Birnin Kudu;Wurno Ward;;Giwa Health Post;;;;;
Birnin Kudu;Wurno Ward;;Jangargari Health Post;;;;;
Birnin Kudu;Wurno Ward;;Guna'an Damau Health Post;;;;;
Birnin Kudu;Wurno Ward;;Shungurin Health Post;;;;;
Birnin Kudu;Yalwan Damai Ward;;Yalwan Damai Primary Health Centre;;;;;
Birnin Kudu;Yalwan Damai Ward;;Iggi Dispensary;;;;;
Birnin Kudu;Yalwan Damai Ward;;Arobade Health Post;;;;;
Birnin Kudu;Yalwan Damai Ward;;Bkd Dangoli Health post;;;;;
Birnin Kudu;Yalwan Damai Ward;;Dokoki Health Post;;;;;
Birniwa;Batu Ward;;Batu Dispensary;;;;;
Birniwa;Batu Ward;;Kuka-Inkiwa Health Clinic;;;;;
Birniwa;Birniwa Ward;;Birniwa Tashia Health Post;;;;;
Birniwa;Birniwa Ward;;Birniwa General Hospital;;;;;
Birniwa;Dangwaleri Ward;;Kubuna Dispensary;;;;;
Birniwa;Dangwaleri Ward;;Munkawo Health Post;;;;;
Birniwa;Dangwaleri Ward;;Dangolori Health Post;;;;;
Birniwa;Diginsa Ward;;Kishinde Health Post;;;;;
Birniwa;Diginsa Ward;;Diginsa Health Clinic;;;;;
Birniwa;Diginsa Ward;;Balburam Health Post;;;;;
Birniwa;Fagi Ward;;Kirilla Health Post;;;;;
Birniwa;Fagi Ward;;Tsinkaina Health Post;;;;;
Birniwa;Kachallari Ward;;Kanya Health Clinic (Birniwa);;;;;
Birniwa;Kachallari Ward;;Kachallari Dispensary;;;;;
Birniwa;Karanga Ward;;Karanga Dispensary;;;;;
Birniwa;Karanga Ward;;Kilbu Dispensary;;;;;
Birniwa;Karanga Ward;;Kundi Health Post;;;;;
Birniwa;Kazura Ward;;Dolen Kwana Health Post;;;;;
Birniwa;Kazura Ward;;Kazura Primary Health Centre;;;;;
Birniwa;Machinamari Ward;;Goruba Health Post;;;;;
Birniwa;Machinamari Ward;;Kupsa Health Clinic;;;;;
Birniwa;Matamu Ward;;Matamu Health Post;;;;;
Birniwa;Matamu Ward;;Matara Uku Dispensary;;;;;
Birniwa;Nguwa Ward;;Yusufari Health Post;;;;;
Birniwa;Nguwa Ward;;Burseli Health Post;;;;;
Birniwa;Nguwa Ward;;Nguwa Dispensary;;;;;
Birniwa;Nguwa Ward;;Kukawa Health Post;;;;;
Buji;Ahoto Ward;;Tijiya Health Post;;;;;
Buji;Ahoto Ward;;Ahoto Health Post;;;;;
Buji;Buji Ward;;Chakwama Health Post;;;;;
Buji;Buji Ward;;Buji Health Clinic;;;;;
Buji;Chirbun Ward;;Unguwar Maina Health Clinic;;;;;
Buji;Chirbun Ward;;Chirbun Health Post;;;;;
Buji;Chirbun Ward;;Jajikoli Health Post;;;;;
Buji;Falageri Ward;;Gambasha Health Post;;;;;
Buji;Falageri Ward;;Falageri Health Post;;;;;
Buji;Gantsa Ward;;Gantsa Primary Health Centre;;;;;
Buji;Kawaya Ward;;Kawaya Health Post;;;;;
Buji;Kawaya Ward;;Sagu Primary Health Centre;;;;;
Buji;Kukuma Ward;;Kukuma Health Clinic;;;;;
Buji;Kukuma Ward;;Dankoshe Health Post;;;;;
Buji;Kukuma Ward;;Kwarinja Health Post;;;;;
Buji;Kukuma Ward;;Bakwarga Health Post;;;;;
Buji;Lelan Kudu Ward;;Yayarin Chakauri Health Post;;;;;
Buji;Lelan Kudu Ward;;Lelan Kudu Basic Health Clinic;;;;;
Buji;Madabe Ward;;Madabe Health Post;;;;;
Buji;Yayarin Tukur Ward;;Kafin Madaki Health Post;;;;;
Buji;Yayarin Tukur Ward;;Yayarin Tukur Health Clinic;;;;;
Buji;Yayarin Tukur Ward;;Yalwa Health Post;;;;;
Dutse;Abaya Ward;;Jg Kyaran Health Post;;;;;
Dutse;Abaya Ward;;Tabobo Health Post;;;;;
Dutse;Abaya Ward;;Dagwaje Health Post;;;;;
Dutse;Abaya Ward;;Abaya Basic Health Clinic;;;;;
Dutse;Chamo Ward;;Chaichai Dispensary;;;;;
Dutse;Chamo Ward;;Chamo Basic Health Clinic;;;;;
Dutse;Chamo Ward;;Isari Health Post;;;;;
Dutse;Dundubus Ward;;Kacha Health Clinic;;;;;
Dutse;Dundubus Ward;;Dundubus Health Post;;;;;
Dutse;Dundubus Ward;;Bembem Health Post;;;;;
Dutse;Dundubus Ward;;Buju Dispensary;;;;;
Dutse;Duru Ward;;Yargaba Dispensary;;;;;
Dutse;Duru Ward;;Wangara Dispensary;;;;;
Dutse;Duru Ward;;Duru Dispensary;;;;;
Dutse;Duru Ward;;Darau Health Post;;;;;
Dutse;Jigawar Tsada Ward;;Police Hospital;;;;;
Dutse;Jigawar Tsada Ward;;Takur H EST Health Clinic;;;;;
Dutse;Kachi Ward;;Kachi Dispensary;;;;;
Dutse;Kachi Ward;;Dutse General Hospital;;;;;
Dutse;Karnaya Ward;;Kwarin Makera Health Post;;;;;
Dutse;Karnaya Ward;;Yalwa Dispensary;;;;;
Dutse;Karnaya Ward;;Wurma Basic Health Clinic;;;;;
Dutse;Karnaya Ward;;Karnaya Health Post;;;;;
Dutse;Kudai Ward;;Laraba Dispensary;;;;;
Dutse;Kudai Ward;;Malamawa Dispensary;;;;;
Dutse;Kudai Ward;;Kudai Basic Health Clinic;;;;;
Dutse;Kudai Ward;;Ruru Health Post;;;;;
Dutse;Limawa Ward;;Shehu Maimato Memorial Clinic Garu;;;;;
Dutse;Limawa Ward;;Limawa Health Post;;;;;
Dutse;Limawa Ward;;Yina Dispensary;;;;;
Dutse;Limawa Ward;;Galamawa Dispensary;;;;;
Dutse;Jg Madobi Ward;;Kwadiya Health Clinic;;;;;
Dutse;Jg Madobi Ward;;Rasheed Shekoni Specialist Hospital;;;;;
Dutse;Jg Madobi Ward;;Baranda Health Post;;;;;
Dutse;Jg Madobi Ward;;Hammayayi Health Clinic;;;;;
Dutse;Jg Madobi Ward;;Albarka Clinic;;;;;
Dutse;Jg Madobi Ward;;Madobi Dispensary;;;;;
Dutse;Sakwaya Ward;;Sakwaya Health Clinic;;;;;
Dutse;Sakwaya Ward;;Zobiya Dispensary;;;;;
Dutse;Sakwaya Ward;;Jaudi Dispensary;;;;;
Dutse;Sakwaya Ward;;Jidawa Dispensary;;;;;
Dutse;Sakwaya Ward;;Warwade Dispensary;;;;;
Dutse;Sakwaya Ward;;Dantauya Health Post;;;;;
Gagarawa;Gagarawa Gari Ward;;Gagarawa Gari Health Post;;;;;
Gagarawa;Gagarawa Tasha Ward;;Gagarawa Health Clinic;;;;;
Gagarawa;Garin Chiroma Ward;;Garin Chiroma Health Post;;;;;
Gagarawa;Garin Chiroma Ward;;Gayawa Health Post;;;;;
Gagarawa;Kore Balatu Ward;;Danmadai Health Post;;;;;
Gagarawa;Kore Balatu Ward;;Kore Balatu Health Post;;;;;
Gagarawa;Madaka Ward;;Madaka Health Clinic;;;;;
Gagarawa;Mai'aduwa Ward;;Mai'aduwa Health Post;;;;;
Gagarawa;Maikilili Ward;;Garin Mado Health Post;;;;;
Gagarawa;Maikilili Ward;;Bula Health Post;;;;;
Gagarawa;Maikilili Ward;;Zingaran Health Post;;;;;
Gagarawa;Maikilili Ward;;Kangarwa Dispensary;;;;;
Gagarawa;Maikilili Ward;;Maikilili Basic Health Clinic ;;;;;
Gagarawa;Medu Ward;;Medu Health Clinic;;;;;
Gagarawa;Yalawa Ward;;Yalawa Basic Health Clinic;;;;;
Gagarawa;Zarada Ward;;Zarada Health Post;;;;;
Gagarawa;Zarada Ward;;Ganji (GGR) Health Post;;;;;
Gagarawa;Zarada Ward;;Sarkin Dare Dispensary;;;;;
Garki;Buduru Ward;;Gurarayi Health Post;;;;;
Garki;Doko Ward;;Doko Primary Health Centre;;;;;
Garki;Garki Ward;;Garki Primary Health Centre;;;;;
Garki;Gwarzon Garki Ward;;Gwarzon Garki Health Clinic;;;;;
Garki;Gwarzon Garki Ward;;Lautai Primary Health Centre;;;;;
Garki;Jirima Ward;;Jirima Health Post;;;;;
Garki;Jirima Ward;;Sugungun Dispensary;;;;;
Garki;Kanya Ward (Garki);;Kanya Health Post;;;;;
Garki;Kanya Ward (Garki);;Makangawa Health Post;;;;;
Garki;Kanya Ward (Garki);;Unguwar Ganji Health Post;;;;;
Garki;Kanya Ward (Garki);;Daki Daka Health Post;;;;;
Garki;Kargo Ward;;Kargo Dispensary;;;;;
Garki;Kore Ward;;Kore Dispensary;;;;;
Garki;Kore Ward;;Tagwayen Fagge Health Post;;;;;
Garki;Kore Ward;;Fagen Gawo Dispensary;;;;;
Garki;Muku Ward;;Muku Dispensary;;;;;
Garki;R/Marke Ward;;Kuttu Dispensary;;;;;
Garki;R/Marke Ward;;Jangari Health Post;;;;;
Garki;Sayori Ward;;Umbono Health Post;;;;;
Garki;Sayori Ward;;Gidan Maza Dispensary;;;;;
Garki;Sayori Ward;;Sayori Health Post;;;;;
Gumel;Alhaji Barka Ward;;Gangara Health Post;;;;;
Gumel;Alhaji Barka Ward;;Duhuwa Gumel Health Post;;;;;
Gumel;Bekarya Ward;;Bekarya Basic Health Clinic ;;;;;
Gumel;Bekarya Ward;;Kokinamu Health Post;;;;;
Gumel;Bekarya Ward;;Mele Health Post;;;;;
Gumel;Dan Ama Ward;;Ubandawaki Health Post;;;;;
Gumel;Dan Ama Ward;;Dan Ama Gumel Basic Health Clinic;;;;;
Gumel;Dantanoma Ward;;Lautai Senior Secondary School Clinic;;;;;
Gumel;Dantanoma Ward;;Mayanka Health Clinic;;;;;
Gumel;Dantanoma Ward;;COE Health Post;;;;;
Gumel;Dantanoma Ward;;Gumel General Hospital;;;;;
Gumel;Galagama Ward;;Daurawa Basic Health Clinic;;;;;
Gumel;Garin Gambo Ward;;Garin Baki Health Post;;;;;
Gumel;Garin Gambo Ward;;Garin Gambo Health Clinic;;;;;
Gumel;Hammado Ward;;Hammayo Health Post;;;;;
Gumel;Hammado Ward;;Danfarantama Health Post;;;;;
Gumel;Zango Ward;;Zango Health Clinic;;;;;
Guri;Abunabo Ward;;Abunabo Primary Health Centre;;;;;
Guri;Abunabo Ward;;Gaduwa Health Clinic;;;;;
Guri;Adiyani Ward;;Adiyani Dispensary;;;;;
Guri;Dawa Ward;;Dawa Health Post;;;;;
Guri;Dawa Ward;;Gagiya Dispensary;;;;;
Guri;Garbagal Ward;;Garbagal Health Post;;;;;
Guri;Garbagal Ward;;Garmakuwan Yamma Basic Health Clinic;;;;;
Guri;Guri Ward;;Guri Primary Health Centre;;;;;
Guri;Kadira Ward;;Kadira Health Clinic;;;;;
Guri;Lafiya Ward;;Lafiya Health Clinic;;;;;
Guri;Margadu Ward;;Margadu Dispensary;;;;;
Guri;Musari Ward;;Una Dispensary;;;;;
Guri;Musari Ward;;Zugobiya Basic Health Clinic;;;;;
Guri;Musari Ward;;Musari Dispensary;;;;;
Guri;Zugo Ward;;Zugo Basic Health Clinic;;;;;
Gwaram;Basirka Ward;;Digijin Health Post;;;;;
Gwaram;Basirka Ward;;Malaluwa Health Post;;;;;
Gwaram;Basirka Ward;;Matsango Health Post;;;;;
Gwaram;Dingaya Ward;;Yarfi Health Post;;;;;
Gwaram;Dingaya Ward;;Kuyungu Heatlth Post;;;;;
Gwaram;Dingaya Ward;;Lafiya Health Post;;;;;
Gwaram;Dingaya Ward;;Dingaya Health Clinic;;;;;
Gwaram;Dingaya Ward;;Galambi Primary Health Centre;;;;;
Gwaram;Dingaya Ward;;Kilawa Health Post;;;;;
Gwaram;Dingaya Ward;;Rabadi Health Clinic;;;;;
Gwaram;Fagam Ward;;Haya Health Clinic;;;;;
Gwaram;Fagam Ward;;Fagam Health Clinic;;;;;
Gwaram;Fagam Ward;;Tsakuwaran Health Post;;;;;
Gwaram;Fagam Ward;;Kalasu Health Post;;;;;
Gwaram;Fagam Ward;;K/Tugga Health Post;;;;;
Gwaram;Fagam Ward;;Dangulan Health Clinic;;;;;
Gwaram;Fagam Ward;;Kwarko Health Post;;;;;
Gwaram;Farin Dutse Ward;;Farin Dutse Health Clinic;;;;;
Gwaram;Farin Dutse Ward;;Gamji Health Post;;;;;
Gwaram;Gwaram Ward;;Gwaram Primary Health Centre;;;;;
Gwaram;Gwaram Ward;;Sumagara Health Post;;;;;
Gwaram;Gwaram Ward;;Barebari Health Clinic;;;;;
Gwaram;Kila Ward;;Rahama Health Post;;;;;
Gwaram;Kila Ward;;Sakuwa Health Post;;;;;
Gwaram;Kila Ward;;Nasarawa Gwaram Health Post;;;;;
Gwaram;Kondiko Ward;;Jaryanta Health Post;;;;;
Gwaram;Kondiko Ward;;Kijin Health Post;;;;;
Gwaram;Kondiko Ward;;Kadalen Tudun Wada Health Post;;;;;
Gwaram;Kondiko Ward;;Jingino Health Clinic;;;;;
Gwaram;Maruta Ward;;Isawa Health Post;;;;;
Gwaram;Maruta Ward;;Jikas Health Post;;;;;
Gwaram;Sara Ward;;Kafin Fulani Health Post;;;;;
Gwaram;Sara Ward;;Sara Health Clinic;;;;;
Gwaram;Sara Ward;;Lukutu Health Post;;;;;
Gwaram;Tsangarwa Ward;;Budinga Primary Health Centre;;;;;
Gwaram;Tsangarwa Ward;;Nahuce Health Post;;;;;
Gwaram;Zandam Nagogo Ward;;Malaji Health Clinic;;;;;
Gwaram;Zandam Nagogo Ward;;Zandam Gabas Health Post;;;;;
Gwiwa;Buntusu Ward;;Buntusu Health Post ;;;;;
Gwiwa;Buntusu Ward;;Jigawar Habe Health Post;;;;;
Gwiwa;Buntusu Ward;;Ronawa Health Post;;;;;
Gwiwa;Dabi Gwiwa Ward;;Gimi Health Post;;;;;
Gwiwa;Dabi Gwiwa Ward;;Dabi Basic Health Clinic ;;;;;
Gwiwa;Dabi Gwiwa Ward;;Tsubut Health Post;;;;;
Gwiwa;Darina Ward;;Maraganta Dispensary;;;;;
Gwiwa;Darina Ward;;Ung/Gamji Health Post;;;;;
Gwiwa;Firji Ward;;Firjin Yamma Health Post;;;;;
Gwiwa;Guntai Ward;;Guntai Health Post;;;;;
Gwiwa;Guntai Ward;;Indirawa Basic Health Clinic;;;;;
Gwiwa;Gwiwa Ward;;Gwiwa Primary Health Centre;;;;;
Gwiwa;Korayal Ward;;Dinya Health Post;;;;;
Gwiwa;Korayal Ward;;Korayel Health Clinic;;;;;
Gwiwa;Rorau Ward;;Rorau Health Post;;;;;
Gwiwa;Shafe Ward;;Daurawa Health Post;;;;;
Gwiwa;Shafe Ward;;Karshi Health Post;;;;;
Gwiwa;Shafe Ward;;Shafe Health Post;;;;;
Gwiwa;Shafe Ward;;Kundiga Health Post;;;;;
Gwiwa;Yola Ward;;Yola Health Post;;;;;
Gwiwa;Zauma Ward;;Fara Health Post;;;;;
Gwiwa;Zauma Ward;;Zauma Health Post;;;;;
Hadejia;Atafi Ward;;Hadejia TBL Hospital;;;;;
Hadejia;Dubantu Ward;;Agumo Primary Health Centre;;;;;
Hadejia;Gagulmari Ward;;Kofar Arewa Maternal Clinic (Hadeja);;;;;
Hadejia;K/Kuda Ward;;Hadejia General Hospital;;;;;
Hadejia;Matsaro Ward;;Police Clinic;;;;;
Hadejia;Matsaro Ward;;Gawuna Primary Health Centre;;;;;
Hadejia;Sabon Garu Ward;;Gabari Primary Health Centre;;;;;
Hadejia;Yankoli Ward;;Aguyaka Gudichin Basic Health Clinic;;;;;
Hadejia;Yankoli Ward;;Fantai Basic Health Clinic1;;;;;
Jahun;Aujara Ward;;Zangon Danbarama Basic Health Clinic;;;;;
Jahun;Aujara Ward;;Garan Health Clinic;;;;;
Jahun;Aujara Ward;;Gabari Health Post;;;;;
Jahun;Aujara Ward;;Aujara Primary Health Centre;;;;;
Jahun;Aujara Ward;;Damutawa Health Post;;;;;
Jahun;Gangawa Ward;;Kadowawa Basic Health Clinic;;;;;
Jahun;Gangawa Ward;;Abarakeu Health Post;;;;;
Jahun;Gangawa Ward;;Farfada Health Post;;;;;
Jahun;Gangawa Ward;;Gangawa Health Clinic;;;;;
Jahun;Gauza Ward;;Kafin Baka Health Clinic;;;;;
Jahun;Gauza Ward;;Tazara Health Post;;;;;
Jahun;Gunka Ward;;Gidan Gona Basic Health Clinic;;;;;
Jahun;Gunka Ward;;Dare/Doro Health Clinic;;;;;
Jahun;Gunka Ward;;Gunka Basic Health Clinic;;;;;
Jahun;Gunka Ward;;Yalleman Health post;;;;;
Jahun;Harbo Sabuwa Ward;;Taraya Health Post;;;;;
Jahun;Harbo Sabuwa Ward;;Zangon Kura Health Post;;;;;
Jahun;Harbo Tsohuwa Ward;;Jg Yan Kunama Health Post1;;;;;
Jahun;Harbo Tsohuwa Ward;;Garado Health Post1;;;;;
Jahun;Harbo Tsohuwa Ward;;Garado Health Post;;;;;
Jahun;Harbo Tsohuwa Ward;;Jg Yan Kunama Health Post;;;;;
Jahun;Idanduna Ward;;Idanduna Health Clinic;;;;;
Jahun;Idanduna Ward;;Rinde Health post;;;;;
Jahun;Jabarna Ward;;Magama Dispensary;;;;;
Jahun;Jabarna Ward;;Kulluru Health post;;;;;
Jahun;Jabarna Ward;;Jabarna Health Post;;;;;
Jahun;Jahun Ward;;Jahun Urban Maternity Clinic1;;;;;
Jahun;Jahun Ward;;Jahun Urban Maternity Clinic;;;;;
Jahun;Kale Ward;;Gidan Dango Health Post;;;;;
Jahun;Kale Ward;;Burabura Health Post;;;;;
Jahun;Kanwa Ward;;Tunubo Health post;;;;;
Jahun;Kanwa Ward;;Faranshi Health Post;;;;;
Jahun;Kanwa Ward;;Kanwa Basic Health Clinic;;;;;
Kafin Hausa;Bulangu Ward;;Sabon Sara  Basic Health Clinic;;;;;
Kafin Hausa;Bulangu Ward;;Tuminjira Health Post;;;;;
Kafin Hausa;Bulangu Ward;;Bulangu Cottage Hospital;;;;;
Kafin Hausa;Dumadumin Toka Ward;;Dumadumin Toka Dispensary;;;;;
Kafin Hausa;Dumadumin Toka Ward;;Majeri Health Clinic;;;;;
Kafin Hausa;Gafaya Ward;;Ramfa Basic Health Clinic;;;;;
Kafin Hausa;Gafaya Ward;;Gafaya Health Post;;;;;
Kafin Hausa;Jabo Ward;;Waek Basic Health Clinic;;;;;
Kafin Hausa;Jabo Ward;;Hago Health Post;;;;;
Kafin Hausa;Jabo Ward;;Jabo Primary Health Centre;;;;;
Kafin Hausa;Kafin Hausa Ward;;Kafin Hausa General Hospital;;;;;
Kafin Hausa;Kafin Hausa Ward;;Kafin Hausa Dispensary;;;;;
Kafin Hausa;Kafin Hausa Ward;;Kargumaka Health Post;;;;;
Kafin Hausa;Kwazalewa Ward;;Kununu Health Post;;;;;
Kafin Hausa;Kwazalewa Ward;;Kwazalewa Health Post;;;;;
Kafin Hausa;Majawa Ward;;Majawa Health Post;;;;;
Kafin Hausa;Majawa Ward;;Shakato Basic Health Clinic;;;;;
Kafin Hausa;Mezan Ward;;Mezan Health Post;;;;;
Kafin Hausa;Mezan Ward;;Aduya Health Post;;;;;
Kafin Hausa;Mezan Ward;;Sabon Gida Health Post;;;;;
Kafin Hausa;Mezan Ward;;Kwatalo Dispensary;;;;;
Kafin Hausa;Ruba Ward;;Dumadumin Kyaure Health Post;;;;;
Kafin Hausa;Ruba Ward;;Gidan Sarki Health Post;;;;;
Kafin Hausa;Ruba Ward;;Ruba Dispensary;;;;;
Kafin Hausa;Ruba Ward;;Kore Health Post;;;;;
Kafin Hausa;Sarawa Ward;;Sarawa Health Post;;;;;
Kafin Hausa;Sarawa Ward;;Gurgun Daho Basic Health Clinic;;;;;
Kafin Hausa;Sarawa Ward;;Manaba Health Clinic;;;;;
Kafin Hausa;Sarawa Ward;;Agura Health Post;;;;;
Kafin Hausa;Zago Ward;;Zago kura Health Post;;;;;
Kafin Hausa;Zago Ward;;Shamakeri Health Post;;;;;
Kaugama;Arbus Ward;;Dodorin Malam Abdu Health Post;;;;;
Kaugama;Arbus Ward;;Kantamari Health Post;;;;;
Kaugama;Askandu Ward;;Adimin Gasau Health Post;;;;;
Kaugama;Askandu Ward;;Ubba Health Post;;;;;
Kaugama;Dabuwaran Ward;;Garin Bagudu Health Post;;;;;
Kaugama;Dabuwaran Ward;;Dabuwaran Health Post;;;;;
Kaugama;Dakaiyawa Ward;;Nuhu Alfa Primary Health Center;;;;;
Kaugama;Girbobo Ward;;Bultuwa Health Clinic;;;;;
Kaugama;Girbobo Ward;;Girbobo Health Clinic;;;;;
Kaugama;Hadin Ward;;Hadin Health Post;;;;;
Kaugama;Je'a Ward;;Je'a Health Post;;;;;
Kaugama;Je'a Ward;;Maina Bindi Health Post;;;;;
Kaugama;Je'a Ward;;Zaburan Basic Health Clinic ;;;;;
Kaugama;Kaugama Ward;;Kaugama Primary Health Centre;;;;;
Kaugama;Kaugama Ward;;Turmi Dispensary;;;;;
Kaugama;Marke Ward;;Marke Health Clinic;;;;;
Kaugama;Unguwar Jibrin Ward;;Unguwar Jibrin Health Post;;;;;
Kaugama;Yalo Ward;;Yalo Dispensary;;;;;
Kazaure;Baauzini Ward;;Baauzini Health Post;;;;;
Kazaure;Baauzini Ward;;K/Chiroma Basic Health Clinic;;;;;
Kazaure;Daba Ward;;Farun Daba Dispensary;;;;;
Kazaure;Daba Ward;;Gezoji Health Post;;;;;
Kazaure;Dabaza Ward;;Katsinawa Model Primary Health Centre;;;;;
Kazaure;Dabaza Ward;;Dunguyawa Dispensary;;;;;
Kazaure;Dandi Ward;;Gurumfa Health post;;;;;
Kazaure;Dandi Ward;;Dandi Basic Health Clinic;;;;;
Kazaure;Dandi Ward;;Ung/Yarima Health Post;;;;;
Kazaure;Gada Ward;;Gada Dispensary;;;;;
Kazaure;Kanti Ward;;Kazaure General Hospital;;;;;
Kazaure;Kanti Ward;;Katoge Health Post;;;;;
Kazaure;Maradawa Ward;;Karaftayi Dispensary;;;;;
Kazaure;Sabaru Ward;;Bandutse Health Post;;;;;
Kazaure;Sabaru Ward;;Sabaru Dispensary;;;;;
Kazaure;Unguwar Arewa Ward;;Kurfi Health Post;;;;;
Kazaure;Unguwar Arewa Ward;;Kazaure Kofar Arewa Clinic;;;;;
Kazaure;Unguwar Gabas Ward;;Unguwar Gabas Health Post;;;;;
Kazaure;Unguwar Gabas Ward;;Unguwar Gabas Model Primary Health Centre;;;;;
Kazaure;Unguwar Yamma Ward;;Mahuchi Health Post;;;;;
Kiri Kasamma;Baturiya Ward;;Baturiya Dispensary;;;;;
Kiri Kasamma;Baturiya Ward;;Iyo Health Post;;;;;
Kiri Kasamma;Baturiya Ward;;Sawo Dispensary;;;;;
Kiri Kasamma;Bulunchai Ward;;Jarmari Health Post;;;;;
Kiri Kasamma;Bulunchai Ward;;Dilmari Health Post;;;;;
Kiri Kasamma;Fandum Ward;;Tage Basic Health Clinic;;;;;
Kiri Kasamma;Fandum Ward;;Fandum Health Post;;;;;
Kiri Kasamma;Fandum Ward;;Jiyan Health Post;;;;;
Kiri Kasamma;Fandum Ward;;Suga Health Post;;;;;
Kiri Kasamma;Gayin Ward;;Gayin Health Post;;;;;
Kiri Kasamma;Gayin Ward;;Mattafari Dispensary;;;;;
Kiri Kasamma;Kiri Kasamma Ward;;Meleri Health Post;;;;;
Kiri Kasamma;Kiri Kasamma Ward;;Mailakauri Health Post;;;;;
Kiri Kasamma;Kiri Kasamma Ward;;Kiri Kasamma Primary Health Centre;;;;;
Kiri Kasamma;Madachi Ward;;Madachi Basic Health Clinic;;;;;
Kiri Kasamma;Marma Ward;;Kuradige Health Post;;;;;
Kiri Kasamma;Marma Ward;;Marma Dispensary;;;;;
Kiri Kasamma;Saleri Ward;;Saleri Health Post;;;;;
Kiri Kasamma;Tasheguwa Ward;;Tasheguwa Health Post;;;;;
Kiri Kasamma;Tasheguwa Ward;;Kiramisau Health Post;;;;;
Kiri Kasamma;Tasheguwa Ward;;Kuit Basic Health Clinic;;;;;
Kiri Kasamma;Turabu Ward;;Turabu Dispensary;;;;;
Kiri Kasamma;Turabu Ward;;Tandanu Health Post;;;;;
Kiyawa;Andaza Ward;;Duhuwa Kiyawa Health Post;;;;;
Kiyawa;Andaza Ward;;Andaza Basic Health Clinic;;;;;
Kiyawa;Balago Ward;;Balago Basic Health Clinic;;;;;
Kiyawa;Balago Ward;;Bakata Health Clinic;;;;;
Kiyawa;Balago Ward;;Fiya Health Post;;;;;
Kiyawa;Fake Ward;;Gidan Adede Health Post;;;;;
Kiyawa;Fake Ward;;Dangoli Health Post;;;;;
Kiyawa;Fake Ward;;Kwadabe Health Post;;;;;
Kiyawa;Fake Ward;;Akar Health Post;;;;;
Kiyawa;Fake Ward;;Fake Dispensary;;;;;
Kiyawa;Garko Ward;;Mazazzaga Health Post;;;;;
Kiyawa;Katanga Ward;;Katanga Primary Health Centre;;;;;
Kiyawa;Katuka Ward;;Karfawa Health Post;;;;;
Kiyawa;Katuka Ward;;Jigawar Kurma Dispensary;;;;;
Kiyawa;Kiyawa Ward;;Kiyawa Primary Health Centre;;;;;
Kiyawa;Kwanda Ward;;Danfusan Dispensary;;;;;
Kiyawa;Kwanda Ward;;Kwanda Basic Health Clinic;;;;;
Kiyawa;Maje Ward;;Maje Kiyawa Basic Health Clinic;;;;;
Kiyawa;Maje Ward;;Miyawa Health Post;;;;;
Kiyawa;Maje Ward;;Jg Kagara Health Post;;;;;
Kiyawa;Maje Ward;;Dumbal Basic Health Clinic;;;;;
Kiyawa;Maje Ward;;Turho Health Post;;;;;
Kiyawa;Shuwari Ward;;Garun Bayan Gari Health Post;;;;;
Kiyawa;Shuwari Ward;;Shuwarin Basic Health Clinic;;;;;
Kiyawa;Shuwari Ward;;Gurduba Health Post;;;;;
Kiyawa;Tsirma Ward;;Sabon Gari Gorumo Health Post;;;;;
Kiyawa;Tsirma Ward;;Tsirma Basic Health Clinic;;;;;
Kiyawa;Tsirma Ward;;Gorumo Health Post;;;;;
Maigatari;Balarabe Ward;;Botsuwa Health Clinic;;;;;
Maigatari;Dankumbo Ward;;Dankumbo Health Post;;;;;
Maigatari;Galadi Ward;;Galadi Dispensary;;;;;
Maigatari;Jajeri Ward;;Jajeri Dispensary;;;;;
Maigatari;Kukayasku Ward;;Dansambo Health Post;;;;;
Maigatari;Kukayasku Ward;;Kukayasku Duya Basic Health Clinic;;;;;
Maigatari;Kukayasku Ward;;Katika Health Post;;;;;
Maigatari;Madana Ward;;Madana Dispensary;;;;;
Maigatari;Maigatari North Ward;;Jobi Health Post;;;;;
Maigatari;Maigatari North Ward;;Maigatari Primary Health Centre;;;;;
Maigatari;Maigatari South Ward;;Wanzamai Health Post;;;;;
Maigatari;Maigatari South Ward;;S/Maja Health Clinic;;;;;
Maigatari;Maigatari West Fulata Ward;;Fulata Health Post;;;;;
Maigatari;Maigatari West Fulata Ward;;Shabarawa Health Post;;;;;
Maigatari;Matoya Ward;;Matoya Basic Health Clinic;;;;;
Maigatari;Matoya Ward;;Daguma Health Post;;;;;
Maigatari;Matoya Ward;;Garmaka Basic Health Clinic;;;;;
Maigatari;Turbus Ward;;Kamainketa Health Post;;;;;
Maigatari;Turbus Ward;;Kuka-Yasku Basic Health Clinic;;;;;
Maigatari;Turbus Ward;;Turbus Basic Health Clinic;;;;;
Malam Madori;Arki Ward;;Arki Health Post;;;;;
Malam Madori;Arki Ward;;Agin Basic Health Clinic;;;;;
Malam Madori;Dakido Ward;;Dakido Basic Health Clinic;;;;;
Malam Madori;Dunari Ward;;Dunari Basic Health Clinic;;;;;
Malam Madori;Dunari Ward;;Gari Uku Health Post;;;;;
Malam Madori;Dunari Ward;;Kamfala Heath Post;;;;;
Malam Madori;Fateka Ward;;Bulakori Health Clinic;;;;;
Malam Madori;Fateka Ward;;Akurya Health Post;;;;;
Malam Madori;Garun Gabas Ward;;Garun Gabas Primary Health Centre;;;;;
Malam Madori;Garun Gabas Ward;;Garun Gabas Tsohuwa Health Post;;;;;
Malam Madori;Garun Gabas Ward;;Maiso Health Post;;;;;
Malam Madori;Mai Rakumi Ward;;Kashin Dila Basic Health Clinic;;;;;
Malam Madori;Mai Rakumi Ward;;Mairakumi Health Post;;;;;
Malam Madori;Mai Rakumi Ward;;Kashin Dila Basic Health Clinic;;;;;
Malam Madori;Makaddari Ward;;Jg Garin Barma Health Post;;;;;
Malam Madori;Makaddari Ward;;Makaddari Health Post;;;;;
Malam Madori;Makaddari Ward;;Kargo MM Basic Health Clinc;;;;;
Malam Madori;Malam Madori Ward;;Malam Madori Primary Health Centre;;;;;
Malam Madori;Shayya Ward;;Shayya Health Clinic;;;;;
Malam Madori;Tagwaro Ward;;Tagwaro Health Post;;;;;
Malam Madori;Tagwaro Ward;;Yalwan Bujiri Health Post;;;;;
Malam Madori;Tagwaro Ward;;Kiri Garin Tudu Health Post;;;;;
Malam Madori;Tagwaro Ward;;Jg Kebberi Health Post;;;;;
Malam Madori;Tashena Ward;;Tashena Health Post;;;;;
Malam Madori;Tashena Ward;;Jg Kadume Health Clinic;;;;;
Malam Madori;Toni Kutara Ward;;Collage of Agric Clinic;;;;;
Malam Madori;Toni Kutara Ward;;Gandun Sarki Health CLINIC;;;;;
Malam Madori;Toni Kutara Ward;;Toni Kutara Health Clinic;;;;;
Miga;Dangyatin Ward;;Makera Health Post;;;;;
Miga;Dangyatin Ward;;Dangyatin Health Clinic;;;;;
Miga;Garbo Ward;;Takalafiya Health Clinic;;;;;
Miga;Garbo Ward;;Garbo Health Clinic;;;;;
Miga;Gwari Ward;;Gwari Dispensary;;;;;
Miga;Gwari Ward;;Nasarawa Miga Health Post;;;;;
Miga;Hantsu Ward;;Hantsu Health Clinic;;;;;
Miga;Hantsu Ward;;Sarawiya Health Clinic;;;;;
Miga;Koya Ward;;Koya Health Clinic;;;;;
Miga;Miga Ward;;Galaucime Health Post;;;;;
Miga;Miga Ward;;Agufa Health Clinic;;;;;
Miga;Miga Ward;;Miga Health Clinic;;;;;
Miga;Sabon Gari Ward;;Tsagaiwa Health Post;;;;;
Miga;Sabon Gari Ward;;Sabon Gari Health Clinic;;;;;
Miga;Sabon Gari Ward;;Jamaga Health Clinic;;;;;
Miga;Sansani Ward;;Muduga Health Post;;;;;
Miga;Sansani Ward;;Sansani Health Clinic;;;;;
Miga;Tsakuwawa Ward;;Tsakuwawa Basic Health Clinic;;;;;
Miga;Yanduna Ward;;Yanduna Health Post;;;;;
Miga;Yanduna Ward;;Romawa Health Post;;;;;
Miga;Yanduna Ward;;Kigawa Primary Health Clinic;;;;;
Miga;Yanduna Ward;;Jg Aducuwa health Post;;;;;
Miga;Zareku Ward;;Zareku Health Clinic;;;;;
Ringim;Chaichai Ward;;Daurawa Dispensary;;;;;
Ringim;Chaichai Ward;;Kwandarai Health Post;;;;;
Ringim;Chaichai Ward;;Chaichai Health Clinic;;;;;
Ringim;Chaichai Ward;;M/Kale Dispensary;;;;;
Ringim;Dabi Ward;;Kaura Dabi Health Post;;;;;
Ringim;Dabi Ward;;Dabi Health Clinic;;;;;
Ringim;Dabi Ward;;Dingare Dispensary;;;;;
Ringim;Kafin Babushe Ward;;Beguwa Dispensary;;;;;
Ringim;Kafin Babushe Ward;;Kafin Babushe Basic Health Clinic ;;;;;
Ringim;Kanshi Ward;;Kwarin Dogaji Health Post;;;;;
Ringim;Kanshi Ward;;Karshi Dispensary;;;;;
Ringim;Kyarama Ward;;Kyarama Dispensary;;;;;
Ringim;Kyarama Ward;;Nissan Marke Dispensary;;;;;
Ringim;Ringim Ward;;Ringim General Hospital;;;;;
Ringim;Ringim Ward;;Walawa Dispensary;;;;;
Ringim;Sankara Ward;;Fachawa Health Post;;;;;
Ringim;Sankara Ward;;Gidan Ari Basic Health Clinic;;;;;
Ringim;Sankara Ward;;Sankara Health Clinic;;;;;
Ringim;Sankara Ward;;Gidan Ari Basic Health Clinic;;;;;
Ringim;Sankara Ward;;Amaguwa Dispensary;;;;;
Ringim;Sintilmawa Ward;;Shafar Dispensary;;;;;
Ringim;Sintilmawa Ward;;Sintilmawa Health Post;;;;;
Ringim;Sintilmawa Ward;;Karwai Dispensary;;;;;
Ringim;Tofa Ward;;Tofa Dispensary;;;;;
Ringim;Tofa Ward;;Dan Makeri Dispensary;;;;;
Ringim;Tofa Ward;;Gasakole Dispensary;;;;;
Ringim;Yandutse Ward;;Yandutse Dispensary;;;;;
Ringim;Yandutse Ward;;Yakasawa Health Clinic;;;;;
Roni;Amaryawa Ward;;Amaryawa Health Clinic;;;;;
Roni;Amaryawa Ward;;Amaryawa Model Primary Health Centre;;;;;
Roni;Baragumi Ward;;Nanumawa Health Post;;;;;
Roni;Baragumi Ward;;Baragumi Dispensary;;;;;
Roni;Dansure Ward;;Dansure Dispensary;;;;;
Roni;Fara Barinje Ward;;Fara Barinje Health Post;;;;;
Roni;Gora Ward;;Tuntube Health Post;;;;;
Roni;Gora Ward;;Gora Basic Health Clinic;;;;;
Roni;Kwatai Ward;;Bashe Health Post;;;;;
Roni;Roni Ward;;Roni Primary Health Centre;;;;;
Roni;Sankau Ward;;Sankau Health Post;;;;;
Roni;Tunas Ward;;Unguwar Mani Health Post;;;;;
Roni;Tunas Ward;;Dangadi Health Post;;;;;
Roni;Tunas Ward;;Takwardawa Dispensary;;;;;
Roni;Yanzaki Ward;;Yassara Basic Health Clinic;;;;;
Roni;Zugai Ward;;Zugai Dispensary;;;;;
Roni;Zugai Ward;;Gangare Basic Health Clinic;;;;;
Sule-Tankarkar;Albasu Ward;;Albasu Dispensary;;;;;
Sule-Tankarkar;Albasu Ward;;Kirgi Dispensary;;;;;
Sule-Tankarkar;Amanga Ward;;Maitsamiya Health Post;;;;;
Sule-Tankarkar;Amanga Ward;;Togai Health Post;;;;;
Sule-Tankarkar;Amanga Ward;;Amanga Primary Health Center;;;;;
Sule-Tankarkar;Dangwanki Ward;;Danmakama Dispensary;;;;;
Sule-Tankarkar;Dangwanki Ward;;Dangwanki Dispensary;;;;;
Sule-Tankarkar;Dangwanki Ward;;Malam Kadir Health Post;;;;;
Sule-Tankarkar;Dangwanki Ward;;Mu'azu Health Post;;;;;
Sule-Tankarkar;Dangwanki Ward;;Hannun Giwa Primary Health Centre;;;;;
Sule-Tankarkar;Danladi Ward;;Danladi Dispensary;;;;;
Sule-Tankarkar;Danladi Ward;;Malam Bako Dispensary;;;;;
Sule-Tankarkar;Danladi Ward;;Babban Sara Health Post;;;;;
Sule-Tankarkar;Danzomo Ward;;Nagwamitse Health Post;;;;;
Sule-Tankarkar;Danzomo Ward;;Danzomo Health Clinic;;;;;
Sule-Tankarkar;Danzomo Ward;;Kakudi Basic Health Clinic;;;;;
Sule-Tankarkar;Jeke Ward;;Bandakado Health Post;;;;;
Sule-Tankarkar;Jeke Ward;;Jeke Health Post;;;;;
Sule-Tankarkar;Shabaru Ward;;Shabaru Health Post;;;;;
Sule-Tankarkar;Shabaru Ward;;Hammado Health Post;;;;;
Sule-Tankarkar;Sule Ward;;Sule Basic Health Clinic;;;;;
Sule-Tankarkar;Sule Ward;;Sule Primary Health Centre;;;;;
Sule-Tankarkar;Takatsaba Ward;;Banaga Basic Health Clinic;;;;;
Sule-Tankarkar;Takatsaba Ward;;Takatsaba Health Post;;;;;
Sule-Tankarkar;Yandamo Ward;;Yandamo Health Post;;;;;
Sule-Tankarkar;Yandamo Ward;;Baldi Dispensary;;;;;
Sule-Tankarkar;Yandamo Ward;;Kuka Basic Health Clinic;;;;;
Taura;Ajaura Ward;;Nahuce (Taura) Health Post;;;;;
Taura;Ajaura Ward;;Bardo Dispensary;;;;;
Taura;Ajaura Ward;;Ajaura Health Post;;;;;
Taura;Chakwaikwaiwa Ward;;Mahoni Health Post;;;;;
Taura;Chakwaikwaiwa Ward;;Chakwaikwaiwa Dispensary;;;;;
Taura;Chukuto Ward;;Kwajali Health Post;;;;;
Taura;Chukuto Ward;;Chukuto Dispensary;;;;;
Taura;Chukuto Ward;;Bidawa Health Post;;;;;
Taura;Chukuto Ward;;Kukui Dispensary;;;;;
Taura;Chukuto Ward;;K/Gazara Health Post;;;;;
Taura;Gujungu Ward;;Wayu Babba Health Post;;;;;
Taura;Gujungu Ward;;Gujungu Health Clinic;;;;;
Taura;Kiri Ward;;Kiri Health Post;;;;;
Taura;Kwalam Ward;;Kwalam Primary Health Centre;;;;;
Taura;Kwalam Ward;;Maiyadiya Health Clinic;;;;;
Taura;Kwalam Ward;;Gilma Health Clinic;;;;;
Taura;Maje Taura Ward;;Tsadawa Health Clinic;;;;;
Taura;Maje Taura Ward;;Maje Dispensary;;;;;
Taura;Maje Taura Ward;;Yangayami Health Post;;;;;
Taura;Majia Ward;;Majiya Dispensary;;;;;
Taura;Sabon Gari Taura Ward;;Sabon Gari Taura Health Post;;;;;
Taura;Sabon Gari Taura Ward;;Kundu Health Post;;;;;
Taura;Taura Ward;;Taura Primary Health Centre;;;;;
Taura;Taura Ward;;Malamawa Taura Health Post;;;;;
Yankwashi;Achilafiya Ward;;Achilafiya Basic Health Clinic;;;;;
Yankwashi;Belas Ward;;Dankari Health Post;;;;;
Yankwashi;Belas Ward;;Sada Health Post;;;;;
Yankwashi;Dawan Gawo Ward;;Murde Health Post;;;;;
Yankwashi;Gurjiya Ward;;Gurjiya Basic Health Clinic;;;;;
Yankwashi;Gurjiya Ward;;Sabuwa Health Post;;;;;
Yankwashi;Gwarta Ward;;Gwarta Basic Health Clinic;;;;;
Yankwashi;Gwarta Ward;;Rauda Basic Health Post;;;;;
Yankwashi;Karkarna Ward;;Karkarna Basic Health Clinic;;;;;
Yankwashi;Kuda Ward;;Kuda Basic Health Clinic;;;;;
Yankwashi;Ringim Yankwashi Ward;;Ringim Health Post;;;;;
Yankwashi;Ringim Yankwashi Ward;;Ruruma Health Post;;;;;
Yankwashi;Ringim Yankwashi Ward;;Dumbu Health Post;;;;;
Yankwashi;Yankwashi Ward;;Zoto Health Post;;;;;
Yankwashi;Yankwashi Ward;;Yankwashi Health Post;;;;;
Yankwashi;Zungumba Ward;;Firji Health Post;;;;;
