LGA;Ward;Settlement;Facility;Type;Ownership;Address;Longitude;Latitude
Adavi;Adavi-Eba Ward;;Talk Health Clinic;;;;;
Adavi;Adavi-Eba Ward;;Gods Glory Hospital;;;;;
Adavi;Adavi-Eba Ward;;Adavi Eba Cottage Hospital;;;;;
Adavi;Adavi-Eba Ward;;Agape Clinic;;;;;
Adavi;Adavi-Eba Ward;;Adavi-Eba Primary Health Centre;;;;;
Adavi;Adavi-Eba Ward;;Osoma Primary Health Centre;;;;;
Adavi;Egge Ward;;Adavi Basic Health Clinic (Egge);;;;;
Adavi;Egge Ward;;Egge Primary Health Centre;;;;;
Adavi;Idanuha Ward;;Obuburu Primary Health Centre;;;;;
Adavi;Inioziomi Ward;;Apasi Clinic;;;;;
Adavi;Inioziomi Ward;;Oyiza Hospital;;;;;
Adavi;Karaworo Ward;;Iresuha Primary Health Centre;;;;;
Adavi;Karaworo Ward;;Amoyiza Clinic;;;;;
Adavi;Kuroko 1 Ward;;Adavi Evangelical Church of West Africa (ECWA) Hospital;;;;;
Adavi;Kuroko 1 Ward;;Adavi Family Support Programme Maternity Clinic;;;;;
Adavi;Kuroko 2 Ward;;Adavi Basic Health Clinic (Kuroko 2);;;;;
Adavi;Nagazi Ward;;Osara Modern Primary Health Centre;;;;;
Adavi;Nagazi Ward;;Adavi Government Secondary School Clinic;;;;;
Adavi;Nagazi Ward;;Deeza Hospital;;;;;
Adavi;Nagazi Ward;;Peoples Clinic;;;;;
Adavi;Nagazi Ward;;Utoro Primary Health Centre;;;;;
Adavi;Nagazi Ward;;Fati Memorial Clinic;;;;;
Adavi;Nagazi Ward;;CSS School Clinic;;;;;
Adavi;Nagazi Ward;;Irewagere Primary Health Centre;;;;;
Adavi;Nagazi Ward;;Nagazi Comprehensive Health Centre;;;;;
Adavi;Nagazi Ward;;Nagazi Clinic and Maternity;;;;;
Adavi;Nagazi Ward;;Aku Primary Health Centre;;;;;
Adavi;Nagazi Ward;;Oziokutu Modern Primary Health Centre;;;;;
Adavi;Nagazi Ward;;Irepene Primary Health Centre;;;;;
Adavi;Nagazi Ward;;Atami Primary Health Centre;;;;;
Adavi;Nagazi Ward;;Ogaminana Clinic;;;;;
Adavi;Okunchi Ward;;Ozuri Modern Primary Health Centre;;;;;
Adavi;Okunchi Ward;;Ozuri School Clinic;;;;;
Adavi;Okunchi Ward;;Ada-Ohi Primary Health Care Centre;;;;;
Adavi;Okunchi Ward;;Mercy Clinic;;;;;
Adavi;Osisi Ipaku Ward;;Osisi Maternity;;;;;
Adavi;Uhucheba Ward;;Victory Clinic;;;;;
Ajaokuta; Odonu/Ohuege Ward;;Ayello Clinic;;;;;
Ajaokuta;Adogo Ward;;Adogo Cottage Hospital;;;;;
Ajaokuta;Adogo Ward;;Adogo Primary Health Centre;;;;;
Ajaokuta;Adogwu / Ogodo Ward;;Ogodo Primary Health Centre;;;;;
Ajaokuta;Ajaokuta Ward;;Oguro Primary Health Centre;;;;;
Ajaokuta;Ajaokuta Ward;;KM 18 Primary Health Centre;;;;;
Ajaokuta;Ajaokuta Ward;;Ajaokuta Primary Health Centre;;;;;
Ajaokuta;Ebiya North Ward;;Okuha Obanyi Primary Health Centre;;;;;
Ajaokuta;Ebiya South Ward;;Apanko Primary Health Centre;;;;;
Ajaokuta;Geregu Ward;;Geregu Primary Health Centre;;;;;
Ajaokuta;Geregu Ward;;Asco Medical Center, Ajaokuta;;;;;
Ajaokuta;Geregu Ward;;Larouk Clinic;;;;;
Ajaokuta;Geregu Ward;;Township Clinic;;;;;
Ajaokuta;Geregu Ward;;Elaite Primary Health Centre;;;;;
Ajaokuta;Geregu Ward;;Ukporoko Primary Health Centre;;;;;
Ajaokuta;Geregu Ward;;Emiworo Primary Health Centre;;;;;
Ajaokuta;Geregu Ward;;Duro Soloye Clinic;;;;;
Ajaokuta;Geregu Ward;;Emi Adiko Primary Health Centre;;;;;
Ajaokuta;Geregu Ward;;Ganaja Primary Health Centre;;;;;
Ajaokuta;Geregu Ward;;Ko Unique Clinic;;;;;
Ajaokuta;Ogigiri Ward;;Ogigiri Primary Health Centre;;;;;
Ajaokuta;Patesi Abodu Ward;;Petesi Primary Health Centre;;;;;
Ajaokuta;Ukpake Ward;;Obangede Primary Health Centre;;;;;
Ajaokuta;Unosi Omgbo Ward;;Unosi Primary Health Centre;;;;;
Ajaokuta;Upaja/Uchuwa Ward;;Inayere Primary Health Centre;;;;;
Ankpa;Ankpa Subbub 1 Ward;;Egbeche Primary Health Centre;;;;;
Ankpa;Ankpa Subbub 1 Ward;;Acheka Medical Centre;;;;;
Ankpa;Ankpa Subbub 1 Ward;;Ojogobi Primary Health Centre;;;;;
Ankpa;Ankpa Subbub 1 Ward;;Emanyi Primary Health Centre;;;;;
Ankpa;Ankpa Subbub 1 Ward;;Owelle Primary Health Centre;;;;;
Ankpa;Ankpa Subbub 2 Ward;;Ochi-Otago Primary Health Centre;;;;;
Ankpa;Ankpa Subbub 2 Ward;;Ogodo Primary Health Centre (Ankpa);;;;;
Ankpa;Ankpa Subbub 2 Ward;;Acharane Primary Health Centre;;;;;
Ankpa;Ankpa Subbub 2 Ward;;Akuh Primary Health Centre;;;;;
Ankpa;Ankpa Subbub 2 Ward;;Lagos Ochi Primary Health Centre;;;;;
Ankpa;Ankpa Township Ward;;Ankpa Family Support Programme Clinic;;;;;
Ankpa;Ankpa Township Ward;;Ogaji Primary Health Centre;;;;;
Ankpa;Ankpa Township Ward;;Ankpa Staff Clinic;;;;;
Ankpa;Ankpa Township Ward;;Mother and Child Clinic;;;;;
Ankpa;Ankpa Township Ward;;Amazing Grace Clinic;;;;;
Ankpa;Ankpa Township Ward;;Ankpa General Hospital;;;;;
Ankpa;Ankpa Township Ward;;Angwa Primary Health Centre;;;;;
Ankpa;Ankpa Township Ward;;Enopkoli Primary Health Centre;;;;;
Ankpa;Ankpa Township Ward;;Ankpa Primary Health Centre;;;;;
Ankpa;Ankpa Ward 1;;Emere Primary Health Centre;;;;;
Ankpa;Ankpa Ward 1;;Enelie Primary Health Care Centre;;;;;
Ankpa;Ankpa Ward 1;;Emekutu Primary Health Centre;;;;;
Ankpa;Ankpa Ward 1;;Ejegbo Primary Health Centre;;;;;
Ankpa;Ankpa Ward 1;;Ikanekpo Primary Health Centre;;;;;
Ankpa;Ankpa Ward 1;;Ojapata Primary Health Centre;;;;;
Ankpa;Ankpa Ward 1;;El-Nasir Clinic (Ankpa);;;;;
Ankpa;Ankpa Ward 2;;Ochunobi Primary Health Centre;;;;;
Ankpa;Ankpa Ward 2;;Uboji Primary Health Centre;;;;;
Ankpa;Ankpa Ward 2;;Amoke Primary Health Centre;;;;;
Ankpa;Ankpa Ward 2;;Ejinya Efofe Primary Health Centre;;;;;
Ankpa;Ankpa Ward 2;;Ejinya Okenyi Primary Health Centre;;;;;
Ankpa;Ankpa Ward 2;;Abache Primary Health Centre;;;;;
Ankpa;Enjema 1 Ward;;Emabu Primary Health Centre;;;;;
Ankpa;Enjema 1 Ward;;Okobo Opiko Primary Health Centre;;;;;
Ankpa;Enjema 1 Ward;;Odagba Primary Health Centre;;;;;
Ankpa;Enjema 1 Ward;;Enabo Model Primary Health Centre;;;;;
Ankpa;Enjema 1 Ward;;Enagbede Primary Health Centre;;;;;
Ankpa;Enjema 1 Ward;;Okobo Primary Health Centre;;;;;
Ankpa;Enjema 1 Ward;;Ko New Odagba Primary Health Care;;;;;
Ankpa;Enjema 1 Ward;;Enjema Primary Health Centre;;;;;
Ankpa;Enjema 2 Ward;;Aforgamgam Primary Health Centre;;;;;
Ankpa;Enjema 2 Ward;;Ofugo Maternity;;;;;
Ankpa;Enjema 2 Ward;;Ukpolobia Primary Health Care Centre;;;;;
Ankpa;Enjema 2 Ward;;Olufofo Primary Health Care Centre;;;;;
Ankpa;Enjema 2 Ward;;Ofugo Dispensary;;;;;
Ankpa;Enjema 3 Ward;;MPHCDA Centre;;;;;
Ankpa;Enjema 3 Ward;;Agbeneba Primary Health Centre;;;;;
Ankpa;Enjema 3 Ward;;Inye Maternity Centre;;;;;
Ankpa;Enjema 4 Ward;;Ko Ajitata Primary Health Centre;;;;;
Ankpa;Enjema 4 Ward;;Awulu Primary Health Centre;;;;;
Ankpa;Enjema 4 Ward;;Achele Primary Health Centre;;;;;
Ankpa;Enjema 4 Ward;;Agumagu Primary Health Centre;;;;;
Ankpa;Enjema 4 Ward;;Ikalorin Primary Health Centre;;;;;
Ankpa;Enjema 4 Ward;;Odopono Primary Health Centre;;;;;
Ankpa;Enjema 4 Ward;;Ika Christan Hospital;;;;;
Ankpa;Ojoku 1 Ward;;Odogomu Primary Health Centre;;;;;
Ankpa;Ojoku 1 Ward;;Ojoku Primary Health Centre;;;;;
Ankpa;Ojoku 1 Ward;;Ajobe Primary Health Centre;;;;;
Ankpa;Ojoku 1 Ward;;Cottage Hospital Ojoku;;;;;
Ankpa;Ojoku 2 Ward;;Ukpaba Primary Health Centre;;;;;
Ankpa;Ojoku 2 Ward;;Okaba Primary Health Centre;;;;;
Ankpa;Ojoku 2 Ward;;Okpoku Primary Health Centre;;;;;
Ankpa;Ojoku 2 Ward;;Okaba Maternity;;;;;
Ankpa;Ojoku 2 Ward;;Ogbagbala Primary Health Centre;;;;;
Ankpa;Ojoku 2 Ward;;Ko Ofano Primary Health Centre;;;;;
Ankpa;Ojoku 3 Ward;;Akatapia Primary Health Centre;;;;;
Ankpa;Ojoku 3 Ward;;Inyologu Primary Health Centre;;;;;
Ankpa;Ojoku 4 Ward;;Awo-Efiga Primary Health Centre;;;;;
Ankpa;Ojoku 4 Ward;;Awo-Akukunda Primary Health Centre;;;;;
Bassa;Akakana Ayede Ward;;Inigu Tamazhe Primary Health Centre;;;;;
Bassa;Akakana Ayede Ward;;Ayede Primary Health Centre;;;;;
Bassa;Akakana Ayede Ward;;Rivine Primary Health Centre;;;;;
Bassa;Akakana Ayede Ward;;Paruwa Primary Health Centre;;;;;
Bassa;Akakana Ayede Ward;;Ko Akakana ECWA Clinic;;;;;
Bassa;Akakana Ayede Ward;;Inugu-Omono Primary Health Centre;;;;;
Bassa;Akakana Ayede Ward;;Kekure Primary Health Centre;;;;;
Bassa;Akakana Ayede Ward;;Nyimowa Primary Health Centre;;;;;
Bassa;Akuba 1 Ward;;Sheria Primary Health Centre;;;;;
Bassa;Akuba 1 Ward;;Gbejikere Primary Health Centre;;;;;
Bassa;Akuba 1 Ward;;Gbechi Primary Health Centre;;;;;
Bassa;Akuba 1 Ward;;Sheria Catholic Mission Hospital;;;;;
Bassa;Akuba 1 Ward;;Oguma General Hospital;;;;;
Bassa;Akuba 1 Ward;;Oguma Primary Health Centre;;;;;
Bassa;Akuba 2 Ward;;Kporo Primary Health Centre;;;;;
Bassa;Akuba 2 Ward;;Aloko Primary Health Centre;;;;;
Bassa;Akuba 2 Ward;;Koriko Primary Health Centre;;;;;
Bassa;Akuba 2 Ward;;Okundugu Primary Health Centre;;;;;
Bassa;Akuba 2 Ward;;Odenyi Primary Health Centre;;;;;
Bassa;Akuba 2 Ward;;Agodo Primary Health Centre;;;;;
Bassa;Akuba 2 Ward;;Onyoji Primary Health Centre;;;;;
Bassa;Akuba 2 Ward;;Tetengu Primary Health Centre;;;;;
Bassa;Akuba 2 Ward;;Echuku Primary Health Centre;;;;;
Bassa;Akuba 2 Ward;;Ko Ujoh Primary Health Centre;;;;;
Bassa;Eforo Ward;;Eforo Primary Health Centre;;;;;
Bassa;Eforo Ward;;Koji Primary Health Centre;;;;;
Bassa;Eforo Ward;;Atte Primary Health Centre;;;;;
Bassa;Gboloko Ward;;Emi Audu Primary Health Centre;;;;;
Bassa;Gboloko Ward;;Emi Dale Primary Health Centre;;;;;
Bassa;Gboloko Ward;;Emi Boci Primary Health Centre;;;;;
Bassa;Gboloko Ward;;Gboloko Primary Health Centre;;;;;
Bassa;Gboloko Ward;;Effin Primary Health Centre;;;;;
Bassa;Ikende Ward;;Ikende Primary Health Centre;;;;;
Bassa;Ikende Ward;;Wusa Primary Health Centre;;;;;
Bassa;Ikende Ward;;Odulo Primary Health Centre;;;;;
Bassa;Kpata Ward;;Kpata Primary Health Centre;;;;;
Bassa;Kpata Ward;;Emi-Guni Primary Health Centre;;;;;
Bassa;Kpata Ward;;Emi Abaida Primary Health Centre;;;;;
Bassa;Kpata Ward;;Gande Primary Health Centre;;;;;
Bassa;Kpata Ward;;Atakpa Primary Health Centre;;;;;
Bassa;Kpata Ward;;Gbobe Primary Health Centre;;;;;
Bassa;Kpata Ward;;Ecewu Primary Health Centre;;;;;
Bassa;Kpata Ward;;Shintaku Primary Health Centre;;;;;
Bassa;Mozum Ward;;Mozum Primary Health Centre;;;;;
Bassa;Mozum Ward;;Ogba Primary Health Centre;;;;;
Bassa;Ozongulo Ward;;Karuko Primary Health Centre;;;;;
Bassa;Ozugbe Ward;;Biroko Primary Health Centre;;;;;
Dekina;Abocho Ward;;Biraidu Primary Health Centre;;;;;
Dekina;Abocho Ward;;Abocho Cottage Hospital;;;;;
Dekina;Abocho Ward;;Abocho Primary Health Centre;;;;;
Dekina;Abocho Ward;;Araba-Salifu Primary Health Centre;;;;;
Dekina;Abocho Ward;;Ajegwuna Primary Health Centre;;;;;
Dekina;Abocho Ward;;Ajiolo Abocho Model Primary Health Centre;;;;;
Dekina;Anyigba Ward;;Blue House Hospital;;;;;
Dekina;Anyigba Ward;;Ojofu Primary Health Centre;;;;;
Dekina;Anyigba Ward;;Anyigba Comprehensive Health Centre;;;;;
Dekina;Anyigba Ward;;Anyingba Primary Health Centre;;;;;
Dekina;Anyigba Ward;;Maria-Gorritt Hospital;;;;;
Dekina;Anyigba Ward;;Agbeji  Primary Health Centre;;;;;
Dekina;Anyigba Ward;;Agbenema Primary Health Centre;;;;;
Dekina;Anyigba Ward;;Grimard Hospital;;;;;
Dekina;Dekina Ward;;Okikili primary Health Centre;;;;;
Dekina;Dekina Ward;;Udaba Dekina Primary Health Centre;;;;;
Dekina;Dekina Ward;;Dekina Maternal and Child Health Clinic;;;;;
Dekina;Dekina Ward;;Dekina General Hospital;;;;;
Dekina;Egume Ward;;Acharu Primary Health Centre;;;;;
Dekina;Egume Ward;;Ogene-Egume Primary Health Centre;;;;;
Dekina;Egume Ward;;Restoration Clinic Efikpo;;;;;
Dekina;Egume Ward;;Egume General Hospital;;;;;
Dekina;Egume Ward;;Ijoji Primary Health Centre;;;;;
Dekina;Emewe Ward;;Emewe Opada Primary Health Centre;;;;;
Dekina;Emewe Ward;;Emewe-Efopa Primary Health Centre;;;;;
Dekina;Iyale Ward;;Iyale General Hospital;;;;;
Dekina;Iyale Ward;;Etutekpe Primary Health Centre;;;;;
Dekina;Iyale Ward;;Iyale Primary Health Centre;;;;;
Dekina;Iyale Ward;;Ologba Primary Health Centre;;;;;
Dekina;Iyale Ward;;Ikpakpala Primary Health Centre;;;;;
Dekina;Iyale Ward;;Ogane-Uge Primary Health Centre;;;;;
Dekina;Iyale Ward;;Ulaja Model Primary Health Centre;;;;;
Dekina;Odu 1 Ward;;Ajaruwake Primary Health Centre;;;;;
Dekina;Odu 1 Ward;;Ogbayaga Primary Health Centre;;;;;
Dekina;Odu 1 Ward;;Odu Ofugo Primary Health Centre (Dekina);;;;;
Dekina;Odu 1 Ward;;Ogodanya Primary Health Centre;;;;;
Dekina;Odu 1 Ward;;Ogbaloto Primary Health Centre;;;;;
Dekina;Odu 2 Ward;;Ajiolo Ojaji Primary Health Centre;;;;;
Dekina;Odu 2 Ward;;Odu-Anana Primary Health Centre;;;;;
Dekina;Odu 2 Ward;;Ajagumu Primary Health Centre;;;;;
Dekina;Odu 2 Ward;;Odu-Ochele Primary Health Centre;;;;;
Dekina;Odu 2 Ward;;Ajiolo Ajikpome Primary Health Centre;;;;;
Dekina;Oganenigu Ward;;Ojuwo-Ile Primary Health Centre;;;;;
Dekina;Ogbabede Ward;;Ajogwoni Primary Health Centre;;;;;
Dekina;Ogbabede Ward;;Ajudacha Primary Health Centre;;;;;
Dekina;Ogbabede Ward;;Olowa-Etiaja Primary Health Centre;;;;;
Dekina;Ojikpadala Ward;;Ewune Primary Health Centre;;;;;
Dekina;Ojikpadala Ward;;Alade Primary Health Centre;;;;;
Dekina;Ojikpadala Ward;;Ojuwo Primary Health Centre;;;;;
Dekina;Okura Ward;;Okura-Olafia Primary Health Centre;;;;;
Dekina;Okura Ward;;Ogbogodo-Lokoja Primary Health Centre;;;;;
Dekina;Okura Ward;;Itama Primary Health Centre;;;;;
Ibaji;Akpanyo Ward (Ibaji);;Ayeke Primary Health Centre;;;;;
Ibaji;Akpanyo Ward (Ibaji);;Enweli Primary Health Centre;;;;;
Ibaji;Akpanyo Ward (Ibaji);;Oboyo Primary Health Centre;;;;;
Ibaji;Analo Ward (Ibaji);;Obale Primary Health Centre;;;;;
Ibaji;Analo Ward (Ibaji);;Affa Primary Health Centre;;;;;
Ibaji;Analo Ward (Ibaji);;Elele Primary Health Centre;;;;;
Ibaji;Analo Ward (Ibaji);;Ekanyi Primary Health Centre;;;;;
Ibaji;Ayah Ward (Ibaji);;Onugwa Primary Health Centre;;;;;
Ibaji;Ayah Ward (Ibaji);;Odomomoh Primary Health Centre;;;;;
Ibaji;Ayah Ward (Ibaji);;Oji-Alah Primary Health Centre;;;;;
Ibaji;Ayah Ward (Ibaji);;Iteh Primary Health Centre;;;;;
Ibaji;Ejule Ward (Ibaji);;Ejule Ojebe Primary Health Centre;;;;;
Ibaji;Ejule Ward (Ibaji);;Ejjule Onuh Primary Health Centre;;;;;
Ibaji;Ejule Ward (Ibaji);;Nwajala Primary Health Centre;;;;;
Ibaji;Ejule Ward (Ibaji);;Ichala Ajode Primary Health Centre;;;;;
Ibaji;Iyano Ward (Ibaji);;Eju Olefe Primary Health Centre;;;;;
Ibaji;Iyano Ward (Ibaji);;Adane Primary Health Centre;;;;;
Ibaji;Iyano Ward (Ibaji);;Iyano Primary Health Centre;;;;;
Ibaji;Iyano Ward (Ibaji);;Abujaga Primary Health Centre;;;;;
Ibaji;Odeke Ward (Ibaji);;Odeke Primary Health Centre;;;;;
Ibaji;Odeke Ward (Ibaji);;Ere-Orachi Primary Health Centre;;;;;
Ibaji;Odeke Ward (Ibaji);;Ihile Primary Health Centre;;;;;
Ibaji;Ojila Ward (Ibaji);;Echeno Primary Health Centre;;;;;
Ibaji;Ojila Ward (Ibaji);;Omabo Primary Health Centre;;;;;
Ibaji;Ojila Ward (Ibaji);;Anocha Primary Health Centre;;;;;
Ibaji;Onyedega Ward (Ibaji);;Ojuba Primary Health Centre;;;;;
Ibaji;Onyedega Ward (Ibaji);;Onyedega Primary Health Centre;;;;;
Ibaji;Onyedega Ward (Ibaji);;Ottah Primary Health Centre;;;;;
Ibaji;Onyedega Ward (Ibaji);;Itoduma Primary Health Centre;;;;;
Ibaji;Onyedega Ward (Ibaji);;Agbojo Primary Health Centre;;;;;
Ibaji;Ujeh Ward (Ibaji);;Ikah Primary Health Centre;;;;;
Ibaji;Ujeh Ward (Ibaji);;Ujeh Primary Health Centre;;;;;
Ibaji;Unale Ward (Ibaji);;Ubonye Primary Health Centre;;;;;
Ibaji;Unale Ward (Ibaji);;Unele Primary Health Centre II;;;;;
Ibaji;Unale Ward (Ibaji);;Unele Primary Health Centre I;;;;;
Idah;Ede Ward;;Ede Adejoh Primary Health Centre;;;;;
Idah;Ko Ega Ward;;Ko Ega Primary Health Centre;;;;;
Idah;Ko Ega Ward;;Family Health Centre;;;;;
Idah;Ko Ega Ward;;Ubiga Primary Health Centre;;;;;
Idah;Ichala Ward;;Atanegoma Primary Health Centre;;;;;
Idah;Ichala Ward;;Ijobe Primary Health Centre;;;;;
Idah;Ichala Ward;;Makoja Primary Health Centre;;;;;
Idah;Igala - Ogba  Ward;;Igala - Ogba Primary Health Centre;;;;;
Idah;Igala - Ogba  Ward;;Onah Primary Health Centre;;;;;
Idah;Igechaba Ward;;Ko Igacheba Primary Health Centre;;;;;
Idah;Ogegele Ward;;Ala - Okweje Primary Health Centre;;;;;
Idah;Ogegele Ward;;Efulu Primary Health Centre;;;;;
Idah;Ogegele Ward;;Ogegele Primary Health Centre;;;;;
Idah;Owoli - APA Ward;;Ubomu Primary Health Centre;;;;;
Idah;Owoli - APA Ward;;Okotonwa Primary Health Centre;;;;;
Idah;Owoli - APA Ward;;Ko Atta Palace Primary Health Centre;;;;;
Idah;Sabongari Ward;;Ofuloko Primary Health Centre;;;;;
Idah;Sabongari Ward;;Sabongari I Primary Health Centre;;;;;
Idah;Sabongari Ward;;Sabongari II Primary Health Centre;;;;;
Idah;Ugwoda Ward;;Ichekene Primary Health Centre;;;;;
Idah;Ugwoda Ward;;Ajaina Primary Health Centre;;;;;
Idah;Ugwoda Ward;;Alokoina Primary Health Centre;;;;;
Idah;Ugwoda Ward;;Ugbetulu Primary Health Centre;;;;;
Idah;Ugwoda Ward;;Ogenegwu Primary Health Centre;;;;;
Idah;Ugwoda Ward;;Ugwoda Primary Health Centre;;;;;
Idah;Ugwoda Ward;;Akpatega Primary Health Centre;;;;;
Idah;Ko Ukwaja Ward;;Ukwaja Primary Health Centre;;;;;
Idah;Ko Ukwaja Ward;;Mission Primary Health Centre;;;;;
Idah;Ko Ukwaja Ward;;Angwa Primary Health Centre;;;;;
Idah;Ko Ukwaja Ward;;Family Support Programme Clinic;;;;;
Idah;Ko Ukwaja Ward;;Ubomu Primary Health Centre;;;;;
Idah;Ko Ukwaja Ward;;Ubiegbe Primary Health Centre;;;;;
Idah;Ko Ukwaja Ward;;Nachalo Primary Health Centre;;;;;
Igalamela-Odolu;Ajaka 1 Ward;;Ujagba Primary Health Centre;;;;;
Igalamela-Odolu;Ajaka 1 Ward;;Otubo-Adoyi Primary Health Centre;;;;;
Igalamela-Odolu;Ajaka 1 Ward;;Otobo Adokpulu Clinic;;;;;
Igalamela-Odolu;Ajaka 1 Ward;;Ajaka Comprehensive Health Centre;;;;;
Igalamela-Odolu;Ajaka 1 Ward;;Ogbagbada Clinic;;;;;
Igalamela-Odolu;Ajaka 1 Ward;;Ajaka Primary Health Centre;;;;;
Igalamela-Odolu;Ajaka 1 Ward;;Ibochi-Okanekpa Clinic;;;;;
Igalamela-Odolu;Ajaka 1 Ward;;Okpachala Clinic;;;;;
Igalamela-Odolu;Ajaka 1 Ward;;Ofuloko Clinic;;;;;
Igalamela-Odolu;Ajaka 1 Ward;;Ko Iyobo Primary Health Centre;;;;;
Igalamela-Odolu;Ajaka 1 Ward;;Ibochi Clinic;;;;;
Igalamela-Odolu;Ajaka 1 Ward;;Uwuwo Primary Health Care Centre;;;;;
Igalamela-Odolu;Ajaka 1 Ward;;Okpakpata Primary Health Centre;;;;;
Igalamela-Odolu;Ajaka 2 Ward;;Ofanwa Clinic;;;;;
Igalamela-Odolu;Ajaka 2 Ward;;Ko Ofudu Primary Health Centre;;;;;
Igalamela-Odolu;Ajaka 2 Ward;;Emachi Oko Primary Health Centre;;;;;
Igalamela-Odolu;Ajaka 2 Ward;;Ikare 2 Clinic;;;;;
Igalamela-Odolu;Ajaka 2 Ward;;Uragada Clinic;;;;;
Igalamela-Odolu;Ajaka 2 Ward;;Ojokuta-Olofu Clinic;;;;;
Igalamela-Odolu;Ajaka 2 Ward;;Imele/Okochogbe Clinic;;;;;
Igalamela-Odolu;Ajaka 2 Ward;;Ogbagba Clinic;;;;;
Igalamela-Odolu;Ajaka 2 Ward;;Ikara 1 Clinic;;;;;
Igalamela-Odolu;Akpanya Ward (Igalamela-Odolu);;Ogboligbo Primary Health Centre;;;;;
Igalamela-Odolu;Akpanya Ward (Igalamela-Odolu);;Agbokete Primary Health Centre;;;;;
Igalamela-Odolu;Akpanya Ward (Igalamela-Odolu);;Ijagodo Clinic;;;;;
Igalamela-Odolu;Akpanya Ward (Igalamela-Odolu);;Akpanya Clinic;;;;;
Igalamela-Odolu;Bele Ward;;Amaka Clinic;;;;;
Igalamela-Odolu;Eke-Avrugo Ward;;Allome Clinic;;;;;
Igalamela-Odolu;Eke-Avrugo Ward;;Eke-Avrugo Clinic;;;;;
Igalamela-Odolu;Eke-Avrugo Ward;;Umochina Clinic;;;;;
Igalamela-Odolu;Ekuloko Ward;;Ekwuloko Primary Health Centre;;;;;
Igalamela-Odolu;Odolu Ward (Igalamela-Odolu);;Egabada Primary Health Centre;;;;;
Igalamela-Odolu;Odolu Ward (Igalamela-Odolu);;Odolu Health Centre;;;;;
Igalamela-Odolu;Odolu Ward (Igalamela-Odolu);;Odolu General Hospital;;;;;
Igalamela-Odolu;Oforachi 1 Ward;;Oforachi Clinic;;;;;
Igalamela-Odolu;Oforachi 1 Ward;;Okekwu Clinic;;;;;
Igalamela-Odolu;Oforachi 1 Ward;;Ko Uwodu Primary Health Centre;;;;;
Igalamela-Odolu;Oforachi 1 Ward;;Alade Clinic;;;;;
Igalamela-Odolu;Oforachi 1 Ward;;Utoru Health Post;;;;;
Igalamela-Odolu;Oforachi 1 Ward;;Ogbogbo Health Clinic;;;;;
Igalamela-Odolu;Oforachi 1 Ward;;Iyegu Clinic;;;;;
Igalamela-Odolu;Oforachi 2 Ward;;Achokpa Clinic;;;;;
Igalamela-Odolu;Oforachi 2 Ward;;Ugbedomagu Clinic;;;;;
Igalamela-Odolu;Oforachi 2 Ward;;Okainwili Clinic;;;;;
Igalamela-Odolu;Oforachi 2 Ward;;Ofodo Clinic;;;;;
Igalamela-Odolu;Oforachi 2 Ward;;Ajodanwu Clinic;;;;;
Igalamela-Odolu;Oforachi 2 Ward;;Ikeffi Clinic;;;;;
Igalamela-Odolu;Oji-Aji Ward;;Olla Health Centre;;;;;
Ijumu;Aduge Ogale Ward;;Ayede Ogale Primary Health Centre;;;;;
Ijumu;Aduge Ogale Ward;;Idioro Primary Health Centre;;;;;
Ijumu;Aduge Ogale Ward;;Aduge Primary Health Centre;;;;;
Ijumu;Ayegune Iluhafon Ward;;Ayegunle Primary Health Centre;;;;;
Ijumu;Ayegune Iluhafon Ward;;Cottage Hospital Ayegunle;;;;;
Ijumu;Ayere Arima Ward;;Ko Ayere Arimo Cottage Hospital;;;;;
Ijumu;Ayere Arima Ward;;Ayere Primary Health Centre;;;;;
Ijumu;Ayere Arima Ward;;Arima Primary Health Centre;;;;;
Ijumu;Ayetoro Agrigbon Ward;;Aiyetoro Primary Health Centre;;;;;
Ijumu;Ayetoro Agrigbon Ward;;Aiyetoro General Hospital;;;;;
Ijumu;Ayetoro Agrigbon Ward;;Aiyetoro Dispensary;;;;;
Ijumu;Ayetoro Iluhagba Ward;;Iluhagba Primary Health Centre;;;;;
Ijumu;Ayetoro Iluhagba Ward;;Aduratedo Primary Health Centre;;;;;
Ijumu;Egbeda Okedayo Ward;;Egbeda Primary Health Centre;;;;;
Ijumu;Ekirin Ade Ward;;Ekirin Adde Cottage Hospital;;;;;
Ijumu;Ekirin Ade Ward;;Ekinrin-Ade Primary Health Centre;;;;;
Ijumu;Iffe/Ikoyi Ward;;Iffe Primary Health Centre;;;;;
Ijumu;Iffe/Ikoyi Ward;;Ikoyi Primary Health Centre;;;;;
Ijumu;Ilare Igbolare Ward;;Ilare Primary Health Centre;;;;;
Ijumu;Ileteju Origah Ward;;Ileteju Origah Primary Health Centre;;;;;
Ijumu;Iyah Ayeh Ward;;Iyah Primary Health Centre;;;;;
Ijumu;Iyah Ayeh Ward;;Ayeh Primary Health Centre;;;;;
Ijumu;Iyamoye Igbopin Ward;;Iyamoye Primary Health Centre;;;;;
Ijumu;Iyamoye Igbopin Ward;;General Hospital;;;;;
Ijumu;Iyamoye Igbopin Ward;;Igbopin Primary Health Centre;;;;;
Ijumu;Iyara Ward;;Ilupa Iyara Primary Health Centre;;;;;
Ijumu;Iyara Ward;;Oshanaye Hospital;;;;;
Ijumu;Iyara Ward;;LGA Staff Clinic;;;;;
Ijumu;Iyara Ward;;Family Support Programme Clinic Iyara;;;;;
Ijumu;Iyara Ward;;Iyara Comprehensive Health Centre;;;;;
Ijumu;Iyara Ward;;Banwo Health Clinic;;;;;
Ijumu;Okoro Igah Ward;;Ogidi Primary Health Centre;;;;;
Ijumu;Okoro Odokoro Araromi Ward;;Odokoro Primary Health Centre;;;;;
Ijumu;Okoro Odokoro Araromi Ward;;Araromi Primary Health Centre;;;;;
Ijumu;Okoro Odokoro Araromi Ward;;Okoro Primary Health Centre;;;;;
Kabba/Bunu;Aiyetero Kiri Ward;;Ihale Primary Health Centre;;;;;
Kabba/Bunu;Aiyetero Kiri Ward;;Ike Primary Health Centre;;;;;
Kabba/Bunu;Aiyetero Kiri Ward;;Aiyetorokiri Primary Health Centre;;;;;
Kabba/Bunu;Aiyewa Ward;;Secret Heart Nusery Sch Clinic;;;;;
Kabba/Bunu;Akutupa Kiri Ward;;Ofomule Primary Health Centre;;;;;
Kabba/Bunu;Akutupa Kiri Ward;;Akutupa Primary Health Centre;;;;;
Kabba/Bunu;Akutupa Kiri Ward;;Ofere Primary Health Centre;;;;;
Kabba/Bunu;Asuta Ward;;Ko Merci_ Gate Clinic;;;;;
Kabba/Bunu;Asuta Ward;;Coner Stone Clinic;;;;;
Kabba/Bunu;Asuta Ward;;Compound Comprehensive School Clinic;;;;;
Kabba/Bunu;Asuta Ward;;St John Catholic Hospital Kabba;;;;;
Kabba/Bunu;Asuta Ward;;Victory Clnic;;;;;
Kabba/Bunu;Asuta Ward;;St Monicas Clinic;;;;;
Kabba/Bunu;Ko Bolorunduro/Odoakete Ward;;Aiyin-lle Family Support Programme Clinic;;;;;
Kabba/Bunu;Ko Bolorunduro/Odoakete Ward;;Ko Deveritals Health Centre;;;;;
Kabba/Bunu;Egbeda Oke Oja  Ward;;Egbeda Maternal and Child Health Clinic;;;;;
Kabba/Bunu;Egbeda Oke Oja  Ward;;Aiyedun Primary Health Centre;;;;;
Kabba/Bunu;Iluke Ward;;Igbo Primary Health Centre;;;;;
Kabba/Bunu;Iluke Ward;;Ilogun Primary Health Centre;;;;;
Kabba/Bunu;Iluke Ward;;Illah Primary Health Centre;;;;;
Kabba/Bunu;Iluke Ward;;Iluke Primary Health Centre;;;;;
Kabba/Bunu;Iluke Ward;;Odae Primary Health Centre;;;;;
Kabba/Bunu;Iluke Ward;;Idoyi Primary Health Centre;;;;;
Kabba/Bunu;Kajola Aiyeteju Ward;;St Martins Clinic;;;;;
Kabba/Bunu;Kajola Aiyeteju Ward;;Kajola Primary Health Centre;;;;;
Kabba/Bunu;Odo-Ape Ward;;Odo-Ape Primary Health Centre;;;;;
Kabba/Bunu;Odo-Ape Ward;;Ko Agbadu Primary Health Centre;;;;;
Kabba/Bunu;Odo-Ape Ward;;Ko Ape Primary Health Centre;;;;;
Kabba/Bunu;Odolu Fehinti Ward;;St Barnabars Clinic;;;;;
Kabba/Bunu;Odolu Fehinti Ward;;Medubi Hospital;;;;;
Kabba/Bunu;Odolu Fehinti Ward;;Goshen Clinic and Maternity;;;;;
Kabba/Bunu;Odolu Fehinti Ward;;Fehinti Primary Health Centre;;;;;
Kabba/Bunu;Ko Okebukun Ward;;Okebunkun Primary Health Centre;;;;;
Kabba/Bunu;Ko Okebukun Ward;;Aherin Primary Health Centre;;;;;
Kabba/Bunu;Ko Okebukun Ward;;Agbede Appa Primary Health Centre;;;;;
Kabba/Bunu;Ko Okebukun Ward;;Aiyegunle Igun Primary Health Centre;;;;;
Kabba/Bunu;Okedayo Ward;;Kakun Primary Health Centre;;;;;
Kabba/Bunu;Okedayo Ward;;Ko Government Science Sch Clinic;;;;;
Kabba/Bunu;Okedayo Ward;;Okedayo Primary Health Centre;;;;;
Kabba/Bunu;Okekoko Ward;;Kabba DHU Clinic;;;;;
Kabba/Bunu;Okekoko Ward;;Owode Maternal and Child Health Clinic;;;;;
Kabba/Bunu;Okekoko Ward;;Odoafin Tuberculosis and Leprosy Control Unit;;;;;
Kabba/Bunu;Okekoko Ward;;LGA Staff Clinic;;;;;
Kabba/Bunu;Okekoko Ward;;Family Support Programme School Clinic;;;;;
Kabba/Bunu;Okekoko Ward;;Ko Odo Afin Primary Health Centre;;;;;
Kabba/Bunu;Olle/ Oke-Offin Ward;;Olle Bunu Primary Health Centre;;;;;
Kabba/Bunu;Olle/ Oke-Offin Ward;;Oke-Offin Primary Health Centre;;;;;
Kabba/Bunu;Olle/ Oke-Offin Ward;;Femi Hospital;;;;;
Kabba/Bunu;Olle/ Oke-Offin Ward;;Aiyede-Bun Primary Health Centre;;;;;
Kabba/Bunu;Ottu Ward;;Ko Ottu - Egube Primary Health Centre;;;;;
Kogi;Akpasu Ward;;Mozu Ete Primary Health Centre;;;;;
Kogi;Akpasu Ward;;Adangere Primary Health Centre;;;;;
Kogi;Akpasu Ward;;Kekere Primary Health Centre;;;;;
Kogi;Akpasu Ward;;Otense/Odah Primary Health Centre;;;;;
Kogi;Chikara North Ward;;Omoko Primary Health Centre;;;;;
Kogi;Chikara South Ward;;Aseni Primary Health Centre;;;;;
Kogi;Gegu North Ward;;Gegu Egba Primary Health Centre;;;;;
Kogi;Gegu North Ward;;Ahoko Primary Health Centre (Kogi);;;;;
Kogi;Gegu North Ward;;Adabo Primary Health Centre;;;;;
Kogi;Gegu South Ward;;Achabo/Orehi Primary Health Centre;;;;;
Kogi;Gegu South Ward;;G/Beki Primary Health Centre I;;;;;
Kogi;Gegu South Ward;;G/Beki Primary Health Centre II;;;;;
Kogi;Girinya Ward;;Robommi Primary Health Centre;;;;;
Kogi;Girinya Ward;;Iraki Primary Health Centre;;;;;
Kogi;Girinya Ward;;Giriya Basic Health Centre;;;;;
Kogi;Girinya Ward;;Ozahi Primary Health Centre;;;;;
Kogi;Kkf South East Ward;;Akpogu Primary Health Centre;;;;;
Kogi;Kkf South East Ward;;Ozi Primary Health Centre;;;;;
Kogi;Kkf South East Ward;;Okpareke Primary Health Centre;;;;;
Kogi;Kkf South East Ward;;Gaba Primary Health Center;;;;;
Kogi;Kkf South East Ward;;Onzo Primary Health Centre;;;;;
Kogi;Kkf South East Ward;;Akpaku Primary Health Centre;;;;;
Kogi;Odaki Ward;;FSP Clinic Koton-Karfe;;;;;
Kogi;Tawari Ward;;Gbarada Primary Health Centre;;;;;
Kogi;Tawari Ward;;Tawari Primary Health Centre;;;;;
Kogi;Tawari Ward;;Serejama Primary Health Centre;;;;;
Kogi;Tawari Ward;;Tazayin Primary Health Centre;;;;;
Kogi;Tawari Ward;;Achara Primary Health Centre;;;;;
Kogi;Ukwo Ward;;Ideal Hospital;;;;;
Lokoja;Eggan Ward;;Eggan Primary Health Centre;;;;;
Lokoja;Kakadan Ward;;Ataji Primary Health Centre;;;;;
Lokoja;Kakadan Ward;;Gori Primary Health Centre;;;;;
Lokoja;Kakadan Ward;;Budon Primary Health Centre;;;;;
Lokoja;Kakadan Ward;;Buge Primary Health Centre;;;;;
Lokoja;Kupa North Ward;;Ebbe Primary Health Centre;;;;;
Lokoja;Kupa North Ward;;Mami Primary Health Centre;;;;;
Lokoja;Kupa North Ward;;Agini Primary Health Centre;;;;;
Lokoja;Kupa South Ward;;Ekan Primary Health Centre;;;;;
Lokoja;Kupa South Ward;;Kayinko Primary Health Centre;;;;;
Lokoja;Kupa South Ward;;Awumi Community Primary Health Centre;;;;;
Lokoja;Kupa South Ward;;Gbebu Primary Health Centre;;;;;
Lokoja;Kupa South Ward;;Abugi Cottage Hospital;;;;;
Lokoja;Lokoja Ward A;;Kogi State Specialist Hospital,Lokoja;;;;;
Lokoja;Lokoja Ward A;;Nigerian Police Clinic;;;;;
Lokoja;Lokoja Ward A;;Helping Hands Women Hospital;;;;;
Lokoja;Lokoja Ward A;;Lokogoma Primary Health Centre;;;;;
Lokoja;Lokoja Ward A;;Ko Civil Service Clinic;;;;;
Lokoja;Lokoja Ward A;;Newlayout  Primary Health Centre;;;;;
Lokoja;Lokoja Ward A;;Ali-Omeiza Hospital;;;;;
Lokoja;Lokoja Ward A;;Ko Lokoja Workers Village Clinic;;;;;
Lokoja;Lokoja Ward A;;Niger Hospital;;;;;
Lokoja;Lokoja Ward A;;Lokoja Federal Medical Centre;;;;;
Lokoja;Lokoja Ward A;;Adankolo Primary Health Centre;;;;;
Lokoja;Lokoja Ward A;;Staff Secretariat Health Centre;;;;;
Lokoja;Lokoja Ward A;;Reboboth Women Hospital;;;;;
Lokoja;Lokoja Ward A;;Ko Fareac Hospital;;;;;
Lokoja;Lokoja Ward A;;Ko Ministry Of Health Clinic Lokoja;;;;;
Lokoja;Lokoja Ward B;;Old Market Primary Health Centre;;;;;
Lokoja;Lokoja Ward C;;Angwanyashi Primary Health Centre;;;;;
Lokoja;Lokoja Ward E;;Kabawa Primary Health Centre;;;;;
Lokoja;Lokoja Ward E;;Sarki-Noma Primary Health Centre;;;;;
Lokoja;Oworo Ward;;Jakura Primary Health Centre;;;;;
Lokoja;Oworo Ward;;Ijiho Community Primary Health Centre;;;;;
Lokoja;Oworo Ward;;Felele Modern Primary Health  Centre;;;;;
Lokoja;Oworo Ward;;Obajana Primary Health Centre;;;;;
Lokoja;Oworo Ward;;Kungbari Comprehensive Health Centre;;;;;
Lokoja;Oworo Ward;;Oshokoshoko Primary Health Centre;;;;;
Lokoja;Oworo Ward;;Agbaja Primary Health Centre;;;;;
Lokoja;Oworo Ward;;Life Gate Clinic Obagana;;;;;
Lokoja;Oworo Ward;;Owara Primary Health Centre;;;;;
Lokoja;Oworo Ward;;Jamata Primary Health Centre;;;;;
Lokoja;Oworo Ward;;Honey Gold Clinic and Maternity;;;;;
Lokoja;Oworo Ward;;Karara/Otube Primary Health Centre;;;;;
Lokoja;Oworo Ward;;Felele Family Support Programme Clinic;;;;;
Lokoja;Oworo Ward;;Eto Primary Health Centre;;;;;
Mopa-Muro;Agbajogun Ward;;Ola Oluwa Clinic;;;;;
Mopa-Muro;Agbajogun Ward;;Agbajogun Primary Health Centre;;;;;
Mopa-Muro;Aiyedayo Aiyedero Ward;;Oroke 1 Primary Health Centre;;;;;
Mopa-Muro;Aiyedayo Aiyedero Ward;;Oroke 2 Primary Health Centre;;;;;
Mopa-Muro;Aiyede Okagi Ward;;Ayede Model Primary Health Centre;;;;;
Mopa-Muro;Aiyede Okagi Ward;;Okagi Primary Health Centre;;;;;
Mopa-Muro;Ilai Okegi Ward;;Ilai Maternal and Child Health Clinic;;;;;
Mopa-Muro;Ilai Okegi Ward;;Ilai Primary Health Centre;;;;;
Mopa-Muro;Ilai Okegi Ward;;Ilemo Primary Health Centre;;;;;
Mopa-Muro;Ileteju 1 Ward;;Ileleju Basic Health Clinic;;;;;
Mopa-Muro;Ileteju 1 Ward;;Ayanku Primary Health Centre;;;;;
Mopa-Muro;Ileteju 2 Ward;;Ko Ecwa Clinic Illeteju;;;;;
Mopa-Muro;Ileteju 2 Ward;;Ijagbe Primary Health Centre;;;;;
Mopa-Muro;Ileteju 2 Ward;;Ikeji Primary Health Centre;;;;;
Mopa-Muro;Odole 1 Ward;;Odole FSP and Maternity and Child Health Clinic;;;;;
Mopa-Muro;Odole 1 Ward;;Odole MDG Primary Health Centre;;;;;
Mopa-Muro;Odole 1 Ward;;Okeguru Primary Health Centre;;;;;
Mopa-Muro;Odole 2 Ward;;Adogbe Primary Health Centre;;;;;
Mopa-Muro;Orokere Ward;;Okohi Primary Health Centre;;;;;
Mopa-Muro;Orokere Ward;;Amuro Primary Health Centre;;;;;
Mopa-Muro;Orokere Ward;;Okotun Primary Health Centre;;;;;
Mopa-Muro;Takete Otafun Ward;;Takete (Mopa Muro) Primary Health Centre;;;;;
Mopa-Muro;Takete Otafun Ward;;Okako Primary Health Centre;;;;;
Mopa-Muro;Takete Otafun Ward;;Otafun Primary Health Centre;;;;;
Ofu;Alloma/Okura Ward;;Alloma Primary Health Centre;;;;;
Ofu;Alloma/Okura Ward;;Okula Alloma Primary Health Centre;;;;;
Ofu;Aloji Ward;;Ko Ele-ojo Clinic;;;;;
Ofu;Aloji Ward;;Ko Atenegoma Primary Health Centre;;;;;
Ofu;Aloji Ward;;Igebije Primary Health Centre;;;;;
Ofu;Aloji Ward;;Aloji Primary Health Centre;;;;;
Ofu;Aloji Ward;;Obagu Primary Health Centre;;;;;
Ofu;Ejule Ward (Ofu);;Ejule Primary Health Centre (Ofu);;;;;
Ofu;Ejule Ward (Ofu);;Okele Primary Health Centre;;;;;
Ofu;Ejule Ward (Ofu);;Ofakaga 1 Primary Health Centre;;;;;
Ofu;Iboko Efaku Ward;;Igoti Primary Health Centre;;;;;
Ofu;Iboko Efaku Ward;;Agojeju Primary Health Centre;;;;;
Ofu;Igo Ward;;Ogene Zaria Primary Health Centre;;;;;
Ofu;Igo Ward;;Ogbagede Primary Health Centre;;;;;
Ofu;Igo Ward;;Onicha igo Primary Health Centre;;;;;
Ofu;Itobe Ward;;Itobe Ogane Primary Health Centre;;;;;
Ofu;Itobe Ward;;Ugbedu Primary Health Centre;;;;;
Ofu;Ochadamu Ward;;Akpagidigbo Primary Health Centre;;;;;
Ofu;Ochadamu Ward;;Ochadamu Primary Health Centre;;;;;
Ofu;Ochadamu Ward;;Umomi Primary Health Centre;;;;;
Ofu;Ochadamu Ward;;Owowolo Primary Health Centre;;;;;
Ofu;Ochadamu Ward;;Okabo Primary Health Centre;;;;;
Ofu;Ochadamu Ward;;Ofakaga 2 Primary Health Centre;;;;;
Ofu;Ochadamu Ward;;Ogbabo Primary Health Centre;;;;;
Ofu;Ochadamu Ward;;Alome Primary Health Centre;;;;;
Ofu;Ofoke Ward;;Ajokopi Primary Health Centre;;;;;
Ofu;Ofoke Ward;;Adumu Primary Health Centre;;;;;
Ofu;Ofoke Ward;;Ajengo Primary Health Centre;;;;;
Ofu;Ofoke Ward;;Ko Ejura Clinic;;;;;
Ofu;Ofoke Ward;;Ajegwu (Itobe) Primary Health Centre;;;;;
Ofu;Ogbonicha Ward;;Ofabo Primary Health Centre;;;;;
Ofu;Ogwolawo 1 Ward;;Ogegume Primary Health Centre;;;;;
Ofu;Ogwolawo 1 Ward;;Agwale Primary Health Centre;;;;;
Ofu;Ogwolawo 1 Ward;;Ugwolawo Primary Health Centre;;;;;
Ofu;Ogwolawo 1 Ward;;Ahi Ojapata Primary Health Centre;;;;;
Ofu;Ogwolawo 1 Ward;;Ofokopi Primary Health Centre;;;;;
Ofu;Ogwolawo 1 Ward;;General Hospital Ogwolawo;;;;;
Ofu;Ogwolawo 1 Ward;;Odah Primary Health Centre;;;;;
Ofu;Ogwolawo 1 Ward;;Atoda Primary Health Centre;;;;;
Ofu;Ogwolawo 1 Ward;;Ojofa-Ujokiti Primary Health Centre;;;;;
Ofu;Ogwolawo 1 Ward;;Ojuwomachi Primary Health Centre;;;;;
Ofu;Ogwolawo 2 Ward;;Adula Primary Health Centre;;;;;
Ofu;Ogwolawo 2 Ward;;Obagwu Primary Health Centre;;;;;
Ofu;Ogwolawo 2 Ward;;Agbogodo Primary Health Centre;;;;;
Ofu;Ogwolawo 2 Ward;;Ojagefu Primary Health Centre;;;;;
Ofu;Ogwolawo 2 Ward;;Ojuwocha Primary Health Centre;;;;;
Ogori/Magongo;Aiyetoro Ward;;Ogori General Hospital;;;;;
Ogori/Magongo;Eni Ward;;Eni Primary Health Centre;;;;;
Ogori/Magongo;Okibo Ward;;Ogori Basic Health Centre;;;;;
Ogori/Magongo;Ugugu Ward;;Akonogbolo Primary Health Centre;;;;;
Ogori/Magongo;Ugugu Ward;;Magongo Basic Health Clinic;;;;;
Okehi;Eika Ward;;Abobo Primary Health Centre;;;;;
Okehi;Eika Ward;;Eika Ohizenyi Basic Health Clinic;;;;;
Okehi;Eika Ward;;Ko Federal College Of Education Clinic;;;;;
Okehi;Eika Ward;;Federal Medical Centre (Itape);;;;;
Okehi;Eika Ward;;Ko Dosam Clinic;;;;;
Okehi;Eika Ward;;Eika Primary Health Centre;;;;;
Okehi;Ikuehi Ward;;Ikuehi Maternity Home;;;;;
Okehi;Obangede Ward;;Obangede General Hospital;;;;;
Okehi;Obangede Ward;;Raji Maternity Home;;;;;
Okehi;Obangede Ward;;Uhuodo Primary Health Centre;;;;;
Okehi;Obeiba 1 Ward;;Obeiba Maternity Home;;;;;
Okehi;Obeiba 1 Ward;;Amoto Maternity Home;;;;;
Okehi;Obeiba 1 Ward;;Okiti Maternity Home;;;;;
Okehi;Obeiba 2 Ward;;Inata Primary Health Centre;;;;;
Okehi;Obeiba 2 Ward;;Charity Maternity Home;;;;;
Okehi;Obeiba 2 Ward;;Obeiba Primary Health Centre;;;;;
Okehi;Oboreke Eba Ward;;Azee Maternity Clinic;;;;;
Okehi;Oboreke Eba Ward;;Okumehi Basic Health Clinic;;;;;
Okehi;Oboreke Eba Ward;;Oboroke Primary Health Centre;;;;;
Okehi;Oboreke Uvete II Ward;;Irivusechi Primary Health Centre;;;;;
Okehi;Ko Oboroke Uvete 1 Ward;;Ko Oboroke Primary Health Centre;;;;;
Okehi;Ohuepe Ward;;Ohuepe Basic Health Centre;;;;;
Okehi;Ohueta Ward;;Ohueta Basic Health Clinic;;;;;
Okehi;Ohueta Ward;;Ozavize Clinic;;;;;
Okehi;Okaito Ward;;Okaito Maternity Home;;;;;
Okehi;Okaito Ward;;Okaito Primary Health Centre;;;;;
Okehi;Okaito Ward;;Usungwe Primary Health Centre;;;;;
Okehi;Okaito Ward;;Omavi Primary Health Centre;;;;;
Okene;Abuga Ozuja Ward;;Ko Sheifudeen Primary Health Centre;;;;;
Okene;Abuga Ozuja Ward;;Okengwe General Hospital;;;;;
Okene;Abuga Ozuja Ward;;Mayor Clinic;;;;;
Okene;Abuga Ozuja Ward;;Ko Sharon Clinic;;;;;
Okene;Abuga Ozuja Ward;;Calvary Clinic (Okene);;;;;
Okene;Abuga Ozuja Ward;;Obechehe Primary Health Centre;;;;;
Okene;Abuga Ozuja Ward;;Adekanye Hospital;;;;;
Okene;Abuga Ozuja Ward;;Okengwe Primary Health Centre;;;;;
Okene;Bariki Ward;;Relief Clinic;;;;;
Okene;Bariki Ward;;Bariki Health Post;;;;;
Okene;Bariki Ward;;Amana Clinic;;;;;
Okene;Bariki Ward;;Omeiza Clinic;;;;;
Okene;Bariki Ward;;Unique Clinic;;;;;
Okene;Idoji Ward;;Ko Unique Health /Maternity Clinic;;;;;
Okene;Idoji Ward;;Ko Adinoyi Clinic Inike;;;;;
Okene;Idoji Ward;;No 1 Maternity Home;;;;;
Okene;Idoji Ward;;Inike Primary Health Centre;;;;;
Okene;Idoji Ward;;Idoji Health Post;;;;;
Okene;Lafia Obessa Ward;;Al-Barka Clinic;;;;;
Okene;Lafia Obessa Ward;;Okene Maternal and Child Health Clinic;;;;;
Okene;Lafia Obessa Ward;;Ko Mobile Clinic Okene;;;;;
Okene;Lafia Obessa Ward;;Okene Planned Parenthood of Nigeria Clinic;;;;;
Okene;Lafia Obessa Ward;;Okene Primary Health Centre;;;;;
Okene;Lafia Obessa Ward;;Okene Family Support Programme Clinic;;;;;
Okene;Lafia Obessa Ward;;TBL CliniC Okene;;;;;
Okene;Lafia Obessa Ward;;Okene Zonal Hospital;;;;;
Okene;Obehira-Eba Ward;;Hamson Clinic;;;;;
Okene;Obehira-Eba Ward;;Ageva Basic Health Clinic;;;;;
Okene;Obehira-Uvete Ward;;Ko Oyiza Maternity and Clinic;;;;;
Okene;Obehira-Uvete Ward;;Idoma Maternal and Child Health Clinic;;;;;
Okene;Obehira-Uvete Ward;;Ko Liberty Clinic/Maternity;;;;;
Okene;Okeneba Agassa Ward;;Agassa Primary Health Centre;;;;;
Okene;Okeneba Agassa Ward;;Agassa Health Post;;;;;
Okene;Okeneba Agassa Ward;;Ko Talabi Medical Clinic;;;;;
Okene;Okeneba Agassa Ward;;Okeneba Primary Health Centre;;;;;
Okene;Okeneba Agassa Ward;;Premier Hospital;;;;;
Okene;Okeneba Agassa Ward;;Agassa Maternal and Child Health Clinic;;;;;
Okene;Onyukoko Ward;;Oguda Uvete Primary Health centre;;;;;
Okene;Onyukoko Ward;;Ko Osochiokodo Health Post;;;;;
Okene;Onyukoko Ward;;Oguda Eba Primary Health Centre;;;;;
Okene;Onyukoko Ward;;Medanbah Clinic;;;;;
Okene;Onyukoko Ward;;Ado-Ogu Primary Health Care Centre;;;;;
Okene;Onyukoko Ward;;Esomi Health Post;;;;;
Okene;Onyukoko Ward;;Eyinnare Health Post;;;;;
Okene;Onyukoko Ward;;Rhama Hospital;;;;;
Okene;Orietesu Ward;;Orietesu Health Post;;;;;
Okene;Otutu Ward;;Otutu Health  Post;;;;;
Okene;Upogoro Odenku Ward;;Arigo Health Post;;;;;
Okene;Upogoro Odenku Ward;;Upogoro Primary Health Centre;;;;;
Olamaboro;Efabo Ward;;Akpoli Primary Health Centre;;;;;
Olamaboro;Efabo Ward;;Efabo Primary Health Centre;;;;;
Olamaboro;Efabo Ward;;Idekpa Primary Health Centre;;;;;
Olamaboro;Efabo Ward;;Ojoguche-Auji Primary Health Centre;;;;;
Olamaboro;Efabo Ward;;Etukwo Primary Health Centre;;;;;
Olamaboro;Efabo Ward;;Adum-Agaliga Primary Health Centre;;;;;
Olamaboro;Imane Ward;;Imane Comprehensive Health Centre;;;;;
Olamaboro;Imane Ward;;Ododa Primary Health Centre;;;;;
Olamaboro;Imane Ward;;Abo-Ojuwo Primary Health Centre;;;;;
Olamaboro;Imane Ward;;Obo-Ikpadala Primary Health Centre;;;;;
Olamaboro;Imane Ward;;Inwa Primary Health Centre;;;;;
Olamaboro;Imane Ward;;Ofudu Primary Health Centre;;;;;
Olamaboro;Imane Ward;;Mabenyi Primary Health Centre;;;;;
Olamaboro;Imane Ward;;Efakpa Primary Health Centre;;;;;
Olamaboro;Imane Ward;;Udama Clinic;;;;;
Olamaboro;Ogugu 1 Ward;;Ikem Primary Health Centre;;;;;
Olamaboro;Ogugu 1 Ward;;Ogbofe Primary Health Centre;;;;;
Olamaboro;Ogugu 1 Ward;;Adum Primary Health Centre;;;;;
Olamaboro;Ogugu 1 Ward;;Ayigba-Ogugu Primary Health Centre;;;;;
Olamaboro;Ogugu 1 Ward;;Ikelekwu Primary Health Centre;;;;;
Olamaboro;Ogugu 1 Ward;;Emagaba II Primary Health Centre;;;;;
Olamaboro;Ogugu 2 Ward;;Oturkpo Primary Health Centre;;;;;
Olamaboro;Ogugu 2 Ward;;Emagaba I Primary Health Centre;;;;;
Olamaboro;Ogugu 2 Ward;;Ejule Primary Health Centre;;;;;
Olamaboro;Ogugu 2 Ward;;Adupi Primary Health Centre;;;;;
Olamaboro;Ogugu 3 Ward;;Ko Alacha Primary Health Center;;;;;
Olamaboro;Ogugu 3 Ward;;Emakpe Primary Health Centre;;;;;
Olamaboro;Ogugu 3 Ward;;Ko Cottage Hospital Ogugu;;;;;
Olamaboro;Ogugu 3 Ward;;Aludu Primary Health Centre;;;;;
Olamaboro;Ogugu 3 Ward;;Odidoko Primary Health Centre;;;;;
Olamaboro;Ogugu 3 Ward;;Ogene-Oforachi Primary Health Centre;;;;;
Olamaboro;Ogugu 3 Ward;;Emonyokwu Primary Health Centre;;;;;
Olamaboro;Okpo Ward;;Okpo General Hospital;;;;;
Olamaboro;Okpo Ward;;Ogbagebe Primary Health Centre;;;;;
Olamaboro;Okpo Ward;;Alagalani Primary Health Centre;;;;;
Olamaboro;Okpo Ward;;Ochekwu Primary Health Centre;;;;;
Olamaboro;Okpo Ward;;Okungaga Primary Health Centre;;;;;
Olamaboro;Okpo Ward;;Ogo-Okpo Primary Health Centre;;;;;
Olamaboro;Okpo Ward;;Ofobobo Primary Health Centre;;;;;
Olamaboro;Okpo Ward;;Ojamapunu Primary Health Centre;;;;;
Olamaboro;Okpo Ward;;Uko Primary Health Centre;;;;;
Olamaboro;Olamaboro Ward 1;;Igoti (Olamaboro) Primary Health Centre;;;;;
Olamaboro;Olamaboro Ward 1;;Otakuchi Primary Health Centre;;;;;
Olamaboro;Olamaboro Ward 1;;Efodo Adeh Primary Health Centre;;;;;
Olamaboro;Olamaboro Ward 1;;Ajukabu Primary Health Centre;;;;;
Olamaboro;Olamaboro Ward 2;;Etutikpe Primary Health Centre;;;;;
Olamaboro;Olamaboro Ward 2;;Ofa Primary Health Centre;;;;;
Olamaboro;Olamaboro Ward 2;;Agbaduma Primary Health Centre;;;;;
Olamaboro;Olamaboro Ward 4;;Ebonyi Primary Health Centre;;;;;
Olamaboro;Olamaboro Ward 4;;Ugbamaka (Olamaboro) Primary Health Centre;;;;;
Olamaboro;Olamaboro Ward 4;;Ogene-Igah Primary Health Centre;;;;;
Olamaboro;Olamaboro Ward 5;;Inabe Primary Health Centre;;;;;
Olamaboro;Olamaboro Ward 5;;Ubalu Primary Health Centre;;;;;
Olamaboro;Olamaboro Ward 5;;Wele-Ugo Primary Health Centre;;;;;
Omala;Abejukolo 1 Ward;;FSP Clinic;;;;;
Omala;Abejukolo 1 Ward;;Abejukolo-1 General Hospital;;;;;
Omala;Abejukolo 1 Ward;;Abejukolo Primary Health Centre;;;;;
Omala;Abejukolo 2 Ward;;Echa Primary Health Centre;;;;;
Omala;Bagana Ward;;Idris Primary Health Centre;;;;;
Omala;Bagana Ward;;Bagana Primary Health Centre;;;;;
Omala;Icheke Ward;;Ajokpachi Ochiba Primary Health Centre;;;;;
Omala;Icheke Ward;;Ko Oti 111 Primary Health Clinic;;;;;
Omala;Icheke Ward;;Olokwu Primary Health Centre;;;;;
Omala;Icheke Ward;;Igaliwo Primary Health Centre;;;;;
Omala;Odoh Ward;;Ajokpachi Primary Health Centre;;;;;
Omala;Odoh Ward;;Agojeji Primary Health Centre;;;;;
Omala;Ojiaji Ward;;Igodo Primary Health Centre;;;;;
Omala;Ojiaji Ward;;Ojiaji Primary Health Centre;;;;;
Omala;Okpacha Ward;;Ibado Primary Health Centre;;;;;
Omala;Okpacha Ward;;Kaduna Primary Health Centre;;;;;
Omala;Okpacha Ward;;Kpacha Primary Health Centre;;;;;
Omala;Okpatala Ward;;Okpatala Primary Health Centre;;;;;
Omala;Okpatala Ward;;Olahieba Primary Health Centre;;;;;
Omala;Olla Ward;;Olla Primary Health Centre;;;;;
Omala;Olla Ward;;Olla PHC Maternity;;;;;
Omala;Opada Ofejiji Ward;;Agbenama Primary Health Centre;;;;;
Omala;Opada Ofejiji Ward;;Ajimaiwa Primary Health Centre;;;;;
Omala;Opada Ofejiji Ward;;Ajedibo Primary Health Centre;;;;;
Omala;Opada Ofejiji Ward;;Ikpobo Primary Health Centre;;;;;
Omala;Ugodo Ward;;PHC Maternity Clinic;;;;;
Omala;Ugodo Ward;;Ko Ojieda Primary Health Centre;;;;;
Yagba East;Alu/Igbagun Ward;;Oranre Primary Health Centre;;;;;
Yagba East;Alu/Igbagun Ward;;Odo-Amu Primary Health Centre;;;;;
Yagba East;Alu/Igbagun Ward;;Alu Primary Health Centre;;;;;
Yagba East;Alu/Igbagun Ward;;Ibgagun Primary Health Centre;;;;;
Yagba East;Alu/Igbagun Ward;;Igbo-Ero Primary Health Centre;;;;;
Yagba East;Aredu Ward 10;;Iye Family Support Programme Primary Health Centre;;;;;
Yagba East;Aredu Ward 10;;Idofin Primary Health Centre;;;;;
Yagba East;Aredu Ward 10;;Iddojesha Primary Health Centre;;;;;
Yagba East;Aredu Ward 10;;Etcor Oyi Primary Health Centre;;;;;
Yagba East;Aredu Ward 10;;Chest/Skin Primary Health  Centre;;;;;
Yagba East;Aredu Ward 10;;Odogbe Primary Health Centre;;;;;
Yagba East;Aredu Ward 10;;Ilafin Primary Health Care Centre;;;;;
Yagba East;Ejuku Ward 05;;Otun Primary Health Centre;;;;;
Yagba East;Ejuku Ward 05;;Anku Basic Health Clinic;;;;;
Yagba East;Ejuku Ward 05;;Aiyegunle Primary Health Centre;;;;;
Yagba East;Ejuku Ward 05;;Adeola Hospital;;;;;
Yagba East;Ife Olukotun 02 Ward;;Oke Ife Olukotun Primary Health Centre;;;;;
Yagba East;Ife-Olukotun 01 Ward;;Ife Olukotun Cottage Hospital;;;;;
Yagba East;Ife-Olukotun 01 Ward;;Ifeolukotun DHU;;;;;
Yagba East;Ife-Olukotun 01 Ward;;Ereifeolukotun Primary Health Care Centre;;;;;
Yagba East;Itedo Makutu Ward 08;;Itedo-Makutu Primary Health Centre;;;;;
Yagba East;Makutu Ward 07;;Isanlu Community Health Centre;;;;;
Yagba East;Makutu Ward 07;;Makutu (Ward 7) Primary Health Centre;;;;;
Yagba East;Makutu Ward 07;;Makutu First ECWA Dispensary;;;;;
Yagba East;Makutu Ward 07;;Staff Clinic Yagba East;;;;;
Yagba East;Makutu Ward 07;;Makutu Model Primary Health Centre;;;;;
Yagba East;Mopo Ward 09;;Itedo Irunda DHU;;;;;
Yagba East;Mopo Ward 09;;Ijowa Primary Health Centre;;;;;
Yagba East;Mopo Ward 09;;Bagido Primary Health Centre;;;;;
Yagba East;Mopo Ward 09;;Rotab Hospital;;;;;
Yagba East;Mopo Ward 09;;Offin Primary Health Centre;;;;;
Yagba East;Mopo Ward 09;;Omowa-Mopo Basic Health Clinic;;;;;
Yagba East;Mopo Ward 09;;Victory Clinic Mopo;;;;;
Yagba East;Mopo Ward 09;;Itedo-Irunda General Hospital,Isanlu;;;;;
Yagba East;Mopo Ward 09;;Olufemi Hospital;;;;;
Yagba East;Ogbom Ward 06;;Imela Primary Health Centre;;;;;
Yagba East;Ogbom Ward 06;;Jege Primary Health Centre;;;;;
Yagba East;Ogbom Ward 06;;Aginmi Primary Health Centre;;;;;
Yagba East;Ogbom Ward 06;;Asala Itakete Isao Primary Health Centre;;;;;
Yagba East;Ogbom Ward 06;;Itakete Isao Primary Health Centre;;;;;
Yagba East;Ogbom Ward 06;;Ogbbom Primary Health Centre;;;;;
Yagba East;Ponyan Ward 03;;Yagba East Model Primary Health Centre;;;;;
Yagba East;Ponyan Ward 03;;Tujuebi Primary Health Centre;;;;;
Yagba East;Ponyan Ward 03;;Ponyan Basic Health Clinic;;;;;
Yagba East;Ponyan Ward 03;;Duatim Hospital;;;;;
Yagba West;Ejiba Ward;;Ko Ejiba Health Clinic;;;;;
Yagba West;Ejiba Ward;;Ejiba Basic Health Clinic;;;;;
Yagba West;Ere Ward;;Od-Ere General Hospital;;;;;
Yagba West;Ere Ward;;Odo-Ere DHU;;;;;
Yagba West;Ere Ward;;Ariyo Clinic;;;;;
Yagba West;Ere Ward;;Odo-Ere Family Support Programme Clinic;;;;;
Yagba West;Ere Ward;;Oke-Ere Basic Health Clinic;;;;;
Yagba West;Ere Ward;;Akata Health Centre;;;;;
Yagba West;Isanlu-Esa Ward;;Isanlu-Esa Primary Health Centre;;;;;
Yagba West;Isanlu-Esa Ward;;Okunran Health Centre;;;;;
Yagba West;Isanlu-Esa Ward;;Okoloke Basic Health Clinic;;;;;
Yagba West;Odo-Ara/Ogga/Omi Ward;;Omi Family Support Programme Clinic;;;;;
Yagba West;Odo-Ara/Ogga/Omi Ward;;Odo-Era Basic Health Clinic;;;;;
Yagba West;Odo-Ara/Ogga/Omi Ward;;Ogga Basic Health Clinic;;;;;
Yagba West;Odo-Egbe 1 Ward;;Ijagan Basic Health Clinic;;;;;
Yagba West;Odo-Egbe 1 Ward;;Isaba Basic Health Clinic;;;;;
Yagba West;Odo-Egbe 1 Ward;;Ayo Olu Clinic;;;;;
Yagba West;Odo-Egbe 2 Ward;;Ajewo Basic Health Clinic;;;;;
Yagba West;Odo-Egbe 3 Ward;;Egbe Ijalu Basic Health Clinic;;;;;
Yagba West;Odo-Egbe 3 Ward;;Egbe General Hospital;;;;;
Yagba West;Odo-Eri Ward;;Okoto Health Clinic;;;;;
Yagba West;Odo-Eri Ward;;Odo-Ere Basic Health Clinic (Yagba West);;;;;
Yagba West;Odo-Eri Ward;;Igobe Health Clinic;;;;;
Yagba West;Ogbe Ward;;Ogbe Basic Health Clinic;;;;;
Yagba West;Oke-Ebge 2 Ward;;Egbe Tuntun Basic Health Clinic;;;;;
Yagba West;Oke-Ebge 4 Ward;;Egbe Planned Parenthood of Nigeria Clinic;;;;;
Yagba West;Oke-Egbe Ward;;Yagba West Evangelical Church of West Africa (ECWA) Hospital;;;;;
Yagba West;Oke-Egbe Ward;;Ola-Olu Olarewaju Clinic;;;;;
Yagba West;Oke-Egbe Ward;;Mercy Clinic (Yagba West);;;;;
Yagba West;Oke-Egbe Ward;;Palace Clinic;;;;;
Yagba West;Oke-Eri Ward;;Igbaruku Primary Health Centre;;;;;
Yagba West;Oke-Eri Ward;;Yagba West Model Primary Health Centre;;;;;
Yagba West;Oke-Eri Ward;;Iyamerin Health Centre;;;;;
