LGA;Ward;Settlement;Facility;Type;Ownership;Address;Longitude;Latitude
Agaie;Baro Ward;;Guregi Health Post;;;;;
Agaie;Baro Ward;;Loguma Primary Health Centre;;;;;
Agaie;Baro Ward;;Wadata (Baro) Primary Health Centre;;;;;
Agaie;Baro Ward;;Timigi Primary Health Care;;;;;
Agaie;Baro Ward;;Shabawoshi Maternal and Child Health Clinic;;;;;
Agaie;Baro Ward;;Baro Maternal and Child Health Clinic;;;;;
Agaie;Baro Ward;;Wunazdukodan Health Post;;;;;
Agaie;Baro Ward;;Essun Comprehensive Health Center;;;;;
Agaie;Baro Ward;;Kakpi Health Post;;;;;
Agaie;Baro Ward;;Wuna Clinic;;;;;
Agaie;Baro Ward;;Akwano Primary Health Care;;;;;
Agaie;Boku Ward;;Essangi Primary Health Centre;;;;;
Agaie;Boku Ward;;Ndaiji Primary Health Care;;;;;
Agaie;Boku Ward;;Jipo 1 Primary Health Centre;;;;;
Agaie;Boku Ward;;Nami Primary Health Centre;;;;;
Agaie;Boku Ward;;Tsadza MDG Comprehensive Health Centre;;;;;
Agaie;Boku Ward;;Mashina Tako Primary Health Centre;;;;;
Agaie;Boku Ward;;n Boku MDG Comprehensive Health Centre;;;;;
Agaie;Ekobaddegi Ward;;Agaie  Town Primary Health Centre;;;;;
Agaie;Ekobaddegi Ward;;Agaie General Hospital;;;;;
Agaie;Ekosa Ward;;Ekossa  Maternal and Child Health Clinic;;;;;
Agaie;Ekosa Ward;;Raima Primary Health Care;;;;;
Agaie;Ekosa Ward;;Bororoko Primary Health Centre;;;;;
Agaie;Ekowugi Ward;;Ekowugi Basic Health Clinic;;;;;
Agaie;Ekowuna Ward;;Ekowuna  Maternal and Child Health;;;;;
Agaie;Estugaie Ward;;Tsaduko Primary Health Centre;;;;;
Agaie;Estugaie Ward;;Chata Primary Health Centre;;;;;
Agaie;Estugaie Ward;;Liman Primary Health Centre;;;;;
Agaie;Estugaie Ward;;Etsugaie Basic Health Clinic;;;;;
Agaie;Estugaie Ward;; Mayaki Primary Health Centre;;;;;
Agaie;Fogbe Ward;;Wanigi Primary Health Center;;;;;
Agaie;Fogbe Ward;;Ekpagi Health Post;;;;;
Agaie;Fogbe Ward;;Fogbe Primary Health Center;;;;;
Agaie;Fogbe Ward;;Edoko Primary Health Centre;;;;;
Agaie;Fogbe Ward;;Zago PHC;;;;;
Agaie;Fogbe Ward;;Tswayan Doka Primary Health Center;;;;;
Agaie;Kutiriko Ward;;Tswachiko Primary Health Centre;;;;;
Agaie;Kutiriko Ward;;Sallawu Primary Health Centre;;;;;
Agaie;Kutiriko Ward;;Kutiriko Basic Health Clinic;;;;;
Agaie;Magaji Ward;;Salawu Primary Health Centre;;;;;
Agaie;Magaji Ward;;Eyye Primary Health Centre;;;;;
Agaie;Magaji Ward;;Emitsadu MDG Comprehensive Health Centre;;;;;
Agaie;Magaji Ward;;Magaji Primary Health Care ;;;;;
Agaie;Magaji Ward;;Goyiko Health Post;;;;;
Agaie;Tagagi Ward;;Egukpa Health Post;;;;;
Agaie;Tagagi Ward;;Ndako Primary Health Centre;;;;;
Agaie;Tagagi Ward;;Tsakpati Health Post;;;;;
Agaie;Tagagi Ward;;Shipogi  Health Post;;;;;
Agaie;Tagagi Ward;;Kusoyaba Health Post;;;;;
Agaie;Tagagi Ward;;Tagagi Basic Health Clinic;;;;;
Agaie;Tagagi Ward;;Mashina Chika Health Post;;;;;
Agwara;Gallah Ward;;Gallah Basic Health Clinic;;;;;
Agwara;Kokoli Ward;;Kokoli Primary Health Care;;;;;
Agwara;Kokoli Ward;;Tungan Danbaba Primary Health Clinic;;;;;
Agwara;Kokoli Ward;;Bukadubu Primary Health Centre;;;;;
Agwara;Papiri Ward;;Tungan Dorawa Primary Health Clinic;;;;;
Agwara;Papiri Ward;;Papiri Primary Health Clinic;;;;;
Agwara;Papiri Ward;;Azamakoshi Primary Health Cntre;;;;;
Agwara;Papiri Ward;;Kwana Health Clinic;;;;;
Agwara;Papiri Ward;;Tungan Kadiba Primary Health Clinic;;;;;
Agwara;Rofia Ward;;Ororo Health Clinic;;;;;
Agwara;Suteku Ward;;Mahuta Primary Health Clinic;;;;;
Bida;Bariki Ward;;Sokokunke Clinic;;;;;
Bida;Bariki Ward;;Sauki Clinic Bida;;;;;
Bida;Bariki Ward;;Bida Federal Medical Centre;;;;;
Bida;Bariki Ward;;Corner Stone Medical Store;;;;;
Bida;Bariki Ward;;Kangi Primary Health Care;;;;;
Bida;Bariki Ward;;Yetu Hospital;;;;;
Bida;Cheniyan Ward;;Umaru Sanda Ndayako General Hospital;;;;;
Bida;Cheniyan Ward;;Faib Primary Health Care;;;;;
Bida;Cheniyan Ward;;Efengi Health Community Centre, Esso Area;;;;;
Bida;Cheniyan Ward;;Yebosoko Specialist Hospital;;;;;
Bida;Cheniyan Ward;;Cheniya Lafiya Clinic Bida;;;;;
Bida;Cheniyan Ward;;Bida clinic;;;;;
Bida;Dokodza Ward;;Agape Specilist Clinic;;;;;
Bida;Dokodza Ward;;Dokodza Maternity and Child Health Clinic PPFN;;;;;
Bida;Dokodza Ward;;Gbazhi Area Community Dispensary;;;;;
Bida;Kyari Ward;;Hajiya Amina Clinic;;;;;
Bida;Kyari Ward;;Kpebegi Area Dispensary;;;;;
Bida;Kyari Ward;;Gbogbontigi Primary Health Center;;;;;
Bida;Landzun Ward;;Etsu Yahaya Primary Health Centre;;;;;
Bida;Masaba A Ward;;Azman primaryn Health Care bida;;;;;
Bida;Masaba B Ward;;Faith Clinic Bida;;;;;
Bida;Masaba B Ward;;Mackwall Maternity Child Health;;;;;
Bida;Masaba B Ward;;Modern Market Primary Health Care;;;;;
Bida;Masaba B Ward;;Maraba hospital;;;;;
Bida;Masaga A Ward;;Nakodi Abubakar Clinic;;;;;
Bida;Masaga A Ward;;Maraba Clinic and Maternity;;;;;
Bida;Masaga B Ward;;Liman Dikko Primary Health Centre;;;;;
Bida;Masaga B Ward;;Efu Lubasa MDG  Health Clinic;;;;;
Bida;Mayaki Nadjiya Ward;;Wambai Health Post;;;;;
Bida;Mayaki Nadjiya Ward;;Mayaki Ndajiya Primary Health Centre;;;;;
Bida;Nassarafu Ward;;Sokoge Clinic;;;;;
Bida;Nassarafu Ward;;Nasarafu Maternal and Child Health Clinic;;;;;
Bida;Nassarafu Ward;;Bangaie (ALGON) Primary Health Centre;;;;;
Bida;Nassarafu Ward;;Alheri Maternity Home (Banyagi);;;;;
Bida;Umaru Majigi A Ward;;Laruta Clinic;;;;;
Bida;Umaru Majigi B Ward;;Fed Polytechnic Medical Center Bida;;;;;
Bida;Umaru Majigi B Ward;;Efu Lukpan Dispensary;;;;;
Bida;Umaru Majigi B Ward;;Bangbara Health Post;;;;;
Bida;Wadata Ward;;Emir's Palace Primary Health Centre;;;;;
Bida;Wadata Ward;;Bologi Clinic;;;;;
Bida;Wadata Ward;;Wadata Primary Health Centre;;;;;
Bida;Wadata Ward;;Engr. A. A. Kure Primary Health Centre;;;;;
Bida;Wadata Ward;;Bazumagi Health Post;;;;;
Bida;Wadata Ward;;Mazhi Hassan Clinic;;;;;
Bida;Wadata Ward;;Mayaki Ani Health Post;;;;;
Borgu;Babanna Ward ;;Kuble Health Clinic;;;;;
Borgu;Babanna Ward ;;Dekara Health Centre;;;;;
Borgu;Babanna Ward ;;Kapubara Health Clinic;;;;;
Borgu;Babanna Ward ;;Garuji Clinic;;;;;
Borgu;Babanna Ward ;;Yagwaso Primary Health Centre;;;;;
Borgu;Babanna Ward ;;Marami Clinic;;;;;
Borgu;Babanna Ward ;;Babanna Basic Health Clinic;;;;;
Borgu;Bussa Ward;;New Bussa Family Health Center;;;;;
Borgu;Bussa Ward;;NEPA (MESL) Hospital;;;;;
Borgu;Bussa Ward;;Ahmadiya Muslim Hospital;;;;;
Borgu;Bussa Ward;;Kainji Medical Centre;;;;;
Borgu;Bussa Ward;;New Bussa Leprosy Clinic;;;;;
Borgu;Bussa Ward;;New Bussa General Hospital;;;;;
Borgu;Bussa Ward;;Sauki Clinic and Maternity (Borgu);;;;;
Borgu;Bussa Ward;;Karabonde Health Clinic;;;;;
Borgu;Bussa Ward;;Yuna Health Clinic;;;;;
Borgu;Bussa Ward;;Monnai Primary Health Centre;;;;;
Borgu;Gbeswa Ward;;Pissa Primary Health Clinic;;;;;
Borgu;Gbeswa Ward;;Gangale Health Clinic;;;;;
Borgu;Gbeswa Ward;;Kokani Health Clinic;;;;;
Borgu;Gbeswa Ward;;Konkoso Basic Health Clinic;;;;;
Borgu;Gbeswa Ward;;Zatenna Health Clinic;;;;;
Borgu;Gbeswa Ward;;Bako Mission Health Centre;;;;;
Borgu;Gbeswa Ward;;Kigbera Health Post;;;;;
Borgu;Gbeswa Ward;;Tungan Makeri Health Post;;;;;
Borgu;Kabe Ward;;Kanu Clinic;;;;;
Borgu;Kabe Ward;;SokonBara Health Clinic;;;;;
Borgu;Kabe Ward;;Kabe Health Clinic;;;;;
Borgu;Kabe Ward;;Tungan Demu Primary Health Centre;;;;;
Borgu;Malale Ward ;;Malale Health Clinic;;;;;
Borgu;Malale Ward ;;Tungan Nailo Clinic;;;;;
Borgu;Nassarawa Ward;;Guffanti health center;;;;;
Borgu;Nassarawa Ward;;Yumu Health Center;;;;;
Borgu;Nassarawa Ward;;Dugga Mashaya Health Clinic;;;;;
Borgu;Nassarawa Ward;;Ulakami-Ujiji Health Clinic;;;;;
Borgu;Nassarawa Ward;;Dugga Health Centre;;;;;
Borgu;Rafi Ward ;;Dogon Gari Health Clinic;;;;;
Borgu;Rafi Ward ;;Old Kurwasa Health Clinic ;;;;;
Borgu;Rafi Ward ;;New Awuru Health Clinic;;;;;
Borgu;Rafi Ward ;;Awuru Clinic and Maternity;;;;;
Borgu;Rafi Ward ;;Fakun Dispensary;;;;;
Borgu;Rafi Ward ;;Old Awuru Health Clinic;;;;;
Borgu;Shagunu Ward;;Lumma Sanke Health Clinic;;;;;
Borgu;Shagunu Ward;;Lumma Baare Health Clinic;;;;;
Borgu;Shagunu Ward;;New Sansani Primary Health Centre;;;;;
Borgu;Shagunu Ward;;Swashi Clinic and Maternity;;;;;
Borgu;Shagunu Ward;;Swashi Model Primary Health Centre;;;;;
Borgu;Shagunu Ward;;Shagunu Basic Health Clinic;;;;;
Borgu;Shagunu Ward;;Old Sansani Health Care;;;;;
Borgu;Shagunu Ward;;Amboshidi Dispensary;;;;;
Borgu;Tunga Bube Ward;;Shafashi Primary Health Centre;;;;;
Borgu;Wawa Ward ;;Baburasa Dispensary;;;;;
Borgu;Wawa Ward ;;Al-Barka Clinic and Maternity;;;;;
Borgu;Wawa Ward ;;Gadaoli Health Post;;;;;
Borgu;Wawa Ward ;;Hope Clinic and Maternity;;;;;
Borgu;Wawa Ward ;;Garafini Health Post;;;;;
Borgu;Wawa Ward ;;Leshigbe Dispensary;;;;;
Borgu;Wawa Ward ;;Army barrack;;;;;
Borgu;Wawa Ward ;;Kali Health Post;;;;;
Borgu;Wawa Ward ;;Wawa Basic Health Clinic;;;;;
Bosso;Beji Ward;;Beji Basic Health Centre;;;;;
Bosso;Beji Ward;;Barkuta Primary Health Centre;;;;;
Bosso;Bosso Central I Ward;;National House Primary Health Centre;;;;;
Bosso;Bosso Central I Ward;;Gbaiko Primary Health Center;;;;;
Bosso;Bosso Central I Ward;;FUT Minna Primary Health Care Center;;;;;
Bosso;Bosso Central I Ward;;Jikpan Primary Health Centre;;;;;
Bosso;Bosso Central II Ward ;;Tudun Fulani Gabas PHC;;;;;
Bosso;Bosso Central II Ward ;;Tundun Fulani Primary Health Care;;;;;
Bosso;Bosso Central II Ward ;;Jikogbe Primary Health Centre;;;;;
Bosso;Bosso Central II Ward ;;Bosso Primary Health Centre;;;;;
Bosso;Chanchaga Ward;;Chanchaga Planned Parenthood of Nigeria Clinic;;;;;
Bosso;Chanchaga Ward;;Kadna Primary Health Centre;;;;;
Bosso;Chanchaga Ward;;Army Barrack Clinic;;;;;
Bosso;Chanchaga Ward;;Shango PHC;;;;;
Bosso;Garatu Ward;;Bahanya Primary Health Centre;;;;;
Bosso;Garatu Ward;;Gidan Mangoro Primary Health Centre;;;;;
Bosso;Garatu Ward;;Sabon Daga Model Primary Health Care Center;;;;;
Bosso;Garatu Ward;;Garatu Primary Health Centre;;;;;
Bosso;Garatu Ward;;Tsohon Daga Primary Health Centre;;;;;
Bosso;Garatu Ward;;Gidan Kwano Primary Health Centre;;;;;
Bosso;Garatu Ward;;Pompom Primary Health Care;;;;;
Bosso;Kampala Ward;;Gussase Primary Health Centre;;;;;
Bosso;Kampala Ward;;Kampala Primary Health Centre;;;;;
Bosso;Kampala Ward;;Nakpankuchi Primary Health Centre;;;;;
Bosso;Kampala Ward;;Popoi Primary Health Centre;;;;;
Bosso;Kampala Ward;;Kuyi Primary Health Centre;;;;;
Bosso;Kampala Ward;;Bwatapi Primary Health Centre;;;;;
Bosso;Kodo Ward;;Nangawu Chinama Primary Health Centre;;;;;
Bosso;Kodo Ward;;Kapaulagi Primary Health Centre;;;;;
Bosso;Kodo Ward;;Kodo Model Primary Health Centre;;;;;
Bosso;Kodo Ward;;Pai Primary Health Centre;;;;;
Bosso;Kodo Ward;;Tandigi Primary Health Centre;;;;;
Bosso;Kodo Ward;;Zokogi Primary Health Centre;;;;;
Bosso;Kodo Ward;;Nangawu Primary Health Centre;;;;;
Bosso;Kodo Ward;;Tsohon Kanpani Primary Health Centre;;;;;
Bosso;Kodo Ward;;Tsadogonna Primary Health Care;;;;;
Bosso;Maikunkele Ward;;Maikunkele Maternal and Child Health Centre;;;;;
Bosso;Maikunkele Ward;;Jimi Primary Health Centre;;;;;
Bosso;Maikunkele Ward;;Nigerian Airforce Clinic;;;;;
Bosso;Maikunkele Ward;;Gbedodnai Primary Health Centre;;;;;
Bosso;Maikunkele Ward;;Jikuchi Primary Health Care;;;;;
Bosso;Maikunkele Ward;;Mayawi Primary Health Centre;;;;;
Bosso;Maikunkele Ward;;Kiyola Primary Health Center;;;;;
Bosso;Maikunkele Ward;;Jangaru Primary Health Centre;;;;;
Bosso;Maikunkele Ward;;Maikunkele Quarters Primary Health Center;;;;;
Bosso;Maikunkele Ward;;Rafin Yashi Primary Health Centre;;;;;
Bosso;Maitumbi Ward;;Shakwata Primary Health Center;;;;;
Bosso;Maitumbi Ward;;Tunga Waya Primary Health Centre;;;;;
Bosso;Maitumbi Ward;;Gada Yanbiyu Primary Health Centre;;;;;
Bosso;Maitumbi Ward;;Gudu Gudu Primary Health Centre;;;;;
Bosso;Maitumbi Ward;;Gurusu Primary Health Centre;;;;;
Bosso;Maitumbi Ward;;Maitumbi Maternity Child Health;;;;;
Bosso;Maitumbi Ward;;Tayi B Primary Health Centre;;;;;
Bosso;Maitumbi Ward;;Pmassi Primary Health Center;;;;;
Bosso;Maitumbi Ward;;Lokoto Primary Health Center;;;;;
Bosso;Shatta Ward;;Pyatta Primary Health Centre;;;;;
Bosso;Shatta Ward;;Shatta Primary Health Centre;;;;;
Bosso;Shatta Ward;;Madako Primary Health Care;;;;;
Bosso;Shatta Ward;;Zinari Primary Health Centre;;;;;
Chanchaga;Limawa 'A' Ward;;Old Airport Road Clinic;;;;;
Chanchaga;Limawa 'A' Ward;;Family Support Program PHC ;;;;;
Chanchaga;Limawa 'B' Ward;;D/Kura Hausa Health Clinic;;;;;
Chanchaga;Limawa 'B' Ward;;Kutirko Primary Health Centre;;;;;
Chanchaga;Limawa 'B' Ward;;Devine Mercy Hospital;;;;;
Chanchaga;Limawa 'B' Ward;;D/Kura Gwari Health Clinic;;;;;
Chanchaga;Makera Ward;;Minna General Hospital;;;;;
Chanchaga;Minna Central Ward;;123 Clinic;;;;;
Chanchaga;Minna South Ward;;Kpakungu Primary Health Care;;;;;
Chanchaga;Minna South Ward;;Barkin Sale Planned Parenthood of Nigeria Clinic;;;;;
Chanchaga;Minna South Ward;;Nyinkpagbe Health Clinic;;;;;
Chanchaga;Minna South Ward;;Chankwan Primary Health Centre;;;;;
Chanchaga;Nassarawa 'A' Ward;;Gwari Road Minna Maternal and Child Health Clinic;;;;;
Chanchaga;Nassarawa 'B' Ward;;Police Clinic Minna;;;;;
Chanchaga;Nassarawa 'C' Ward;;Tayi Health Clinic (Chanchaga);;;;;
Chanchaga;Nassarawa 'C' Ward;;Anguwan Biri Primary Health Care;;;;;
Chanchaga;Sabon Gari Ward;;Abdulsalam Qtrs Clinic;;;;;
Chanchaga;Sabon Gari Ward;;A/Kuje UBE School Clinic;;;;;
Chanchaga;Tudunwada North Ward;;Kanfanyi Primary Health Centre;;;;;
Chanchaga;Tudunwada North Ward;;Tunga UBE School Clinic;;;;;
Chanchaga;Tudunwada North Ward;;M.i wushishi clinic;;;;;
Chanchaga;Tudunwada South Ward;;Tunga Sabon Titi Health Centre;;;;;
Chanchaga;Tudunwada South Ward;;Sauka Kahuta Primary Health Care;;;;;
Chanchaga;Tudunwada South Ward;;Primary Health Care Tunga;;;;;
Edati;Enagi Ward;;Enagi Health Clinic;;;;;
Edati;Enagi Ward;;Edogi Health Clinic;;;;;
Edati;Enagi Ward;;Gogata Health Clinic;;;;;
Edati;Etsu-Tasha Ward;;Mapa Health Clinic;;;;;
Edati;Etsu-Tasha Ward;;Kpayi Health Post;;;;;
Edati;Etsu-Tasha Ward;;Tswanku Basic Health Clinic;;;;;
Edati;Etsu-Tasha Ward;;Etsu Tasha Health Clinic;;;;;
Edati;Etsu-Tasha Ward;;Emi Tasha Health Clinic;;;;;
Edati;Etsu-Tasha Ward;;Donko Health Clinic;;;;;
Edati;Etsu-Tasha Ward;;Gamunu Health Clinic;;;;;
Edati;Etsu-Tasha Ward;;Chegungi Health Clinic;;;;;
Edati;Fazhi Ward;;Fazhi Health Post;;;;;
Edati;Gashe2 ward;;Bongi Health Clinic;;;;;
Edati;Gashe2 ward;;Kagba Health Clinic;;;;;
Edati;Gashe2 ward;;Botan Health Clinic;;;;;
Edati;Gashe2 ward;;Lenfa Health Clinic;;;;;
Edati;Gazhe1 Ward;;Tadima health Clinic;;;;;
Edati;Gazhe1 Ward;;Evunta Health Clinic;;;;;
Edati;Gazhe1 Ward;;Gazhe 1 Community Health Clinic;;;;;
Edati;Gazhe1 Ward;;Edosworagi Health Clinic;;;;;
Edati;Gazhe1 Ward;;Bafu Health Clinic;;;;;
Edati;Gazhe1 Ward;;Barratsu Health Clinic;;;;;
Edati;Gazhe1 Ward;;Evunta Health Clinic;;;;;
Edati;Gbangban Ward;;Lukoro Health Clinic;;;;;
Edati;Gbangban Ward;;Gbanpin Health Clinic;;;;;
Edati;Gbangban Ward;;Gbamace Leemp Health Clinic ;;;;;
Edati;Gbangban Ward;;Gbangban Community Health Clinic ;;;;;
Edati;Gbangban Ward;;Wuya Health Clinic;;;;;
Edati;Gbangban Ward;;Chengudu Health Clinic;;;;;
Edati;Gbangban Ward;;Malungi Health Clinic;;;;;
Edati;Gonagi Ward ;;Gonagi health clinic;;;;;
Edati;Gonagi Ward ;;Kantigi Health Clinic;;;;;
Edati;Guzzan Ward;;Gbanbu Health Clinic;;;;;
Edati;Guzzan Ward;;Dikko Health Clinic;;;;;
Edati;Guzzan Ward;;Gbodoti Model Primary Health Centre;;;;;
Edati;Guzzan Ward;;Guzzan Leemp Health Clinic;;;;;
Edati;Rokota Ward;;Rokota Leemp Health Clinic;;;;;
Edati;Rokota Ward;;Kwale Health Clinic;;;;;
Edati;Rokota Ward;;Emigi Health Clinic;;;;;
Edati;Rokota Ward;;Lazhikolo Leemp Health Clinic ;;;;;
Edati;Rokota Ward;;Kobbo Health Clinic ;;;;;
Edati;Sakpe Ward;;Evungi Health Clinic ;;;;;
Edati;Sakpe Ward;;Buku Health Clinic ;;;;;
Edati;Sakpe Ward;;Guduko Health Clinic;;;;;
Edati;Sakpe Ward;;Boloogi Health Clinic;;;;;
Edati;Sakpe Ward;;Fada Health Clinic;;;;;
Gbako;Batagi Ward;;Sakiwa Basic Health Clinic ;;;;;
Gbako;Batagi Ward;;Massaga Bidanko Basic Health Clinic;;;;;
Gbako;Batagi Ward;;Batagi Basic Health Clinic;;;;;
Gbako;Batako Ward;;Mantafien Basic Health Clinic ;;;;;
Gbako;Batako Ward;;Batako Basic Health Clinic;;;;;
Gbako;Batako Ward;;Rufayi Health Post;;;;;
Gbako;Batako Ward;;Gbangbatsofo Health Post;;;;;
Gbako;Batako Ward;;Emitsowa Basic Health Clinic;;;;;
Gbako;Batako Ward;;Gara Health Post;;;;;
Gbako;Batako Ward;;Bata Woro Health Post;;;;;
Gbako;Batako Ward;;Tsadu Kashi Health Post;;;;;
Gbako;Batako Ward;;Tswatagi Health Post;;;;;
Gbako;Batako Ward;;Emidachi Health Post;;;;;
Gbako;Edokata Ward;;Dada  Health Post;;;;;
Gbako;Edokata Ward;;Essan Patigi Health Post;;;;;
Gbako;Edokata Ward;;Ndadzuru Health Post;;;;;
Gbako;Edokata Ward;;Egbe Basic Health Clinic;;;;;
Gbako;Edokata Ward;;Ebugi  Health Post;;;;;
Gbako;Edokata Ward;;Essan Patissan Health Post;;;;;
Gbako;Edokata Ward;;Essan Kuchita Health Post;;;;;
Gbako;Edokata Ward;;Edokota Basic Health Clinic;;;;;
Gbako;Edokata Ward;;Sonkpata Health Post;;;;;
Gbako;Edokata Ward;;Emigi Health Post;;;;;
Gbako;Edozhigi Ward;;Chekpanfu Health Post;;;;;
Gbako;Edozhigi Ward;;Koragba Health Post;;;;;
Gbako;Edozhigi Ward;;Gusadin Basic Health Clinic;;;;;
Gbako;Edozhigi Ward;;Edozhigi Primary Health Centre;;;;;
Gbako;Edozhigi Ward;;Mamafu Health Post;;;;;
Gbako;Edozhigi Ward;;Tabo Health Post;;;;;
Gbako;Edozhigi Ward;;Dakpan Basic Health Clinic;;;;;
Gbako;Edozhigi Ward;;Kedigi Health Post;;;;;
Gbako;Edozhigi Ward;;Yeregi Basic Health Clinic;;;;;
Gbako;Etsu-Audu Ward;;Saganuwan-Kula Primary Health centre;;;;;
Gbako;Etsu-Audu Ward;;Fembo Health Post;;;;;
Gbako;Etsu-Audu Ward;;Nda'aba Health Post;;;;;
Gbako;Etsu-Audu Ward;;Ndagbacin Basic Health Clinic;;;;;
Gbako;Etsu-Audu Ward;;Nuwayan Health Post;;;;;
Gbako;Etsu-Audu Ward;;Wawagi Basic Health Clinic;;;;;
Gbako;Etsu-Audu Ward;;Kochikota Health Post;;;;;
Gbako;Etsu-Audu Ward;;Fakumba Health Post;;;;;
Gbako;Etsu-Audu Ward;;Mangorota Health Post;;;;;
Gbako;Etsu-Audu Ward;;Etsu-Audu Basic Health Clinic;;;;;
Gbako;Etsu-Audu Ward;;Magoyi Health Post;;;;;
Gbako;Etsu-Audu Ward;;Sheshimandiko Health Post;;;;;
Gbako;Etsu-Audu Ward;;Emisagi Health Post;;;;;
Gbako;Etsu-Audu Ward;;Egbati Yisa Health Post;;;;;
Gbako;Gbadafu Ward;;Evungi Basic Health Clinic;;;;;
Gbako;Gbadafu Ward;;Biramafu Basic Health Clinic;;;;;
Gbako;Gbadafu Ward;;Gbanguba Health Post;;;;;
Gbako;Gbadafu Ward;;Sakofu Health Post;;;;;
Gbako;Gbadafu Ward;;Gbadafu Basic Health Clinic;;;;;
Gbako;Gbadafu Ward;;Sakofu Health Post;;;;;
Gbako;Gbadafu Ward;;Zanchita Health Post;;;;;
Gbako;Gogata Ward;;Gogata Basic Health Clinic;;;;;
Gbako;Gogata Ward;; ni Shabafu Health Post;;;;;
Gbako;Gogata Ward;;Goyi Dangi Health Post;;;;;
Gbako;Gogata Ward;;Komu Health Post;;;;;
Gbako;Lemu Ward;;Lemu Maternal Health Centre;;;;;
Gbako;Lemu Ward;;Yetu Maternity Clinic;;;;;
Gbako;Lemu Ward;;Kunkele Basic Health Clinic;;;;;
Gbako;Lemu Ward;;Lemu Rural Hospital;;;;;
Gbako;Lemu Ward;;Yebocin Health Centre;;;;;
Gbako;Nuwan Kota Ward;;Kolobu Health Post;;;;;
Gbako;Nuwan Kota Ward;;Laga Health Post;;;;;
Gbako;Nuwan Kota Ward;;Bidafu Jaaba Health Post;;;;;
Gbako;Nuwan Kota Ward;;Evuntagi Health Post;;;;;
Gbako;Nuwan Kota Ward;;Swasnuwan Gabi Health Post;;;;;
Gbako;Nuwan Kota Ward;;Wasagi Basic Health Clinic;;;;;
Gbako;Nuwan Kota Ward;;Legbozukun Basic Health Clinic;;;;;
Gbako;Nuwan Kota Ward;;Bini Health Post;;;;;
Gbako;Nuwan Kota Ward;;Edotsu Health Post;;;;;
Gbako;Nuwan Kota Ward;;Nuwankota Basic Health Clinic;;;;;
Gbako;Nuwan Kota Ward;;Malagi Health Post;;;;;
Gbako;Nuwan Kota Ward;;Saganuwan Pachi Health Post;;;;;
Gbako;Nuwan Kota Ward;;Emimaru Health Post;;;;;
Gbako;Nuwan Kota Ward;;Sommaji Bata Health Post;;;;;
Gbako;Nuwan Kota Ward;;Toroko Basic Health Clinic;;;;;
Gbako;Sommazhiko Ward;;Kowangi Health Post;;;;;
Gbako;Sommazhiko Ward;;Gbangba Basic Health Clinic;;;;;
Gbako;Sommazhiko Ward;;Ndako Gana Basic Health Clinic;;;;;
Gbako;Sommazhiko Ward;;Gududzuru Health Post;;;;;
Gbako;Sommazhiko Ward;;Bidafutako Health Post;;;;;
Gbako;Sommazhiko Ward;;Shabalegbo Basic Health Clinic;;;;;
Gbako;Sommazhiko Ward;;Tiwugi Basic Health Centre;;;;;
Gbako;Sommazhiko Ward;;Nuwanko Somma  Health Post;;;;;
Gbako;Sommazhiko Ward;;Ndalada Health Post;;;;;
Gbako;Sommazhiko Ward;;Mainasara Clinic;;;;;
Gbako;Sommazhiko Ward;;Sonmazhiko Basic Health Clinic;;;;;
Gurara;Bonu Ward;;Kutili Dispensary;;;;;
Gurara;Bonu Ward;;Sinsi Dispensary;;;;;
Gurara;Bonu Ward;;Bazhi Dispensary;;;;;
Gurara;Bonu Ward;;Bonu Primary Health Centre;;;;;
Gurara;Bonu Ward;;T/Wada (Ebba) Dispensary;;;;;
Gurara;Bonu Ward;;Tuna Primary Health Centre;;;;;
Gurara;Bonu Ward;;Dagigbe Dispensary;;;;;
Gurara;Boyi Ward;;Boyi Sarki Dispensary;;;;;
Gurara;Boyi Ward;;Sullu Dispensary;;;;;
Gurara;Boyi Ward;;Kadna Primary Health Care;;;;;
Gurara;Boyi Ward;;Angwan Nasara Prinary Health Care;;;;;
Gurara;Boyi Ward;;Boyi Madaki Dispensary;;;;;
Gurara;Boyi Ward;;Knanyihmana Primary Health Care;;;;;
Gurara;Boyi Ward;;Daku Dispensary;;;;;
Gurara;Diko Ward;;Dikko Primary Health Centre (Gurara);;;;;
Gurara;Diko Ward;;Diko Model Primary Health Centre;;;;;
Gurara;Gawu Ward;;Alpha Clinic;;;;;
Gurara;Gawu Ward;;Gawu Federal Medical Centre;;;;;
Gurara;Gawu Ward;;Gawu Babangida Maternal and Child Clinic;;;;;
Gurara;Izom Ward;;Abuchi Gwari Dispensary;;;;;
Gurara;Izom Ward;;Izom Basic Health Care;;;;;
Gurara;Izom Ward;;Divine Maternity Home;;;;;
Gurara;Izom Ward;; ZhigbodoPrimary Healh Center;;;;;
Gurara;Kabo Ward;;Zabaidna Dispensary;;;;;
Gurara;Kabo Ward;;Iwa Dispensary;;;;;
Gurara;Kabo Ward;;Shanu Dispensary;;;;;
Gurara;Kabo Ward;;Gussu Dispensary;;;;;
Gurara;Kabo Ward;;Sayindna Primary Health Care;;;;;
Gurara;Kabo Ward;;Kabo Primary Health Centre;;;;;
Gurara;Kwaka Ward;;Burum Dispensary;;;;;
Gurara;Kwaka Ward;;Kwaka Model Primary Health Centre;;;;;
Gurara;Kwaka Ward;;Wagu Dispensary;;;;;
Gurara;Kwaka Ward;;Gwacipe Dispensary;;;;;
Gurara;Lambata Ward;;Gbamita Primary Health Care;;;;;
Gurara;Lambata Ward;;Lambata Dispensary;;;;;
Gurara;Lambata Ward;;Wyela Dispensary;;;;;
Gurara;Lefu Ward;;Badnagbe Primary Health Care;;;;;
Gurara;Lefu Ward;;Lefu Primary Health Centre;;;;;
Gurara;Lefu Ward;;Pasali Primary Health Centre;;;;;
Gurara;Shako Ward;;Guna Primary Health Care;;;;;
Gurara;Shako Ward;;Kujayi Primary Health Care;;;;;
Gurara;Shako Ward;;Shako Primary Health Centre;;;;;
Gurara;Shako Ward;;Alaita Primary Health Care;;;;;
Gurara;Shako Ward;;Seji Dispensary;;;;;
Gurara;Shako Ward;;Ikumi Dispensary;;;;;
Gurara;Tufa Ward;;Tufa Primary Health Centre;;;;;
Gurara;Tufa Ward;;Boku Madaki Dispensary;;;;;
Gurara;Tufa Ward;;Kudna Dispensary;;;;;
Gurara;Tufa Ward;;Boku Sarki Dispensary;;;;;
Katcha;Badeggi Ward (Katcha);;Hajia Jummai Maternal and Child Health Clinic;;;;;
Katcha;Badeggi Ward (Katcha);;Lafiyagi Lafe Health Post;;;;;
Katcha;Badeggi Ward (Katcha);;Yebojin Primary Health Centre (Katcha);;;;;
Katcha;Badeggi Ward (Katcha);;Nwogi Dispensary;;;;;
Katcha;Badeggi Ward (Katcha);;Badeggi Basic Health Clinic;;;;;
Katcha;Badeggi Ward (Katcha);;Kansanagi Dispensary;;;;;
Katcha;Bakeko ward;;Lafiagi Dzwafu Primary Health Centre;;;;;
Katcha;Bakeko ward;;Dagbakota Health Post;;;;;
Katcha;Bakeko ward;;Da'gba Health Post;;;;;
Katcha;Bakeko ward;;Bakeko Comprehensive Health Care;;;;;
Katcha;Bakeko ward;;Majaidu Dispensary;;;;;
Katcha;Bakeko ward;;Bashi Dispensary;;;;;
Katcha;Bisanti ward;;Maji-Dadi Health Post;;;;;
Katcha;Bisanti ward;;Eregi Rabakpan Health Post;;;;;
Katcha;Bisanti ward;;Tsado Gonna (Leemp) Primary Health Centre;;;;;
Katcha;Bisanti ward;;El-Yahaya Health Centre;;;;;
Katcha;Bisanti ward;;Mantuntu Dispensary;;;;;
Katcha;Bisanti ward;;Halilu Dispensary;;;;;
Katcha;Bisanti ward;;Bisanti Dispensary;;;;;
Katcha;Dzwafu ward;;Dzwafu Dispensary;;;;;
Katcha;Dzwafu ward;;Gabi Dispensary;;;;;
Katcha;Dzwafu ward;;Tsuachiko Health Post;;;;;
Katcha;Dzwafu ward;;Ndabissan Dispensary;;;;;
Katcha;Dzwafu ward;;Potungi Dispensary;;;;;
Katcha;Dzwafu ward;;Dzamgbodo Health Post;;;;;
Katcha;Edostu ward;;Kudogi Health Post;;;;;
Katcha;Edostu ward;;Primary Health Care Kashe;;;;;
Katcha;Edostu ward;;Fuyakako Health Post;;;;;
Katcha;Edostu ward;;Shabawoshi Dispensary;;;;;
Katcha;Edostu ward;;Tsadoyagi Health Post;;;;;
Katcha;Edostu ward;;Edotsu Dispensary;;;;;
Katcha;Edostu ward;;Magayaki Health post;;;;;
Katcha;Essa ward;;Cheche Dispensary;;;;;
Katcha;Essa ward;;Essa Dispensary;;;;;
Katcha;Essa ward;;Mayaki Legbodza Dispensary;;;;;
Katcha;Essa ward;;Bororo Primary Health Centre;;;;;
Katcha;Essa ward;;Edikuso Primary health Centre;;;;;
Katcha;Essa ward;;Bakondare Dispensary;;;;;
Katcha;Essa ward;;Angulu Primary Health Centre;;;;;
Katcha;Essa ward;;Pati Primary Health Centre;;;;;
Katcha;Gbakogi ward;;Yinti Dispensary;;;;;
Katcha;Gbakogi ward;;Gadza Dispensary;;;;;
Katcha;Gbakogi ward;;Emigi Health Post (Katcha);;;;;
Katcha;Gbakogi ward;;Lafiagi Kulli Dispensary;;;;;
Katcha;Gbakogi ward;;Jibbo Health Post;;;;;
Katcha;Gbakogi ward;;Tswako Primary Health Care;;;;;
Katcha;Gbakogi ward;;Zhitu Health Post;;;;;
Katcha;Gbakogi ward;;Gbakogi Dispensary;;;;;
Katcha;Gbakogi ward;;Saagi Health Post;;;;;
Katcha;Katcha Ward;;Lafiya Primary Health Centre and Maternity (Katcha);;;;;
Katcha;Katcha Ward;;Katcha Basic Health Clinic;;;;;
Katcha;Katcha Ward;;Matanal Child Health F.S.P;;;;;
Katcha;Kateregi Ward;;Kataeregi Basic Health Clinic;;;;;
Katcha;Kateregi Ward;;Millennium Development Goal Bodi;;;;;
Katcha;Kateregi Ward;;Lafiyagi Zadin Dispensary;;;;;
Katcha;Kateregi Ward;;Zuzungi Family Support Programme Clinic;;;;;
Katcha;Sidi Saba ward;;Emi Ranin Health Post;;;;;
Katcha;Sidi Saba ward;;Alukusu Dispensary;;;;;
Katcha;Sidi Saba ward;;Gubagi Dispensary;;;;;
Katcha;Sidi Saba ward;;Sidi Saba Dispensary;;;;;
Kontagora;Arewa Ward;;Tukura Primary Health Centre;;;;;
Kontagora;Cenral Ward;;Kontagora Central Primary Health Centre;;;;;
Kontagora;Cenral Ward;;Late Musa Bako Primary Health Centre;;;;;
Kontagora;Gabas Ward;;Kontagora Maternal and Child Health Clinic;;;;;
Kontagora;Gabas Ward;;Dadin Kowa Primary Health Centre;;;;;
Kontagora;Gabas Ward;;Rafin Karma Primary Health Centre;;;;;
Kontagora;Gabas Ward;;Lafiya Primary Health Centre and Maternity (Kontagora);;;;;
Kontagora;Gabas Ward;;Goje Medical Centre;;;;;
Kontagora;Gabas Ward;;Al-Azeez Medical Centre;;;;;
Kontagora;Kudu Ward;;Kontogora ORT Unit Clinic ;;;;;
Kontagora;Kudu Ward;;Kontagora General Hospital;;;;;
Kontagora;Kudu Ward;;Bawan Allah Clinic and Maternity;;;;;
Kontagora;Kudu Ward;;Kontagora Nasarawa Primary Health Centre;;;;;
Kontagora;Kudu Ward;;Nissi Medical Clinic;;;;;
Kontagora;Kudu Ward;;Nasara Clinic and Maternity;;;;;
Kontagora;Kudu Ward;;Kontagora Clinic and Maternity;;;;;
Kontagora;Madara Ward;;Tungan Abu Dispensary;;;;;
Kontagora;Madara Ward;;Masaha Dispensary;;;;;
Kontagora;Magajiya Ward;;Ubandoma Kontagora Primary Health Centre;;;;;
Kontagora;Magajiya Ward;;Saidu Namaska Primary Health Centre;;;;;
Kontagora;Masuga Ward;;Dogon Fadama Dispensary;;;;;
Kontagora;Masuga Ward;;Lioji Primary Health Centre;;;;;
Kontagora;Masuga Ward;;Masuga Primary Health Centre;;;;;
Kontagora;Nagwamatse Ward;;Army Barracks Health Clinic;;;;;
Kontagora;Nagwamatse Ward;;Rijayan-Nagwamace Basic Health Clinic;;;;;
Kontagora;Rafin Gora Ward;;Rafin Gora Comprehensive Health Centre;;;;;
Kontagora;Tugan Wawa Ward;;Alala Health Post;;;;;
Kontagora;Tugan Wawa Ward;;Madangyan Primary Health Centre;;;;;
Kontagora;Tugan Wawa Ward;;Utachu Health Post;;;;;
Kontagora;Tugan Wawa Ward;;Ganawa Primary Health Centre;;;;;
Kontagora;Tugan Wawa Ward;;Tungan Wawa Health Post;;;;;
Kontagora;Tugan Wawa Ward;;Dappo Primary Health Centre;;;;;
Kontagora;Tungan Kawo Ward;;Kawo Model Primary Health Centre;;;;;
Kontagora;Tungan Kawo Ward;;Mailehe  health Center;;;;;
Kontagora;Tungan Kawo Ward;;Tungan Gari Primary Health Centre;;;;;
Kontagora;Tungan Kawo Ward;;Usubu Primary Health Centre;;;;;
Kontagora;Usalle Ward;;Babanlanba Primary Healthcare;;;;;
Kontagora;Usalle Ward;;Rijiyan Daji Primary Health Centre;;;;;
Kontagora;Usalle Ward;;Kampanin Waya Primary Health Centre;;;;;
Kontagora;Yamma Ward;;Maidubu Kontagora Primary Health Centre;;;;;
Lapai;Arewa/Yamma Ward;;Lapai Comprehensive Health Centre;;;;;
Lapai;Arewa/Yamma Ward;;Sudugi Health Clinic;;;;;
Lapai;Arewa/Yamma Ward;;Lapai Rural Hospital;;;;;
Lapai;Arewa/Yamma Ward;;Gawa Health Post;;;;;
Lapai;Birnin Maza/Tashibo Ward;;Kawu Health Clinic;;;;;
Lapai;Birnin Maza/Tashibo Ward;;Saminaka Primary Health Centre;;;;;
Lapai;Birnin Maza/Tashibo Ward;;Dangana Health Clinic;;;;;
Lapai;Birnin Maza/Tashibo Ward;;Tashibo Health Clinic;;;;;
Lapai;Duma/Zago Ward;;Duma Health Clinic;;;;;
Lapai;Duma/Zago Ward;;Mayaki Health Clinic (Lapai);;;;;
Lapai;Duma/Zago Ward;;Nasarawa Health Clinic;;;;;
Lapai;Duma/Zago Ward;;Kapako Health Clinic;;;;;
Lapai;Ebbo/Gbacenku Ward;;Gbage Dispensary;;;;;
Lapai;Ebbo/Gbacenku Ward;;K/Kebba Health Post;;;;;
Lapai;Ebbo/Gbacenku Ward;;Gbami Health Post;;;;;
Lapai;Ebbo/Gbacenku Ward;;Emu Woro PHC;;;;;
Lapai;Ebbo/Gbacenku Ward;;Yawa Kara Woro Health Post;;;;;
Lapai;Ebbo/Gbacenku Ward;;Bazhi Health Post;;;;;
Lapai;Ebbo/Gbacenku Ward;;Ebbo Health Post;;;;;
Lapai;Gabas/Kudu Ward;;Lapai Town Dispensary;;;;;
Lapai;Gabas/Kudu Ward;;Lapai Maternal and Child Health Clinic;;;;;
Lapai;Gabas/Kudu Ward;;Takalafiya Health Post;;;;;
Lapai;Gulu/Vatsa Ward;;Gbedako Health Post;;;;;
Lapai;Gulu/Vatsa Ward;;Eddo Health Post;;;;;
Lapai;Gulu/Vatsa Ward;;Zabbo Health Post;;;;;
Lapai;Gulu/Vatsa Ward;;Gulu Maternal and Child Health Clinic;;;;;
Lapai;Gupa/Abugi Ward;;Chepa Health Post;;;;;
Lapai;Gupa/Abugi Ward;;Edzu Health Post;;;;;
Lapai;Gupa/Abugi Ward;;Emirokokpa Primary Health Care;;;;;
Lapai;Gupa/Abugi Ward;;Cheku Primary Health Center;;;;;
Lapai;Gupa/Abugi Ward;;Gupa Health Post;;;;;
Lapai;Kpada/Evuti Ward;;Ekkan Health Post;;;;;
Lapai;Kpada/Evuti Ward;;Kuti Sabo Health Post;;;;;
Lapai;Kpada/Evuti Ward;;Evuti Health Post;;;;;
Lapai;Kpada/Evuti Ward;;Kpada Health Post;;;;;
Lapai;Kpada/Evuti Ward;;Pelemi Health Post;;;;;
Lapai;Muye/Egba Ward;;Sokun Health Post;;;;;
Lapai;Muye/Egba Ward;;Dere Health Post;;;;;
Lapai;Muye/Egba Ward;;Egba Health Post;;;;;
Lapai;Muye/Egba Ward;;Yelwa Health Clinic;;;;;
Lapai;Muye/Egba Ward;;Muye Basic Health Clinic;;;;;
Lapai;Takuti/Shaku ward;;Gabi Basic Health Centre;;;;;
Lapai;Takuti/Shaku ward;;Gbacidan Health Clinic;;;;;
Lapai;Takuti/Shaku ward;;Shaku Model Primary Health Centre;;;;;
Lapai;Takuti/Shaku ward;;Etsugi Health Post;;;;;
Lapai;Takuti/Shaku ward;;Takuti Shaba Primary Health Centre;;;;;
Lapai;Takuti/Shaku ward;;Zolegi Health Post;;;;;
Lapai;Takuti/Shaku ward;;Takuti Abuja Primary Health Centre;;;;;
Lavun;Batati Ward;;Chatafu UNICEF Community Hospital, Chatafu;;;;;
Lavun;Batati Ward;;Shebe Health Post;;;;;
Lavun;Batati Ward;;Batati Health Post;;;;;
Lavun;Batati Ward;;Panti Health Post;;;;;
Lavun;Batati Ward;;Ma'ali Basic Health Centre;;;;;
Lavun;Batati Ward;;Lanle Health Post;;;;;
Lavun;Batati Ward;;Etsu Woro Health Clinic;;;;;
Lavun;Busu Ward;;Emitsuwa Dadan Health Clinic;;;;;
Lavun;Busu Ward;;Kuchiworo Model Primary Health Centre;;;;;
Lavun;Busu Ward;;Koso Health Clinic;;;;;
Lavun;Busu Ward;;Busu Rural Hospital;;;;;
Lavun;Busu Ward;;Gbadagbazu Primary Health Facility;;;;;
Lavun;Busu Ward;;Kpanje Health Clinic;;;;;
Lavun;Busu Ward;;Dokogi Health Post;;;;;
Lavun;Busu Ward;;Jikanagi Health Clinic;;;;;
Lavun;Busu Ward;;Etsu-Zagi Health Clinic;;;;;
Lavun;Dabban Ward;;Egbanti Health Post;;;;;
Lavun;Dabban Ward;;Dabban Community Health Clinic;;;;;
Lavun;Dabban Ward;;Zhigun Basic Health Clinic;;;;;
Lavun;Dassun Ward;;Yeti Health Post;;;;;
Lavun;Dassun Ward;;Jipan Health Post;;;;;
Lavun;Dassun Ward;;Charati Health Post;;;;;
Lavun;Dassun Ward;;Kupe Health Post;;;;;
Lavun;Dassun Ward;;Ruga Health Post;;;;;
Lavun;Dassun Ward;;Dassun Basic Health Clinic;;;;;
Lavun;Dassun Ward;;Yakudi Health Post;;;;;
Lavun;Doko Ward;;Dzowu Health Clinic;;;;;
Lavun;Doko Ward;;Vunchi Health Clinic;;;;;
Lavun;Doko Ward;;Mambwari Health Clinic;;;;;
Lavun;Doko Ward;;Doko Basic Health Clinic;;;;;
Lavun;Doko Ward;;Boku Health Clinic;;;;;
Lavun;Egbako Ward;;Tsoegi Basic Health Community;;;;;
Lavun;Egbako Ward;;Ajennatu Health Post;;;;;
Lavun;Egbako Ward;;Egbako Health Post;;;;;
Lavun;Egbako Ward;;Emiworogi Health Post;;;;;
Lavun;Egbako Ward;;Ndaruka  Basic Health Clinic;;;;;
Lavun;Egbako Ward;;Tsofadagabi Health Post;;;;;
Lavun;Egbako Ward;;Santali Basic Health Clinic;;;;;
Lavun;Gaba Ward;;Elomi Health Post;;;;;
Lavun;Gaba Ward;;Tsado Nkochi Health Clinic;;;;;
Lavun;Gaba Ward;;Amfani Health Post;;;;;
Lavun;Gaba Ward;;Sabo Bikuni Health Clinic;;;;;
Lavun;Gaba Ward;;Ejeti Primary Health Centre ;;;;;
Lavun;Gaba Ward;;Nasarafu Health Post;;;;;
Lavun;Gaba Ward;;Ndaji Kusotachi Health Clinic;;;;;
Lavun;Gaba Ward;;Eyagi Sodanci Basic Health Centre;;;;;
Lavun;Gaba Ward;;Kashikoko Health Post;;;;;
Lavun;Gaba Ward;;Gaba Basic Health Centre;;;;;
Lavun;Jima Ward;;Danchitagi Basic Health Clinic;;;;;
Lavun;Jima Ward;;Jima Basic Health Centre;;;;;
Lavun;Jima Ward;;Kpacitagi Health Post;;;;;
Lavun;Jima Ward;;Edobaba Health Post;;;;;
Lavun;Kusotachin Ward;;Emi Ndakotsu Health Clinic;;;;;
Lavun;Kusotachin Ward;;Nnafyania Health Clinic;;;;;
Lavun;Kusotachin Ward;;Majin Gari Health Clinic;;;;;
Lavun;Kusotachin Ward;;Emibana Health Post;;;;;
Lavun;Kusotachin Ward;;Kutigi Dadi Health Clinic;;;;;
Lavun;Kutigi Ward;;Kutigi Maternal and Child Health Clinic;;;;;
Lavun;Kutigi Ward;;Kutigi General Hospital;;;;;
Lavun;Kutigi Ward;;Kutigi Clinic and Maternity Home;;;;;
Lavun;Kutigi Ward;;Duma Health Post;;;;;
Lavun;Lagun Ward;;Ribiku Health Post;;;;;
Lavun;Lagun Ward;;Yiddan Health Post;;;;;
Lavun;Lagun Ward;;Lagun 2 Health Post;;;;;
Lavun;Lagun Ward;;Sabon Madina Health Post;;;;;
Lavun;Lagun Ward;;Robizhi Health Post;;;;;
Lavun;Lagun Ward;;Dagida Basic Health Clinic;;;;;
Lavun;Lagun Ward;;Kutiwongi Basic Health Clinic;;;;;
Lavun;Lagun Ward;;Lagun 1 Health Post;;;;;
Lavun;Lagun Ward;;Koegi Health Post;;;;;
Lavun;Mambe Ward;;Egagi Health Clinic;;;;;
Lavun;Mambe Ward;;Danko Emiworongi Health Clinic;;;;;
Lavun;Mambe Ward;;Nku Health Clinic;;;;;
Lavun;Mambe Ward;;Gbade Health Clinic;;;;;
Lavun;Mambe Ward;;Primary Health Care Ebangi;;;;;
Lavun;Mambe Ward;;Mawogi Health Clinic;;;;;
Lavun;Mambe Ward;;Saachi Nku Health Post;;;;;
Lavun;Mambe Ward;;Batagi Muchita Health Clinic;;;;;
Lavun;Mambe Ward;;Sosa Health Clinic;;;;;
Lavun;Mambe Ward;;Danko Masallachi Health Clinic;;;;;
Lavun;Mambe Ward;;Nupeko Health Clinic;;;;;
Lavun;Mambe Ward;;Fokpo Health Clinic;;;;;
Lavun;Mambe Ward;;Pati Shaba Health Clinic;;;;;
Lavun;Mambe Ward;;Mambe Health Clinic;;;;;
Lavun;Mambe Ward;;Batagi Ndace Primary Health Centre;;;;;
Magama;Anaba Ward;;Gengi Maikasuwa Dispensary;;;;;
Magama;Anaba Ward;;Rigulo Dispensary;;;;;
Magama;Anaba Ward;;K/Jibrin Dispensary;;;;;
Magama;Anaba Ward;;Anaba Dispensary;;;;;
Magama;Anaba Ward;;T/Maje Dispensary;;;;;
Magama;Anaba Ward;;Libale Dispensary;;;;;
Magama;Auna Central Ward;;Balugu dispensary;;;;;
Magama;Auna Central Ward;;Auna Dispensary;;;;;
Magama;Auna Central Ward;;General hospital auna;;;;;
Magama;Auna Central Ward;;kwada Dispensary;;;;;
Magama;Ibelu  Ward;;Maragwasa dispensary;;;;;
Magama;Ibelu  Ward;;Ibeto Basic Health Clinic;;;;;
Magama;Ibelu  Ward;;Ibeto Dispensary;;;;;
Magama;Kawo Ward;;Makwa'ari Dispensary;;;;;
Magama;Kawo Ward;;Kawo Dispensary (Magama);;;;;
Magama;Kawo Ward;;Gurai Dispensary;;;;;
Magama;Kawo Ward;;Madalo Dispensary;;;;;
Magama;Kawo Ward;;Koso dispensary;;;;;
Magama;Kawo Ward;;S/Gari Clinic;;;;;
Magama;Kawo Ward;;Mazakari dispensary;;;;;
Magama;Kura Ward;;T/Wada Majinga Dispensary;;;;;
Magama;Kura Ward;;Majabo Dispensary;;;;;
Magama;Kura Ward;;Majeme Dispensary;;;;;
Magama;Kura Ward;;Kura Basic Health Clinic;;;;;
Magama;Kura Ward;;T/Kade Dispensary;;;;;
Magama;Kura Ward;;MDG Clinic Majinga PHC;;;;;
Magama;Kura Ward;;Wando Dispensary;;;;;
Magama;Kura Ward;;Tunga Raha Primary Health Center;;;;;
Magama;Magaman Daji  Ward;;Mahilo Dispensary;;;;;
Magama;Magaman Daji  Ward;;Zoma Dispensary;;;;;
Magama;Magaman Daji  Ward;;Magaman Daji Dispensary;;;;;
Magama;Nasko Ward;;Shehu shagari general hsoital nasko;;;;;
Magama;Nasko Ward;;Nasko Basic Health Clinic;;;;;
Magama;Nasko Ward;;Uccu Dispensary;;;;;
Magama;Nasko Ward;;T/Mangoro Dispensary;;;;;
Magama;Nassarawa Ward;;Sonfada maternity clinic;;;;;
Magama;Nassarawa Ward;;Gileat medical service;;;;;
Magama;Nassarawa Ward;;Nassarawa Dispensary;;;;;
Magama;Nassarawa Ward;;Gungawa Primary Health Care Clinic;;;;;
Magama;Nassarawa Ward;;Anfani Primary Health Clinic;;;;;
Magama;Nassarawa Ward;;Garafini Primary Health Care Clinic;;;;;
Magama;Salka Ward;;Salka Basic Health Clinic;;;;;
Magama;Salka Ward;;Gwagwade Dispensary;;;;;
Magama;Salka Ward;;Mamba Dispensary;;;;;
Magama;Salka Ward;;Town Clinic Salka ;;;;;
Magama;Tunga jika Ward;;Makondo Dispensary;;;;;
Magama;Tunga jika Ward;;Tunga Jika Primary Health Center;;;;;
Magama;Tunga jika Ward;;Janyau Dispensary;;;;;
Magama;Yangulu Ward;;Atabo Dispensary;;;;;
Magama;Yangulu Ward;;T/Doma Dispensary;;;;;
Magama;Yangulu Ward;;Masamagu Dispensary;;;;;
Magama;Yangulu Ward;;Matandi Dispensary;;;;;
Magama;Yangulu Ward;;Ashuwa dispensary;;;;;
Magama;Yangulu Ward;;Yangalu Dispensary;;;;;
Mariga;Bangi Ward;;Nuradeen Primary Health Centre;;;;;
Mariga;Bangi Ward;;Bangi Maternal and child Health Clinic;;;;;
Mariga;Bangi Ward;;Farar Doka Health Center;;;;;
Mariga;Bangi Ward;;Col. Aminu I. Kontagora General Hospital;;;;;
Mariga;Beri Ward;;Dare Biyu Health Post;;;;;
Mariga;Beri Ward;;Dan Auta Health Post;;;;;
Mariga;Beri Ward;;Beri health care centre;;;;;
Mariga;Bobi Ward;;Bobi Basic Health Clinic;;;;;
Mariga;Bobi Ward;;Primary health care dargu;;;;;
Mariga;Bobi Ward;;Primary health care ukuru;;;;;
Mariga;Bobi Ward;;Primary health care matai;;;;;
Mariga;Bobi Ward;;Kanfanin Bobi Dispensary;;;;;
Mariga;Bobi Ward;;Maigoge Dispensary;;;;;
Mariga;Gulbin Boka Ward;;Zainab kure health care kuimo;;;;;
Mariga;Gulbin Boka Ward;;Gulbin Boka health care;;;;;
Mariga;Gulbin Boka Ward;;Dusai health care centre;;;;;
Mariga;Gulbin Boka Ward;;Lioji health care centre ;;;;;
Mariga;Igwama Ward ;;Igwama health facility;;;;;
Mariga;Igwama Ward ;;Maruba health facility;;;;;
Mariga;Igwama Ward ;;Kasuwan garba health facility;;;;;
Mariga;Igwama Ward ;;Uraga health facility;;;;;
Mariga;Igwama Ward ;;Makama health facility;;;;;
Mariga;Inkwai Ward;;Inkwai Hankuri Maternity Clinic;;;;;
Mariga;Inkwai Ward;;Mariga Basic Health Clinic;;;;;
Mariga;Inkwai Ward;;Kahigo health clinic;;;;;
Mariga;Kakihum Ward;;Kakihum primary health care;;;;;
Mariga;Kotonkoro Ward;;Matseri Health Post (Mariga);;;;;
Mariga;Kotonkoro Ward;;Kotonkoro Sabon Gari Dispensary;;;;;
Mariga;Kotonkoro Ward;;Kotonkoro Tsoho Gari Dispensary;;;;;
Mariga;Kotonkoro Ward;;Karambana Dispensary;;;;;
Mariga;Kumbashi Ward;;Mazame Health Post;;;;;
Mariga;Kumbashi Ward;;Ung Karbau Dispensary;;;;;
Mariga;Kumbashi Ward;;Kumbashi Dispensary;;;;;
Mariga;Maburya Ward;;Hayi dispensary;;;;;
Mariga;Maburya Ward;;Ragada Dispensary;;;;;
Mariga;Maburya Ward;;Maburya Dispensary;;;;;
Mariga;Wamba Ward;;Wamba Dispensary;;;;;
Mariga;Wamba Ward;;Galma health centre;;;;;
Mariga;Wamba Ward;;Lafiya tafi kudi wamba;;;;;
Mariga;Wamba Ward;;Mangoro health centre;;;;;
Mariga;Wamba Ward;;Kasuwan Ango Health Post;;;;;
Mashegu;Babbanrami Ward;;Magogo Basic Health Centre;;;;;
Mashegu;Babbanrami Ward;;Karamin Rami Primariy Health Centre;;;;;
Mashegu;Babbanrami Ward;;Babban Rami Basic Health Clinic;;;;;
Mashegu;Babbanrami Ward;;Masucci Basic Health Centre;;;;;
Mashegu;Babbanrami Ward;;Likyaule Pramary Health Centre;;;;;
Mashegu;Babbanrami Ward;;Jagura Primary Health centre;;;;;
Mashegu;Ibbi Ward;;Ibbi Basic Health Centre;;;;;
Mashegu;Ibbi Ward;;n Kusoko Primary Health Cetre;;;;;
Mashegu;Ibbi Ward;;Daja Model Primary Health Centre;;;;;
Mashegu;Ibbi Ward;;Gbgogan Health Post;;;;;
Mashegu;Ibbi Ward;;Ibbi Maternal and Child Health Centre;;;;;
Mashegu;Ibbi Ward;;Zugurma Primary Health Centre;;;;;
Mashegu;Ibbi Ward;;Mulea Health Post;;;;;
Mashegu;Kaboji Ward;;Ba'are Health Post;;;;;
Mashegu;Kaboji Ward;;Adogo Primary Health Centre;;;;;
Mashegu;Kaboji Ward;;Bakwai Bakwai Primariy Health Centre;;;;;
Mashegu;Kaboji Ward;;Kaboji Conprehesive Primary Health Centre;;;;;
Mashegu;Kaboji Ward;;Soba Primary Health Centre;;;;;
Mashegu;Kasanga Ward;;Gobirawa Primary Health Centre;;;;;
Mashegu;Kasanga Ward;;Kasanga Basic Heaith Centre;;;;;
Mashegu;Kasanga Ward;;Igade Primary Health Centre;;;;;
Mashegu;Kasanga Ward;;Gidan Kwanu Health Post;;;;;
Mashegu;Kulho Ward;;Kulho Basic Health Centre;;;;;
Mashegu;Kulho Ward;;Fanga Primary Health Centre;;;;;
Mashegu;Kulho Ward;;Babugi Primary Health Centre;;;;;
Mashegu;Kwatachi Ward;;Kpellegi;;;;;
Mashegu;Kwatachi Ward;;Leaba Health Post;;;;;
Mashegu;Kwatachi Ward;;Patiko Primary Health Centre;;;;;
Mashegu;Kwatachi Ward;;Kwatachi Health Clinic;;;;;
Mashegu;Manigi Ward;;Manigi Basic Health Centre;;;;;
Mashegu;Manigi Ward;;Makera Model Primary Health Centre;;;;;
Mashegu;Manigi Ward;;Ubagi Primary Health Centre;;;;;
Mashegu;Manigi Ward;;Edan Health Post;;;;;
Mashegu;Mashegu Ward;;Mashegu Basic Health Centre;;;;;
Mashegu;Mashegu Ward;;Jemaku Primary Health Centre;;;;;
Mashegu;Mashegu Ward;;Babagi Basic Health Centre;;;;;
Mashegu;Mashegu Ward;;Kawo  Primary Health Centre(Mashegu);;;;;
Mashegu;Mashegu Ward;;Matane Primary Health Centre;;;;;
Mashegu;Mashegu Ward;;Tenangi Basic Health Centre;;;;;
Mashegu;Mashegu Ward;;Buzana Basic Health Centre;;;;;
Mashegu;Mazakula Ward;;Robu Primary Health Centre;;;;;
Mashegu;Mazakula Ward;;Mazakuka Basic Health Centre;;;;;
Mashegu;Mazakula Ward;;Likoro Primary Health Centre;;;;;
Mashegu;Mazakula Ward;;Achikogi Health Post;;;;;
Mashegu;Sahorami Ward;;Sahonrami A A Kure Rural Hospital;;;;;
Mashegu;Sahorami Ward;;Faje Primary Health Centre;;;;;
Mashegu;Sahorami Ward;;Beji Primary Health centre  ;;;;;
Mashegu;Sahorami Ward;;Mulo Health Post;;;;;
Mashegu;Sahorami Ward;;Sabon Rijiya Primary Health Centre;;;;;
Mokwa;Bokani ward;;Shetti Community Health Post;;;;;
Mokwa;Bokani ward;;Guzan Community Health Post;;;;;
Mokwa;Bokani ward;;Wa'abi Primary Health Centre;;;;;
Mokwa;Bokani ward;;Bokani Basic Health Centre;;;;;
Mokwa;Gbara ward;;Kpata-Katcha Dispensary;;;;;
Mokwa;Gbara ward;;Dutsun Dispensary;;;;;
Mokwa;Gbara ward;;Dangi Dispensary;;;;;
Mokwa;Gbara ward;;Gbara Primary Health Centre;;;;;
Mokwa;Gbara ward;;Yinfa Health Post;;;;;
Mokwa;Gbara ward;;Maagi Gencin Health Post;;;;;
Mokwa;Gbara ward;;Egbagi Health Post;;;;;
Mokwa;Gbara ward;;Edogi Dispensary;;;;;
Mokwa;Gbara ward;;Tayi Health Clinic (Mokwa);;;;;
Mokwa;Gbara ward;;Ewunko Health Post;;;;;
Mokwa;Gbara ward;;Chekugi Health Post;;;;;
Mokwa;Gbara ward;;Bamzhi Health Post;;;;;
Mokwa;Ja'agi ward;;Dukun Health Post;;;;;
Mokwa;Ja'agi ward;;Kpanbo Health Clinic;;;;;
Mokwa;Ja'agi ward;;Wucin Health Post;;;;;
Mokwa;Ja'agi ward;;Shagban Dispensary;;;;;
Mokwa;Ja'agi ward;;Rabba-Kede Health Post;;;;;
Mokwa;Ja'agi ward;;Wuya-Kede Dispensary;;;;;
Mokwa;Ja'agi ward;;Lwaafu Dispensary;;;;;
Mokwa;Ja'agi ward;;Zhiwu Health Post;;;;;
Mokwa;Ja'agi ward;;Kpilla Health Post;;;;;
Mokwa;Ja'agi ward;;Yindzungi Health Post;;;;;
Mokwa;Ja'agi ward;;Chegama Health Post;;;;;
Mokwa;Ja'agi ward;;Kusogi Health Post;;;;;
Mokwa;Ja'agi ward;;Ketso Dispensary;;;;;
Mokwa;Ja'agi ward;;Ja'agi Primary Health Centre;;;;;
Mokwa;Jebba Ward;;Labefu Community Health Post;;;;;
Mokwa;Jebba Ward;;Kara Primary Health Centre;;;;;
Mokwa;Jebba Ward;;Jebba Family Support Programme Clinic;;;;;
Mokwa;Kpaki/Takuma Ward;;Ezhi Community Health Post;;;;;
Mokwa;Kpaki/Takuma Ward;;Kpaki Basic Health Clinic;;;;;
Mokwa;Kpaki/Takuma Ward;;Takuma Primary Health Centre;;;;;
Mokwa;Kpaki/Takuma Ward;;Kpautagi Primary Health Centre;;;;;
Mokwa;Kpaki/Takuma Ward;;Kpataki Community Health post;;;;;
Mokwa;Kpaki/Takuma Ward;;Kpakogi Community Health Post;;;;;
Mokwa;Kudu Ward;;Chiji Community Health Post;;;;;
Mokwa;Kudu Ward;;Wupo Primary Health Centre;;;;;
Mokwa;Kudu Ward;;Kinbokun Primary Health Centre;;;;;
Mokwa;Kudu Ward;;Kpatiko Primary Health Centre;;;;;
Mokwa;Kudu Ward;;Kudu Basic Health Clinic;;;;;
Mokwa;Labozhi ward;;Batagi Health Clinic;;;;;
Mokwa;Labozhi ward;;Labozhi Primary Health Centre;;;;;
Mokwa;Labozhi ward;;Dokogi Primary Health Centre;;;;;
Mokwa;Labozhi ward;;Ibba Primary Health Centre;;;;;
Mokwa;Labozhi ward;;Tyabo Primary Health Centre;;;;;
Mokwa;Labozhi ward;;Kukpanti Primary Health Centre;;;;;
Mokwa;Labozhi ward;;Kusoko Community Health Post;;;;;
Mokwa;Mokwa central ward;;Mokwa General Hospital;;;;;
Mokwa;Mokwa central ward;;Nasiru Clinic;;;;;
Mokwa;Mokwa central ward;;Mokwa PHC Effugoro;;;;;
Mokwa;Mokwa central ward;;Mokwa Maternal and Child Health Clinic;;;;;
Mokwa;Mokwa central ward;;Mokwa Medical Center;;;;;
Mokwa;Muregi ward;;Maagi Bukun Dispensary;;;;;
Mokwa;Muregi ward;;Sanchija Primary Health Centre;;;;;
Mokwa;Muregi ward;;Esungi Primary Health Centre;;;;;
Mokwa;Muregi ward;;Eppogi Health Clinic;;;;;
Mokwa;Muregi ward;;Egbagi Maiaji Primary Health Centre;;;;;
Mokwa;Muregi ward;;Edolusa Primary Health Centre;;;;;
Mokwa;Muregi ward;;Edogi Tulu Primary Health Centre;;;;;
Mokwa;Muregi ward;;Sunlati Health Clinic;;;;;
Mokwa;Muregi ward;;Egbagi Tako Primary Health Centre;;;;;
Mokwa;Muregi ward;;Tsouako Primary Health Centre;;;;;
Mokwa;Muregi ward;;Jiffu Health Post;;;;;
Mokwa;Muregi ward;;Batagi Primary Health Centre;;;;;
Mokwa;Muregi ward;;Manna Primary Health Centre;;;;;
Mokwa;Muregi ward;;Emigi Primary Health Centre;;;;;
Mokwa;Muregi ward;;Yinfa Primary Health Centre;;;;;
Mokwa;Muregi ward;;Dakani Health Post;;;;;
Mokwa;Muregi ward;;Yabagi Health Post;;;;;
Mokwa;Muregi ward;;Giragi Primary Health Centre;;;;;
Mokwa;Muregi ward;;Lenfakuso Health Post;;;;;
Mokwa;Muwo/gbajibo ward;;Bukka Primary Health Centre;;;;;
Mokwa;Muwo/gbajibo ward;;Community Health Post Egangu;;;;;
Mokwa;Muwo/gbajibo ward;;Tatabu Community Health Post;;;;;
Mokwa;Muwo/gbajibo ward;;Community Health Post Bali;;;;;
Mokwa;Muwo/gbajibo ward;;Gbajibo Basic Health Clinic;;;;;
Mokwa;Muwo/gbajibo ward;;Fati Memorial Maternity Home;;;;;
Mokwa;Muwo/gbajibo ward;;Primary Health Care Tunsaruwa;;;;;
Mokwa;Muwo/gbajibo ward;;Kaniyan Primary Health Centre;;;;;
Mokwa;Rabba/ndayako ward;;Mokwa Railway Station Community Health Post;;;;;
Mokwa;Rabba/ndayako ward;;Eppa Primary Health Centre;;;;;
Mokwa;Rabba/ndayako ward;;Ndayako Community Health Post;;;;;
Mokwa;Rabba/ndayako ward;;Community Health Post Koshaba;;;;;
Muya;Beni Ward;;Beni Dispensary;;;;;
Muya;Beni Ward;;Kubi Dispensary;;;;;
Muya;Dandaudu Ward;;Angwan Mangoro Primary Health Centre;;;;;
Muya;Dandaudu Ward;;Tabware Dispensary;;;;;
Muya;Dandaudu Ward;;Dandaudu Dispensary;;;;;
Muya;Dandaudu Ward;;Mararaba Dispensary;;;;;
Muya;Dangunu Ward;;Sarkin Pawa Town Primary Health Centre;;;;;
Muya;Dangunu Ward;;Kango Primary Health Centre;;;;;
Muya;Dangunu Ward;;Sarkin Pawa Rural Hospital;;;;;
Muya;Daza Ward;;Zundna PHC;;;;;
Muya;Daza Ward;;Dnadna Dispensary;;;;;
Muya;Daza Ward;;Daza Dispensary;;;;;
Muya;Daza Ward;;Guduma Primary Health Centre;;;;;
Muya;Fuka Ward;;Fuka Community Health Clinic;;;;;
Muya;Fuka Ward;;Fuka Kadara PHC;;;;;
Muya;Fuka Ward;;Zawadna Dispensary;;;;;
Muya;Fuka Ward;;Yampana Dispensary;;;;;
Muya;Gini Ward;;Shengu Dispensary;;;;;
Muya;Gini Ward;;Kuchiwi Dispensary;;;;;
Muya;Gini Ward;;Zhidnai Primary Health Care;;;;;
Muya;Gini Ward;;Gwadami Primary Health Care;;;;;
Muya;Gini Ward;;Gini Dispensary;;;;;
Muya;Gini Ward;;Injita Dispensary;;;;;
Muya;Guni Ward;;Dagbadna Dispensary;;;;;
Muya;Guni Ward;;Guni MDG Clinic;;;;;
Muya;Guni Ward;;Kuchiko PHC;;;;;
Muya;Guni Ward;;Katapupudna Clinic;;;;;
Muya;Guni Ward;;Lagbe MDG Clinic;;;;;
Muya;Guni Ward;;Guni Basic Health Clinic;;;;;
Muya;Guni Ward;;Zhalape Dispensary;;;;;
Muya;Guni Ward;;Bodo Dispensary;;;;;
Muya;Guni Ward;;Guni Junction MDG Clinic;;;;;
Muya;kabula ward;;Sabon Kabula PHC;;;;;
Muya;kabula ward;;Zazaga Dispensary;;;;;
Muya;Kazai Ward;;Kabulai PHC;;;;;
Muya;Kazai Ward;;Kamache PHC;;;;;
Muya;Kuchi Ward;;Angwan Tunga Primary Health Centre;;;;;
Muya;Kuchi Ward;;Kapana Dispensary;;;;;
Muya;Kuchi Ward;;Kuchi Dispensary;;;;;
Muya;Kuchi Ward;;Kampani Dispensary;;;;;
Muya;Kuchi Ward;;Kurbaku Dispensary;;;;;
Muya;Kuchi Ward;;Chibani Dispensary;;;;;
Muya;Sarki Pawa ward;;Agbegyi Sarki Pawa Clinic;;;;;
Muya;Sarki Pawa ward;; Premier Hospital;;;;;
Muya;Sarki Pawa ward;;ECWA Sarkin Pawa Clinic;;;;;
Muya;Sarki Pawa ward;;Shapai PHC;;;;;
Muya;Sarki Pawa ward;;Sarkin Pawa MCH;;;;;
Paikoro;Adunu Ward;;Kushiri Health Post;;;;;
Paikoro;Adunu Ward;;Adunu clinic;;;;;
Paikoro;Chimbi Ward (Paikoro);;Gwalo Kasu Health Post;;;;;
Paikoro;Chimbi Ward (Paikoro);;Gwalo Sarki Health Clinic;;;;;
Paikoro;Gwam Ward;;Pita Health Post;;;;;
Paikoro;Gwam Ward;;Essa Nubupi Primary health care centre;;;;;
Paikoro;Gwam Ward;;Wabe Health Post;;;;;
Paikoro;Gwam Ward;;Tungan mekari;;;;;
Paikoro;Gwam Ward;;Essan-Kobo Ilobo Health Clinic;;;;;
Paikoro;Gwam Ward;;Gwam Health Clinic;;;;;
Paikoro;Gwam Ward;;Gusupi health care centre;;;;;
Paikoro;Ishau Ward;;Goto rishi clinic;;;;;
Paikoro;Ishau Ward;;Dakolo Gari Health Post;;;;;
Paikoro;Ishau Ward;;Kukau Health Post;;;;;
Paikoro;Ishau Ward;;Goto Sarki Primary Health Centre;;;;;
Paikoro;Ishau Ward;;Primary health clinic amale;;;;;
Paikoro;Ishau Ward;;Ishau Health Clinic;;;;;
Paikoro;Jere Ward;;Chanchaga IBB Specialist Hospital;;;;;
Paikoro;Jere Ward;;Almajiri Comprehensive Health Centre;;;;;
Paikoro;Jere Ward;;Tawu rural health centre;;;;;
Paikoro;Jere Ward;;Rural health clinic jere gari;;;;;
Paikoro;Jere Ward;;Chanchaga Leprosy Referral Hospital;;;;;
Paikoro;Jere Ward;;Bussi rural health centre;;;;;
Paikoro;Kafin Koro Ward;;Primary health care sabon gari;;;;;
Paikoro;Kafin Koro Ward;; Government Secondary School kafin koro;;;;;
Paikoro;Kafin Koro Ward;;Kaffin-Koro Maternal and Child Health Clinic;;;;;
Paikoro;Kwagana Ward;;Zubakpere Health Post;;;;;
Paikoro;Kwagana Ward;;Kuna Health Post;;;;;
Paikoro;Kwagana Ward;;Kudami Health Post;;;;;
Paikoro;Kwakuti Ward;;Farin-Doki Health Post;;;;;
Paikoro;Kwakuti Ward;;Ebba Health Post;;;;;
Paikoro;Kwakuti Ward;;Kwakuti Primary Health Centre;;;;;
Paikoro;Kwakuti Ward;;Shaudna Health Post;;;;;
Paikoro;Kwakuti Ward;;Baidna Health Clinic;;;;;
Paikoro;Paiko Ward;;Town Clinic Paiko;;;;;
Paikoro;Paiko Ward;;Model Clinic;;;;;
Paikoro;Paiko Ward;;Maman debora paiko;;;;;
Paikoro;Paiko Ward;;Ecwa clinic paiko;;;;;
Paikoro;Tungan Mallam Nakuchi Ward;;Nogopita Health Post;;;;;
Paikoro;Tungan Mallam Nakuchi Ward;;Tungan-Mallam Health Clinic;;;;;
Paikoro;Tungan Mallam Nakuchi Ward;;Yedina Santiyi Primary Health Care Centre;;;;;
Paikoro;Tungan Mallam Nakuchi Ward;;Nikuchi Health Clinic;;;;;
Paikoro;Tungan Mallam Nakuchi Ward;;Bakajaba Health Centre;;;;;
Paikoro;Tutungu Jedina Ward;;Karmoshaka Health Post;;;;;
Paikoro;Tutungu Jedina Ward;;Gabadna Primary Health Care Centre;;;;;
Paikoro;Tutungu Jedina Ward;;Leitapi Health Post;;;;;
Paikoro;Tutungu Jedina Ward;;Tutungo Basic Health Care;;;;;
Paikoro;Tutungu Jedina Ward;;Fiche Kuchi Primary Health Care;;;;;
Paikoro;Tutungu Jedina Ward;;Aninigi Health Post;;;;;
Rafi;Cikin Gari Ward;;T/Wada Godiya Maternity Clinic;;;;;
Rafi;Cikin Gari Ward;;S/Noma Karaya Primary Health Centre;;;;;
Rafi;Cikin Gari Ward;;Karaku Primary Health Centre;;;;;
Rafi;Cikin Gari Ward;;Kabitu Primary Health Centre;;;;;
Rafi;Cikin Gari Ward;;Sauki Clinic;;;;;
Rafi;Kongoma Ward;;Pandogari Umma Salama Clinic;;;;;
Rafi;Kongoma Ward;;Dutse Health Post;;;;;
Rafi;Kongoma Ward;;Pandogari Gamji Clinic;;;;;
Rafi;Kongoma Ward;;Ringa Health Post;;;;;
Rafi;Kongoma Ward;;Pandogari Halima Clinic and Maternity;;;;;
Rafi;Kongoma Ward;;Pandogari Basic Health Clinic;;;;;
Rafi;Kongoma Ward;;Pandogari Ikon Allah Clinic;;;;;
Rafi;Kundu Ward;;Ajami Health Post;;;;;
Rafi;Kusherki North;;Gidigori Primary Health Centre;;;;;
Rafi;Kusherki North;;Ung/ Danazumi Health Post;;;;;
Rafi;Kusherki South;;Sambuga Health Post;;;;;
Rafi;Kusherki South;;Kawo Ushama Primary Health Centre;;;;;
Rafi;Kusherki South;;Tungan Bako Hayi Primary Health Centre;;;;;
Rafi;Kusherki South;;Shamuyambu Health Post;;;;;
Rafi;Kwana Ward;;Matseri Health Post (Rafi);;;;;
Rafi;Kwana Ward;;Sabon Mariga Health Post;;;;;
Rafi;Kwana Ward;;Kwana Ikon Allah Clinic;;;;;
Rafi;Madaka Ward;;Sufana Health Post;;;;;
Rafi;Madaka Ward;;Usman Madaka Health Clinic;;;;;
Rafi;Madaka Ward;;Shikira Primary Health Centre;;;;;
Rafi;Maikujeri Ward;;Tugwama Primary Health Centre;;;;;
Rafi;Maikujeri Ward;;Tungan Makeri Sauki Clinic;;;;;
Rafi;Maikujeri Ward;;Tashan-Ushiba Health Post;;;;;
Rafi;Maikujeri Ward;;Ushiba Madam Maternity Clinic;;;;;
Rafi;Maikujeri Ward;;Ushiba Gideon Clinic;;;;;
Rafi;Maikujeri Ward;;Tungan Makeri Health Post;;;;;
Rafi;Sabon Gari Ward;;Kagara Emir Palace Primary Health Centre;;;;;
Rafi;Sabon Gari Ward;;Kagara Sabon Gari Basic Health Centre;;;;;
Rafi;Sabon Gari Ward;;Wayam Health Post;;;;;
Rafi;Sabon Gari Ward;;Nasiha (Kagara Sabon Gari) Clinic;;;;;
Rafi;Sabon Gari Ward;;Asma'u Clinic;;;;;
Rafi;Tegina Ward;;Katako Health Post;;;;;
Rafi;Tegina Ward;;Tegina Peoples Clinic;;;;;
Rafi;Tegina Ward;;Tegina Maraba Clinic;;;;;
Rafi;Tegina Ward;;Tegina Basic Health Clinic;;;;;
Rafi;Tegina Ward;;Tegina Evangelical Church of West Africa (ECWA) Clinic;;;;;
Rafi;Tegina Ward;;Oyetunde Medical Centre;;;;;
Rafi;Yakila Ward;;Mailamba Primary Health Centre;;;;;
Rafi;Yakila Ward;;Pangu-Gari Primary Health Centre;;;;;
Rafi;Yakila Ward;;Gbabtai Health Post;;;;;
Rafi;Yakila Ward;;Yakila Basic Health Clinic;;;;;
Rafi;Yakila Ward;;Garin Gabas Primary Health Centre;;;;;
Rafi;Yakila Ward;;Kumbo Health Post;;;;;
Rijau;Darangi ward;;Rukukuje Dispensary;;;;;
Rijau;Darangi ward;;Danrangi Basic Health Care;;;;;
Rijau;Darangi ward;;Yora Health Facility;;;;;
Rijau;Darangi ward;;Anyo Dispensary;;;;;
Rijau;Darangi ward;;Darangi Health Facility;;;;;
Rijau;Darangi ward;;Tungan Kawo Dispensary;;;;;
Rijau;Dugge ward;;Dugge Dispensary;;;;;
Rijau;Dukku ward;;Sindiri Health Facility;;;;;
Rijau;Dukku ward;;Darga Dispensary;;;;;
Rijau;Dukku ward;;Nakaceri Dispensary;;;;;
Rijau;Dukku ward;;Shantali Health Facility;;;;;
Rijau;Dukku ward;;Farin Ruwa Dispensary;;;;;
Rijau;Dukku ward;;Ifaki Dispensary;;;;;
Rijau;Dukku ward;;Iri Dispensary;;;;;
Rijau;Dukku ward;;T/Mallam Tsoho Dispensary;;;;;
Rijau;Dukku ward;;Uganda Dispensary;;;;;
Rijau;Dukku ward;;Dukku Basic Health Clinic;;;;;
Rijau;Dukku ward;;Rini Health Facility;;;;;
Rijau;Genu ward;;Genu Basic Health Clinic;;;;;
Rijau;Genu ward;;Babade Primary Health Centre;;;;;
Rijau;Genu ward;;Genu Town Basic Health Care;;;;;
Rijau;Genu ward;;Angu Dispensary;;;;;
Rijau;Genu ward;;Birnin Amina Dispensary;;;;;
Rijau;Genu ward;;Ummah Dispensary;;;;;
Rijau;Jama'are ward;;Korso Dispensary;;;;;
Rijau;Jama'are ward;;Sahoma Dispensary;;;;;
Rijau;Jama'are ward;;Jama'are Dispensary;;;;;
Rijau;Jama'are ward;;Abure Health Clinic;;;;;
Rijau;Jama'are ward;;Kudabo Dispensary;;;;;
Rijau;Rijau Ward;;Rataya Giwa Rijau Dispensary;;;;;
Rijau;Rijau Ward;;Rayuwa Clinic;;;;;
Rijau;Rijau Ward;;Hamdala Clinic and Maternity;;;;;
Rijau;Rijau Ward;;Katare S/Gari Riaju Dispensary;;;;;
Rijau;Rijau Ward;;Rijau Leprosy Clinic;;;;;
Rijau;Rijau Ward;;Mariri Primary Health Centre;;;;;
Rijau;Rijau Ward;;Rijau Model Primary Healtj Centre;;;;;
Rijau;Rijau Ward;;Rijau Maternal and Child Health Clinic;;;;;
Rijau;Rijau Ward;;Tsohon Gari Rijau Dispensary;;;;;
Rijau;Shambo ward;;Alange Kure Dispensary;;;;;
Rijau;Shambo ward;;Gulbedu Primary Health Centre;;;;;
Rijau;Shambo ward;;Comprehensive Health Center Shambo;;;;;
Rijau;Shambo ward;;Rafin Kada Dispensary;;;;;
Rijau;Tungan Bunu ward;;Tungan Bunu Dispensary;;;;;
Rijau;Tungan Bunu ward;;Tungan Marke Dispensary;;;;;
Rijau;Tungan Magajiyya Ward ;;Emgog Health Clinic;;;;;
Rijau;Ushe Ward;;Uddu Makaranta Health Facility;;;;;
Rijau;Ushe Ward;;S/Gari Ushe Dispensary;;;;;
Rijau;Ushe Ward;;Babban Zaure Health Facility;;;;;
Rijau;Ushe Ward;;Uddu Dispensary;;;;;
Rijau;Warari ward;;Warari Dispensary;;;;;
Rijau;Warari ward;;Warari Basic Health Clinic;;;;;
Rijau;Warari ward;;Inana Dispensary;;;;;
Rijau;Warari ward;;Chubadi Dispensary;;;;;
Rijau;Warari ward;;Mahulla Primary Health Centre;;;;;
Rijau;Warari ward;;Tsohon Gari Sullubawa Dispensary;;;;;
Rijau;Warari ward;;Kamfani Dispensary;;;;;
Shiroro;Allawa Ward;;Roro Health Post;;;;;
Shiroro;Allawa Ward;;Allawa Basic Health Center;;;;;
Shiroro;Bangajiya Ward;;Ebbe Dispensary;;;;;
Shiroro;Bangajiya Ward;;Kubusi Dispensary;;;;;
Shiroro;Bangajiya Ward;;Kuta Rural Hospital;;;;;
Shiroro;Bangajiya Ward;;Abepma Health Post;;;;;
Shiroro;Bangajiya Ward;;Kampanin Danjuma Clinic;;;;;
Shiroro;Bangajiya Ward;;Rafin Kuka PHC;;;;;
Shiroro;Bangajiya Ward;;Sabon Gari Kuta Primary Health Care Centre;;;;;
Shiroro;Bangajiya Ward;;Gbayi Dispensary;;;;;
Shiroro;Bangajiya Ward;;Abepma B Primary Health Care Centre;;;;;
Shiroro;Bangajiya Ward;;Yanguwa Primary Health Centre;;;;;
Shiroro;Egwa Gwada Ward;;Bmanape Dispensary;;;;;
Shiroro;Egwa Gwada Ward;;Gwada Maternal and Child Health Clinic;;;;;
Shiroro;Egwa Gwada Ward;;Awasha Primary Health Center Care;;;;;
Shiroro;Egwa Gwada Ward;;Gbaiko Dispensary;;;;;
Shiroro;Egwa Gwada Ward;;Egwa Dispensary;;;;;
Shiroro;Egwa Gwada Ward;;Gwadan Gwari MDGS Primary Health Centre;;;;;
Shiroro;Egwa Gwada Ward;;Zari Primary Health Care Center;;;;;
Shiroro;Egwa Gwada Ward;;Tapila Dispensary;;;;;
Shiroro;Egwa Gwada Ward;;Chiri Dispensary;;;;;
Shiroro;Erena Ward;;Farin Doki Dispensary;;;;;
Shiroro;Erena Ward;;Layi Dispensary;;;;;
Shiroro;Erena Ward;;Ung Madi Health Post;;;;;
Shiroro;Erena Ward;;Erena Comprehensive Health Center;;;;;
Shiroro;Erena Ward;;Rafi Seyi Primary Health Care Centre;;;;;
Shiroro;Erena Ward;;Gagola Clinic;;;;;
Shiroro;Erena Ward;;Baga Health Post;;;;;
Shiroro;Erena Ward;;Erena Basic Health Clinic;;;;;
Shiroro;Erena Ward;;Erena Dispensary;;;;;
Shiroro;Galkogo Ward;;Knibuyi MDG Clinic Galkogo;;;;;
Shiroro;Galkogo Ward;;Jemi Health Post;;;;;
Shiroro;Galkogo Ward;;Golkogo Basic Health Care;;;;;
Shiroro;Galkogo Ward;;Salari Primary Health Care Centre;;;;;
Shiroro;Galkogo Ward;;Kudodo Health Post;;;;;
Shiroro;Galkogo Ward;;Kusasu/Pai Health Post;;;;;
Shiroro;Galkogo Ward;;Kushaku PHC;;;;;
Shiroro;Galkogo Ward;;Iburo Dispensary;;;;;
Shiroro;Gijiwa Ward;;Kunu Dispensary;;;;;
Shiroro;Gijiwa Ward;;Kato Dispensary;;;;;
Shiroro;Gijiwa Ward;;Maikakaki Dispensary;;;;;
Shiroro;Gijiwa Ward;;Gijiwa Dispensary;;;;;
Shiroro;Gijiwa Ward;;Kamata Health Post;;;;;
Shiroro;Gurmana Ward;;Palali Health Post;;;;;
Shiroro;Gurmana Ward;;Ajata Aboki Primary Health Care;;;;;
Shiroro;Gurmana Ward;;Gurmana Dispensary;;;;;
Shiroro;Gurmana Ward;;Jabuki Health Post;;;;;
Shiroro;Gurmana Ward;;Fiyi Health Post;;;;;
Shiroro;Gussoro Ward;;Gussoro Primary Health Care;;;;;
Shiroro;Gussoro Ward;;Zumba Primary Health Care;;;;;
Shiroro;Gussoro Ward;;Kwatai Health Post;;;;;
Shiroro;Kurebe/Kushaka Ward;;Kurebe Dispensary;;;;;
Shiroro;Kwaki/Chikuba Ward;;Chukuba Dispensary;;;;;
Shiroro;Kwaki/Chikuba Ward;;Kwaki Dispensary;;;;;
Shiroro;Kwaki/Chikuba Ward;;Kanpani Dispensary;;;;;
Shiroro;Pinna/Kolu Ward;;Pina Health Clinic;;;;;
Shiroro;Pinna/Kolu Ward;;Sabon Gida Health Post;;;;;
Shiroro;Pinna/Kolu Ward;;Kolu PHC;;;;;
Shiroro;Pinna/Kolu Ward;;Gotupe Dispensary;;;;;
Shiroro;Pinna/Kolu Ward;;Uwu Dispensary;;;;;
Shiroro;She/Gunu Ward;;Mutun Daya Dispensary;;;;;
Shiroro;She/Gunu Ward;;Gunu Basic Health Care;;;;;
Shiroro;She/Gunu Ward;;Lapa Dispensary;;;;;
Shiroro;She/Gunu Ward;;Nakomi Health Post;;;;;
Shiroro;She/Gunu Ward;;She Dispensary;;;;;
Shiroro;She/Gunu Ward;;Gbachipe Dispensary;;;;;
Shiroro;She/Gunu Ward;;Gbasse Dispensary;;;;;
Shiroro;She/Gunu Ward;;Kpewyi Health Post;;;;;
Shiroro;She/Gunu Ward;;Shakwatu Dispensary;;;;;
Shiroro;She/Gunu Ward;;Nadogbin Primary Health Care;;;;;
Shiroro;Ubandoma Ward;;Talawyi Dispensary;;;;;
Shiroro;Ubandoma Ward;;Tumtum Dispensary;;;;;
Shiroro;Ubandoma Ward;;Shape Primary Health Centre;;;;;
Shiroro;Ubandoma Ward;;Ashiriwe Health Post;;;;;
Shiroro;Ubandoma Ward;;Kwaita Health Post;;;;;
Shiroro;Ubandoma Ward;;Tashakau Primary Health Care Center;;;;;
Shiroro;Ubandoma Ward;;Agbolo Dispensary;;;;;
Shiroro;Ubandoma Ward;;Osha Dispensary;;;;;
Shiroro;Ubandoma Ward;;Rural Health Center Kuta;;;;;
Shiroro;Ubandoma Ward;;Tawo Dispensary;;;;;
Suleja;Bagama A ward;;Late Muhamadu Gambo Clinic (Anguwar Dawaki);;;;;
Suleja;Bagama A ward;;Late Musa Abubakar Kuje Clinic (Tundun Bariki);;;;;
Suleja;Bagama B ward;;Base Medical Hospital Suleiman (Barau Road Suleja);;;;;
Suleja;Bagama B ward;;Talba Clinic Lowcost (Suleja);;;;;
Suleja;Bagama B ward;;Suleja Field Base Maternity Child Health;;;;;
Suleja;Hashimi A Ward;;Dije Bala Maternity and Child Health;;;;;
Suleja;Hashimi A Ward;;Bakin Kasuwa 2 Maternal and Child Health Clinic;;;;;
Suleja;Hashimi A Ward;;Dije Bala Primary Health Centre;;;;;
Suleja;Hashimi B Ward;;Planned Parental Family 0f Nigeria Clinic;;;;;
Suleja;Hashimi B Ward;;Mamman gambo primary health care anguwan aho;;;;;
Suleja;Iku I Ward;;Maje Community Health Centre;;;;;
Suleja;Iku I Ward;;Salihu madalla comprehensive health centre madalla;;;;;
Suleja;Iku I Ward;;Divine Mercy Maternity Home (Suleja);;;;;
Suleja;Iku I Ward;;Iku Basic Health Care;;;;;
Suleja;Iku II Ward;;"ni Iku II B"" Division Clinic""";;;;;
Suleja;Iku II Ward;;Kwankashe primary health centre;;;;;
Suleja;Iku II Ward;;Chaza Community Health Clinic;;;;;
Suleja;Iku II Ward;;Gwazanu Health Clinic;;;;;
Suleja;Iku II Ward;;Polosa Health Clinic;;;;;
Suleja;Kurmin Sarki Ward;;Kurmin Sarki Primary Health Centre;;;;;
Suleja;Kurmin Sarki Ward;;Primary health care abu chi;;;;;
Suleja;Kurmin Sarki Ward;;Suleja General Hospital;;;;;
Suleja;Kurmin Sarki Ward;;Basic health centre pangamu;;;;;
Suleja;Madalla Ward;;Madalla Primary Health Centre and Maternity;;;;;
Suleja;Madalla Ward;;Madalla Basic Health Clinic;;;;;
Suleja;Magajiya Ward;;U & Sons Hospital;;;;;
Suleja;Maje Ward;;Kuchiko health centre;;;;;
Suleja;Maje Ward;;Numba Tukura Primary Health Caee;;;;;
Suleja;Maje Ward;;Anguwan rimi dabara health centre;;;;;
Suleja;Maje Ward;;Zaryawa Basic Health Center;;;;;
Suleja;Maje Ward;;Gabodua BHC;;;;;
Suleja;Maje Ward;;Numbwa koro health centre;;;;;
Suleja;Maje Ward;;Bakin iku health centre;;;;;
Suleja;Maje Ward;;Maje health centre;;;;;
Suleja;Maje Ward;;Kwamba health centre;;;;;
Suleja;Maje Ward;;Zuma Basic Health Center;;;;;
Suleja;Wambai Ward;;Anguwam Tudu Basic Health Centre ;;;;;
Suleja;Wambai Ward;;Anguwan Gayan Basic Health Centre;;;;;
Tafa;Dogon Kurmi Ward;;Dogon Kumi Primary Health Centre;;;;;
Tafa;Dogon Kurmi Ward;;Azhi Kasa Dispensary;;;;;
Tafa;Dogon Kurmi Ward;;Chawa Dispensary;;;;;
Tafa;Garam Ward;;Garam Model Primary Health Centre;;;;;
Tafa;Garam Ward;;Azu Dispensary;;;;;
Tafa;Garam Ward;;Gyedna Primary Health Centre;;;;;
Tafa;Ijah Gbagyi Ward;;Ijah Basic Health Clinic;;;;;
Tafa;Ijah Gbagyi Ward;;Apya/Bape Dispensary;;;;;
Tafa;Ijah Koro Ward;;Kata Tseni Health Post;;;;;
Tafa;Ijah Koro Ward;;Zamwawosayi Primary Health Centre and Maternity;;;;;
Tafa;Iku Ward;;Karfe Health Clinic;;;;;
Tafa;Iku Ward;;Baban Tunga Basic Health Clinic;;;;;
Tafa;Iku Ward;;Kofa Health Clinic;;;;;
Tafa;New Bwari Ward;;New Bwari Comprehensives Health Centre;;;;;
Tafa;New Bwari Ward;;Tungan Adaka Basic Health Centre;;;;;
Tafa;Wuse East Ward;;Amak Aso Primary Health Clinic;;;;;
Tafa;Wuse East Ward;;Katampe  Health Post;;;;;
Tafa;Wuse East Ward;;Aso New Wuse Dispensary;;;;;
Tafa;Wuse East Ward;;niSuleiman Yewa  Aso Memorial Hospital;;;;;
Tafa;Wuse West Ward;;Dadin Kowa N/W Dispensary;;;;;
Tafa;Wuse West Ward;;GGSS Sabon Wuse;;;;;
Tafa;Wuse West Ward;;Dadin kowa Hralth Post;;;;;
Tafa;Wuse West Ward;;Ang Hausawa N/Wuse Primary Health Clinic;;;;;
Tafa;Wuse West Ward;;Umar Musa Yar'adua General Hospital;;;;;
Tafa;Wuse West Ward;;Basic Health Care Wuse;;;;;
Tafa;Zuma East Ward;;Gauraka  Model Primary Health Centre;;;;;
Tafa;Zuma East Ward;;Devine Gauraka Primary Health Clinic;;;;;
Tafa;Zuma East Ward;;Almadinat Gauraka Medical;;;;;
Tafa;Zuma East Ward;;Zuma Gauraka Primary Health Care;;;;;
Tafa;Zuma East Ward;;Nasarawa Iku Health Centre;;;;;
Tafa;Zuma West Ward;;Dakwa Health Post;;;;;
Tafa;Zuma West Ward;;Daupe Primary Health Centre;;;;;
Tafa;Zuma West Ward;;Chachi Primary Health Centre;;;;;
Tafa;Zuma West Ward;;Gauraka Model Primary Health Care Centre;;;;;
Tafa;Zuma West Ward;; Gauraka Camp Clinic;;;;;
Tafa;Zuma West Ward;;Gauraka Freedom Clinic;;;;;
Wushishi;Akare Ward;;Pakara Primary Health Centre;;;;;
Wushishi;Akare Ward;;Girin Primary Health Centre;;;;;
Wushishi;Akare Ward;;Akare Comprehensive Health Centre;;;;;
Wushishi;Akare Ward;;Victory Maternity Home (Akare);;;;;
Wushishi;Akare Ward;;Cheji Primary Health Centre;;;;;
Wushishi;Gwarjiko Ward;;Dabogi Primary Health Centre;;;;;
Wushishi;Gwarjiko Ward;;Ekangi Primary Health Centre;;;;;
Wushishi;Gwarjiko Ward;;Gwarjiko Primary Health Centre;;;;;
Wushishi;Kodo Ward;;Kanko Primary Health Centre;;;;;
Wushishi;Kodo Ward;;Makusidi Primary Health Centre;;;;;
Wushishi;Kodo Ward;;Yelwa Primary Health Centre;;;;;
Wushishi;Kodo Ward;;Makera Primary Health Centre;;;;;
Wushishi;Kodo Ward;;Kodo Primary Health Centre;;;;;
Wushishi;Kwata Ward;;Tashen Jirgi Primary Health Care;;;;;
Wushishi;Kwata Ward;;Madegi Primary Health Care;;;;;
Wushishi;Lokogoma Ward;;Nagenu Primary Health Centre;;;;;
Wushishi;Lokogoma Ward;;Lokogoma Primary Health Centre;;;;;
Wushishi;Maito Ward;;Albarka Primary Health Centre and Maternity (Wushishi);;;;;
Wushishi;Maito Ward;;Maito Primary Health Centre;;;;;
Wushishi;Maito Ward;;Dabbe Primary Health Centre;;;;;
Wushishi;Sabon Gari Ward;;Wushishi Maternal and Child Health Clinic;;;;;
Wushishi;Sabon Gari Ward;;Bankogi Primary Health Centre;;;;;
Wushishi;Sabon Gari Ward;;Wushishi General Hospital;;;;;
Wushishi;Tukunji/Yamigi Ward;;Kache Primary Health Centre;;;;;
Wushishi;Tukunji/Yamigi Ward;;Tungan Sayidi Dispensary;;;;;
Wushishi;Tukunji/Yamigi Ward;;Saminaka Primary Health Centre;;;;;
Wushishi;Tukunji/Yamigi Ward;;Gekun Primary Health Clinic;;;;;
Wushishi;Tukunji/Yamigi Ward;;Gboyafu Comprehensive Health Centre;;;;;
Wushishi;Tukunji/Yamigi Ward;;Batan-Ndaba Primary Health Clinic;;;;;
Wushishi;Tukunji/Yamigi Ward;;Yemigi Primary Health Centre;;;;;
Wushishi;Zungeru Ward;;Kaliko Model Primary Health Centre;;;;;
Wushishi;Zungeru Ward;;Ikon Allah Primary Health Centre and Maternity;;;;;
Wushishi;Zungeru Ward;;Katona Primary Health Centre;;;;;
Wushishi;Zungeru Ward;;Nomau Maternity Home;;;;;
Wushishi;Zungeru Ward;;Marafa Primary Health Centre;;;;;
Wushishi;Zungeru Ward;;Kankare Danu Health Clinic;;;;;
