LGA;Ward;Settlement;Facility;Type;Ownership;Address;Longitude;Latitude
Akoko North East;Edo Ward;;Isakunmi Primary Health Centre;;;;;
Akoko North East;Ekan Ward;;Ekan Basic Health Centre;;;;;
Akoko North East;Ikado 1 Ward;;Okela Basic Health Centre;;;;;
Akoko North East;Ikado 1 Ward;;Adeola Patent Medicine Store;;;;;
Akoko North East;Ikado 2 Ward ;;Jubilee Basic Health centre;;;;;
Akoko North East;Ikado 2 Ward ;;Iyame Basic Health  Centre;;;;;
Akoko North East;Ilepa 1 Ward;;Aba Patent Medicine Store;;;;;
Akoko North East;Ilepa 1 Ward;;Iso Onisu Basic Health Centre;;;;;
Akoko North East;Ilepa 2 Ward;;Alapata Basic Health Centre;;;;;
Akoko North East;Ilepa 2 Ward;;Ikare State Specialist Hospital;;;;;
Akoko North East;Isowopo 1 Ward;;Ipori Basic Health Centre;;;;;
Akoko North East;Isowopo 1 Ward;;Ise Basic Health Centre;;;;;
Akoko North East;Isowopo 1 Ward;;Iboropa Basic Health Centre;;;;;
Akoko North East;Isowopo 1 Ward;;Ugbe Basic Health Centre;;;;;
Akoko North East;Isowopo 2 Ward;;Akunu Primary Health Care Centre;;;;;
Akoko North East;Isowopo 2 Ward;;Ikakunmo Basic Health Centre;;;;;
Akoko North East;Isowopo 2 Ward;;Auga OkeIgbagbo Basic Health Centre;;;;;
Akoko North East;Isowopo 2 Ward;;Auga Okeimole Basic Health Centre;;;;;
Akoko North East;Iyometa 1 Ward;;Iku Basic Health Centre;;;;;
Akoko North East;Iyometa 1 Ward;;Okatedo Basic Health Centre;;;;;
Akoko North East;Iyometa 2 Ward;;Obadana/Oketun Otaloke Basic Health Centre;;;;;
Akoko North East;Iyometa 2 Ward;;Okegbe Basic Health Centre;;;;;
Akoko North East;Orun 1 Ward ;;Okoja Basic Health Centre;;;;;
Akoko North East;Orun 2 Ward;;Okeruwa Basic Health Centre;;;;;
Akoko North East;Oyinmo Ward;;Oyinmo Basic Health Centre;;;;;
Akoko North East;Unknown1;;Oke Royal Hospital;;;;;
Akoko North East;Unknown1;;Total Care Clinic;;;;;
Akoko North East;Unknown1;;Abimbola Medical Centre;;;;;
Akoko North West;Afa/Aje/Ido Ward;;Okeagbe Basic Health Centre;;;;;
Akoko North West;Afa/Aje/Ido Ward;;Okeagbe Comprehensive Health Centre;;;;;
Akoko North West;Afin/Ese Ward;;Ese Basic Health Clinic;;;;;
Akoko North West;Afin/Ese Ward;;Afin Basic Health Clinic;;;;;
Akoko North West;Ajowa/Igasi/Eriti/Gedegede Ward;;Ajowa Basic Health Clinic;;;;;
Akoko North West;Ajowa/Igasi/Eriti/Gedegede Ward;;Igasi/Eriti Basic Health Clinic;;;;;
Akoko North West;Ajowa/Igasi/Eriti/Gedegede Ward;;Gedegede Basic Health Clinic;;;;;
Akoko North West;Arigidi 1 Ward;;Iye Health Post;;;;;
Akoko North West;Arigidi 1 Ward;;Greater Tomorrow Hospital;;;;;
Akoko North West;Arigidi 1 Ward;;Ijaja-Arigidi Basic Health Center;;;;;
Akoko North West;Arigidi 1 Ward;;Arigidi Basic Health Clinic;;;;;
Akoko North West;Arigidi 2 Ward;;Agbaluku-Arigidi Basic Health Centre;;;;;
Akoko North West;Arigidi 2 Ward;;Ifesowapo-Arigidi Health Post ;;;;;
Akoko North West;Arigidi 2 Ward;;Imo-Arigidi Basic Health Clinic;;;;;
Akoko North West;Ikaram/Erusu Ward;;Ikaram Basic Health Clinic;;;;;
Akoko North West;Ikaram/Erusu Ward;;Erusu Comprehensive Health Center;;;;;
Akoko North West;Odo-Irun 1 Ward;;Odo-Irun Basic Health Clinic;;;;;
Akoko North West;Odo-Irun 1 Ward;;Ejidu Health Post;;;;;
Akoko North West;Ogbagi Ward;;Ogbagi Model Primary Health Care Centre;;;;;
Akoko North West;Ogbagi Ward;;Ogbagi Comprehensive Health Centre;;;;;
Akoko North West;Ogbagi Ward;;Ogbagi Basic Health Clinic;;;;;
Akoko North West;Oke-Irun Ward;;Irun-akoko General Hospital;;;;;
Akoko North West;Oke-Irun Ward;;Oke-Oro Basic Health Centre;;;;;
Akoko North West;Oke-Irun Ward;;Surulere Health Post;;;;;
Akoko North West;Oyin/Oge Ward;;Oge Basic Health Centre;;;;;
Akoko North West;Oyin/Oge Ward;;Oyin Basic Health Clinic;;;;;
Akoko North West;Oyin/Oge Ward;;Adeyemi Hospital;;;;;
Akoko South East;Epinmi 1 Ward;;Epinmi Isalu Basic Health Centre;;;;;
Akoko South East;Epinmi 1 Ward;;Epinmi Basic Health Centre;;;;;
Akoko South East;Epinmi 2 Ward;;Epinmi Oho Basic Health Centre;;;;;
Akoko South East;Epinmi 2 Ward;;Epinmi Emurin Basic Health Centre;;;;;
Akoko South East;Ifira 3 Ward;;Ipiran Ifira Basic Health Centre;;;;;
Akoko South East;Ifira 3 Ward;;Iremu Ifira Basic Health Centre;;;;;
Akoko South East;Ifira 3 Ward;;Ifira Comprehensive Health Centre;;;;;
Akoko South East;Ipe 1 Ward;;Isinodo Ipe Basic Health Centre;;;;;
Akoko South East;Ipe 2 Ward;;Ipe General Hospital;;;;;
Akoko South East;Ipe 2 Ward;;Ipe Itoto Basic Health Centre;;;;;
Akoko South East;Ipe 2 Ward;;Ipe Igbede Basic Health Centre;;;;;
Akoko South East;Ipesi Ward;;Idofin Ipesi Basic Health Centre;;;;;
Akoko South East;Isua 1 Ward;;Isua Okua Basic Health Centre;;;;;
Akoko South East;Isua 2 Ward;;Isua Ese Basic Health Centre;;;;;
Akoko South East;Isua 3 Ward;;Irobo Isua Comprehensive Health Centre;;;;;
Akoko South East;Isua 4 Ward;;Isua Oyara Basic Health Centre;;;;;
Akoko South East;Isua 4 Ward;;Basic Health Centre Etiose;;;;;
Akoko South East;Isua 4 Ward;;Isua Oke Basic Health Centre;;;;;
Akoko South East;Sosan Ward;;Sosan Isale Basic Health Centre;;;;;
Akoko South East;Sosan Ward;;Sosan Oke Basic Health Centre;;;;;
Akoko South West;Akungba 1 Ward;;Adekunle Ajasun University Akungba Comprehensive Health Centre ;;;;;
Akoko South West;Akungba 1 Ward;;Asan Akungba Health Post ;;;;;
Akoko South West;Akungba 1 Ward;;Akungba Primary Health Care Center;;;;;
Akoko South West;Akungba 2 Ward;;Akungba Primary Health Care Clinic;;;;;
Akoko South West;Akungba 2 Ward;;Okusa Health Post;;;;;
Akoko South West;Ayegunle Ward;;Ikese Primary Health Care Centre;;;;;
Akoko South West;Ayegunle Ward;;Okia Primary Health Care Centre;;;;;
Akoko South West;Ayegunle Ward;;Owake Health Post;;;;;
Akoko South West;Ikun Ward;;Ikun Primary Health Care Clinic;;;;;
Akoko South West;Ikun Ward;;Ikun Primary Health Centre;;;;;
Akoko South West;Oba 1 Ward;;Oba Primary Health Care Centre;;;;;
Akoko South West;Oba 1 Ward;;Oba Primary Health Care Clinic;;;;;
Akoko South West;Oba 2 Ward;;Ose-Oba Health Centre;;;;;
Akoko South West;Oka 1 Ward;;Arepena Primary Health Clinic;;;;;
Akoko South West;Oka 1 Ward;;Okia Health Centre;;;;;
Akoko South West;Oka 1 Ward;;Sabo Health Centre;;;;;
Akoko South West;Oka 1 Ward;;Simerin Health Centre;;;;;
Akoko South West;Oka 1 Ward;;Uba Health Centre;;;;;
Akoko South West;Oka 2 A Ward;;Ikese  FSP clinic ;;;;;
Akoko South West;Oka 2 A Ward;;Idoin Primary Health Centre;;;;;
Akoko South West;Oka 2 A Ward;;Iroho Health Post;;;;;
Akoko South West;Oka 2 B Ward;;Ikanmu Health Post;;;;;
Akoko South West;Oka 2 B Ward;;Owase Comprehensive Health Centre;;;;;
Akoko South West;Oka 3 A Ward;;Agba Health Post;;;;;
Akoko South West;Oka 5 A Ward;;Oyete Health Post;;;;;
Akoko South West;Oka 5 A Ward;;Oka-Odo Health Post;;;;;
Akoko South West;Oka 5 A Ward;;Iwaro Owalusi Health Centre;;;;;
Akoko South West;Oka 5 B Ward;;Iwaro-Oka General Hospital;;;;;
Akoko South West;Supare 1 Ward;;Idofine Supare Health Centre;;;;;
Akoko South West;Supare 1 Ward;;Supare 1 Model Primary Health Centre;;;;;
Akoko South West;Supare 1 Ward;;Okeafa Supare Comprehensive Health Centre;;;;;
Akoko South West;Supare 2 Ward;;Igbegun Health Post;;;;;
Akoko South West;Supare Ward;;Akowonjo Health Centre;;;;;
Akoko South West;Supare Ward;;Etioro Health Post;;;;;
Akoko South West;Unknown;;Aduloju Memorial Hospital;;;;;
Akoko South West;Unknown;;Ireti Medical Clinic;;;;;
Akoko South West;Unknown;;Tolu Medical Clinic;;;;;
Akoko South West;Unknown;;Top Medicine Centre;;;;;
Akoko South West;Unknown;;Orisuniye Clinic;;;;;
Akure North;Ayetoro Ward;;Iju/Itaogbolu General Hospital;;;;;
Akure North;Ayetoro Ward;;Iju Basic Health Centre;;;;;
Akure North;Igbatoro Ward;;Imafon Basic Health Centre;;;;;
Akure North;Igbatoro Ward;;Ala-Ajagbusi Comprehensive Health Centre;;;;;
Akure North;Igbatoro Ward;;Ilado Basic Health Centre;;;;;
Akure North;Igbatoro Ward;;Onipanu Basic Health Centre;;;;;
Akure North;Igbatoro Ward;;Igbatoro/Familugba Basic Health Centre;;;;;
Akure North;Igbatoro Ward;;Adejubu BHC;;;;;
Akure North;Ilu-Abo Ward;;Ilu-Abo Basic Health Centre;;;;;
Akure North;Ilu-Abo Ward;;Eleyewo Basic Health Centre;;;;;
Akure North;Isimija Ward;;Odegede Basic Health Centre;;;;;
Akure North;Isimija Ward;;Isimija Basic Health Centre;;;;;
Akure North;Moferere Ward;;Moferere Basic Health Centre;;;;;
Akure North;Oba-Ile Ward;;Araromi Basic Health Centre;;;;;
Akure North;Oba-Ile Ward;;Mishmael Akure Clinic;;;;;
Akure North;Oba-Ile Ward;;Oba-Ile Comprehensive Health Centre;;;;;
Akure North;Oba-Ile Ward;;My Shepherd Medical Clinic;;;;;
Akure North;Oba-Ile Ward;;Standard Medical Clinic;;;;;
Akure North;Oba-Ile Ward;;Shasha Basic Health Centre;;;;;
Akure North;Odo Oja  Ward;;Itaogbolu Basic Health Centre;;;;;
Akure North;Odo Oja  Ward;;Oba's Palace Basic Health Clinic;;;;;
Akure North;Ogbese/Ayede Ward;;Oke Agunla Health Post;;;;;
Akure North;Ogbese/Ayede Ward;;Alayere Basic Health Center;;;;;
Akure North;Ogbese/Ayede Ward;;Ogbese Basic Health Centre;;;;;
Akure North;Ogbese/Ayede Ward;;Bolorunduro Basic Health Centre;;;;;
Akure North;Oke Oore Ward;;Agamo Basic Health Centre;;;;;
Akure North;Oke Oore Ward;;Oore/Akokomowa Health Centre;;;;;
Akure North;Oke-Afa Ward;;Oke Afa Basic Health Centre                                                                                                        ;;;;;
Akure North;Okeiju Ward;;Kajola Iju Basic Health Centre;;;;;
Akure North;Okeiju Ward;;Ifeoluwa;;;;;
Akure North;Okeiju Ward;;Algon Comprehensive Health Centre;;;;;
Akure North;Okeiju Ward;;Okeiju Basic Health Centre;;;;;
Akure North;Okeiju Ward;;Christ Love Hospital;;;;;
Akure North;Osi/Igoba Ward;;Isinigbo Basic Health Center;;;;;
Akure North;Osi/Igoba Ward;;Igoba Basic Health Centre;;;;;
Akure North;Osi/Igoba Ward;;Osi Basic Health Centre;;;;;
Akure North;Osi/Igoba Ward;;Ugele Comprehensive Health Centre;;;;;
Akure North;Osi/Igoba Ward;;Orojuda Basic Health Centre;;;;;
Akure South;Akure Private Ward;;Oludare Hospital,;;;;;
Akure South;Akure Private Ward;;Olutunde Medical Centre;;;;;
Akure South;Akure Private Ward;;Momaak Specialist Hospital;;;;;
Akure South;Akure Private Ward;;Bisi Medical Clinic;;;;;
Akure South;Akure Private Ward;;Ade-Tade Hospital;;;;;
Akure South;Akure Private Ward;;St. John and Mary Hospital,;;;;;
Akure South;Akure Private Ward;;Adedewe Hospital;;;;;
Akure South;Akure Private Ward;;Sckye Hospital Clinic;;;;;
Akure South;Akure Private Ward;;Fujah Specialist Hospital,;;;;;
Akure South;Akure Private Ward;;Jobarteh Hospital,;;;;;
Akure South;Akure Private Ward;;St. Rapheal Clinic;;;;;
Akure South;Aponmu Ward;;Aponmu Basic Health Clinic;;;;;
Akure South;Aponmu Ward;;Iwoye Basic Health Clinic;;;;;
Akure South;Aponmu Ward;;Ajegunle Basic Health Centre;;;;;
Akure South;Aponmu Ward;;Itaoniyan Basic Health Centre;;;;;
Akure South;Gbogi/Isikan 1 Ward;;Arakale Comprehensive Health Centre;;;;;
Akure South;Gbogi/Isikan 1 Ward;;Danjuma Basic Health Clinic;;;;;
Akure South;Gbogi/Isikan 2 Ward;;Awule Basic Health Clinic;;;;;
Akure South;Gbogi/Isikan 2 Ward;;Iyange Basic Health Clinic;;;;;
Akure South;Ijomu/Obanla Ward;;Comprehensive Health Centre Okeijebu;;;;;
Akure South;Ijomu/Obanla Ward;;Basic Health Centre Okeijebu;;;;;
Akure South;Ilisa  Ward;;Esure Health Centre;;;;;
Akure South;Ilisa  Ward;;Nigeria Police Medical Services Akure;;;;;
Akure South;Irowo Ward;;Abusoro Health Clinic;;;;;
Akure South;Irowo Ward;;Igisogba  Basic Health Clinic;;;;;
Akure South;Irowo Ward;;Iloro Health Clinic;;;;;
Akure South;Oda Ward;;Araromi Aje Health Clinic;;;;;
Akure South;Oda Ward;;Ilekun Health Clinic;;;;;
Akure South;Oda Ward;;Oda Basic Health Clinic;;;;;
Akure South;Oke-Aro Ward;;Oke-Aro Basic Health Clinic;;;;;
Akure South;Oke-Aro Ward;;Adofure Health Centre;;;;;
Akure South;Oke-Aro Ward;;Basic Health Centre Familusi ;;;;;
Akure South;Oke-Aro Ward;;Gaga Clinic;;;;;
Akure South;Oshodi/Isolo Ward;;Millenium Health Centre;;;;;
Akure South;Oshodi/Isolo Ward;;Isolo Comprehensive Health Centre;;;;;
Akure South;Oshodi/Isolo Ward;;Shagari Health Centre;;;;;
Akure South;Owode Imuagun Ward;;Ilere Health Clinic;;;;;
Akure South;Owode Imuagun Ward;;Adegbola Basic Health Clinic;;;;;
Akure South;Owode Imuagun Ward;;Ipinsa Basic Health Clinic;;;;;
Akure South;Owode Imuagun Ward;;Orita Obele Basic Health Center;;;;;
Ese Odo;Apoi 1 Ward;;Igbekebo General Hospital;;;;;
Ese Odo;Apoi 1 Ward;;Igbekebo Basic Health Centre;;;;;
Ese Odo;Apoi 2 Ward;;Kiribo Basic Health Centre;;;;;
Ese Odo;Apoi 2 Ward;;Ipoke Basic Health Centre;;;;;
Ese Odo;Apoi 3 Ward;;Oboro Basic Health Centre;;;;;
Ese Odo;Apoi 3 Ward;;Sabomi Basic Health Centre;;;;;
Ese Odo;Apoi 3 Ward;;Inikorogha Basic Health Centre;;;;;
Ese Odo;Apoi 3 Ward;;Igbotu Basic Health Centre;;;;;
Ese Odo;Apoi 4 Ward;;Igbobini Basic Health Center (Maternity);;;;;
Ese Odo;Apoi 5 Ward;;Igbobini Basic Health Centre;;;;;
Ese Odo;Apoi 5 Ward;;Iluagbo Basic Health Centre;;;;;
Ese Odo;Arogbo 1 Ward;;New Jerusalem Basic Health Centre;;;;;
Ese Odo;Arogbo 1 Ward;;Mega Model Health Centre;;;;;
Ese Odo;Arogbo 1 Ward;;Arogbo Comprehensive Health Centre;;;;;
Ese Odo;Arogbo 1 Ward;;Obontoru Basic Health Centre;;;;;
Ese Odo;Arogbo 1 Ward;;Amapere Basic Health Centre;;;;;
Ese Odo;Arogbo 2 Ward;;Ebiaye Basic Health Centre;;;;;
Ese Odo;Arogbo 2 Ward;;Ogidigba Basic Health Centre;;;;;
Ese Odo;Arogbo 2 Ward;;AwodiKuro Basic Health Centre;;;;;
Ese Odo;Arogbo 3 Ward;;Biagbini Basic Health Centre;;;;;
Ese Odo;Arogbo 3 Ward;;Adoloseimo II Basic Health Centre;;;;;
Ese Odo;Ukparama 1 Ward;;Ukpe Basic Health Centre;;;;;
Ese Odo;Ukparama 2 Ward;;Ojudoama Basic Health Centre;;;;;
Ese Odo;Ukparama 2 Ward;;Opuba Basic Health Centre;;;;;
Ese Odo;Ukparama 2 Ward;;Akpata Basic Health Centre;;;;;
Idanre;Ala Elefosan Ward;;Lisagha Health Centre;;;;;
Idanre;Ala Elefosan Ward;;Omiliyan Health Centre;;;;;
Idanre;Ala Elefosan Ward;;Ala Elefosan Basic Health Centre;;;;;
Idanre;Ala Elefosan Ward;;Ala Goke Basic Health Centre;;;;;
Idanre;Alade Atosin Ward;;Italorun Basic Health Centre;;;;;
Idanre;Alade Atosin Ward;;Ipoba Health Centre;;;;;
Idanre;Alade Atosin Ward;;Aseigbo Basic Health Centre;;;;;
Idanre;Alade Atosin Ward;;Alade Atosin Basic Health Centre;;;;;
Idanre;Alade Atosin Ward;;Idanre General Hospital;;;;;
Idanre;Alade Atosin Ward;;Statistic Unit General Hospital;;;;;
Idanre;Idale/Lemikan Ward;;Bajare Basic Health Centre;;;;;
Idanre;Idale/Logbosere Ward;;Isalu Basic Health Centre;;;;;
Idanre;Idale/Logbosere Ward;;Ajebamidele  Health Centre;;;;;
Idanre;Idale/Logbosere Ward;;Odode Basic Health Centre;;;;;
Idanre;Idale/Logbosere Ward;;Laogbo Health Centre;;;;;
Idanre;Idale/Logbosere Ward;;Opa Sorun National Primary Health Care Centre;;;;;
Idanre;Idale/Logbosere Ward;;Opa Arapa Basic Health Centre;;;;;
Idanre;Idale/Logbosere Ward;;Kajola Basic Health Centre;;;;;
Idanre;Idale/Logbosere Ward;;Ese Oke Basic Health Centre;;;;;
Idanre;Idale/Logbosere Ward;;Basic Health Centre Gbalegi;;;;;
Idanre;Idale/Logbosere Ward;;Awo Abode Basic Health Centre;;;;;
Idanre;Idale/Logbosere Ward;;Ipinlerere Basic Health centre;;;;;
Idanre;Idale/Logbosere Ward;;Opeyemi Hospital;;;;;
Idanre;Ijomu/Isurin Ward;;Owena Egbeela Basic Health Centre;;;;;
Idanre;Ijomu/Isurin Ward;;Igbepo Basic Health Centre;;;;;
Idanre;Irowo Ward;;Abababubu Basic Health Centre;;;;;
Idanre;Irowo Ward;;Abalaka Basic Health Centre;;;;;
Idanre;Irowo Ward;;Obatedo BasicHealth Centre;;;;;
Idanre;Isalu Ehinpeti Ward;;Oniyeu Basic Health Centre;;;;;
Idanre;Isalu Ehinpeti Ward;;Apefon Basic Health Centre;;;;;
Idanre;Isalu Ehinpeti Ward;;Jimgbe Basic Health Centre;;;;;
Idanre;Isalu Ehinpeti Ward;;Omifunfun Health Centre;;;;;
Idanre;Isalu Jigbokin Ward;;Mobaredele Basic Health Centre;;;;;
Idanre;Isalu Jigbokin Ward;;Okewonjo Health Centre;;;;;
Idanre;Isalu Jigbokin Ward;;Ayede Irowa Basic Health Centre,;;;;;
Idanre;Isalu Jigbokin Ward;;Owomofewa Basic Health Centre;;;;;
Idanre;Isalu Jigbokin Ward;;Elelu Health Post;;;;;
Idanre;Isalu Jigbokin Ward;;Iramuje Health Centre;;;;;
Idanre;Onisere/Ofosu Ward;;Ofosu Comprehensive Health Centre;;;;;
Idanre;Onisere/Ofosu Ward;;Agric Farm Settlement Basic Health Centre;;;;;
Idanre;Owena/Aponmu Ward;;St Margaret Hospital;;;;;
Idanre;Owena/Aponmu Ward;;Onikokodiya Basic Health Centre;;;;;
Idanre;Owena/Aponmu Ward;;Owena Comprehensive Health Centre;;;;;
Idanre;Owena/Aponmu Ward;;Aponmu Lona Health Centre;;;;;
Idanre;Owena/Aponmu Ward;;Olokuta Basic Health Centre;;;;;
Idanre;Owena/Aponmu Ward;;Hope Hospital;;;;;
Ifedore;Ero / Ibuji Ward;;Ero Federal Primary Health Clinic;;;;;
Ifedore;Ero / Ibuji Ward;;Ibuji Comprehensive Health Centre;;;;;
Ifedore;Ero / Ibuji Ward;;Ero Basic Health Clinic;;;;;
Ifedore;Ero / Ibuji Ward;;Mariwo Basic Health Centre;;;;;
Ifedore;Igbara-Oke 1 Ward;;Molete Basic Health Center;;;;;
Ifedore;Igbara-Oke 1 Ward;;Igbaraoke Health Centre,;;;;;
Ifedore;Igbara-Oke 1 Ward;;Igbara-Oke General Hospital;;;;;
Ifedore;Igbara-Oke 2 Ward;;Iloro Basic Health Centre;;;;;
Ifedore;Ijare 1 Ward;;Ayetoro Health Centre;;;;;
Ifedore;Ijare 2 Ward;;Ijare Comprehensive Health Centre;;;;;
Ifedore;Ijare 2 Ward;;Odo-Esiri Health Centre;;;;;
Ifedore;Ikota / Irese Ward;;Irese Health Centre;;;;;
Ifedore;Ikota / Irese Ward;;Araromi/Omoladun Health Centre,;;;;;
Ifedore;Ikota / Irese Ward;;Ikota Health Centre;;;;;
Ifedore;Ikota / Irese Ward;;Ore-seun Basic Health Center;;;;;
Ifedore;Ikota / Irese Ward;;Aaye Health Centre,;;;;;
Ifedore;Ilara 1 Ward;;Elizade University Clinic;;;;;
Ifedore;Ilara 1 Ward;;Oke ode Basic Health Center;;;;;
Ifedore;Ilara 2 Ward;;Ilara Health Centre;;;;;
Ifedore;Ilara 2 Ward;;Wuraola Health Centre,;;;;;
Ifedore;Ilara 2 Ward;;Ilara Comprehensive Health Centre;;;;;
Ifedore;Ipogun/Ibule Ward;;Ipogun Health Centre;;;;;
Ifedore;Ipogun/Ibule Ward;;Ibule Health Centre;;;;;
Ifedore;Isarun/Erigi Ward;;Onijaka Health Post;;;;;
Ifedore;Isarun/Erigi Ward;;Ajebandele Health Centre;;;;;
Ifedore;Isarun/Erigi Ward;;Owena Health Centre;;;;;
Ifedore;Isarun/Erigi Ward;;Isarun Health Centre;;;;;
Ifedore;Isarun/Erigi Ward;;Elemo Health Centre;;;;;
Ifedore;Isarun/Erigi Ward;;Erigi Health Centre;;;;;
Ifedore;Isarun/Erigi Ward;;Bolorunduro Health Centre;;;;;
Ifedore;Isarun/Erigi Ward;;Olorunda Health Centre;;;;;
Ilaje;Aheri Ward;;Agerige Basic Health Clinic;;;;;
Ilaje;Aheri Ward;;Zion Pepe Basic Health Clinic;;;;;
Ilaje;Aheri Ward;;Araromi Basic Health Center;;;;;
Ilaje;Aheri Ward;;Akata Basic Health Clinic;;;;;
Ilaje;Aheri Ward;;Oke-siri Basic Health Clinic;;;;;
Ilaje;Aheri Ward;;Enuama Basic Health Clinc;;;;;
Ilaje;Etikan Ward;;Ode Etikan Basic Health Clinic;;;;;
Ilaje;Etikan Ward;;On Ogo-Oluwayo Basic Health Centre;;;;;
Ilaje;Mahin 1 Ward;;Ode-Mahin Basic Health Clinic;;;;;
Ilaje;Mahin 1 Ward;;On Gbabijo Basic Health Clinic;;;;;
Ilaje;Mahin 1 Ward;;On Asisa Basic Health Clinic;;;;;
Ilaje;Mahin 2 Ward;;Ogogoro Basic Health Centre;;;;;
Ilaje;Mahin 2 Ward;;Motoro Basic Health Centre;;;;;
Ilaje;Mahin 2 Ward;;On Ereke Basic Health Clinic;;;;;
Ilaje;Mahin 2 Ward;;Orioke Basic Health Centre;;;;;
Ilaje;Mahin 2 Ward;;Ebute Ipare Basic Health Centre;;;;;
Ilaje;Mahin 2 Ward;;Abealala Basic Health Centre;;;;;
Ilaje;Mahin 2 Ward;;Abereke Basic Health Center;;;;;
Ilaje;Mahin 3 Ward;;Igbokoda Family Support Programme Clinic;;;;;
Ilaje;Mahin 3 Ward;;Aboto Basic Health Clinic;;;;;
Ilaje;Mahin 3 Ward;;Igbokoda General Hospital;;;;;
Ilaje;Mahin 3 Ward;;On Kofawe Basic Health Clinic;;;;;
Ilaje;Mahin 3 Ward;;Ayemafuge Hospital;;;;;
Ilaje;Mahin 3 Ward;;Igbokoda Comprehensive Health Centre;;;;;
Ilaje;Mahin 4 Ward;;Itebukunmi Basic Health Center;;;;;
Ilaje;Mahin 4 Ward;;On Imoluwa Basic Health Clinic;;;;;
Ilaje;Mahin 4 Ward;;Atijere Basic Health Clinic;;;;;
Ilaje;Mahin 4 Ward;;Igbolomi Basic Health Clinic;;;;;
Ilaje;Mahin 4 Ward;;Mahintedo Basic Health Clinic;;;;;
Ilaje;Mahin 4 Ward;;Igoegunrin Basic Health Clinic;;;;;
Ilaje;Mahin 4 Ward;;On Igbobi Basic Health Clinic;;;;;
Ilaje;Ugbo 1 Ward;;Lepe Basic Health Clinic;;;;;
Ilaje;Ugbo 1 Ward;;Abetobo Model Health Centre;;;;;
Ilaje;Ugbo 2  Ward ;;Ayetoro Basic Health Centre;;;;;
Ilaje;Ugbo 2  Ward ;;On Ode-Ugbo Basic Health Clinic;;;;;
Ilaje;Ugbo 2  Ward ;;Ugbonla Basic Health Clinic;;;;;
Ilaje;Ugbo 2  Ward ;;Idiogba Basic Health Clinic ;;;;;
Ilaje;Ugbo 3 Ward ;;Ilepete Basic Health Clinic;;;;;
Ilaje;Ugbo 3 Ward ;;Ilowo Comprehensive Health Centre;;;;;
Ilaje;Ugbo 4 Ward;;Oberebimno Basic Health Clinic;;;;;
Ilaje;Ugbo 4 Ward;;Obenla Basic Health Clinic;;;;;
Ilaje;Ugbo 4 Ward;;On Arenewo Basic Health Clinic;;;;;
Ilaje;Ugbo 5 Ward;;On Jinrinwo Basic Health Clinic;;;;;
Ilaje;Ugbo 5 Ward;;Odonla Basic Health Clinic;;;;;
Ilaje;Ugbo 5 Ward;;On Ikorigho Basic Health Clinic;;;;;
Ilaje;Ugbo 5 Ward;;On Odofado Basic Health Centre;;;;;
Ilaje;Ugbo 6 Ward ;;Molutehin Basic Health Clinic;;;;;
Ilaje;Ugbo 6 Ward ;;Mese Basic Health Clinic;;;;;
Ilaje;Ugbo 6 Ward ;;On Odun Eretan Basic Health Clinic;;;;;
Ile-Oluji-Okeigbo;Ile-Oluji 1 Ward;;Ile-Oluji Comprehensive Health Centre;;;;;
Ile-Oluji-Okeigbo;Ile-Oluji 2 Ward;; Farm Settlement Basic Health Clinic;;;;;
Ile-Oluji-Okeigbo;Ile-Oluji 3 Ward;;Idioma Basic Health Centre;;;;;
Ile-Oluji-Okeigbo;Ile-Oluji 4 Ward;;Temidire Basic Health Centre;;;;;
Ile-Oluji-Okeigbo;Ile-Oluji 4 Ward;;Ile-Oluji General Hospital;;;;;
Ile-Oluji-Okeigbo;Ile-Oluji 6 Ward;;Leegun Basic Health Clinic;;;;;
Ile-Oluji-Okeigbo;Ile-Oluji 6 Ward;;Iyere Basic Health Clinic;;;;;
Ile-Oluji-Okeigbo;Ile-Oluji 6 Ward;;Eyingun Basic Health Clinic;;;;;
Ile-Oluji-Okeigbo;Ile-Oluji 6 Ward;;Bamikemo Oja Basic Health Center;;;;;
Ile-Oluji-Okeigbo;Ile-Oluji 6 Ward;;Owode Basic Health Clinic;;;;;
Ile-Oluji-Okeigbo;Ile-Oluji 6 Ward;;Bamikemo Jegun Basic Health Centre;;;;;
Ile-Oluji-Okeigbo;Ile-Oluji 6 Ward;;Ologundudu Model Primary Health Centre  ;;;;;
Ile-Oluji-Okeigbo;Ile-Oluji Ward 5       ;;Awaye Basic Health Clinic;;;;;
Ile-Oluji-Okeigbo;Ile-Oluji Ward 5       ;;Olowosumoye Basic Health Centre;;;;;
Ile-Oluji-Okeigbo;Ile-Oluji Ward 5       ;;Ayetoro Basic Health Centre;;;;;
Ile-Oluji-Okeigbo;Ile-Oluji Ward 5       ;;Ayede Oja/Lalepa Basic Health Clinic;;;;;
Ile-Oluji-Okeigbo;Ile-Oluji Ward 5       ;;Uloen Basic Health Clinic;;;;;
Ile-Oluji-Okeigbo;Ile-Oluji Ward 5       ;;Olorunsogo Basic Health Clinic;;;;;
Ile-Oluji-Okeigbo;Ile-Oluji Ward 5       ;;Agunla Basic Health Clinic (Ile-Oluji/Okeigbo);;;;;
Ile-Oluji-Okeigbo;Ile-Oluji Ward 5       ;;Lota Basic Health Clinic;;;;;
Ile-Oluji-Okeigbo;Ile-Oluji Ward 5       ;;Oku Opolo Basic Health Clinic;;;;;
Ile-Oluji-Okeigbo;Ile-Oluji Ward 5       ;;Akinye Basic Health Centre;;;;;
Ile-Oluji-Okeigbo;Oke-Igbo 1 Ward;;Oke-Igbo Basic Health Clinic;;;;;
Ile-Oluji-Okeigbo;Oke-Igbo 1 Ward;;Oke-Igbo Comprehensive Health Clinic;;;;;
Ile-Oluji-Okeigbo;Oke-Igbo 3 Ward;;Olojo Fagunwa Basic Health Centre;;;;;
Ile-Oluji-Okeigbo;Oke-Igbo 3 Ward;;Balagbe Basic Health Clinic;;;;;
Ile-Oluji-Okeigbo;Oke-Igbo 3 Ward;;Idiroko Basic Health Clinic;;;;;
Ile-Oluji-Okeigbo;Oke-Igbo 3 Ward;;Araromi Fasawe Basic Health Clinic;;;;;
Ile-Oluji-Okeigbo;Oke-Igbo 4 Ward;;Igbo Olodunmare Basic Health Centre;;;;;
Ile-Oluji-Okeigbo;Oke-Igbo 4 Ward;;Seriki Basic Health Clinic;;;;;
Ile-Oluji-Okeigbo;Oke-Igbo 4 Ward;;Oke Alafia Basic Health Centre;;;;;
Ile-Oluji-Okeigbo;Oke-Igbo 4 Ward;;Olorunkemi Basic Health Clinic;;;;;
Ile-Oluji-Okeigbo;Oke-Igbo 4 Ward;;Kajola Arepa Basic Health Clinic;;;;;
Ile-Oluji-Okeigbo;Oke-Igbo 4 Ward;;Orisunmibare Basic Health Clinic;;;;;
Ile-Oluji-Okeigbo;Oke-Igbo 4 Ward;;Awopeju Basic Health Clinic;;;;;
Ile-Oluji-Okeigbo;Oke-Igbo 4 Ward;;Asana Basic Health Centre;;;;;
Ile-Oluji-Okeigbo;Oke-Igbo 4 Ward;;Ramonu Basic Health Clinic;;;;;
Ile-Oluji-Okeigbo;Oke-Igbo Ward 2;;Popoola Basic Health Centre;;;;;
Ile-Oluji-Okeigbo;Oke-Igbo Ward 2;;Oloruntele Basic Health Centre;;;;;
Irele;Ajagba Ward 1;;Gbogbolowho Basic Health Center;;;;;
Irele;Ajagba Ward 1;;Salawa Basic Health Center;;;;;
Irele;Ajagba Ward 1;;Ajagba Comprehensive Health Center;;;;;
Irele;Ajagba Ward 2;;Ajagba Model Primary Health Centre;;;;;
Irele;Akotogbo Ward 1;;Akotogbo Basic Health Clinic;;;;;
Irele;Akotogbo Ward 2;;Barogbo Basic Health Centre;;;;;
Irele;Akotogbo Ward 2;;Iju osun Basic Health Clinic;;;;;
Irele;Irele 2 Ward;;Irele Comprehensive Health Centre;;;;;
Irele;Irele 3 Ward;;Ayadi Basic Health Centre;;;;;
Irele;Irele 3 Ward;;Lekon Basic Health Centre;;;;;
Irele;Irele 3 Ward;;Loda Basic Health Centre;;;;;
Irele;Irele 3 Ward;;Lokaka Basic Health Clinic;;;;;
Irele;Irele 4 Ward;;Atoranse Basic Health Clinic;;;;;
Irele;Irele 4 Ward;;Ruwahe Basic Health Clinic;;;;;
Irele;Irele 4 Ward;;Litoto Basic Health Clinic;;;;;
Irele;Irele 4 Ward;;Iyara Basic Health Clinic;;;;;
Irele;Irele 5 Ward;;Lewumeji Basic Health Clinic;;;;;
Irele;Irele 5 Ward;;Lipaanu Basic Health Centre;;;;;
Irele;Irele 5 Ward;;Idogun Basic Health Clinic;;;;;
Irele;Irele Ward 1;;Ode-Irele General Hospital,;;;;;
Irele;Irele Ward 1;;Lamudifa Basic Health Clinic;;;;;
Irele;Iyansan/Omi Ward;;Omi Basic Health Clinic;;;;;
Irele;Iyansan/Omi Ward;;Iyansan Basic Health Clinic;;;;;
Irele;On Private Ward;;St. Theresa Catholic Hospital;;;;;
Odigbo;Agbabu Ward;;Kajola Ojurin Health Centre;;;;;
Odigbo;Agbabu Ward;;Mulekangbo Health Centre;;;;;
Odigbo;Agbabu Ward;;Araromi Basic Health Centre;;;;;
Odigbo;Agbabu Ward;;Agbabu Health Centre;;;;;
Odigbo;Ago-Alaye Ward;;Ago-Alaye Health Centre;;;;;
Odigbo;Ago-Alaye Ward;;Olokuta Basic Health Center;;;;;
Odigbo;Ajue Ward;;Asewele Health Centre;;;;;
Odigbo;Ajue Ward;;Igburowo Health Centre;;;;;
Odigbo;Ajue Ward;;Oloruntedo Health Centre;;;;;
Odigbo;Ajue Ward;;Lasia Basic Health Centre;;;;;
Odigbo;Ajue Ward;;Orotedo Health Centre;;;;;
Odigbo;Ajue Ward;;Ajue Health Centre;;;;;
Odigbo;Ajue Ward;;Ajue Comprehensive Health Centre;;;;;
Odigbo;Ajue Ward;;Oro Health Centre;;;;;
Odigbo;Araromi-Obu Ward;;Araromi Obu Comprehensive Health Centre;;;;;
Odigbo;Ayesan Ward;;Ayesan Basic Health Centre ;;;;;
Odigbo;Ebijaw Ward;;Obajare Basic Health Centre;;;;;
Odigbo;Ebijaw Ward;;Ebijaw Health Centre;;;;;
Odigbo;Koseru Ward;;Koseru Health Centre;;;;;
Odigbo;Odigbo 1 Ward;;Adaja Health Centre;;;;;
Odigbo;Odigbo 1 Ward;;BHC Akinfolarin;;;;;
Odigbo;Odigbo 1 Ward;;Odigbo Health Centre;;;;;
Odigbo;Odigbo 1 Ward;;Omifon Health Centre;;;;;
Odigbo;Odigbo 1 Ward;;Orita Ojo Basic Health Clinic;;;;;
Odigbo;Oniparaga Ward;;Temidire Health Centre;;;;;
Odigbo;Oniparaga Ward;;Kajola Express Health Clinic;;;;;
Odigbo;Oniparaga Ward;;Ajebamidele Health Centre;;;;;
Odigbo;Oniparaga Ward;;Imorun Health Clinic ;;;;;
Odigbo;Oniparaga Ward;;Ajebamibo Health Centre;;;;;
Odigbo;Oniparaga Ward;;Oniparaga Health Centre;;;;;
Odigbo;Oniparaga Ward;;Obadore Basic Health Centre;;;;;
Odigbo;Ore 1 Ward;;Ore General Hospital;;;;;
Odigbo;Ore 1 Ward;;Custain Basic Health Center;;;;;
Odigbo;Ore 1 Ward;;Ore Basic Health Centre;;;;;
Odigbo;Ore 1 Ward;;Ore Family Support Programme Clinic;;;;;
Odigbo;Ore 2 Ward;;Asejire Health Centre;;;;;
Odigbo;Ore 2 Ward;;Mile I3 Health Centre;;;;;
Odigbo;Ore 2 Ward;;Mile 9 Health Centre;;;;;
Odigbo;Ore 2 Ward;;Mile I0 Health Centre;;;;;
Odigbo;Orisumbare Ward;;St. Francis Hospital;;;;;
Odigbo;Orisumbare Ward;;Ola Jesu Clinic;;;;;
Odigbo;Orisumbare Ward;;Arif Medical Hospital;;;;;
Odigbo;Orisumbare Ward;;Free Wealth Clinic;;;;;
Odigbo;Orisumbare Ward;;Ayomide Hospital;;;;;
Odigbo;Orisumbare Ward;;Opeyemi Clinic;;;;;
Odigbo;Orisumbare Ward;;Pima Hospital;;;;;
Odigbo;Orisumbare Ward;;Glory Field Hospital;;;;;
Odigbo;Orisumbare Ward;;St Thomas Clinic;;;;;
Odigbo;Orisumbare Ward;;Oluwaseyi Hospital;;;;;
Odigbo;Orisumbare Ward;;Dec. Medical Clinic;;;;;
Okitipupa;Ayeka Ward;;Araromi Basic Health Centre;;;;;
Okitipupa;Ayeka Ward;;Ayadi Basic Health Centre;;;;;
Okitipupa;Ayeka Ward;;Ayeka Basic Health Centre;;;;;
Okitipupa;Ayeka Ward;;Igodan Basic Health centre;;;;;
Okitipupa;Ayeka Ward;;Okunmo Basic Health Center;;;;;
Okitipupa;Erekiti/Iju-Odo/Iju-Oke Ward;;Iju Oke Basic Health Centre;;;;;
Okitipupa;Erekiti/Iju-Odo/Iju-Oke Ward;;Idobilayo Basic Health Centre;;;;;
Okitipupa;Erekiti/Iju-Odo/Iju-Oke Ward;;Ijuodo Federal Primary Health Centre;;;;;
Okitipupa;Erekiti/Iju-Odo/Iju-Oke Ward;;Erekiti Basic Health Centre;;;;;
Okitipupa;Erekiti/Iju-Odo/Iju-Oke Ward;;Ijuodo Basic Health Centre;;;;;
Okitipupa;Erinje Ward;;Igbodigo Basic Health Centre;;;;;
Okitipupa;Erinje Ward;;Erinje Basic Health Centre;;;;;
Okitipupa;Igbotako 1 Ward;;Wakajaye Basic Health Centre;;;;;
Okitipupa;Igbotako 1 Ward;;Omowole Basic Health Centre;;;;;
Okitipupa;Igbotako 1 Ward;;Igbotako Comprehensive Health Centre;;;;;
Okitipupa;Igbotako 1 Ward;;Ilebe Basic Health Centre;;;;;
Okitipupa;Igbotako 2 Ward;;Igbotako Basic Health Centre;;;;;
Okitipupa;Ikoya/Oloto Ward;;Igbinsin Basic Health Centre;;;;;
Okitipupa;Ikoya/Oloto Ward;;Ikoya Basic Health Centre;;;;;
Okitipupa;Ikoya/Oloto Ward;;Oloto Basic Health Centre;;;;;
Okitipupa;Ilutitun 1 Ward;;Ilutitun Comprehensive Health Centre;;;;;
Okitipupa;Ilutitun 2 Ward;;Ayetoro 2 Basic Health Centre;;;;;
Okitipupa;Ilutitun 2 Ward;;Ayetoro 1 Basic Health Centre;;;;;
Okitipupa;Ilutitun 2 Ward;;Ilutitun Basic Health Centre;;;;;
Okitipupa;Ilutitun 3 Ward;;Irowa Basic Health Centre;;;;;
Okitipupa;Ilutitun 3 Ward;;Iwada Basic Health Centre;;;;;
Okitipupa;Ilutitun 3 Ward;;Omotoso Basic Health Centre;;;;;
Okitipupa;Ode-Aye 1 Ward;;Ode-Aye 1 Comprehensive Health Centre;;;;;
Okitipupa;Ode-Aye 1 Ward;;Gbotalota Basic Health Centre;;;;;
Okitipupa;Ode-Aye 2 Ward;;Farm Settlement Basic Health Centre;;;;;
Okitipupa;Ode-Aye 2 Ward;;Ode-Aye Basic Health Centre;;;;;
Okitipupa;OkitipupaI 1 Ward;;Ebute Comprehensive Health Centre;;;;;
Okitipupa;OkitipupaI 1 Ward;;Okitipupa State Specialist Hospital;;;;;
Okitipupa;OkitipupaI 1 Ward;;Okitipupa Family Support Programme Centre;;;;;
Okitipupa;OkitipupaI Ward 2;;Abusoro Basic Health Centre;;;;;
Okitipupa;OkitipupaI Ward 2;;Idepe Basic Health Centre ;;;;;
Ondo East;Asantan Ward;;Oke Oya Health Post;;;;;
Ondo East;Asantan Ward;;Asantan Comprehensive Health Centre;;;;;
Ondo East;Bolorunduro  Ward;;Bolorunduro General Hospital;;;;;
Ondo East;Bolorunduro  Ward;;Bolorunduro Comprehensive Health Centre;;;;;
Ondo East;Epe Ward;;Epe Comprehensive Health Centre;;;;;
Ondo East;Epe Ward;;Lahoro Basic Health Centre;;;;;
Ondo East;Epe Ward;;Awo Basic Health Centre;;;;;
Ondo East;Epe Ward;;Atamo Basic Health Centre;;;;;
Ondo East;Epe Ward;;Lomileju Basic Health Centre;;;;;
Ondo East;Epe Ward;;Mobire Basic Health Centre;;;;;
Ondo East;Fagbo Ward;;os Osun Basic Health Centre;;;;;
Ondo East;Fagbo Ward;;Fagbo Comprehensive Health Centre;;;;;
Ondo East;Fagbo Ward;;Omifunfun Basic Health Centre;;;;;
Ondo East;Igba Ward;;Igbo-Oja Health Centre;;;;;
Ondo East;Igba Ward;;Igba Basic Health Center;;;;;
Ondo East;Igba Ward;; Italurowo Basic Health Centre;;;;;
Ondo East;Kolawole Ward;;Kolawole Health Centre,;;;;;
Ondo East;Oboto Ward;;Oboto Basic Health Centre;;;;;
Ondo East;Olorunsogo Ward;;Olorunsogo Basic Health Centre;;;;;
Ondo East;Olorunsogo Ward;;Orisunmibare Comprehensive Health Centre;;;;;
Ondo East;Owena Ward;;Apurere Health Centre,;;;;;
Ondo East;Owena Ward;;Owena bridge Health Centre,;;;;;
Ondo East;Owena Ward;;Sasere Health Centre,;;;;;
Ondo East;Tekuile Ward;;Owena Tepo Basic Health Centre;;;;;
Ondo East;Tekuile Ward;;Tekuile Comprehensive Health Centre;;;;;
Ondo West;Igbindo Ward;;Igbindo Basic Health Center;;;;;
Ondo West;Igbindo Ward;;Okeogun Basic health centre;;;;;
Ondo West;Igbindo Ward;;Laoso Basic Health Clinic;;;;;
Ondo West;Igbindo Ward;;Egure - oba Basic Health Clinic;;;;;
Ondo West;Igbindo Ward;;Owode-Lepo Basic Health Clinic;;;;;
Ondo West;Igbindo Ward;;Ayetoro Basic Health Clinic;;;;;
Ondo West;Igbindo Ward;;Eleyowo Basic Health Clinic;;;;;
Ondo West;Igunshin Ward   ;;Olorunsogo Basic Health Center;;;;;
Ondo West;Igunshin Ward   ;;Igbado Basic Health Clinic;;;;;
Ondo West;Igunshin Ward   ;;Tokunbo Basic Health Clinic;;;;;
Ondo West;Igunshin Ward   ;;Erinla Basic Health Clinic;;;;;
Ondo West;Igunshin Ward   ;;Igunshin Basic Health Center;;;;;
Ondo West;Igunshin Ward   ;;Odowo Basic Health Clinic;;;;;
Ondo West;Igunshin Ward   ;;Bagbe Basic Health Clinic;;;;;
Ondo West;Igunshin Ward   ;;Orisunbare/Erinla Basic Health Clinic;;;;;
Ondo West;Ilunla Ward;;Ogho Basic Health Center;;;;;
Ondo West;Ilunla Ward;;Ilu-Nla Basic Health Clinic;;;;;
Ondo West;Jilalu Ward;;Jilalu Basic Health Clinic;;;;;
Ondo West;Jilalu Ward;;Ondo Mother And Child Hospital;;;;;
Ondo West;Laje Ward;;Agogbo Basic Health Clinic;;;;;
Ondo West;Laje Ward;;Obunkeko Basic Health Clinic;;;;;
Ondo West;Laje Ward;;Orisunmibare Church 1 Basic Health Clinic;;;;;
Ondo West;Laje Ward;;Ilutuntun Basic Health Clinic;;;;;
Ondo West;Laje Ward;;Orisunmibare Church 2 Basic Health Clinic;;;;;
Ondo West;Laje Ward;;Obado Basic Health Center;;;;;
Ondo West;Laje Ward;;Ajegunle Basic Health Clinic;;;;;
Ondo West;Laje Ward;;Aratundi Basic Health Clinic;;;;;
Ondo West;Laje Ward;;Aratunlojo Basic Health Clinic;;;;;
Ondo West;Laje Ward;;Onisoosi Basic Health Clinic;;;;;
Ondo West;Laje Ward;;Laje Comprehensive Health Centre;;;;;
Ondo West;Laje Ward;;Basiri Basic Health Clinic;;;;;
Ondo West;Laje Ward;;Orisunmibare No.2 Basic Health Clinic;;;;;
Ondo West;Lekere/Abusoro Ward;;Lekere Basic Health Clinic ;;;;;
Ondo West;Lekere/Abusoro Ward;;Abusoro Basic Health Centre;;;;;
Ondo West;Maroko Ward;;Maroko Basic Health Clinic;;;;;
Ondo West;Mofere Ward;;Moferere Oja Comprehensive Health Centre;;;;;
Ondo West;Oka  Ward;;Ayeyemi Basic Health Clinic;;;;;
Ondo West;Oka  Ward;;Oka Basic Health Clinic;;;;;
Ondo West;Okelisa/Okedoko Ward;;Ondo State Specialist Hospital;;;;;
Ondo West;Okelisa/Okedoko Ward;;Better Life Basic Health Clinic;;;;;
Ondo West;Okelisa/Okedoko Ward;;Sabo Family Support Clinic;;;;;
Ondo West;Surulere Ward;;Surulere Basic Health Clinic;;;;;
Ondo West;Yaba Ward;;Yaba Basic Health Clinic;;;;;
Ondo West;Yaba Ward;;Jimekun Basic Health Clinic ;;;;;
Ondo West;Yaba Ward;;Akinjagunla Basic Health Clinic;;;;;
Ose;Afo Ward;;Ugbe-Afo Basic Health Centre;;;;;
Ose;Afo Ward;;Oke Afo Basic Health Centre;;;;;
Ose;Afo Ward;;Owalafo Basic Health Centre;;;;;
Ose;Idoani 1 Ward;;Idoani Comprehensive Health Centre;;;;;
Ose;Idoani 1 Ward;;Owani Basic Health Centre;;;;;
Ose;Idoani 2 Ward;;Okeluju Basic Health Centre;;;;;
Ose;Idogun Ward;;Idogun Basic Health Centre;;;;;
Ose;Ifon 1 Ward;;Ifon Comprehensive Health Centre;;;;;
Ose;Ifon 2 Ward;;Obanigba Basic Health Center;;;;;
Ose;Ifon 2 Ward;;Ifon Model Comprehensive Health Centre;;;;;
Ose;Ijagba Ward;;Ijagba Basic Health Centre;;;;;
Ose;Ikaro/Elegbeka Ward;;Ikaro Basic Health Centre;;;;;
Ose;Ikaro/Elegbeka Ward;;Elegbeka Basic Health Centre;;;;;
Ose;Ikaro/Elegbeka Ward;;Ori-Ohin Health Post;;;;;
Ose;Imeri Ward;;Uka-Imeri Basic Health Centre;;;;;
Ose;Imeri Ward;;Imeri Basic Health Centre;;;;;
Ose;Imoru/Arinmogija Ward;;Arimogija Basic Health Centre;;;;;
Ose;Imoru/Arinmogija Ward;;Imoru Comprehensive Health Centre;;;;;
Ose;Okeluse Ward;;Okeluse Cottage Health Centre;;;;;
Ose;Okeluse Ward;;Okeluse Basic Health Centre;;;;;
Ose;Ute Ward;;Ute Basic Health Centre;;;;;
Ose;Ute Ward;;Owajalaye Basic Health Centre;;;;;
Owo;Ehinogbe;;Ehinogbe Basic Health Centre;;;;;
Owo;Idansen Ward;;Ugbeta Basic Health Centre;;;;;
Owo;Idansen Ward;;Agbowa Basic Health Centre;;;;;
Owo;Idansen Ward;;Agopanu Basic Health Centre;;;;;
Owo;Idansen Ward;;Upemen Basic Health Centre;;;;;
Owo;Idansen Ward;;Isuada Basic Health Centre;;;;;
Owo;Idansen Ward;;Algon Basic Health Centre;;;;;
Owo;Idansen Ward;;Idansen Basic Health Centre;;;;;
Owo;Igboroko 1 Ward;;Model Family planning unit Okemapo;;;;;
Owo;Igboroko 1 Ward;;Oke-Mapo Basic Health Centre;;;;;
Owo;Igboroko 2 Ward;;Okedogbon Basic Health Centre;;;;;
Owo;Ijebu 1 Ward;;Ijebu Owo Basic Health Centre;;;;;
Owo;Ijebu 1 Ward;;Owo Federal Medical Centre;;;;;
Owo;Ijebu Ward 2;;Sanusi Basic Health Centre;;;;;
Owo;Ijebu Ward 2;;Basic Health Centre Ijebu 2;;;;;
Owo;Ijebu Ward 2;;Ijebu GRA Federal Health Centre;;;;;
Owo;Iloro Ward;;Iloro Basic Health Centre;;;;;
Owo;Ipele Ward;;Omolege Basic Health Centre;;;;;
Owo;Ipele Ward;;Ajagbale Basic Health Centre;;;;;
Owo;Ipele Ward;;Okitiofa Basic Health Centre;;;;;
Owo;Ipele Ward;;Alao Basic Health Centre;;;;;
Owo;Ipele Ward;;Ipele Primary Health Centre;;;;;
Owo;Ipele Ward;;Osabiya Basic Health Centre;;;;;
Owo;Ipele Ward;;Ipele Comprehensive Health Centre;;;;;
Owo;Isaipen Ward;;Basic Health Centre Isaipen;;;;;
Owo;Isaipen Ward;;Ojana Basic Health Centre;;;;;
Owo;Iyere Ward;;Alaguntan Basic Health Centre;;;;;
Owo;Iyere Ward;;Iyere Comprehensive Health Centre;;;;;
Owo;Iyere Ward;;Iyere National Primary Health Centre;;;;;
Owo;Iyere Ward;;Igbe Basic Health Centre;;;;;
Owo;Uso/Emure-Ile Ward;;Uso Maternity Health Centre ;;;;;
Owo;Uso/Emure-Ile Ward;;Sajinyan Basic Health Centre;;;;;
Owo;Uso/Emure-Ile Ward;;Okeodo Basic Health Centre;;;;;
Owo;Uso/Emure-Ile Ward;;Asolo Basic Health Centre;;;;;
Owo;Uso/Emure-Ile Ward;;Amurin Basic Health Centre;;;;;
Owo;Uso/Emure-Ile Ward;;Emure-Ile Comprehensive Health Centre;;;;;
Owo;Uso/Emure-Ile Ward;;Eporo Basic Health Centre;;;;;
Owo;Uso/Emure-Ile Ward;;Uso Basic Health Centre;;;;;
