LGA;Ward;Settlement;Facility;Type;Ownership;Address;Longitude;Latitude
Afijio; Ilora 1 Ward;;Samson Olatayo clinic;;;;;
Afijio; Ilora 1 Ward;;Okediji Primary Health Centre;;;;;
Afijio;Akinmorin/Jobele Ward;;Jobele Primary Health Centre;;;;;
Afijio;Akinmorin/Jobele Ward;;Aged and Widow Clinic;;;;;
Afijio;Akinmorin/Jobele Ward;; Akinmorin Europian Economic Clinic;;;;;
Afijio;Akinmorin/Jobele Ward;;Akinmorin Primary Health Centre;;;;;
Afijio;Awe 1 Ward;;Shepered Clinic and Maternity;;;;;
Afijio;Awe 1 Ward;;Leke Clinic;;;;;
Afijio;Awe 1 Ward;;Awe Primary Health Centre;;;;;
Afijio;Awe II  Ward;;Oke Boda Primary Health Centre;;;;;
Afijio;Awe II  Ward;;Momoh  Hospital and Maternity;;;;;
Afijio;Fiditi I Ward;; Fiditi General Hospital;;;;;
Afijio;Fiditi I Ward;;Ajayi Memorial Hospital;;;;;
Afijio;Fiditi II Ward;;Fiditi Primary Health Centre;;;;;
Afijio;Fiditi II Ward;;Omoyeni Clinic;;;;;
Afijio;Fiditi II Ward;;Ijaye Ojutaye Primary Health Centre;;;;;
Afijio;Ilora II Ward;;Ilora General Hospital;;;;;
Afijio;Ilora II Ward;;The Blood Clinic;;;;;
Afijio;Ilora II Ward;;Idi Igba Primary Health Centre;;;;;
Afijio;Ilora II Ward;;P&P Hospital;;;;;
Afijio;Ilora II Ward;;Bisol Hospital;;;;;
Afijio;Ilora II Ward;; MDG Primary Health Centre;;;;;
Afijio;Ilora II Ward;;Eleekara Health Clinic;;;;;
Afijio;Ilora II Ward;;TBL Clinic;;;;;
Afijio;Ilora II Ward;;Access Basic Foundation Clinic;;;;;
Afijio;Ilora II Ward;;Ilora  Maternity Health Centre;;;;;
Afijio;Ilora III Ward;;LEEMP clinic;;;;;
Afijio;Ilora III Ward;;Ilora Farm Settlement;;;;;
Afijio;Ilora III Ward;;Aribombo Health Clinic;;;;;
Afijio;Ilora III Ward;;Asaju Primary Health Centre;;;;;
Afijio;Ilora III Ward;;Ayetoro Primary Health Centre;;;;;
Afijio;Imini Ward;;Obannko Primary Health Centre;;;;;
Afijio;Imini Ward;;Imini Primary Health Centre;;;;;
Afijio;Imini Ward;;Abanti Primary Health Centre;;;;;
Afijio;Imini Ward;;Ilu Aje Primary Health Centre;;;;;
Afijio;Iware Ward;;Iware Model Health Centre;;;;;
Afijio;Iware Ward;;Iware Maternity  Health Centre;;;;;
Afijio;Iware Ward;;Aba-Adio Primary Health Centre;;;;;
Akinyele;Akinyele Ward;;Kara Health Centre;;;;;
Akinyele;Akinyele Ward;;El-Shaddai Clinic and Maternity;;;;;
Akinyele;Akinyele Ward;;St Patricks Hospital;;;;;
Akinyele;Akinyele Ward;;Akinyele Primary Health Centre;;;;;
Akinyele;Alabata Ward;;Elekuru Primary Health Centre;;;;;
Akinyele;Alabata Ward;;Alabata Primary Health Centre;;;;;
Akinyele;Aroro Ward;;Aroro  Health Centre;;;;;
Akinyele;Aroro Ward;;Adegbite Cottage Health Clinic;;;;;
Akinyele;Ijaye Ward;;Ijaye Primary Health Centre;;;;;
Akinyele;Ijaye Ward;;Atan Health Centre;;;;;
Akinyele;Ijaye Ward;;Jariya/Sangobo Health Post;;;;;
Akinyele;Ijaye Ward;;Iware Primary Health Centre;;;;;
Akinyele;Ikereku Ward;;Ikereku Primary Health Centre;;;;;
Akinyele;Ikereku Ward;;Ikereku Primary Health;;;;;
Akinyele;Iroko Ward;;Oretu Health Post;;;;;
Akinyele;Iroko Ward;;Iroko  Primary Health Centre;;;;;
Akinyele;Iwokoto Ward;;Iwokoto Health Centre;;;;;
Akinyele;Moniya Ward;;Ibukun Oluwa Hospital;;;;;
Akinyele;Moniya Ward;;Divine Grace Maternity and Child Welfare Clinic;;;;;
Akinyele;Moniya Ward;;Oluwasogo Hospital;;;;;
Akinyele;Moniya Ward;;Folawiyo Hospital;;;;;
Akinyele;Moniya Ward;;Comfort Zone Clinic;;;;;
Akinyele;Moniya Ward;;Moniya Primary Health Centre;;;;;
Akinyele;Moniya Ward;;Akinlolu Clinics Annex;;;;;
Akinyele;Moniya Ward;;Folayo Maternity and Clinic;;;;;
Akinyele;Moniya Ward;;Graceland Maternity Hospital;;;;;
Akinyele;Moniya Ward;;Olusola Clinc Moniya;;;;;
Akinyele;Moniya Ward;;His Favour Hospital;;;;;
Akinyele;Moniya Ward;;Moniya General Hospital;;;;;
Akinyele;Moniya Ward;;Christ Hope Hospital and Maternity;;;;;
Akinyele;Moniya Ward;;Hope Life Maternity  Clinic;;;;;
Akinyele;Moniya Ward;;Aged and Widow Mini Clinic;;;;;
Akinyele;Moniya Ward;;Cureland Hospital;;;;;
Akinyele;Moniya Ward;;Moniya Tuberculosis and Leprosy Control Unit;;;;;
Akinyele;Ojoo Ward;;Ajibode Primary Health Centre;;;;;
Akinyele;Ojoo Ward;;Orogun Health Clinic;;;;;
Akinyele;Ojoo Ward;;2nd Mechanized Division Medical Hosptal;;;;;
Akinyele;Ojoo Ward;;Owe Kekun Health Centre;;;;;
Akinyele;Ojoo Ward;;Temitope Hospital;;;;;
Akinyele;Ojoo Ward;;Hamdalat Hospital;;;;;
Akinyele;Ojoo Ward;;Ojoo  Primary Health Centre;;;;;
Akinyele;Ojoo Ward;;Mosalape Maternity Centre;;;;;
Akinyele;Ojoo Ward;;Olufunmilayo Hospital;;;;;
Akinyele;Ojoo Ward;;Faith Maternity Clinic;;;;;
Akinyele;Ojoo Ward;;As Salam Hospital;;;;;
Akinyele;Ojoo Ward;;Fajimi Hospital;;;;;
Akinyele;Ojoo Ward;;Aisat Memorial Maternity Hospital;;;;;
Akinyele;Ojoo Ward;;Sasa Primary Health Centre;;;;;
Akinyele;Olanla Ward;;Pade Maternity Centre;;;;;
Akinyele;Olanla Ward;;Alade Health Centre;;;;;
Akinyele;Olanla Ward;;Pade Model Health Centre;;;;;
Akinyele;Olorisaoko Ward;;Mele Health Clinic;;;;;
Akinyele;Olorisaoko Ward;;Olorisa-Oko Primary Health Centre;;;;;
Akinyele;Onidundun Ward;;Ileba Health  Centre;;;;;
Akinyele;Onidundun Ward;;Onidundu Health Centre;;;;;
Akinyele;Onidundun Ward;;Ileba Primary Health Centre;;;;;
Atiba;Aafin 1 Ward;;Aged and Widow Clinic;;;;;
Atiba;Aafin 1 Ward;;Aafin Primary Health Centre;;;;;
Atiba;Aafin 2 Ward;;Afin  Health Centre;;;;;
Atiba;Agunpopo I Ward;;Modupe Clinic;;;;;
Atiba;Agunpopo I Ward;;Okeolola Primary Health Centre;;;;;
Atiba;Agunpopo I Ward;;Living Stone Clinic;;;;;
Atiba;Agunpopo II Ward;;Ajiroba/ Agabakin Primary Health Centre;;;;;
Atiba;Agunpopo II Ward;;Onire Bara Primary Health Centre;;;;;
Atiba;Agunpopo II Ward;;Ijawaya Primary Health Centre;;;;;
Atiba;Agunpopo III Ward;;Police Medical Center;;;;;
Atiba;Agunpopo III Ward;;Ajayi Crowther Clinic;;;;;
Atiba;Agunpopo III Ward;;Boroboro Health Centre;;;;;
Atiba;Agunpopo III Ward;;Agunpopo Tuberculusis and Leprosy Clinic;;;;;
Atiba;Agunpopo III Ward;;Abiwere Maternity Centre;;;;;
Atiba;Agunpopo III Ward;;Dominic Hospital Annex;;;;;
Atiba;Agunpopo III Ward;;State Health Office;;;;;
Atiba;Agunpopo III Ward;;Atiba Staff Clinic;;;;;
Atiba;Agunpopo III Ward;;Happiness Clinics;;;;;
Atiba;Agunpopo III Ward;;Iseoluwa Medical Centre;;;;;
Atiba;Aremon Ward;;Aremo Outreach Health Post;;;;;
Atiba;Asipa I Ward;;Oroki Medical  Centre;;;;;
Atiba;Asipa I Ward;;Oke-oroki Health Centre;;;;;
Atiba;Asipa I Ward;;Moriyeba Clinic;;;;;
Atiba;Asipa I Ward;;Fiyinfolu Clinic;;;;;
Atiba;Asipa I Ward;;Arole Clinic and Maternity;;;;;
Atiba;Asipa I Ward;;Oyeladun Clinic;;;;;
Atiba;Asipa I Ward;;Isale Oyo Primary Health Centre;;;;;
Atiba;Asipa II Ward;;Holy Michael Maternity Centre;;;;;
Atiba;Asipa II Ward;;Okin Clinic;;;;;
Atiba;Asipa II Ward;;Koso Primary Health Centre;;;;;
Atiba;Asipa II Ward;;Anu Olu Olokonla Hospital;;;;;
Atiba;Asipa II Ward;;Grace Hospital and Maternity Centre;;;;;
Atiba;Asipa II Ward;;Blessed Hospital;;;;;
Atiba;Asipa II Ward;;Idera Oluwa Clinic;;;;;
Atiba;Asipa II Ward;;Onibuore Clinic;;;;;
Atiba;Asipa III Ward;;Oniroko Health Clinic;;;;;
Atiba;Asipa III Ward;;Igbonla Health Centre;;;;;
Atiba;Asipa III Ward;;Arinkinkin Primary Health Clinic;;;;;
Atiba;Asipa III Ward;;Ilowagbade Health Clinic;;;;;
Atiba;Asipa III Ward;;Elelu Health Clinic;;;;;
Atiba;Asipa III Ward;;Otefon Health Post;;;;;
Atiba;Basorun Ward;;Basorun Outreach Health Post;;;;;
Atiba;Basorun Ward;;Needy Clinic and Maternity Centre;;;;;
Atisbo;Ago Are 2 Ward;;Ago Are General Hospital;;;;;
Atisbo;Ago Are 2 Ward;;Ago Are Model Primary Health Centre;;;;;
Atisbo;Ago Are I Ward;;Agbele Primary Health Centre;;;;;
Atisbo;Ago Are I Ward;;Ago Are Primary Health Centre;;;;;
Atisbo;Ago Are I Ward;;Al-Nusra Clinic & Maternity;;;;;
Atisbo;Ago Are I Ward;;Ago Are Tuberculusis and Leprosy Clinic;;;;;
Atisbo;Baasi Ward;;Baasi Town Primary Health Centre;;;;;
Atisbo;Baasi Ward;;Corner Owo Primary Health Centre;;;;;
Atisbo;Irawo/Owode Ward;;Irawo Owode Primary Health Centre;;;;;
Atisbo;Irawo-Ile Ward;;Irawo-Ile Ori-Okoo  Primary Health Care Centre;;;;;
Atisbo;Irawo-Ile Ward;;Irawo-Ile Primary Health Centre;;;;;
Atisbo;Obada Ward;; Tede General Hospital;;;;;
Atisbo;Obada Ward;;Tede Primary Health Centre;;;;;
Atisbo;Obada Ward;;Tede Mini Widow and Aged Clinic;;;;;
Atisbo;Obada Ward;;Ajibode Maternity And Child Wellfare Cinic;;;;;
Atisbo;Ofiki Ward;;Ofiki Primary Health Centre;;;;;
Atisbo;Ofiki Ward;;Abugudu Primary Health Centre;;;;;
Atisbo;Ofiki Ward;;Ofiki  Primary Health Care Centre;;;;;
Atisbo;Opara Ward;;Adeoye Primary Health Centre;;;;;
Atisbo;Owotoro Ward;;Agunrege  Primary Health Centre;;;;;
Atisbo;Owotoro Ward;;Owotoro Primary Health Centre;;;;;
Atisbo;Owotoro Ward;;Sabe Primary Health Centre;;;;;
Atisbo;Owotoro Ward;;Alajuba Primary Health Centre;;;;;
Atisbo;Oyada Ward;;Alakuko Primary Health Centre;;;;;
Atisbo;Oyada Ward;;Tede  Comprehensive Health Center;;;;;
Atisbo;Oyada Ward;;Ajebandele Primary Health Centre;;;;;
Atisbo;Oyada Ward;;Adeola Memorial Clinic;;;;;
Atisbo;Oyada Ward;;Atebe Primary Health Centre;;;;;
Egbeda;Alakia Ward;;Olunife  Hospital;;;;;
Egbeda;Alakia Ward;;Welfare Hospital;;;;;
Egbeda;Alakia Ward;;Oke Eri Hospital;;;;;
Egbeda;Alakia Ward;;Timilehin Hospital;;;;;
Egbeda;Alakia Ward;;Olode Primary Health Centre;;;;;
Egbeda;Alakia Ward;;Alakia Model Comprehensive Health Centre;;;;;
Egbeda;Alakia Ward;;Strong Tower Hospital;;;;;
Egbeda;Alakia Ward;;Peace Foundation Hospital;;;;;
Egbeda;Alakia Ward;;Power Medical Centre;;;;;
Egbeda;Ayede Ward ;;Ayede Health Post;;;;;
Egbeda;Egbeda Ward;;Kajorepo Primary Health Centre;;;;;
Egbeda;Egbeda Ward;;Aged and Widow Mini Clinic;;;;;
Egbeda;Egbeda Ward;;St. Dominic Hospital;;;;;
Egbeda;Erunmu Ward;;Erunmu model Primary Health Centre;;;;;
Egbeda;Erunmu Ward;;Atari Primary Health Centre;;;;;
Egbeda;Monatan Ward ;;Divine Victory Medical Centre;;;;;
Egbeda;Monatan Ward ;;Academy  Hospital;;;;;
Egbeda;Monatan Ward ;;Apete Primary Health Centre;;;;;
Egbeda;Monatan Ward ;;Adogba Primary Health Centre;;;;;
Egbeda;Monatan Ward ;;Mercy Land Hospital;;;;;
Egbeda;Monatan Ward ;;In His Grace Hospital;;;;;
Egbeda;Monatan Ward ;;Ogo Oluwa Hospital;;;;;
Egbeda;Monatan Ward ;;Asvon Hospital;;;;;
Egbeda;Olodo Ward;;Kute Primary Health Centre;;;;;
Egbeda;Olodo Ward;;Ikumapayi Primary Health Centre;;;;;
Egbeda;Olodo Ward;;Pagun Primary Health Centre;;;;;
Egbeda;Olodo Ward;;Odan Eleekan Health Centre;;;;;
Egbeda;Olodo Ward;;Olodo Primary Health Centre;;;;;
Egbeda;Olubadan Ward;;Ezaddia Hospital;;;;;
Egbeda;Olubadan Ward;;Saving Health Hospital;;;;;
Egbeda;Olubadan Ward;;Oremeji Tuberculosis and Leprocy;;;;;
Egbeda;Olubadan Ward;;Alhayu Hospital;;;;;
Egbeda;Olubadan Ward;;Ife Olu Hospital;;;;;
Egbeda;Olubadan Ward;;Divine Specialist Hospital;;;;;
Egbeda;Olubadan Ward;;Toun Hospital;;;;;
Egbeda;Olubadan Ward;;Aanu Oluwapo Hospital;;;;;
Egbeda;Olubadan Ward;;Oremeji Primary Health Centre;;;;;
Egbeda;Olubadan Ward;;Eni Ayo Clinic;;;;;
Egbeda;Olubadan Ward;;Remi Babalola  Clinic;;;;;
Egbeda;Osegere Ward;;Awaye Primary Health Centre;;;;;
Egbeda;Osegere Ward;;Asejire Primary Health Centre;;;;;
Egbeda;Osegere Ward;;Osegere Health Clinic;;;;;
Egbeda;Owobale Ward;;Kasumu Ajia General Hospital;;;;;
Egbeda;Owobale Ward;;Owobale Primary Health Centre;;;;;
Egbeda;Wakajaiye Ward;;Ibilade Memorial Hospital;;;;;
Egbeda;Wakajaiye Ward;;Goshen Clinic;;;;;
Egbeda;Wakajaiye Ward;;Ikhlas Hospital;;;;;
Egbeda;Wakajaiye Ward;;Oloya Primary Health Centre;;;;;
Egbeda;Wakajaiye Ward;;Iyanu Hospital;;;;;
Egbeda;Wakajaiye Ward;;Divine Favour Hospital;;;;;
Egbeda;Wakajaiye Ward;;Wakajaye Primary Health Centre;;;;;
Egbeda;Wakajaiye Ward;;St Bithians Hospital;;;;;
Ibadan North East;Agugu ward;;Ayekale Primary Health Centre;;;;;
Ibadan North East;Agugu ward;;Agugu Central Hospital;;;;;
Ibadan North East;Agugu ward;;Idera Oluwa Health Centre;;;;;
Ibadan North East;Agugu ward;;Omosebi Hospital;;;;;
Ibadan North East;Agugu ward;;Bemel Medical Center;;;;;
Ibadan North East;Agugu ward;;Lagelu Youth Friendly Clinic;;;;;
Ibadan North East;Agugu ward;;Agugu Health Post;;;;;
Ibadan North East;Agugu ward;;Lagelu Ilupeju  Health Centre;;;;;
Ibadan North East;Agugu ward;;Temi Bola Hospital;;;;;
Ibadan North East;Ajobo ward;;Bembo Hospital;;;;;
Ibadan North East;Ajobo ward;;Ajobo Health Centre;;;;;
Ibadan North East;Ajobo ward;;Peace Way Maternity Centre;;;;;
Ibadan North East;Alafara Ward;;Alafara Tuberculusis And Leprosy;;;;;
Ibadan North East;Alafara Ward;;Alafara Primary Health Centre;;;;;
Ibadan North East;Aperin Ward;;Omowumi Primary Health Centre;;;;;
Ibadan North East;Aperin Ward;;Koloko Health Centre;;;;;
Ibadan North East;Aperin Ward;;Aremo General Hospital;;;;;
Ibadan North East;Aperin Ward;;Aremo Primary  Health Centre;;;;;
Ibadan North East;Aperin Ward;;Iyanu Ayo Clinic and Maternity;;;;;
Ibadan North East;Atipe Ward;;Khalifat Clinic;;;;;
Ibadan North East;Basorun Ward;;Oluyoro Catholic Hospital;;;;;
Ibadan North East;Basorun Ward;;Iwo Road Tuberculusis Leprosy Clinic;;;;;
Ibadan North East;Basorun Ward;;Skyline Specialist Hospital;;;;;
Ibadan North East;Basorun Ward;;Elyol Specialist Hospital;;;;;
Ibadan North East;Basorun Ward;;Police Medical Centre;;;;;
Ibadan North East;Basorun Ward;;Macedonia Hospital;;;;;
Ibadan North East;Basorun Ward;;Kola Adekola Hospital;;;;;
Ibadan North East;Basorun Ward;;Tofunmi Hospital;;;;;
Ibadan North East;Basorun Ward;;Manna Medical Centre;;;;;
Ibadan North East;Basorun Ward;;Molly Medical Hospital;;;;;
Ibadan North East;Basorun Ward;;Omowumi Medical Centre;;;;;
Ibadan North East;Basorun Ward;;Broadcasting Coporation Oyo State;;;;;
Ibadan North East;Basorun Ward;;Akeke Primary Health Centre;;;;;
Ibadan North East;Basorun Ward;;Aged and Widow Mini-Clinic;;;;;
Ibadan North East;Basorun Ward;;Iwo Road Primary Health Centre;;;;;
Ibadan North East;Basorun Ward;;Ibadan City Hospital;;;;;
Ibadan North East;Irefin Ward;;Jobi Memorial  Hospital;;;;;
Ibadan North East;Irefin Ward;;Ola Oluwa Medical Centre;;;;;
Ibadan North East;Irefin Ward;;Irefin Babasale Health Post;;;;;
Ibadan North East;Odo Aje Ward;;St. Mary Health Centre;;;;;
Ibadan North East;Odo Aje Ward;;Ode-Aje  Primary Health Centre;;;;;
Ibadan North East;Odo Osun Ward;;Odo-Osun  Health Post;;;;;
Ibadan North East;Oje Ward;;Oje Primary Health Centre;;;;;
Ibadan North East;Oke Adu ward;;Ti Oluwani Hospital;;;;;
Ibadan North East;Oke Adu ward;;Ibadan Central Hospital;;;;;
Ibadan North East;Oke Adu ward;;Alawaye Hospital;;;;;
Ibadan North East;Oke Adu ward;;Oke'badan Primary  Health Centre;;;;;
Ibadan North East;Oke Adu ward;;Oke-Adu Primary Health Centre;;;;;
Ibadan North; Ago Tapa Ward;;Group Medical Clinic;;;;;
Ibadan North; Ago Tapa Ward;;Mokola Primary Health Center;;;;;
Ibadan North;Agbowo Ward;;Doctor'Poly Clinic;;;;;
Ibadan North;Agbowo Ward;;Hamdala Hospital;;;;;
Ibadan North;Agbowo Ward;;Barika Primary Health Centre;;;;;
Ibadan North;Agbowo Ward;;Bodija Primary Health Centre;;;;;
Ibadan North;Agbowo Ward;;Hosanna Specialist;;;;;
Ibadan North;Agbowo Ward;;Agbowo Primary Health Centre;;;;;
Ibadan North;Agodi Ward;;Comfort Medical Centre;;;;;
Ibadan North;Agodi Ward;;Ibadan North Staff Clinic;;;;;
Ibadan North;Agodi Ward;;Idi-Ogungun Primary Health Centre;;;;;
Ibadan North;Agodi Ward;;Access Basic Medical Foundation;;;;;
Ibadan North;Agodi Ward;;Idera De Primary Health Centre;;;;;
Ibadan North;Agodi Ward;;Widow / Aged Clinic;;;;;
Ibadan North;Basorun Ward ;;Basorun Primary Health Centre;;;;;
Ibadan North;Basorun Ward ;;Glory Tabernacle Clinic;;;;;
Ibadan North;Basorun Ward ;;Association for Rep Family Health;;;;;
Ibadan North;Basorun Ward ;;Ashi Health Post;;;;;
Ibadan North;Bodija  Ward;;Obasa Primary Health center;;;;;
Ibadan North;Bodija  Ward;;  Secretariat Staff Clinic;;;;;
Ibadan North;Bodija  Ward;;MAK Clinic;;;;;
Ibadan North;Bodija  Ward;;J-Rapha Maternity and Hospital;;;;;
Ibadan North;Bodija  Ward;;University College Hospital;;;;;
Ibadan North;Bodija  Ward;;Redeemer Health Clinic;;;;;
Ibadan North;Oke Are Ward;;Oke Are Primary Health Centre;;;;;
Ibadan North;Oke Itunu Ward;;Oke Itunu Primary Health Centre;;;;;
Ibadan North;Oke Itunu Ward;;Badejoko Memorial Hospital;;;;;
Ibadan North;Oke Itunu Ward;;Foremost Base  Hospital;;;;;
Ibadan North;Oke Itunu Ward;;St Christopher Hospital;;;;;
Ibadan North;Oke Itunu Ward;;Anuoluwapo Hospital;;;;;
Ibadan North;Sabo Ward;;Sabo Primary Health Centre;;;;;
Ibadan North;Sango /Ward;;Jubilee Clinic Trade Fair Complex;;;;;
Ibadan North;Sango /Ward;;Ibadan University Health Service Clinic Jaja;;;;;
Ibadan North;Sango /Ward;;Sango  Primary Health Centre;;;;;
Ibadan North;Sango /Ward;;Polytechnic Clinic;;;;;
Ibadan North;Sango /Ward;;Mercy Land Hospital;;;;;
Ibadan North;Sango /Ward;;Samonda Primary Health Centre;;;;;
Ibadan North;Sango /Ward;;Ayofunmi Hospital and Maternity;;;;;
Ibadan North;Yemetu Ward;;Adeoyo Teaching  Hospital;;;;;
Ibadan North;Yemetu Ward;;Gold Cross Medical Centre;;;;;
Ibadan North;Yemetu Ward;;Kola Daisi Foundation clinic;;;;;
Ibadan North;Yemetu Ward;;Vine Branch Medical;;;;;
Ibadan North;Yemetu Ward;;Aggrey Hospital;;;;;
Ibadan North;Yemetu Ward;;God's Maternity & Child Welfare Clinic;;;;;
Ibadan North;Yemetu Ward;;High Land Specialist Hospital;;;;;
Ibadan North;Yemetu Ward;;Inland Hospital;;;;;
Ibadan North West;Abebi Ward;;Naomi Medical Centre;;;;;
Ibadan North West;Afonta Ward;;Aged and Widow Clinic;;;;;
Ibadan North West;Afonta Ward;;Nigeria Railways Clinic;;;;;
Ibadan North West;Afonta Ward;;Jericho Nursing Home;;;;;
Ibadan North West;Afonta Ward;;Onireke Health Clinic;;;;;
Ibadan North West;Ayeye Ward;;Ayeye Primary Health Centre;;;;;
Ibadan North West;Ekotedo Ward;;Alafia Hospital;;;;;
Ibadan North West;Ekotedo Ward;;Christus Hospital;;;;;
Ibadan North West;Ekotedo Ward;;Oganla Iware Primary Health Centre;;;;;
Ibadan North West;Ekotedo Ward;;Adeoye Memorial Specialist Hospital;;;;;
Ibadan North West;Ekotedo Ward;;Mokola Army Barrack Clinic;;;;;
Ibadan North West;Ekotedo Ward;;Ogunpa Primary Health Centre;;;;;
Ibadan North West;Ekotedo Ward;;St Martinas Hospit;;;;;
Ibadan North West;Ekotedo Ward;;QueenSpecialist Hospital;;;;;
Ibadan North West;Ekotedo Ward;;Best Care Hospital;;;;;
Ibadan North West;Eleyele Ward;;School of Nursing Eleyele;;;;;
Ibadan North West;Eleyele Ward;;Police Hospital;;;;;
Ibadan North West;Eleyele Ward;;Eleyele Central Hospital;;;;;
Ibadan North West;Eleyele Ward;;Eleyele Primary Health Center;;;;;
Ibadan North West;Eleyele Ward;;Unity Medical Primary Health center;;;;;
Ibadan North West;Eleyele Ward;;School of Hygiene Eleyele;;;;;
Ibadan North West;Eleyele Ward;;Pauline Canadian Hospital;;;;;
Ibadan North West;Idikan/Ori Eru Ward;;University of Ibadan Clinic;;;;;
Ibadan North West;Nalende Ward;;Oniyanrin Comprehensive Health Centre;;;;;
Ibadan North West;Nalende Ward;;Tony Hospital;;;;;
Ibadan North West;Nalende Ward;;Success Medical Centre;;;;;
Ibadan North West;Olopomewa Ward;;Grace Hosp.Arometa;;;;;
Ibadan North West;Olopomewa Ward;;Koseunti Primary Health Centre;;;;;
Ibadan North West;Olopomewa Ward;;Sheperd Hospital;;;;;
Ibadan North West;Olopomewa Ward;;Victory Medical Centre;;;;;
Ibadan North West;Olopomewa Ward;;Lilly Hospital;;;;;
Ibadan North West;Olopomewa Ward;;Beloved Memorial Hospital;;;;;
Ibadan North West;Olopomewa Ward;;Funminiyi Child and Welfere Hospital;;;;;
Ibadan North West;Olorisaoko Ward;;Holy Ghost & Infant Welfare Clinic;;;;;
Ibadan North West;Opoyeosa Ward 2;;Origbegi Health Centre;;;;;
Ibadan North West;Oritamerin ward;;Bolatife Maternity and Child Welfare Clinic;;;;;
Ibadan North West;Oritamerin ward;;Ori-Eru Primary Health Centre;;;;;
Ibadan South East;Agbongbon Ward;;Agbongbon Pimary Health Centre;;;;;
Ibadan South East;Agbongbon Ward;;Lanioka Health Center;;;;;
Ibadan South East;Aperin Ward;;Oritaperin Health Centre;;;;;
Ibadan South East;Challenge Ward;;Intercontinental Hospital;;;;;
Ibadan South East;Challenge Ward;;Royal Emaculate Hospital;;;;;
Ibadan South East;Challenge Ward;;Balaro Primary Health Centre;;;;;
Ibadan South East;Challenge Ward;;Felele Health Post, Felele;;;;;
Ibadan South East;Challenge Ward;;Orita Challenge Primary Health Center;;;;;
Ibadan South East;Challenge Ward;;Precious Life Convalescent and Maternity Home;;;;;
Ibadan South East;Elekuro Ward;;Awoye Ajike Clinic and Maternity Centre;;;;;
Ibadan South East;Elekuro Ward;;Elekuro Health Centre;;;;;
Ibadan South East;Elekuro Ward;;Adegoke Clinic and Maternity;;;;;
Ibadan South East;Mapo Ward ;;Mapo Primary Health Centre;;;;;
Ibadan South East;Molete Ward ;;Boluwaji Primary Health Centre;;;;;
Ibadan South East;Molete Ward ;;Oreofe maternity;;;;;
Ibadan South East;Molete Ward ;;Eyin Gramer Primary Health Center;;;;;
Ibadan South East;Molete Ward ;;Molas Clinic;;;;;
Ibadan South East;Molete Ward ;;Molete Primary Health Centre;;;;;
Ibadan South East;Molete Ward ;;Gladys Hill Hospitals;;;;;
Ibadan South East;Odinjo Ward;;Odinjo Primary Health Centre;;;;;
Ibadan South East;Oja Oba Ward;;Temilade Hospital;;;;;
Ibadan South East;Oja Oba Ward;;Omiyale Health Post;;;;;
Ibadan South East;Oranyan Ward;;Living Grace Hospital;;;;;
Ibadan South East;Oranyan Ward;;Oranmiyan Primary Health Centre;;;;;
Ibadan South East;Owode Ward;;St Mary Catholic General Hospital;;;;;
Ibadan South East;Owode Ward;;Abiyelomo Clinic;;;;;
Ibadan South East;Owode Ward;;Iyana Court Health Centre;;;;;
Ibadan South East;Owode Ward;;Molisa Hospital and Maternity;;;;;
Ibadan South East;Owode Ward;;Praise Clinic & Maternity;;;;;
Ibadan South East;Owode Ward;;Abdullah Medical Centre;;;;;
Ibadan South East;Owode Ward;;New Day Hospital;;;;;
Ibadan South East;Owode Ward;;Beloved Maternity and Child Welfare Clinic;;;;;
Ibadan South East;Owode Ward;;God Power Maternity Home;;;;;
Ibadan South East;Owode Ward;;Owode Health Centre;;;;;
Ibadan South West;Agbokojo Ward;;St Lucia Hospital;;;;;
Ibadan South West;Aleshinloye Ward;;Jericho General Hospital;;;;;
Ibadan South West;Aleshinloye Ward;;Oke Bola Health Centre;;;;;
Ibadan South West;Aleshinloye Ward;;Alesinloye Primary Health Centre;;;;;
Ibadan South West;Aleshinloye Ward;;Jericho Chest Hospital;;;;;
Ibadan South West;Amule/Atere Ward;;Foko Primary Health Centre;;;;;
Ibadan South West;Apata/Odo Ona Ward;;Odo Ona Primary Health Center;;;;;
Ibadan South West;Apata/Odo Ona Ward;;Oke Ayo Primary Health Center;;;;;
Ibadan South West;Apata/Odo Ona Ward;;Adifase Primary  Health Centre;;;;;
Ibadan South West;Apata/Odo Ona Ward;;Government College Ibadan Primary Health Center;;;;;
Ibadan South West;Apata/Odo Ona Ward;;Maternal Child Health Center Apata;;;;;
Ibadan South West;Apata/Odo Ona Ward;;Tuberculusis and Leprosy Clinc;;;;;
Ibadan South West;Challenge Ward;;Awodife Primary Health Centre;;;;;
Ibadan South West;Challenge Ward;;Elewura Primary  Health Centre;;;;;
Ibadan South West;Challenge Ward;;Kings Hospital and Maternity Center;;;;;
Ibadan South West;Challenge Ward;;Ring Road State Hospital;;;;;
Ibadan South West;Challenge Ward;;The Vine Hospital;;;;;
Ibadan South West;Challenge Ward;;Zenith Care Hospital;;;;;
Ibadan South West;Challenge Ward;;Widow & Aged Clinic;;;;;
Ibadan South West;Challenge Ward;;Metropolitan Specialist Hospital;;;;;
Ibadan South West;Challenge Ward;;Lanark Specialist Hospital;;;;;
Ibadan South West;Challenge Ward;;Oluyole Primary Health Clinic;;;;;
Ibadan South West;Challenge Ward;;Oni Memorial Children Hospital;;;;;
Ibadan South West;Challenge Ward;;Monatan Medical Center;;;;;
Ibadan South West;Challenge Ward;;Zoe Missionary  Hospital;;;;;
Ibadan South West;Challenge Ward;;St Annes Anglican Hospital;;;;;
Ibadan South West;Challenge Ward;;Chris Way Clinic;;;;;
Ibadan South West;Challenge Ward;;Estate Health Clinic;;;;;
Ibadan South West;Challenge Ward;;Teju Specialist Hospital;;;;;
Ibadan South West;Challenge Ward;;Heritage Comprehensive Hospital;;;;;
Ibadan South West;Foko/Ologede Ward;;Akuro Primary  Health Centre;;;;;
Ibadan South West;Isale- Osi/ Oja-Oba Ward;;Isale Osi Primary Health Centre;;;;;
Ibadan South West;Ita Aregbe Omo Ward;;Kososi Primary Health Centre;;;;;
Ibadan South West;Molete Ward;;Molete Medical Centre;;;;;
Ibadan South West;Molete Ward;;The Horizon Hospital;;;;;
Ibadan South West;Molete Ward;;Molete  TBL Clinic;;;;;
Ibadan South West;Molete Ward;;Molete Primary Health Centre;;;;;
Ibadan South West;Molete Ward;;Immaculate Hospital;;;;;
Ibadan South West;Oke Ado/Liberty Ward;;Ibadan Central Hospital;;;;;
Ibadan South West;Oke Ado/Liberty Ward;;Sharp Corner Clinic and Maternity;;;;;
Ibadan South West;Oke Ado/Liberty Ward;;Oke-Ado Hospital;;;;;
Ibadan South West;Oke Ado/Liberty Ward;;Premier Hospital;;;;;
Ibadan South West;Oke Ado/Liberty Ward;;JVM Hospital;;;;;
Ibadan South West;Oritamerin Ward;;Akere Primary Health Centre;;;;;
Ibadan South West;Popoyemoja Ward;;Bode Primary Health Centre;;;;;
Ibadan South West;Popoyemoja Ward;;Boluwatife Maternity and Child Welfare Clinic;;;;;
Ibarapa Central;Idere Ward;;Idere Primary Health Centre;;;;;
Ibarapa Central;Idofin Ward;; IdofinTuberculusis Leprosy Clinic;;;;;
Ibarapa Central;Idofin Ward;;Oke-Agogo Health Centre;;;;;
Ibarapa Central;Idofin Ward;; Women and Widow  Hospital;;;;;
Ibarapa Central;Igbole Ward;;Igbole Primary Health Centre;;;;;
Ibarapa Central;Igbole Ward;;Oyo State College of Agriculture  Health Centre;;;;;
Ibarapa Central;Igbole Ward;;Adura Clinic;;;;;
Ibarapa Central;Igbole Ward;;Pearson Memorial Hospital;;;;;
Ibarapa Central;Igbole Ward;;Anuoluwa Maternity and Child Welfare Clinic;;;;;
Ibarapa Central;Igbole Ward;;Mark Mercy Hospital;;;;;
Ibarapa Central;Isale Oba Ward;;Isale Oba Igbora Primary Health Centre;;;;;
Ibarapa Central;Isale Oba Ward;;Royal Hospital and Maternity;;;;;
Ibarapa Central;Oke Oba Ward;;Idere Model Primary Health Centre;;;;;
Ibarapa Central;Oke Odo Ward;;Oke-Odo Igboora Primary Health Centre;;;;;
Ibarapa Central;Oke Odo Ward;;Idere Health Clinic;;;;;
Ibarapa Central;Oke Serin Ward;;Igboora General Hospital;;;;;
Ibarapa Central;Oke Serin Ward;;Kondo Primary Health Centre;;;;;
Ibarapa Central;Oke Serin Ward;;Ologbon Model Clinic;;;;;
Ibarapa Central;Sekere Ward;;Akeroro Health Center;;;;;
Ibarapa Central;Sekere Ward;;Sekere Health Clinic;;;;;
Ibarapa Central;Tobalopo Ward;;Tobalopo Primary Health Centre;;;;;
Ibarapa Central;Tobalopo Ward;;Origi  Primary Health Centre;;;;;
Ibarapa East;Anko Eruwa Ward;;Anko Eruwa Primary Health Centre;;;;;
Ibarapa East;Anko Eruwa Ward;;Anko Healh Clinic;;;;;
Ibarapa East;Isa Isaba Ward;;Isa Isaba Health Clinic;;;;;
Ibarapa East;Isa Isaba Ward;;Temidire Primary Health Centre;;;;;
Ibarapa East;Itabo Ward;;Alapa Primary Health Centre;;;;;
Ibarapa East;Itabo Ward;;Itabo Lanlate Family Support Program Clinic;;;;;
Ibarapa East;Itabo Ward;;Igbodudu Health Centre;;;;;
Ibarapa East;Itabo Ward;;Itabo Health Centre;;;;;
Ibarapa East;Lanlate Ward;;Lanlate Health Centre;;;;;
Ibarapa East;Lanlate Ward;;Lanlate General Hospital;;;;;
Ibarapa East;Lanlate Ward;;Oke imale PHC;;;;;
Ibarapa East;Lanlate Ward;; Pathfinder Medical Center;;;;;
Ibarapa East;Maya Ward;;Maya Primary Health Centre;;;;;
Ibarapa East;New Eruwa Ward;;New Eruwa Primary Health Centre;;;;;
Ibarapa East;New Eruwa Ward;;New Eruwa Health Centre;;;;;
Ibarapa East;Oke Oba Ward;;Oke-Oba Eruwa Primary Health Centre;;;;;
Ibarapa East;Oke Oba Ward;;Afuye/Ijesa Model Health Center;;;;;
Ibarapa East;Oke Ola Ward;;Oke-Ola Eruwa Primary Health Centre;;;;;
Ibarapa East;Oke Ola Ward;;Aged and Widow Clinic;;;;;
Ibarapa East;Oke Ola Ward;;Poly Clinc;;;;;
Ibarapa East;Okolo Ward;;Okolo Health Centre;;;;;
Ibarapa East;Okolo Ward;;Eruwa General Hospital;;;;;
Ibarapa East;Owode/Lanlate Ward;;Owode  Primary Health Centre;;;;;
Ibarapa North;Ayete 1 Ward;;Ayete General Hospital;;;;;
Ibarapa North;Ayete 2 Ward;; Widow Clinic Ayete;;;;;
Ibarapa North;Ayete 2 Ward;;Ayete Primary  Health Centre;;;;;
Ibarapa North;Ayete 2 Ward;;Ayete Dispensary Clinic;;;;;
Ibarapa North;Igangan 2 Ward;;Six Bed Hospital;;;;;
Ibarapa North;Igangan 3 Ward;;Igangan Oke Ola Primary Health Centre;;;;;
Ibarapa North;Igangan 3 Ward;;Idi Ope MDG Primary Health Centre;;;;;
Ibarapa North;Ofiki 2 Ward;;Asunrara Maternity Home;;;;;
Ibarapa North;Ofiki 2 Ward;;Akoya Primary Health Centre;;;;;
Ibarapa North;Ofiki 2 Ward;;Idiyan  Primary Health Centre;;;;;
Ibarapa North;Ofiki 2 Ward;;Abidioki Primary Health Center;;;;;
Ibarapa North;Ofiki1 Ward;;Alabi Primary Health Centre;;;;;
Ibarapa North;Ofiki1 Ward;;Kajola Maternity Home;;;;;
Ibarapa North;Tapa 1 ward;;Tapa Tuberculusis and Leprocy Clinic;;;;;
Ibarapa North;Tapa 1 ward;;Tapa Primary Health  Centre;;;;;
Ibarapa North;Tapa 2 Ward;;Tapa Six Bed Hospital;;;;;
Ido;Akinware/Akindele Ward;;Akinware Health Centre;;;;;
Ido;Akinware/Akindele Ward;;Olaitan Maternity;;;;;
Ido;Akinware/Akindele Ward;;Onigbinde Health Centre;;;;;
Ido;Akufo  Ward;;Akufo Health Centre;;;;;
Ido;Apete/Ologuneru  Ward;;Alwajud Clinic;;;;;
Ido;Apete/Ologuneru  Ward;;Apete Health Centre;;;;;
Ido;Apete/Ologuneru  Ward;;Hope Medical center;;;;;
Ido;Apete/Ologuneru  Ward;;Gods Knot Hospital;;;;;
Ido;Apete/Ologuneru  Ward;;Awotan Comprehensive Health Centre;;;;;
Ido;Apete/Ologuneru  Ward;;Al-Almeed Hospital;;;;;
Ido;Apete/Ologuneru  Ward;;S Modupe Hospital;;;;;
Ido;Apete/Ologuneru  Ward;;Garden of Eden Hospital;;;;;
Ido;Apete/Ologuneru  Ward;;Abraham Hospital;;;;;
Ido;Apete/Ologuneru  Ward;;Royal Health Care Apete;;;;;
Ido;Apete/Ologuneru  Ward;;Ologuneru Health Centre;;;;;
Ido;Batake Idiya Ward;;Ladunni Health Centre;;;;;
Ido;Erinwusi / Koguo Ward;;Odetola Health Post;;;;;
Ido;Erinwusi / Koguo Ward;;Daggi Health Centre;;;;;
Ido;Erinwusi / Koguo Ward;;Koguo Health Post;;;;;
Ido;Gbekuba Ward;;Alada Health centre;;;;;
Ido;Gbekuba Ward;;Gbekuba Health Centre;;;;;
Ido;Gbekuba Ward;;Elenu Sonso Primary Health Centre;;;;;
Ido;Ido/ Odebode Ward;;Ido Primary Health Centre;;;;;
Ido;Ido/ Odebode Ward;;Odebode Health Centre;;;;;
Ido;Ido/ Odebode Ward;;Aged and Widow Clinic;;;;;
Ido;Ido/ Odebode Ward;;Nissi Maternity Home;;;;;
Ido;Ilaju Ward;;Ilaju Health Post;;;;;
Ido;Ogundele Alaho/Siba Ward;;Segun Adeniyi Memorial;;;;;
Ido;Ogundele Alaho/Siba Ward;;Leo Health Centre;;;;;
Ido;Ogundele Alaho/Siba Ward;;Lafia Hospital;;;;;
Ido;Ogundele Alaho/Siba Ward;;Aba Panu Health Clinic;;;;;
Ido;Ogundele Alaho/Siba Ward;;Elebu Primary Health Center;;;;;
Ido;Omi Adio Ward;;Olosun Health Centre;;;;;
Ido;Omi Adio Ward;;Baptist Cottage Hospital;;;;;
Ido;Omi Adio Ward;;Araromi Health Centre;;;;;
Ido;Omi Adio Ward;;Palace Medical Centre;;;;;
Ido;Omi Adio Ward;;Omi-Adio Health Centre;;;;;
Ido;Omi Adio Ward;;Twins Clinic and Maternity;;;;;
Ido;Omi Adio Ward;;Emiloju Maternity and Child Welfare Clinic;;;;;
Ido;Omi Adio Ward;;Alakaso Health centre;;;;;
Irepo; Ajaguna Ward;;Obada Primary Health Centre;;;;;
Irepo; Ajaguna Ward;;Molete Primary Health Centre;;;;;
Irepo; Ajaguna Ward;;Ronke Clinic and Maternity;;;;;
Irepo; Iba IV Ward;;Mapo Primary Health Centre;;;;;
Irepo;Agoro Ward;;Ajangba Primary Health Centre;;;;;
Irepo;Atipa Ward;;Sise Orowo Primary Health Centre;;;;;
Irepo;Atipa Ward;;Welewele  Primary Health Centre;;;;;
Irepo;Atipa Ward;;Atipa Primary Health Centre;;;;;
Irepo;Iba 1 Ward;;Agede Primary Health Centre;;;;;
Irepo;Iba 1 Ward;;Awe Primary Health Centre;;;;;
Irepo;Iba 1 Ward;;El keedam Clinic and Maternity;;;;;
Irepo;Iba II Ward;;Olorunsogo Model Primary Health  Center;;;;;
Irepo;Iba V Ward;;Muslim Hospital Kisi;;;;;
Irepo;Iba V Ward;;Kisi General Hospital;;;;;
Irepo;Iba V Ward;;Tege Primary Health Centre;;;;;
Irepo;Ikolaba Ward;;Gaa Jooro Primary Health Centre;;;;;
Irepo;Ikolaba Ward;;Adagbangba Primary Health Centre;;;;;
Irepo;Koso Iba III  Ward;;Koso Primary Health Centre;;;;;
Irepo;Koso Iba III  Ward;;Alafiatayo Maternity and Child Welfare Clinic;;;;;
Irepo;Laha/Ajana Ward;;Soroo Primary Health Centre;;;;;
Irepo;Laha/Ajana Ward;;Opeolu Maternity Home;;;;;
Irepo;Laha/Ajana Ward;;Laha/Ajana Millenium Development Goal Primary Health Centre;;;;;
Irepo;Laha/Ajana Ward;;Ejire Maternity and Child Welfare Clinic;;;;;
Irepo;Laha/Ajana Ward;;Budo Olaniyan Primary Health Centre;;;;;
Iseyin;Ado Awaye Ward;;Ado Awaye Primary Health Care Centre;;;;;
Iseyin;Ado Awaye Ward;;Odo Ogun Health Post;;;;;
Iseyin;Ado Awaye Ward;;Ado-Awaye EEC General Hospital;;;;;
Iseyin;Akinwumi/Osoogun Ward;;Ogboolasa Health Clinic;;;;;
Iseyin;Akinwumi/Osoogun Ward;;Akinwumi Health Clinic;;;;;
Iseyin;Akinwumi/Osoogun Ward;;Osoogun Primary Health Care Centre;;;;;
Iseyin;Ekunle 1 Ward;;Oreofe Jesu Maternity and Child Welfare;;;;;
Iseyin;Ekunle 1 Ward;;Hope Rising Hospital;;;;;
Iseyin;Ekunle 1 Ward;;Ebedi Health  Post;;;;;
Iseyin;Ekunle 1 Ward;;MDG Health Clinic Ode Oba;;;;;
Iseyin;Ekunle 1 Ward;;General Hospital Iseyin;;;;;
Iseyin;Ekunle 1 Ward;;Elegede FSP Primary Health Care Centre;;;;;
Iseyin;Ekunle 1 Ward;;Ode Oba Aged and Widow Clinic;;;;;
Iseyin;Ekunle 1 Ward;;Fadoks Hospital;;;;;
Iseyin;Ekunle 1 Ward;;Ode Oba Primary  Health Care Center;;;;;
Iseyin;Ekunle 11 Ward;;Ekunle Primary Health Care  Center;;;;;
Iseyin;Ekunle 11 Ward;;Blessed Meternity Home and Clinic;;;;;
Iseyin;Ekunle 11 Ward;;Aba Serafu Model Primary Health Care Centre;;;;;
Iseyin;Ekunle 11 Ward;;Apenpe Primary Health Clinic;;;;;
Iseyin;Faramora Ward 5;;Faramora Primary Health Care Centre;;;;;
Iseyin;Faramora Ward 5;;Mahjubah Maternity Home and Clinic;;;;;
Iseyin;Faramora Ward 5;;Gbokoyi Health Clinic;;;;;
Iseyin;Isalu 2 Ward 8;;Isalu Primary Health Care Centre;;;;;
Iseyin;Isalu 2 Ward 8;;Agbejemate Convalescent Hospital;;;;;
Iseyin;Isalu 2 Ward 8;;Isalu Tuberculusis and Leprosy Clinic;;;;;
Iseyin;Isalu 2 Ward 8;;Alayin  Health Clinic;;;;;
Iseyin;Isalu Ward 7;;Our Lady Catholic Hospital;;;;;
Iseyin;Isalu Ward 7;;Ogo Oluwa Maternity Home and Clinic;;;;;
Iseyin;Isalu Ward 7;;Ashifau- Lhaq Clinic;;;;;
Iseyin;Isalu Ward 7;;El -Shaddai Maternity and Child Wellfare;;;;;
Iseyin;Isalu Ward 7;;Anwarul Islam Hospital;;;;;
Iseyin;Isalu Ward 7;;Otiri Health Clinic;;;;;
Iseyin;Koso 1 Ward;;Asiawu Adesina Memorial Hospital;;;;;
Iseyin;Koso 1 Ward;;Acess Basic Clinic;;;;;
Iseyin;Koso 1 Ward;;Ifelajulo Primary Health Care Centre;;;;;
Iseyin;Koso 1 Ward;;Hollyland Hospital;;;;;
Iseyin;Koso 1 Ward;;Koso Primary Health Care Centre;;;;;
Iseyin;Koso 11 Ward 10;;Alanuni Oluwa Maternity Home and Clinic;;;;;
Iseyin;Koso 11 Ward 10;;Ojeke Health Clinic;;;;;
Iseyin;Koso 11 Ward 10;;Funmi Yem Welfare Clinic;;;;;
Iseyin;Koso 11 Ward 10;;Ilado Primary Health Care Centre;;;;;
Iseyin;Koso 11 Ward 10;;Ogundele Memorial Hospital;;;;;
Iseyin;Koso 11 Ward 10;;Gbemi Well Maternity Home;;;;;
Iseyin;Ladogan Ward 11;;Olugbade Primary Health Care Centre;;;;;
Iseyin;Ladogan Ward 11;;Alebiosu Maternity and Child Wellfare Clinic;;;;;
Iseyin;Ladogan Ward 11;;Awidere Maternity Home;;;;;
Iseyin;Ladogan Ward 11;;As Salam Maternity Home & Clinic;;;;;
Iseyin;Ladogan Ward 11;;Anu Oluwapo Maternity Home;;;;;
Iseyin;Ladogan Ward 11;;Ladogan Primary Health Care Centre;;;;;
Iseyin;Ladogan Ward 11;;Faith Foundation Hospital;;;;;
Iseyin;Oke Ola/Oke Oja Ward;;Ayesebotan Maternity and Child Welfare Clinic;;;;;
Iseyin;Oke Ola/Oke Oja Ward;;Oke Ola Primary Health Care Centre;;;;;
Itesiwaju;Babande Ward;;Babaode Primary Health Centre;;;;;
Itesiwaju;Igbojaye Ward;;Rogal Fulani Primary Health Centre;;;;;
Itesiwaju;Igbojaye Ward;;Igbojaye Primary Health Centre;;;;;
Itesiwaju;Ilesan Otu  Ward;;Praise Medical Center;;;;;
Itesiwaju;Ilesan Otu  Ward;;Ilesan Otu aged and widow clinic;;;;;
Itesiwaju;Ilesan Otu  Ward;;Otu Tuberculosis Leprosy Clinic;;;;;
Itesiwaju;Ilesan Otu  Ward;;Otu ilesan Comprehensive Health Centre;;;;;
Itesiwaju;Ipapo Ward;;Ipapo Comprehensive Health Centre;;;;;
Itesiwaju;Komu  Ward;; Komu Health Centre;;;;;
Itesiwaju;Komu  Ward;; Komu Primary Health Centre;;;;;
Itesiwaju;Komu  Ward;;Adegbodu Komu Primary Health Centre;;;;;
Itesiwaju;Okaka 2 Ward;;Opoo Okaka Health Center;;;;;
Itesiwaju;Okaka 2 Ward;;Okaka Primary Health Centre;;;;;
Itesiwaju;Okaka 2 Ward;;Okaka  General Hospital;;;;;
Itesiwaju;Oke Amu Ward;;Oke-Amu Primary Health Centre;;;;;
Itesiwaju;Oke Amu Ward;;Oke Amu Comrehensive Health Centre;;;;;
Itesiwaju;Owode Ipapo Ward;;Owode Primary Health Centre;;;;;
Itesiwaju;Owode Ipapo Ward;;Temidire Health Centre;;;;;
Itesiwaju;Owode Ipapo Ward;;Ifelodun Primary Health Centre;;;;;
Iwajowa;Ayegun Ward;;Ayegun Health Centre;;;;;
Iwajowa;Ayegun Ward;;Ijio Primary  Health Centre;;;;;
Iwajowa;Elekokan Ward;;Olokunola Health Centre;;;;;
Iwajowa;Elekokan Ward;;Karimu Health Centre;;;;;
Iwajowa;Elekokan Ward;;Abule Tapa Health Clinic;;;;;
Iwajowa;Elekokan Ward;;Elekokan Primary  Health Centre;;;;;
Iwajowa;Idiko Ago Ward;;Budo Musa Primary Health Centre;;;;;
Iwajowa;Idiko Ago Ward;;Idiko Ago Primary  Health Centre;;;;;
Iwajowa;Idiko Ago Ward;;Itasa Primary Health Centre;;;;;
Iwajowa;Idiko Ile Ward;;Idiko Ile Primary  Health Centre;;;;;
Iwajowa;Idiko Ile Ward;;Ilaji Ile Primary  Health Centre;;;;;
Iwajowa;Iwere Ile 2 Ward;;Iwere Ile Model Primary Health Centre;;;;;
Iwajowa;Iwere Ile 2 Ward;;Iwere Ile Widow and Aged Clinic;;;;;
Iwajowa;Iwere Ile 2 Ward;;Iwere Ile Dispensary;;;;;
Iwajowa;Iwere Ile 2 Ward;;Iwere-Ile Primary Health Centre;;;;;
Iwajowa;Iwere Ile 2 Ward;;Our Lady Hospital;;;;;
Iwajowa;Iwere Ile 2 Ward;;Iwere Ile General Hospital;;;;;
Iwajowa;Jokolo Ward;;General Hospital Iganna;;;;;
Iwajowa;Jokolo Ward;;Jokolo Health Centre;;;;;
Iwajowa;Ofeegun Ward;;Eleru Health Clinic;;;;;
Iwajowa;Ofeegun Ward;; Iganna Primary Health Centre;;;;;
Iwajowa;Ofeegun Ward;;Oluwatobi Clinic;;;;;
Iwajowa;Ofeegun Ward;;Ofegun Health Centre;;;;;
Iwajowa;Ofeegun Ward;;Iganna Tuberculusis and Leprosy;;;;;
Iwajowa;Ofeegun Ward;;Egbonron Primary Health Center;;;;;
Iwajowa;Sabiganna Ward;;Iganna Staff Clinic ;;;;;
Kajola;Ayetoro Oke Ward;;Ayetoro Oke Primary Health Centre;;;;;
Kajola;Elero Ward;;Elero Maternity Centre;;;;;
Kajola;Gbelekale Ward 3;;gbaji  Ilero Primary Health Centre;;;;;
Kajola;Gbelekale Ward 3;;Idi Ayin Primary Health Care;;;;;
Kajola;Iba Ogan Ward;;Bode primary Health Centre;;;;;
Kajola;Ijo Ward;;Ijo Primary Health Centre;;;;;
Kajola;Ijo Ward;;Ijo Okeho Tuberculusis and Leprosy  Clinic;;;;;
Kajola;Ilaji -Oke/ Iwere Oke Ward;;Ilaji Oke Primary Health Centre;;;;;
Kajola;Imoba/ Oke Ogun Ward;;Ola Oluwa Clinic;;;;;
Kajola;Imoba/ Oke Ogun Ward;;Gbonje Primary Health Centre;;;;;
Kajola;Isemile/Imia/ Ilua Ward 8;;Igbogaa Health Center;;;;;
Kajola;Isemile/Imia/ Ilua Ward 8;;Isemi-ile Primary Health Centre;;;;;
Kajola;Isemile/Imia/ Ilua Ward 8;;Ilua Primary Health Centre;;;;;
Kajola;Isia Ward 9;;Isia Primary  Health Centre;;;;;
Kajola;Isia Ward 9;;Okeho General Hospital;;;;;
Kajola;Isia Ward 9;;Nasfat Medical Centre;;;;;
Kajola;Isia Ward 9;;Aged and Widow Clinic Ijo Okeho;;;;;
Kajola;Isia Ward 9;;Wuraola Hospital;;;;;
Kajola;Isia Ward 9;;Baptist Medical Center Okeho;;;;;
Kajola;Kajola Ward;;Ilero Baptist Medical Centre;;;;;
Kajola;Kajola Ward;;Temitayo Clinic;;;;;
Kajola;Kajola Ward;;Kajola Primary Health Centre;;;;;
Kajola;Olele/ Gbonje Ward;;Titilope Clinic Okeho;;;;;
Kajola;Olele/ Gbonje Ward;;Elewure Primary Health Center;;;;;
Kajola;Olele/ Gbonje Ward;;Oluwatomi Medical Center;;;;;
Lagelu;Ejioku Ward;;Opeyemi Clinic;;;;;
Lagelu;Ejioku Ward;; Air Force Comprehensive School Hospital;;;;;
Lagelu;Ejioku Ward;;Widow and Aged Clinic;;;;;
Lagelu;Ejioku Ward;;Mercy of God Maternity ;;;;;
Lagelu;Ejioku Ward;;Oluwakemi Hospital;;;;;
Lagelu;Ejioku Ward;;Elegbada Primary Health Centre;;;;;
Lagelu;Ejioku Ward;;Health Custodian Foundation Hospital;;;;;
Lagelu;Ejioku Ward;;Ejioku Primary Health Centre;;;;;
Lagelu;Lalupon 1 Ward;;Lalupon Primary Health Centre;;;;;
Lagelu;Lalupon 1 Ward;;Odo Oba Primary Health Centre;;;;;
Lagelu;Lalupon 1 Ward;;Lizzy Clinic and Maternity;;;;;
Lagelu;Lalupon 2 Ward;;Idera Clinic Lalupon;;;;;
Lagelu;Lalupon 2 Ward;;Ife Oluwa Clinic, Lalupon;;;;;
Lagelu;Lalupon 2 Ward;;God of Victory Clinic;;;;;
Lagelu;Lalupon 2 Ward;;Tosin Clinic;;;;;
Lagelu;Lalupon 2 Ward;;Heritage of God Maternity & Wef Clinic;;;;;
Lagelu;Monatan Ward ;;Peace and Grace Hospital;;;;;
Lagelu;Monatan Ward ;;Dominic Hospital;;;;;
Lagelu;Monatan Ward ;;Living Hope Maternity;;;;;
Lagelu;Monatan Ward ;;Abidiodan Primary Health Center;;;;;
Lagelu;Monatan Ward ;;Olajumoke Hospital;;;;;
Lagelu;Monatan Ward ;;Iyana Church Primary Health Centre;;;;;
Lagelu;Monatan Ward ;;Ayokemi Hospital;;;;;
Lagelu;Monatan Ward ;;Beatrice Hospital;;;;;
Lagelu;Monatan Ward ;;Odee Memorial Hospital;;;;;
Lagelu;Monatan Ward ;;Elewi-Odo Primary Health Centre;;;;;
Lagelu;Monatan Ward ;;Calvary Love Medical Centre;;;;;
Lagelu;Monatan Ward ;;Monatan Primary Health Centre;;;;;
Lagelu;Monatan Ward ;;Monatan Central Hospital;;;;;
Lagelu;Monatan Ward ;;His Grace Hospital;;;;;
Lagelu;Offa-Igbo Ward;;Akinsawe Health Centre;;;;;
Lagelu;Offa-Igbo Ward;;Offa Igbo Primary Health Centre;;;;;
Lagelu;Olorunda Ward 1;;Beulah Medical Centre;;;;;
Lagelu;Olorunda Ward 1;;Abijol Hospital;;;;;
Lagelu;Olorunda Ward 1;;Akobo Hospital;;;;;
Lagelu;Olorunda Ward 1;;Kay Kay Specialist Hospital;;;;;
Lagelu;Olorunda Ward 1;;Tolulope maternity centre;;;;;
Lagelu;Olorunda Ward 1;;Chrisbo Medica Center Akobo;;;;;
Lagelu;Olorunda Ward 1;;Adeoti Memorial Hospital;;;;;
Lagelu;Olorunda Ward 1;;Oba Ara Maternity;;;;;
Lagelu;Olorunda Ward 1;;Akobo Naval Air Force Clinic;;;;;
Lagelu;Olorunda Ward 1;;Dorcas Specialist Hospital;;;;;
Lagelu;Olorunda Ward 1;;Royal Crown Specialist;;;;;
Lagelu;Olorunda Ward 1;;Gbaagi Primary Health Centre;;;;;
Lagelu;Olorunda Ward 1;;Hallen Hospital;;;;;
Lagelu;Olorunda Ward 1;;Alegongo Primary Health Centre;;;;;
Lagelu;Olorunda Ward 1;;Emmanuel Alayande Rehabiliation Center;;;;;
Lagelu;Olorunda Ward 1;;Banby Specialist Hospital Monatan;;;;;
Lagelu;Olorunda Ward 2;;Olorunda Primary Health Centre;;;;;
Lagelu;Olorunda Ward 2;;Abudoro Clinic;;;;;
Lagelu;Ore 1 Ward;;Oore Health Center;;;;;
Lagelu;Ore 2  Ward;;Lagun General Hospital;;;;;
Lagelu;Oyedeji  4 Ward;;Sagbe Health Centre;;;;;
Lagelu;Oyedeji  4 Ward;;Kure Primary Health Center;;;;;
Lagelu;Oyedeji  ward 3;;Ogunremi Primary Health Clinic;;;;;
Lagelu;Oyedeji  ward 3;;Olowode Primary Health Clinic;;;;;
Lagelu;Oyedeji  ward 3;;Alape Primary Health Clinic;;;;;
Lagelu;Oyedeji  ward 3;;Fakeye Primary Health Clinics ;;;;;
Lagelu;Oyedeji  ward 3;;Oyedeji Primary Health Centre;;;;;
Lagelu;Oyedeji  ward 3;;Kutayi General Hospital;;;;;
Ogbomosho North;Abogunde Ward;;Baaki Primary Health Centre;;;;;
Ogbomosho North;Abogunde Ward;;Vine maternity Clinic;;;;;
Ogbomosho North;Alasa Ward;;Oluwaseun Clinic;;;;;
Ogbomosho North;Alasa Ward;;Green Life Hospital;;;;;
Ogbomosho North;Alasa Ward;;Damilare Maternity and Child Welfare Clinic;;;;;
Ogbomosho North;Isale Afon Ward;;Providence Hospital;;;;;
Ogbomosho North;Isale Afon Ward;;Emmanuel Hospital;;;;;
Ogbomosho North;Isale Afon Ward;;Florence Hospital;;;;;
Ogbomosho North;Isale Afon Ward;;Ibrahim Taiwo Primary Health Centre;;;;;
Ogbomosho North;Isale Afon Ward;;Isale Afon Primary Health Centre;;;;;
Ogbomosho North;Jagun Ward;;T.B.L Clinic;;;;;
Ogbomosho North;Jagun Ward;;Jagun Primary Health Centre;;;;;
Ogbomosho North;Masifa Ward 2;;Olayonu Medical Centre;;;;;
Ogbomosho North;Masifa Ward 2;;Green Light Welfare and Merternity Centre;;;;;
Ogbomosho North;Masifa Ward 2;;Ayo Alade Memorial Clinic;;;;;
Ogbomosho North;Masifa Ward 2;;Ajoke Hospital;;;;;
Ogbomosho North;Masifa Ward 2;;Ladoke Akintola Katangua Primary Health Centre;;;;;
Ogbomosho North;Masifa Ward 2;;Divine Favour Hospital;;;;;
Ogbomosho North;Masifa Ward 2;;Bethel Medical Centre;;;;;
Ogbomosho North;Masifa Ward 2;;Hammama/ Adun-in Primary Health Centre;;;;;
Ogbomosho North;Masifa Ward 2;;Orilonise Medical Centre;;;;;
Ogbomosho North;Masifa Ward 2;;Gaa Masifa Primary Health Centrre;;;;;
Ogbomosho North;Masifa Ward 2;;Our Saviour Hospital;;;;;
Ogbomosho North;Masifa Ward 2;;Lautech School Clinic;;;;;
Ogbomosho North;Masifa Ward 2;;Masifa Comprehensive Health Centre;;;;;
Ogbomosho North;Masifa Ward 2;;Cornerstone Hospital;;;;;
Ogbomosho North;Okelerin Ward;;Okeelerin Primary Health Centre;;;;;
Ogbomosho North;Osupa Ward 4;;Osupa Health Centre;;;;;
Ogbomosho North;Osupa Ward 4;;Mercy Triumph Hospital;;;;;
Ogbomosho North;Osupa Ward 4;;Mercy Land Clinic and Maternity;;;;;
Ogbomosho North;Osupa Ward 4;;Adebayo Hospital;;;;;
Ogbomosho North;Osupa Ward 4;;Ikose Health Centre;;;;;
Ogbomosho North;Osupa Ward 4;;Faith Medical Centre;;;;;
Ogbomosho North;Osupa Ward 4;;Calvary Lutabolt;;;;;
Ogbomosho North;Osupa Ward 4;;Olatorera Hospital;;;;;
Ogbomosho North;Osupa Ward 4;;Bowen Teaching Hospital;;;;;
Ogbomosho North;Osupa Ward 4;;Aje-Ikose Health Centre;;;;;
Ogbomosho North;Osupa Ward 4;;Ariyo Medical Center;;;;;
Ogbomosho North;Osupa Ward 4;;Aweni Memorial Hospital and Maternity Clinic;;;;;
Ogbomosho North;Osupa Ward 4;;Blind Centre Primary Health Centre;;;;;
Ogbomosho North;Saabo/Taara Ward;;Eri Oluwa Maternity and Child Welfare Clinic;;;;;
Ogbomosho North;Saabo/Taara Ward;;Shalom Medical Centre;;;;;
Ogbomosho North;Saabo/Taara Ward;;Ebunoluwa Hospital;;;;;
Ogbomosho North;Saabo/Taara Ward;;Divine Favour Maternity Center;;;;;
Ogbomosho North;Saabo/Taara Ward;;Jubillee Hospital;;;;;
Ogbomosho North;Saabo/Taara Ward;;Ladoke Akintola Teaching Hospital;;;;;
Ogbomosho North;Saabo/Taara Ward;;Adeola Hospital;;;;;
Ogbomosho North;Saabo/Taara Ward;;Jolaade Clinic and Meternity;;;;;
Ogbomosho North;Saabo/Taara Ward;;Elizabeth Hospital;;;;;
Ogbomosho North;Saabo/Taara Ward;;Ireti Olu Hospital;;;;;
Ogbomosho North;Saabo/Taara Ward;;Sabo Tara Health Centre;;;;;
Ogbomosho North;Saabo/Taara Ward;;Oyenihun Hospital;;;;;
Ogbomosho North;Saabo/Taara Ward;;Temple Hospital;;;;;
Ogbomosho North;Saabo/Taara Ward;;Molete Hospital;;;;;
Ogbomosho North;Saja /IsaleOba  Ward;;Oladeji Hospital;;;;;
Ogbomosho North;Saja /IsaleOba  Ward;;Oluwaponmile Clinic and Maternity;;;;;
Ogbomosho North;Saja /IsaleOba  Ward;;Adebisi Memorial Hospital;;;;;
Ogbomosho North;Saja /IsaleOba  Ward;;Olaoluwa Hospital;;;;;
Ogbomosho South;Akata Ward;;Ona Abayo Hospital;;;;;
Ogbomosho South;Akata Ward;;Anuoluwapo Clinic and Maternity;;;;;
Ogbomosho South;Akata Ward;;Akata Health Post;;;;;
Ogbomosho South;Alapata Ward;;Ogo Oluwa Hospital;;;;;
Ogbomosho South;Alapata Ward;;Kajola Comprehensive Health Centre;;;;;
Ogbomosho South;Alapata Ward;;Laduntan Hospital;;;;;
Ogbomosho South;Alapata Ward;;Ayo Oluwa Hospital;;;;;
Ogbomosho South;Alapata Ward;;Alapata Health Post;;;;;
Ogbomosho South;Alapata Ward;;Titilayo Clinic;;;;;
Ogbomosho South;Alapata Ward;;Ife Oluwa Clinic;;;;;
Ogbomosho South;Aromole Ward;;Yinka Clinic;;;;;
Ogbomosho South;Aromole Ward;;Benediction Clinic;;;;;
Ogbomosho South;Aromole Ward;;Aromole Model Primary Health Centre;;;;;
Ogbomosho South;Aromole Ward;;State Hospital Ogbomosho (Arowomole);;;;;
Ogbomosho South;Ibapon Ward;;Randa Health Post;;;;;
Ogbomosho South;Ibapon Ward;;Adebayo Alata Primary Health Centre;;;;;
Ogbomosho South;Ibapon Ward;;Aiyetoro Primary Health Clinic;;;;;
Ogbomosho South;Ibapon Ward;;Iyawo Ogun Health Post;;;;;
Ogbomosho South;Ibapon Ward;;Abayomi Hospital;;;;;
Ogbomosho South;Ibapon Ward;;Mainspring Hospital ;;;;;
Ogbomosho South;Ibapon Ward;;Surulere Health Post;;;;;
Ogbomosho South;Ibapon Ward;;Oluwadara Clinic;;;;;
Ogbomosho South;Ibapon Ward;;Igboyi Comm. Primary Health Centre;;;;;
Ogbomosho South;Ibapon Ward;;Cliff Hospital;;;;;
Ogbomosho South;Ibapon Ward;;Liberty Medical Centre;;;;;
Ogbomosho South;Ijeru Ward;;Oreoluwa Maternity Home;;;;;
Ogbomosho South;Ijeru Ward;;Tuberculusis and Leprosy Control Clinic;;;;;
Ogbomosho South;Ijeru Ward;;Ijeru Primary Health Centre;;;;;
Ogbomosho South;Ilogbo Ward;;Ilogbo Primary Health Centre;;;;;
Ogbomosho South;Oke Olla Ward;;Agricultural Farm Health Post;;;;;
Ogbomosho South;Oke Olla Ward;;Okeolla Health Post;;;;;
Ogo Oluwa;Ajaawa 1 Ward;;Ajaawa Model Health Centre;;;;;
Ogo Oluwa;Ajaawa 1 Ward;;Ajawa Aged &Widow Clinic;;;;;
Ogo Oluwa;Ajaawa 1 Ward;;Agboola Clinic;;;;;
Ogo Oluwa;Ajaawa 1 Ward;;Tuberculusis and Leprosy  Clinic;;;;;
Ogo Oluwa;Ajaawa 1 Ward;;Idi Ori Health Clinic;;;;;
Ogo Oluwa;Ayede Ward;;Ayede Primary Health Centre;;;;;
Ogo Oluwa;Ayede Ward;;Odofo Primary Health Centre;;;;;
Ogo Oluwa;Ayetoro Ward;;Olugusi Primary Health Centre;;;;;
Ogo Oluwa;Ayetoro Ward;;Iroo Primary Health Centre;;;;;
Ogo Oluwa;Ayetoro Ward;;Olokoo Primary Health Centre;;;;;
Ogo Oluwa;Idewure Ward;;Idewure Primary Health Centre;;;;;
Ogo Oluwa;Iwo Ate Ward;;Iwo-Ate Primary Health Centre;;;;;
Ogo Oluwa;Iwo Ate Ward;;Mowolowo Primary Health Centre;;;;;
Ogo Oluwa;Lagbedu Ward;;Olode Pontela Primary Health Centre;;;;;
Ogo Oluwa;Lagbedu Ward;;Lagbedu Primary  Health Centre;;;;;
Ogo Oluwa;Lagbedu Ward;;Pontela Akinola Primary Health Centre;;;;;
Ogo Oluwa;Odo Oba Ward;;Safeway Clinic;;;;;
Ogo Oluwa;Odo Oba Ward;;Ayoola Mount Zion Maternity;;;;;
Ogo Oluwa;Odo Oba Ward;;Dolapo Clinic;;;;;
Ogo Oluwa;Odo Oba Ward;;Odo-Oba Primary Health Centre;;;;;
Ogo Oluwa;Opete Ward;;Orile Oje Primary Health Centre;;;;;
Ogo Oluwa;Opete Ward;;Ayegun yemetu Primary Health Centre;;;;;
Ogo Oluwa;Opete Ward;;Opete Primary Health Centre;;;;;
Ogo Oluwa;Opete Ward;;Igboile Oje Health Centre;;;;;
Ogo Oluwa;Osupa Ward;;Obanisunwa Primary Health Center;;;;;
Ogo Oluwa;Osupa Ward;;Ojutaye Primary Health Centre;;;;;
Ogo Oluwa;Otamokun Ward;;Otamokun Primary Health Centre;;;;;
Ogo Oluwa;Otamokun Ward;;Elega Primary Health Centre;;;;;
Ogo Oluwa;Otamokun Ward;;Ibere Health Centre;;;;;
Ogo Oluwa;Otamokun Ward;;Elesade Primary Health Center;;;;;
Olorunsogo;Aboke Ward;;D7 Clinic and Maternity Aboke;;;;;
Olorunsogo;Aboke Ward;;Owode Aged and Widow Clinic;;;;;
Olorunsogo;Aboke Ward;;Owode Primary Health Centre;;;;;
Olorunsogo;Aboke Ward;;Bethsaida Hospital;;;;;
Olorunsogo;Aboke Ward;;Anu Olu Clinic and Maternity;;;;;
Olorunsogo;Aboke Ward;;Health is Wealth Clinic;;;;;
Olorunsogo;Aboke Ward;;LEEMP Dogo Primary Health Center;;;;;
Olorunsogo;Aboke Ward;;Igbeti General Hospital;;;;;
Olorunsogo;Agbele Ward;;Ibukun Olu Hospital;;;;;
Olorunsogo;Agbele Ward;;Ologbon Primary Health Centre;;;;;
Olorunsogo;Agbeni Ward;;Ashfau Clinic;;;;;
Olorunsogo;Agbeni Ward;;Abiye Clinic and Maternity Home;;;;;
Olorunsogo;Agbeni Ward;;Oke-Ibukun Maternity Centre;;;;;
Olorunsogo;Agoro Ward ;;Asunmode  Primary Health Center;;;;;
Olorunsogo;Elerugba Ward;;Adelowo Welfare Maternity Center;;;;;
Olorunsogo;Onigbeti Ward;;Oke-Abe Maternity Centre;;;;;
Olorunsogo;Opa Ogundiran Ward;;Alawa Primary Health Centre;;;;;
Olorunsogo;Opa Ogundiran Ward;;Tesi Garuba Health Clinic;;;;;
Olorunsogo;Opa Ogundiran Ward;;Tesi Apata Leemp Health Centre;;;;;
Olorunsogo;Opa Ogundiran Ward;;Ogundiran Primary Health Center;;;;;
Olorunsogo;Seriki Ward ;;Oju Oja Primary Health Centre;;;;;
Olorunsogo;Waaro/Apata Alaje Ward;;Moti Primary  Health Centre;;;;;
Oluyole;Adeyeri Ward;; Muslim Hospital;;;;;
Oluyole;Adeyeri Ward;;Awoyelomo Faith Maternity Home;;;;;
Oluyole;Adeyeri Ward;;Ayetoro Primary Health Centre;;;;;
Oluyole;Adeyeri Ward;;Adeyeri Primary Health Centre;;;;;
Oluyole;Adeyeri Ward;;Pegba Primary Health Centre;;;;;
Oluyole;Adeyeri Ward;;Police Clinic;;;;;
Oluyole;Ayegun Ward;;Imole Oluwa Maternity Home;;;;;
Oluyole;Ayegun Ward;;Solid Rock Maternity Home;;;;;
Oluyole;Ayegun Ward;;Ajofebo Primary Health Centre;;;;;
Oluyole;Ayegun Ward;;Olude Maternity Home;;;;;
Oluyole;Ayegun Ward;;Afunimasiregun Maternity Home;;;;;
Oluyole;Ayegun Ward;;Zard Technical Clinic;;;;;
Oluyole;Ayegun Ward;;Taiyeolu Maternity Home;;;;;
Oluyole;Ayegun Ward;;Oloode Health Clinic;;;;;
Oluyole;Ayegun Ward;;Morohunmubo Clinic;;;;;
Oluyole;Ayegun Ward;;Onilari Health Clinic;;;;;
Oluyole;Ayegun Ward;;Ayegun Primary Health Center;;;;;
Oluyole;Ayegun Ward;;Agric General Primary Health Centre;;;;;
Oluyole;Idi Ayunre Ward;;Crin Health Centre;;;;;
Oluyole;Idi Ayunre Ward;;Marello Catholic Hospital;;;;;
Oluyole;Idi Ayunre Ward;;Ire Akari Primary Health Center;;;;;
Oluyole;Idi Ayunre Ward;;Odo Okun Health Centre;;;;;
Oluyole;Idi Ayunre Ward;;Idi-Ayunre Primary Health Centre;;;;;
Oluyole;Idi Ayunre Ward;; Durojaiye Hospital;;;;;
Oluyole;Idi Ayunre Ward;;Aramed Hospital;;;;;
Oluyole;Idi Iroko Ward;;Falomo Maternity and Child Welfare Clinic;;;;;
Oluyole;Idi Iroko Ward;;Adewole Idiroko Health Centre;;;;;
Oluyole;Idi Iroko Ward;;Fawole Idi Obi Primary Health Center;;;;;
Oluyole;Idi Iroko Ward;;Lad Hospital;;;;;
Oluyole;Idi Iroko Ward;;Agbale-Panu Primary Health Centre;;;;;
Oluyole;Idi Iroko Ward;;Oleyo Health Clinic;;;;;
Oluyole;Latunde Ward;;Latunde Primary Health Centre;;;;;
Oluyole;Mosfala Ward;;Sarat Medical Centre;;;;;
Oluyole;Mosfala Ward;;Ope Agbe Health Centre;;;;;
Oluyole;Mosfala Ward;;Mosfala Primary Health Centre;;;;;
Oluyole;Mosfala Ward;;Irepodun Primary Health Centre;;;;;
Oluyole;Mosfala Ward;;Ifelodun Primary Health Centre;;;;;
Oluyole;Mosfala Ward;;Abeo Memorial Clinic;;;;;
Oluyole;Mosfala Ward;;Ore Ofe Maternity Centre;;;;;
Oluyole;Mosfala Ward;;Orile Odo General Hospital;;;;;
Oluyole;Odo Ona Ward;;El Shaddai Clinic;;;;;
Oluyole;Odo Ona Ward;;Hand of God Maternity;;;;;
Oluyole;Odo Ona Ward;;Temidayo Clinic;;;;;
Oluyole;Odo Ona Ward;;Royal Heritage Health Foundation;;;;;
Oluyole;Odo Ona Ward;;Ogo Oluwa Maternity;;;;;
Oluyole;Odo Ona Ward;;Odo Ona Access Basic Foundation Clinic;;;;;
Oluyole;Odo Ona Ward;;Ayo Clinic;;;;;
Oluyole;Odo Ona Ward;;Neighbourhood Hospital;;;;;
Oluyole;Odo Ona Ward;;Bare Primary Health Centre;;;;;
Oluyole;Odo Ona Ward;;Iremm Medical Hospital;;;;;
Oluyole;Odo Ona Ward;;Ebimacc Hospital;;;;;
Oluyole;Odo Ona Ward;;Odo Ona Elewe Primary  Health Centre;;;;;
Oluyole;Odo Ona Ward;;Victory Meternity;;;;;
Oluyole;Oja-Oba Ward;;Oba Nla Primary Health Centre;;;;;
Oluyole;Oja-Oba Ward;;Oja Ibadan Primary Health Centre;;;;;
Oluyole;Olomi Ward;;Oke Ola Hospital;;;;;
Oluyole;Olomi Ward;;Adaramogba Olomi Primary Health Centre;;;;;
Oluyole;Olomi Ward;;Aba Afa Primary Health Centre;;;;;
Oluyole;Olomi Ward;;Odo Ona Kekere Health Center;;;;;
Oluyole;Olomi Ward;;Olomi Primary Health Centre;;;;;
Oluyole;Olomi Ward;;Aba Nla Primary Health Centre;;;;;
Oluyole;Olomi Ward;;Alafia Tayo Clinic;;;;;
Oluyole;Olomi Ward;;Odo okun Health center;;;;;
Oluyole;Onipe Ward;;Onipe Primary Health Centre;;;;;
Oluyole;Onipe Ward;;Busogboro Health Clinic;;;;;
Ona Ara;Ajia Ward;;Oke Iyin Maternity;;;;;
Ona Ara;Ajia Ward;;Ojoku Maternity Health Centre;;;;;
Ona Ara;Ajia Ward;;Bioku Araba Health Centre;;;;;
Ona Ara;Ajia Ward;;God Glory Maternity Home;;;;;
Ona Ara;Ajia Ward;;Ajia Primary Health Centre;;;;;
Ona Ara;Akanran Ward 1;;Akanran Primary Health Centre;;;;;
Ona Ara;Akanran Ward 1;;Widow & Aged Clinic;;;;;
Ona Ara;Badeku Ward 3;;Badeku Primary Health Centre;;;;;
Ona Ara;Badeku Ward 3;;Anu Oluwa Maternity;;;;;
Ona Ara;Badeku Ward 3;;Butubutu Primary Health Centre;;;;;
Ona Ara;Badeku Ward 3;;Land of Mercy Maternity;;;;;
Ona Ara;Badeku Ward 3;;Divine Grace Maternity;;;;;
Ona Ara;Badeku Ward 3;;Araromi Health Clinic;;;;;
Ona Ara;Gbada ward;;Gbada Primary Health Centre;;;;;
Ona Ara;Gbada ward;;Adigun Health Centre;;;;;
Ona Ara;Gbedun Ward;;Mobolaji Hospital;;;;;
Ona Ara;Gbedun Ward;;Jesus Healer Maternity;;;;;
Ona Ara;Gbedun Ward;;Moromoke Maternity Center;;;;;
Ona Ara;Gbedun Ward;;Ore ofe Maternity Clinic;;;;;
Ona Ara;Gbedun Ward;;Kaoyuk Hospital;;;;;
Ona Ara;Gbedun Ward;;Gbedun Primary  Health Centre;;;;;
Ona Ara;Gbedun Ward;;Adun Medical Centre;;;;;
Ona Ara;Gbedun Ward;;Smaria Hospital;;;;;
Ona Ara;Idi Osan Ward;;Itedo Iyanu Maternity;;;;;
Ona Ara;Idi Osan Ward;;Seven Halleluyah Maternity;;;;;
Ona Ara;Idi Osan Ward;;Fawole Idi Obi Primary Health Centre;;;;;
Ona Ara;Idi Osan Ward;;Mercy Land maternity Clinic;;;;;
Ona Ara;Idi Osan Ward;;Tolani Maternity Clinic;;;;;
Ona Ara;Idi Osan Ward;;Omotola Maternity and Child Clinic;;;;;
Ona Ara;Idi Osan Ward;;Queen Shebah Clinic and Maternity;;;;;
Ona Ara;Idi Osan Ward;;Oluwafemijubelo Clinic;;;;;
Ona Ara;Idi Osan Ward;;Gbaremu Primary Health Centre;;;;;
Ona Ara;Idi Ose Ward;;Gbede Ogun Primary Health Centre;;;;;
Ona Ara;Idi Ose Ward;;Genesis Clinic and Maternity;;;;;
Ona Ara;Idi Ose Ward;;Minaret Hospital;;;;;
Ona Ara;Idi Ose Ward;;Aba Emu Primary Health Centre;;;;;
Ona Ara;Idi Ose Ward;;Oniyefun Primary Health Center;;;;;
Ona Ara;Idi Ose Ward;;OluwaKoseunti Maternity Clinic;;;;;
Ona Ara;Idi Ose Ward;;Blessing Clinic and Maternity;;;;;
Ona Ara;Idi Ose Ward;;Hasibunalahi Maternity Center;;;;;
Ona Ara;Idi Ose Ward;;Amuloko Primary Health Centre;;;;;
Ona Ara;Idi Ose Ward;;Ogidi Primary Health Care Centre;;;;;
Ona Ara;Olorunsogo Ward ;;Ise Oluwa Maternity;;;;;
Ona Ara;Olorunsogo Ward ;;Ajao Memorial Specialist Hospital;;;;;
Ona Ara;Olorunsogo Ward ;;Almueed Maternity Clinic;;;;;
Ona Ara;Olorunsogo Ward ;;Anu Oluwa Maternity;;;;;
Ona Ara;Olorunsogo Ward ;;Olorunsogo-Babarere Primary Health Centre;;;;;
Ona Ara;Olorunsogo Ward ;;Ago Eli Maternity and Faith Home;;;;;
Ona Ara;Olorunsogo Ward ;;Arinola Memorial Maternity Clinic;;;;;
Ona Ara;Olorunsogo Ward ;;Oke Iye Maternity and Child welfare;;;;;
Ona Ara;Olorunsogo Ward ;;Ipinle Ayo Maternity Hospital;;;;;
Ona Ara;Olorunsogo Ward ;;Adebisi Clinic & Maternity;;;;;
Ona Ara;Olorunsogo Ward ;;Togem Maternity;;;;;
Ona Ara;Olunloyo Ward;;Lonpe Medical center;;;;;
Ona Ara;Olunloyo Ward;;Asiyanbi Memorial Maternity Clinic;;;;;
Ona Ara;Olunloyo Ward;;Peju Welfare & Maternity Clinic;;;;;
Ona Ara;Olunloyo Ward;;Oyindolapo Maternity Clinic;;;;;
Ona Ara;Olunloyo Ward;;Emilagba Hospital;;;;;
Ona Ara;Olunloyo Ward;;TeeJay Hospital;;;;;
Ona Ara;Olunloyo Ward;;Cahogar Maternity;;;;;
Ona Ara;Olunloyo Ward;;Ibuks Clinic and Maternity;;;;;
Ona Ara;Olunloyo Ward;;New Life Hospital;;;;;
Ona Ara;Olunloyo Ward;;Marvelous Maternity;;;;;
Ona Ara;Olunloyo Ward;;Idera Oluwa Hospital;;;;;
Ona Ara;Olunloyo Ward;;Alapafon Primary  Health Center;;;;;
Ona Ara;Olunloyo Ward;;Gangansi Community Primary Health Center;;;;;
Ona Ara;Olunloyo Ward;;Oke Imole Primary Health Center;;;;;
Ona Ara;Olunloyo Ward;;Atinuke Maternity Clinic;;;;;
Ona Ara;Oremeji Ward;;Sarat Adesina Primary Health Center;;;;;
Ona Ara;Oremeji Ward;;Life Gate Hospital;;;;;
Ona Ara;Oremeji Ward;;Awero Hospital;;;;;
Ona Ara;Oremeji Ward;;Kehinsi Primary Health Centre;;;;;
Ona Ara;Oremeji Ward;;OreOfe Hospital Oremeji;;;;;
Ona Ara;Oremeji Ward;;Atolu Tuberculosis Leprosy;;;;;
Orelope;Ago-Igi-Isubu Ward;;Oloko Primary  Health Centre;;;;;
Orelope;Ago-Igi-Isubu Ward;;Mercy Of God Hospital;;;;;
Orelope;Ago-Igi-Isubu Ward;;Igboho General Hospital;;;;;
Orelope;Bonni Ward;;Bonni Primary Health Centre;;;;;
Orelope;Bonni Ward;;Ologede Primary Health Centre;;;;;
Orelope;Gbedun Okegboho Ward;;Owode Dispensary;;;;;
Orelope;Gbedun Okegboho Ward;;Foomu Primary Health Centre;;;;;
Orelope;Gbedun Okegboho Ward;;Owode Primary Health Centre;;;;;
Orelope;Gbedun Okegboho Ward;;Ola Iya Maternity And Welfare Clinic;;;;;
Orelope;Gbedun Okegboho Ward;;Ya-Rahmah Hospital;;;;;
Orelope;Igbope II Ward;;Modupe -Oluwa Maternity;;;;;
Orelope;Igbope II Ward;;Owoade Maternity Home;;;;;
Orelope;Igbope Ward;;Igbope Primary Health Centre;;;;;
Orelope;Igbope Ward;;Adeniyi Memorial Hospital;;;;;
Orelope;Modeke Ward;;Mafowaku Primary Health Centre;;;;;
Orelope;Modeke Ward;;Modeke Primary Health Centre;;;;;
Orelope;Obaago Ward;;Kajola Primary Health Centre;;;;;
Orelope;Obaago Ward;;Opo Health Post;;;;;
Orelope;Obaago Ward;;Iya Primary Health Center;;;;;
Orelope;Obaago Ward;;Aged and Widow Clinic;;;;;
Orelope;Oke-Aafin Ward;;Charis Maternity Centre;;;;;
Ori Ire;Adefila Ward;;Adafila Primary Health Centre;;;;;
Ori Ire;Adefila Ward;;Elerukanfila Primary Health Centre;;;;;
Ori Ire;Adefila Ward;;Kajola Primary  Health Centre;;;;;
Ori Ire;Adefila Ward;;Alapete Primary Health Center;;;;;
Ori Ire;Ahoro Dada Ward 8;;Moleyo Primary Health Centre;;;;;
Ori Ire;Ahoro Dada Ward 8;;Ahoro Dada Primary Health Centre;;;;;
Ori Ire;Ahoro Dada Ward 8;;Biiro Health Post;;;;;
Ori Ire;Esinele Oyo Ward 9;;Alaroponla Primary Health Centre;;;;;
Ori Ire;Esinele Oyo Ward 9;;Esinele Oyo Primary Health Centre;;;;;
Ori Ire;Gbedun/Elesun-Adeosun Ward 10;;Bosunla Primary Health Centre;;;;;
Ori Ire;Gbedun/Elesun-Adeosun Ward 10;;Adetunji Primary Health Centre;;;;;
Ori Ire;Gbedun/Elesun-Adeosun Ward 10;;Elesun Adeosun Primary Health Centre;;;;;
Ori Ire;Gbedun/Elesun-Adeosun Ward 10;;Lapelu Primary Health Centre;;;;;
Ori Ire;Igbori Ward 6;;Onilali Primary Health Center;;;;;
Ori Ire;Igbori Ward 6;;Olokota Primary Health Centre;;;;;
Ori Ire;Igbori Ward 6;;Igbori Primary Health Centre;;;;;
Ori Ire;Ikoyi-ile Ward;;Orisun Iye Maternity and Child Welfare Clinic;;;;;
Ori Ire;Ikoyi-ile Ward;;Adisa Memorial Hospital;;;;;
Ori Ire;Ikoyi-ile Ward;;Ikoyi Ile Primary Health Centre;;;;;
Ori Ire;Ikoyi-ile Ward;;TBL Clinic;;;;;
Ori Ire;Ikoyi-ile Ward;;Oyelami Memorial Hospital;;;;;
Ori Ire;Ikoyi-ile Ward;;Oko Ile Primary Health Centre;;;;;
Ori Ire;Ikoyi-ile Ward;;Ikoyi-Ile General Hospital;;;;;
Ori Ire;Ikoyi-ile Ward;;Antete Primary Health Centre;;;;;
Ori Ire;Ikoyi-ile Ward;;Iluju Primary Health Centre;;;;;
Ori Ire;Ikoyi-ile Ward;;Aged and Widow Centre;;;;;
Ori Ire;Oloka Ward 5;;Daodu Primary Health Centre;;;;;
Ori Ire;Oloka Ward 5;;Obamo Primary Health Centre;;;;;
Ori Ire;Oloka Ward 5;;Oloka Primary Health Centre;;;;;
Ori Ire;Olorunda Ward;;Olorunda Maternity Centre;;;;;
Ori Ire;Olorunda Ward;;Ipekun Primary Health Centre;;;;;
Ori Ire;Olorunda Ward;;Ajinapa Primary Health Centre;;;;;
Ori Ire;Olorunda Ward;;Victory Clinic;;;;;
Ori Ire;Oolo Ward 7;;Elega Primary Health Centre;;;;;
Ori Ire;Oolo Ward 7;;Maya  Primary Health Centre;;;;;
Ori Ire;Oolo Ward 7;;Oolo Primary Health Centre;;;;;
Ori Ire;Tewure Ward;;Ore Ofe Hospital;;;;;
Ori Ire;Tewure Ward;;Ifeolu Maternity Home;;;;;
Ori Ire;Tewure Ward;;Raslomus Clinic and Maternity;;;;;
Ori Ire;Tewure Ward;;Emmadok Hospital;;;;;
Ori Ire;Tewure Ward;;Adex Maternity Clinic;;;;;
Ori Ire;Tewure Ward;;Ayoola Hospital;;;;;
Ori Ire;Tewure Ward;;Alemioda Clinic;;;;;
Ori Ire;Tewure Ward;;Tewure Primary Health Centre;;;;;
Ori Ire;Tewure Ward;;Ibukun Olu Clinic Maternity;;;;;
Ori Ire;Tewure Ward;;Eleruwa Primary Health Clinic;;;;;
Oyo East;Agboye Ward;;Oloyin Hospital;;;;;
Oyo East;Ajagba Ward 2;;Ajagba Primary Health Centre;;;;;
Oyo East;Ajagba Ward 2;;Olori Primary  Health Centre;;;;;
Oyo East;Ajagba Ward 2;;Oyo East Staff Clinic;;;;;
Oyo East;Ajagba Ward 2;;Mobolaji Clinic And Maternity Centre;;;;;
Oyo East;Ajagba Ward 2;;Olaseke Clinic & Maternity Home;;;;;
Oyo East;Ajagba Ward 2;;Oke Sione Maternity Centre;;;;;
Oyo East;Ajagba Ward 2;;Imeleke Primary Health Centre;;;;;
Oyo East;Ajagba Ward 2;;Methodist Church Maternity Centre;;;;;
Oyo East;Ajagba Ward 2;;Teju Specialist Hospital;;;;;
Oyo East;Alaodi Modeke Ward 3;;Gudugbu Orile Health Post;;;;;
Oyo East;Alaodi Modeke Ward 3;;Alaod / Modeke Primary Health Centre;;;;;
Oyo East;Apinni Ward;;Ile Oba  Primary Health Centre;;;;;
Oyo East;Apinni Ward;;Idode Primary  Health Centre;;;;;
Oyo East;Apinni Ward;;Ona-Aka Health Post;;;;;
Oyo East;Apinni Ward;;Ayoade Maternity And Clinic;;;;;
Oyo East;Apinni Ward;;Anfaani Hospital and Maternity;;;;;
Oyo East;Apinni Ward;;Owode Elete Primary Health Centre;;;;;
Oyo East;Araromi Ward ;;Oba Adeyemi Tuberculusis Leprosy;;;;;
Oyo East;Araromi Ward ;;Lord Goshen Hospital;;;;;
Oyo East;Araromi Ward ;;Oba Adeyemi Primary Health Centre;;;;;
Oyo East;Araromi Ward ;;State Hospital Oyo;;;;;
Oyo East;Araromi Ward ;;Araromi Health Post;;;;;
Oyo East;Araromi Ward ;;Muslim Hospital;;;;;
Oyo East;Araromi Ward ;;Baptist Hospital and Maternity Centre;;;;;
Oyo East;Araromi Ward ;;Goodwill Hospital;;;;;
Oyo East;Araromi Ward ;;Glory Medical Centre;;;;;
Oyo East;Araromi Ward ;;Aguo Health Post;;;;;
Oyo East;Araromi Ward ;;Shekinat Hospital and Maternity Centre;;;;;
Oyo East;Balogun Ward;;Alawusa Primary Health Centre;;;;;
Oyo East;Jabata Ward;;Ago Oyo Health Center;;;;;
Oyo East;Jabata Ward;;Jabata Primary Health Centre;;;;;
Oyo East;Oke Apo Ward;;Alabi Olorunda Model Primary Health Centre;;;;;
Oyo East;Oke Apo Ward;;Akoda Igbo Olosun Primary Health Centre;;;;;
Oyo East;Oke Apo Ward;;Oja Omo Oba Primary Health Centre;;;;;
Oyo East;Oke Apo Ward;;Oke-Apo Maternity Centre;;;;;
Oyo East;Olu-Ajo Ward;;Idi Iya Primary Health Centre;;;;;
Oyo West;Akeetan Ward;;Momoh Memorial Hospital Idi ope;;;;;
Oyo West;Akeetan Ward;;Ibukun Olu Clinic;;;;;
Oyo West;Akeetan Ward;;Akeetan Primary Health Centre;;;;;
Oyo West;Akeetan Ward;;Olanrewaju Clinic and Maternity Centre;;;;;
Oyo West;Fasola/Soku Ward;;Lakonu Health Post;;;;;
Oyo West;Fasola/Soku Ward;;Soku Primary  Health Centre;;;;;
Oyo West;Fasola/Soku Ward;;Fasola Model Primary Health Centre;;;;;
Oyo West;Fasola/Soku Ward;;Olorunda  Health Clinic;;;;;
Oyo West;Iseke Ward;;iseke Tuberculosis and Leprosy clinic;;;;;
Oyo West;Iseke Ward;;Romoke Maternity Centre;;;;;
Oyo West;Iseke Ward;;Iseke Primary Health Centre;;;;;
Oyo West;Isokun Ward;;Able God Clinic and Maternity;;;;;
Oyo West;Isokun Ward;;Oyo West Staff Clinic;;;;;
Oyo West;Isokun Ward;;Isoku Primary Health centre;;;;;
Oyo West;Isokun Ward;;Faith Health Clinic;;;;;
Oyo West;Isokun Ward;;Aged and Widow Clinic;;;;;
Oyo West;Isokun Ward;;Anfani Hospital;;;;;
Oyo West;Isokun Ward;;ZASFAT Hospital;;;;;
Oyo West;Isokun Ward;;His Mercy Hospital;;;;;
Oyo West;Isokun Ward;;Mercy of God Clinic;;;;;
Oyo West;Isokun Ward;; Asamu Adeolu Clinic;;;;;
Oyo West;Isokun Ward;;Olomu Clinic;;;;;
Oyo West;Iyaji Ward;;Iyaji Primary Health Centre;;;;;
Oyo West;Ojongbodu Ward;;Ladindin Health Centre Ojongbodu;;;;;
Oyo West;Ojongbodu Ward;;Oluwatedo Health Centre;;;;;
Oyo West;Opapa/Fafunke Ward;;Kolobo Primary Health Centre;;;;;
Oyo West;Owode/Ladigbolu Ward;;Wonderland Clinic;;;;;
Oyo West;Owode/Ladigbolu Ward;;Ladigbolu Health Centre;;;;;
Oyo West;Owode/Ladigbolu Ward;;Peamark Hospital;;;;;
Oyo West;Pakoyi / Idode  Ward;;Kikelomo Hospital;;;;;
Saki East;Alamodu Ward;;Aged and Widow Clinic;;;;;
Saki East;Alamodu Ward;;Aladura Primary Health Centre;;;;;
Saki East;Arolu Ward;;Agbonle Primary Health Centre;;;;;
Saki East;Isale Adu Ward;;Ago Amodu General Hospital;;;;;
Saki East;Isale Adu Ward;;Ago Amodu Primary Health Centre;;;;;
Saki East;Isale Adu Ward;;Ago Amodu Primary Health Care  Clinic;;;;;
Saki East;Isale Igbagbo Ward;;Amukoko Primary Health Centre;;;;;
Saki East;Isale Igbagbo Ward;;Oluwakemi Clinic & Merternity;;;;;
Saki East;Isale Igbagbo Ward;;Ogboro Primary Health Centre;;;;;
Saki East;Isale Igbagbo Ward;;Ogboro Clinic;;;;;
Saki East;Isale Ola Ward;;Ileri Oluwa Clinic and Maternity Centre;;;;;
Saki East;Isale Ola Ward;;Omiyale Clinic;;;;;
Saki East;Isale Ola Ward;;UCH Aneex Hospital;;;;;
Saki East;Kajola Ward;;Oluwafemi Clinic;;;;;
Saki East;Kajola Ward;;Yikiyiki Health Post;;;;;
Saki East;Oke Agoro Ward;;Imodi Health Post;;;;;
Saki East;Oke Agoro Ward;;Lukutu Primary Health Centre;;;;;
Saki East;Oke Ola Ward;;Oje Owode Model Primary Health Centre;;;;;
Saki East;Oke Sebe Ward;;Jesus Is Lord Clinic;;;;;
Saki East;Oke Sebe Ward;;Oje Owode Primary Health Centre;;;;;
Saki East;Oke Tassi Ward;;Goshen Clinic and Maternity Centre;;;;;
Saki East;Oke Tassi Ward;;Sepeteri Tuberculosis and Leprosy;;;;;
Saki East;Oke Tassi Ward;;General Hospital Sepeteri;;;;;
Saki East;Oke Tassi Ward;;Sepeteri Primary Health Care Centre;;;;;
Saki East;Oke Yidi  Ward;;Igosun Clinic;;;;;
Saki East;Oke Yidi  Ward;;Araromi Primary Health Care Centre;;;;;
Saki West;Adabo Ward;;Adabo Tuberculosis Leprosy;;;;;
Saki West;Adabo Ward;;Adabo Primary Health Centre;;;;;
Saki West;Aganmu Ward;;Destiny Maternity and Child Welfare Clinic;;;;;
Saki West;Aganmu Ward;;Ayekale Primary Health Centre;;;;;
Saki West;Aganmu Ward;;Igboologun Primary Health Centre;;;;;
Saki West;Aganmu Ward;;Kooko Health Post;;;;;
Saki West;Ajegunle Ward;;Mercy Land Clinic;;;;;
Saki West;Ajegunle Ward;;Ti Oluwani Maternity;;;;;
Saki West;Ajegunle Ward;;Ajegunle Primary Health Centre;;;;;
Saki West;Ajegunle Ward;;Saki Baptist Medical Centre;;;;;
Saki West;Ajegunle Ward;;244 Battalion Barrack Hospital;;;;;
Saki West;Ajegunle Ward;;Koni/Surelere Primary Health Centre;;;;;
Saki West;Ajegunle Ward;;Olomopupo Maternity Centre;;;;;
Saki West;Ajegunle Ward;;Saki West Aged and Widow  Mini Clinic;;;;;
Saki West;Ajegunle Ward;;Ejire Maternity Centre;;;;;
Saki West;Ajegunle Ward;;Oluwatoyin Clinic;;;;;
Saki West;Babo Ward;;Ilua Primary Health Centre;;;;;
Saki West;Babo Ward;;Sangote Primary Health Centre;;;;;
Saki West;Babo Ward;;Baabo Primary Health Centre;;;;;
Saki West;Babo Ward;;Ajelanwa Primary Health Centre;;;;;
Saki West;Babo Ward;;Olamide Clinic;;;;;
Saki West;Eko-Kan Ward;;Sanni-Sala Primary Health Centre;;;;;
Saki West;Eko-Kan Ward;;Blessing Clinic;;;;;
Saki West;Eko-Kan Ward;;Ekokan Primary Health Centre;;;;;
Saki West;Eko-Kan Ward;;Onigbongbo Primary Health Center;;;;;
Saki West;Eko-Kan Ward;;Okerete Primary Health Center;;;;;
Saki West;Eko-Kan Ward;;Gbepakan Health Post;;;;;
Saki West;Eko-Kan Ward;;Wasangare Oja Primary  Health Center;;;;;
Saki West;Eko-Kan Ward;;Wasangare  Alabafe Primary  Health Center;;;;;
Saki West;Isale Efin Ward;;Saki General Hospital;;;;;
Saki West;Isale Efin Ward;;Isale Efin Primary Health Centre;;;;;
Saki West;Isale Efin Ward;;Salam Clinic;;;;;
Saki West;Isale Efin Ward;;Deen Clinics;;;;;
Saki West;Isale Efin Ward;;Medikarm Medical Centre;;;;;
Saki West;Iya Ward;;Iya Primary Health Centre;;;;;
Saki West;Iya Ward;;Mokola Primary Health Centre;;;;;
Saki West;Iya Ward;;Safura Clinic;;;;;
Saki West;Iya Ward;;Aderonmu Clinic;;;;;
Saki West;Iya Ward;;Al Miskeen Bilahi Clinic;;;;;
Saki West;Iya Ward;;Honest Convalescent Home;;;;;
Saki West;Iya Ward;;AS Bello Maternity and Child Welfare Clinic;;;;;
Saki West;Ogidigbo Ward;;Isale Oro Primary Health Centre;;;;;
Saki West;Ogidigbo Ward;;Idera Primary Health Centre;;;;;
Saki West;Ogidigbo Ward;;Kininkinni Primary Health Centre;;;;;
Saki West;Ogidigbo Ward;;Ogidigbo Primary Health Centre;;;;;
Saki West;Ogidigbo Ward;;Ago Oluabi Primary Health Centre;;;;;
Saki West;Oke oro Ward;;Isale Taba Primary Health Centre;;;;;
Saki West;Oke oro Ward;;Jehovah Rapha Hospital;;;;;
Saki West;Oke oro Ward;;Ajoke Clinic;;;;;
Saki West;Otun/Isia Ward;;Otun Primary Health Centre;;;;;
Saki West;Otun/Isia Ward;;Tunmise Hospital;;;;;
Saki West;Otun/Isia Ward;;Olaoluwa Health Center;;;;;
Saki West;Otun/Isia Ward;;Oluwafemi Health Center;;;;;
Saki West;Otun/Isia Ward;;Challenges Primary Health Center;;;;;
Saki West;Otun/Isia Ward;;Isia Primary Health Centre;;;;;
Saki West;Otun/Isia Ward;;Oluwakemi Convalescent Home;;;;;
Saki West;Otun/Isia Ward;;Oke Odo Primary Health Center;;;;;
Saki West;Sango Ward ;;Alafia Clinic;;;;;
Saki West;Sango Ward ;;Salam Salam  Primary Health Centre;;;;;
Saki West;Sango Ward ;;Sango Primary Health Centre;;;;;
Saki West;Sango Ward ;;Aweni Hospital;;;;;
Saki West;Sango Ward ;;Faith Maternity and Child Welfare Clinic;;;;;
Saki West;Sango Ward ;;Labake Clinic;;;;;
Saki West;Sango Ward ;;Isale Alufa Primary Health Center;;;;;
Saki West;Sango Ward ;;Omoluabi  Clinics;;;;;
Saki West;Sango Ward ;;Abeje Maternity and Child Welfare Clinic;;;;;
Saki West;Sango Ward ;;Olayemi  Clinic;;;;;
Saki West;Sango Ward ;;Omowumi Clinic;;;;;
Saki West;Sango Ward ;;Muslim Hospital;;;;;
Saki West;Sango Ward ;;Arafat Health Post;;;;;
Saki West;Sango Ward ;;Divine Love Hospital;;;;;
Saki West;Sango Ward ;;Ireti Ayo Maternity Centre;;;;;
Surulere;Arolu Ward;;Iranyin Primary Health Centre;;;;;
Surulere;Arolu Ward;;Arolu Primary Health Centre;;;;;
Surulere;Arolu Ward;;Madeola Hospital;;;;;
Surulere;Baayaoje Ward;;Ajase Health Centre;;;;;
Surulere;Baayaoje Ward;;Ogojo Health Post;;;;;
Surulere;Baayaoje Ward;;Jabata Primary Health Centre;;;;;
Surulere;Baayaoje Ward;;Baaya Oje Primary Health Centre;;;;;
Surulere;Gambari/Igbon Ward;;Iyelu Health Post;;;;;
Surulere;Gambari/Igbon Ward;;Titilope Hospital;;;;;
Surulere;Gambari/Igbon Ward;;Alate Health Clinic;;;;;
Surulere;Gambari/Igbon Ward;;Igbon Health Clinic;;;;;
Surulere;Gambari/Igbon Ward;;Egbeda Health Post;;;;;
Surulere;Gambari/Igbon Ward;;Abogunde Primary Heath Centre;;;;;
Surulere;Gambari/Igbon Ward;;Ayo nio Hospital;;;;;
Surulere;Gambari/Igbon Ward;;Gambari Primary Health Centre;;;;;
Surulere;Gambari/Igbon Ward;;Ige Memorial Convalescent and Maternity Home;;;;;
Surulere;Gambari/Igbon Ward;;Funso Maternity and Child welfare;;;;;
Surulere;Gambari/Igbon Ward;;Jehovah Samah Hospital;;;;;
Surulere;Gambari/Igbon Ward;;Hope Maternity Home;;;;;
Surulere;Gambari/Igbon Ward;;Central Hospital;;;;;
Surulere;Ilajue Ward;;Laege Primary Health Centre;;;;;
Surulere;Ilajue Ward;;Baale Oba Primary Health Centre;;;;;
Surulere;Ireesapa Ward;;Poro Health Post;;;;;
Surulere;Ireesapa Ward;;Alafialoju;;;;;
Surulere;Ireesapa Ward;;Iresaapa Primary Health Centre;;;;;
Surulere;Ireesapa Ward;;Maya Health Clinic;;;;;
Surulere;Iregba Ward;;Anu Oluwa Hospital;;;;;
Surulere;Iregba Ward;;Florence Hospital;;;;;
Surulere;Iregba Ward;;Ola-Oluwa Maternity Home;;;;;
Surulere;Iregba Ward;;Iregba Primary Health Centre;;;;;
Surulere;Iregba Ward;;Olode Primary Health Centre;;;;;
Surulere;Iresa-Adu Ward;;Iresaadu Comprehensive Health center;;;;;
Surulere;Iresa-Adu Ward;;Sekengbede Health Post;;;;;
Surulere;Iresa-Adu Ward;;Iresadu General Hospital;;;;;
Surulere;Iresa-Adu Ward;;Aganyan health center;;;;;
Surulere;Iresa-Adu Ward;;T.B.L Clinic;;;;;
Surulere;Iresa-Adu Ward;;Atapa Health Post;;;;;
Surulere;Iwofin Ward;;Iwofin Primary Health Centre;;;;;
Surulere;Iwofin Ward;;Babanifa Health Post;;;;;
Surulere;Mayin Ward;;Ogele Health Clinic;;;;;
Surulere;Mayin Ward;;Amosa Primary Health Centre;;;;;
Surulere;Mayin Ward;;Okin Health Post;;;;;
Surulere;Oko Ward;;Oko Market Primary Health Centre;;;;;
Surulere;Oko Ward;;oyHalleluyah hospital;;;;;
Surulere;Oko Ward;;Oko Model Primary Health Centre;;;;;
Surulere;Oko Ward;;Alafia Maternity Home;;;;;
Surulere;Oko Ward;;Ijado Health Post;;;;;
