LGA;Ward;Settlement;Facility;Type;Ownership;Address;Longitude;Latitude
Barkin Ladi;Gafat Ward;;Barkin ladi General Hospital;;;;;
Barkin Ladi;Gafat Ward;;Gana Ropp Primary Health Centre;;;;;
Barkin Ladi;Gafat Ward;;Gafat General Hospital;;;;;
Barkin Ladi;Gassa Ward;;Gassa Primary Health Centre;;;;;
Barkin Ladi;Gassa Ward;;Rahol Gasa Primary Health Care;;;;;
Barkin Ladi;Gindin Akwati Ward;;Ex-land Primary Health Centre;;;;;
Barkin Ladi;Gindin Akwati Ward;;Utsaru Satsu Clinic;;;;;
Barkin Ladi;Gindin Akwati Ward;;Ruku Primary Health Centre;;;;;
Barkin Ladi;Gindin Akwati Ward;;Khamdala Dispensary;;;;;
Barkin Ladi;Gindin Akwati Ward;;Lokwan Dispensary;;;;;
Barkin Ladi;Heipang ward;;Dapam Memorial Clinic;;;;;
Barkin Ladi;Heipang ward;;Larwin Primary Health Centre;;;;;
Barkin Ladi;Heipang ward;;Kpang Primary Health Centre;;;;;
Barkin Ladi;Heipang ward;;Tatu Primary Health Centre;;;;;
Barkin Ladi;Heipang ward;;Dafom Family Clinic;;;;;
Barkin Ladi;Heipang ward;;Heipang Primary Health Centre;;;;;
Barkin Ladi;Heipang ward;;Heipang Medical Centre;;;;;
Barkin Ladi;Kakuruk Ward;;Kakuruk Primary Health Centre;;;;;
Barkin Ladi;Kakuruk Ward;;Kuzen Primary Health Centre;;;;;
Barkin Ladi;Kamang Nafok Ward;;Bek Primary Health Centrte;;;;;
Barkin Ladi;Kapwen Ket Ward;;Bakin Kogi Primary Health Centre;;;;;
Barkin Ladi;Kapwen Ket Ward;;Kuzek Primary Health Centre;;;;;
Barkin Ladi;Kapwen Ket Ward;;Zaron Primary Health Centre;;;;;
Barkin Ladi;Kapwen Ket Ward;;Bakin Kogi Tata Clinic;;;;;
Barkin Ladi;Kapwen Ket Ward;;Vat Njong Primary Health Centre;;;;;
Barkin Ladi;Kapwis Ward;;Dorong Primary Health Centre;;;;;
Barkin Ladi;Kapwis Ward;;Kapwis Primary Health Centre;;;;;
Barkin Ladi;Kapwis Ward;;Zakupang Primary Health Centre;;;;;
Barkin Ladi;Kapwis Ward;;Pandadi Primary Health Centre;;;;;
Barkin Ladi;Kura Falls Ward;;Uyurai Primary Health Centre;;;;;
Barkin Ladi;Kura Falls Ward;;Makoli Primary Health Centre;;;;;
Barkin Ladi;Kura Falls Ward;;Zakarek Primary Health Centre;;;;;
Barkin Ladi;Kura Falls Ward;;Kurra Falls Primary Health Centre;;;;;
Barkin Ladi;Kura Falls Ward;;Kurra Falls Dispensary;;;;;
Barkin Ladi;Lobiring Ward;;Lobiring Primary Health Centre;;;;;
Barkin Ladi;Lobiring Ward;;Maraba Kantoma Primary Health Centre;;;;;
Barkin Ladi;Lobiring Ward;;Nirit Dispensary;;;;;
Barkin Ladi;Marit Ward;;Marit Primary Health Centre;;;;;
Barkin Ladi;Mazat Ward;;Fanmun Dispensary;;;;;
Barkin Ladi;Mazat Ward;;Rahol Mazat Primary Health Centre;;;;;
Barkin Ladi;Mazat Ward;;Mazat Primary Health Centre;;;;;
Barkin Ladi;Mazat Ward;;Tudun Mazat Primary Health Centre;;;;;
Barkin Ladi;Pwomol Chit Ward;;Chit Primary Health Centre;;;;;
Barkin Ladi;Rafan Ward;;Nyarwi Primary Health Centre;;;;;
Barkin Ladi;Rafan Ward;;Nafan Dredge Primary Health Centre;;;;;
Barkin Ladi;Rafan Ward;;Rite Primary Health Centre;;;;;
Barkin Ladi;Rafan Ward;;Rapyam Primary Health Centre;;;;;
Barkin Ladi;Rafan Ward;;Rawuru Primary Health Centre;;;;;
Barkin Ladi;Rakwok Gwol ward;;B/Ladi Staff Clinic;;;;;
Barkin Ladi;Rakwok Gwol ward;;Na'Allah Na Kowa Clinic;;;;;
Barkin Ladi;Rakwok Gwol ward;;Godiya Medical Lab;;;;;
Barkin Ladi;Rakwok Gwol ward;;Barkin Ladi (Gwol) Primary Health Centre;;;;;
Barkin Ladi;Rakwok Gwol ward;;Meyeti Allah Dispensary;;;;;
Barkin Ladi;Rakwok Gwol ward;;Sunah Clinic and Maternity;;;;;
Barkin Ladi;Rakwok Gwol ward;;Rakwok Primary Health Centre;;;;;
Barkin Ladi;Rakwok Gwol ward;;B/Ladi Medical Centre;;;;;
Barkin Ladi;Rakwok Gwol ward;;Pulera Dispensar;;;;;
Barkin Ladi;Rakwok Gwol ward;;Secreteriat B Ladi Primary Health Centre;;;;;
Barkin Ladi;Sho Ward;;Sho Primary Health Centre;;;;;
Barkin Ladi;Tafan Nwok Ward A;;Loh Fan  Primary Health Centre;;;;;
Barkin Ladi;Tafan Nwok Ward A;;Dorowan Tsoho Primary Health Centre;;;;;
Barkin Ladi;Tafan Nwok Ward A;;Tussung Primary Health Centre;;;;;
Barkin Ladi;Tafan Nwok Ward A;;Kanakong Primary Health Centre;;;;;
Barkin Ladi;Tafan Nwok Ward A;;Nziring Primary Health Centre;;;;;
Barkin Ladi;Tafan Nwok Ward A;;Fan Lo Primary Health Centre;;;;;
Barkin Ladi;Tafan Nwok Ward A;;Nding Primary Health Centre;;;;;
Barkin Ladi;Tafan Nwok Ward B;;Bawan Dodo Primary Health Centre;;;;;
Barkin Ladi;Tafan Nwok Ward B;;Rabwak Primary Health Centre;;;;;
Barkin Ladi;Tafan Nwok Ward B;;Lokogai Clinic;;;;;
Barkin Ladi;Tafan Nwok Ward B;;Kugot Primary Health Centre;;;;;
Barkin Ladi;Tafan Nwok Ward B;;Rahai Primary Health Centre (Barkin);;;;;
Barkin Ladi;Ta-kwok Ward;;Wang Clinic;;;;;
Barkin Ladi;Ta-kwok Ward;;Ta-Kwok Primary Health Centre;;;;;
Barkin Ladi;Zabot Ward;;Ratt Primary Health Centre;;;;;
Barkin Ladi;Zabot Ward;;Bisichi Primary Health Centre;;;;;
Barkin Ladi;Zabot Ward;;Foron Primary Health Centre;;;;;
Barkin Ladi;Zabot Ward;;Yiyoh Primary Health Centre;;;;;
Barkin Ladi;Zabot Ward;;Rasat Primary Health Centre;;;;;
Barkin Ladi;Zabot Ward;;Foron COCIN Dispensary;;;;;
Barkin Ladi;Zabot Ward;;Newo Primary Health Centre;;;;;
Barkin Ladi;Zabot Ward;;D-Nahawa Primary Health Centre;;;;;
Bassa;Assak Ward;;Assak Primary Health Centre;;;;;
Bassa;Bakin Kogi Ward;;Health Way Medical Centre;;;;;
Bassa;Bakin Kogi Ward;;Bugu Primary Health Centre;;;;;
Bassa;Bakin Kogi Ward;;Bakin Kogi Primary Health Centre (Bassa);;;;;
Bassa;Buhit Ward;;Bassa Cottage Hospital;;;;;
Bassa;Buhit Ward;;PSSD School Primary Health Centre;;;;;
Bassa;Buhit Ward;;Jebbu Bassa Primary Health Centre;;;;;
Bassa;Buji Ward (Bassa);;Fuskan Mata Primary Health Centre;;;;;
Bassa;Buji Ward (Bassa);;Rumfa Gwamna Primary Health Centre;;;;;
Bassa;Gabia Ward;;Kpasho Primary Health Centre;;;;;
Bassa;Gurrum Ward A;;Hwol Buji Primary Health Centre;;;;;
Bassa;Gurrum Ward A;;Gurum Primary Health Centre;;;;;
Bassa;Gurrum Ward A;;Allah Nakowa Clinic;;;;;
Bassa;Gurrum Ward A;;Mista-Ali Primary Health Centre;;;;;
Bassa;Gurrum Ward B;;Tarya Primary Health Centre;;;;;
Bassa;Jengre Ward;;Pandauda Primary Health Centre;;;;;
Bassa;Jengre Ward;;Erane Clinic;;;;;
Bassa;Jengre Ward;;Padaman Shanu Primary Health Centre;;;;;
Bassa;Jengre Ward;;Jengre Primary Health Centre;;;;;
Bassa;Jengre Ward;;Maiwada Clinic;;;;;
Bassa;Jengre Ward;;Government College Primary Health Centre;;;;;
Bassa;Jengre Ward;;Aridi Memorial Hospital;;;;;
Bassa;Jengre Ward;;Jengre 2 Primary Health centre;;;;;
Bassa;Jengre Ward;;Jengre Seventh Day Adventist Hospital;;;;;
Bassa;Jengre Ward;;Jipape Memorial Hospital;;;;;
Bassa;Jengre Ward;;Sarkin Shau Primary Health Centre;;;;;
Bassa;Kadamo Ward;;Amo Katako Primary Health Centre;;;;;
Bassa;Kakkek Ward;;Igbak Primary Health Centre;;;;;
Bassa;Kakkek Ward;;Bassa Military Hospital;;;;;
Bassa;Kakkek Ward;;Ajuk Primary Health Centre;;;;;
Bassa;Kakkek Ward;;Kihang Primary Health Centre;;;;;
Bassa;Kakkek Ward;;Dutsen Kura Primary Health Centre;;;;;
Bassa;Kakkek Ward;;Zagun Primary Health Centre;;;;;
Bassa;Kasuru Ward;;Kawam Primary Health Centre;;;;;
Bassa;Kimakpa Ward;;Maiyanga Primary Health Centre;;;;;
Bassa;Kimakpa Ward;;Dundu Primary Health Centre;;;;;
Bassa;Kishika Ward;;Buyo Primary Health Centre;;;;;
Bassa;Kishika Ward;;Kishi 1 Primary Health Centre;;;;;
Bassa;Kishika Ward;;Kasakuk Primary Health Centre;;;;;
Bassa;Kishika Ward;;Kishika Sauki Clinic;;;;;
Bassa;Kishika Ward;;Kishi 2 Primary Health Centre;;;;;
Bassa;Kishika Ward;;Kishika Primary Health Centre;;;;;
Bassa;Kishika Ward;;Binchi Primary Health Centre;;;;;
Bassa;Mafara Ward;;Mafara 2 Primary Health Centre;;;;;
Bassa;Mafara Ward;;Bomo Primary Health Centre;;;;;
Bassa;Mafara Ward;;Abenazara Primary Health Centre;;;;;
Bassa;Mafara Ward;;Mafara 1 Primary Health Centre;;;;;
Bassa;Rimi Ward;;Rimi Primary Health Centre;;;;;
Bassa;Rimi Ward;;Rimi Alheri Clinic;;;;;
Bassa;Taagbe Ward;;Hukke Primary Health Centre;;;;;
Bassa;Taagbe Ward;;Jebbu Miango Primary Health Centre;;;;;
Bassa;Taagbe Ward;;Ta'agbe Primary Health Centre;;;;;
Bassa;Tahu Ward;;Kpara Primary Health Centre;;;;;
Bassa;Tahu Ward;;Rawianku Primary Health Centre;;;;;
Bassa;Zabolo Ward;;Zabolo Primary Health Centre;;;;;
Bassa;Zabolo Ward;;Zallaki Primary Health Centre;;;;;
Bassa;Zabolo Ward;;Tumu Sarari Primary Health Centre;;;;;
Bassa;Zobwo Ward;;Miango Town Primary Health Centre;;;;;
Bassa;Zobwo Ward;;Enos Hospital;;;;;
Bassa;Zobwo Ward;;Miango Primary Health Centre;;;;;
Bassa;Zodu Ward;;Oreedam Primary Health Centre;;;;;
Bassa;Zodu Ward;;Kwall Primary Health Centre;;;;;
Bokkos;Ambul Bargesh Ward;;Bargesh Primary Health Centre;;;;;
Bokkos;Bokkos Central Ward;;Bot Primary Health Centre;;;;;
Bokkos;Bokkos Central Ward;;Bokkos Primary Health Centre;;;;;
Bokkos;Bokkos Central Ward;;Dakanung Primary Health Centre;;;;;
Bokkos;Bokkos Central Ward;;Ruwi Primary Health Centre;;;;;
Bokkos;Bokkos West Ward;;Ngyong Primary Health Centre;;;;;
Bokkos;Butura Ward;;Kuba Primary Health Centre;;;;;
Bokkos;Butura Ward;;Maikatako Primary Health Centre;;;;;
Bokkos;Gwande Ward;;Gwande Primary Health Centre;;;;;
Bokkos;Kamwai Ward;;Kamwai Primary Health Centre;;;;;
Bokkos;Kamwai Ward;;Tokyeh Primary Health centre;;;;;
Bokkos;Kamwai Ward;;Wanze Primary Health Centre;;;;;
Bokkos;Kwatas Ward;;Tenti Ratat Primary Health Centre;;;;;
Bokkos;Kwatas Ward;;Kwatas Primary Health Centre;;;;;
Bokkos;Kwatas Ward;;Wumat Primary Health Centre;;;;;
Bokkos;Kwatas Ward;;Mazere Primary Health Centre;;;;;
Bokkos;Mandar Ward;;Tenti Baba Primary Health Centre;;;;;
Bokkos;Mangor Ward;;Garwaza Primary Health Centre;;;;;
Bokkos;Manguna Ward;;Hurti Primary Health Centre;;;;;
Bokkos;Manguna Ward;;Manguna Primary Health Centre;;;;;
Bokkos;Margif Kopmur Ward;;Margif Primary Health Centre;;;;;
Bokkos;Mbar/Magor Ward;;Mangar Primary Health Centre;;;;;
Bokkos;Mbar/Magor Ward;;Mbwar Primary Health Centre;;;;;
Bokkos;Mushere Central Ward;;Mushere Primary Health Centre;;;;;
Bokkos;Mushere Central Ward;;Dingak Primary Health Centre;;;;;
Bokkos;Mushere North Ward;;Kawel Primary Health Centre;;;;;
Bokkos;Mushere West Ward;;Nina Tulus Primary Health Centre;;;;;
Bokkos;Mushere West Ward;;Kaban Primary Health Centre;;;;;
Bokkos;Richa Ward;;Digot Primary Health Centre;;;;;
Bokkos;Richa Ward;;Siken Primary Health Centre;;;;;
Bokkos;Sha Ward;;Sha Primary Health Centre;;;;;
Bokkos;Tangur Ward;;Mandung Mushu Primary Health Centre;;;;;
Bokkos;Tangur Ward;;Tangor Mom Primary Health Centre;;;;;
Bokkos;Tangur Ward;;Tangur Gida Primary Health Centre;;;;;
Bokkos;Tangur Ward;;Mushu Primary Health Centre;;;;;
Bokkos;Toff Ward;;Toff Primary Health Centre;;;;;
Jos East;Fadan Fursum Ward;;Church of Christ in Nigeria Gora Primary Health Centre;;;;;
Jos East;Fadan Fursum Ward;;Gora Primary Health Centre;;;;;
Jos East;Fadan Fursum Ward;;Ribung Primary Health Centre;;;;;
Jos East;Fadan Fursum Ward;;Fewit Primary Health Centre;;;;;
Jos East;Fadan Fursum Ward;;N-Jajel Primary Health Centre;;;;;
Jos East;Federe Ward;;Keben Koromin Primary Health Centre;;;;;
Jos East;Federe Ward;;Nabar Zabir Primary Health Centre;;;;;
Jos East;Federe Ward;;Febas Primary Health Centre;;;;;
Jos East;Federe Ward;;Federe Primary Health Centre;;;;;
Jos East;Fobur Central Ward;;Fobur Ekan Primary Health Clinic;;;;;
Jos East;Fobur Central Ward;;Fadan Fobur Primary Health Centre;;;;;
Jos East;Fobur Central Ward;;Sabon Kaura  Primary Health Centre;;;;;
Jos East;Fobur East Ward;;Boda Primary Health Centre;;;;;
Jos East;Fobur Ward A;;Sabon Fobur Primary Health Centre;;;;;
Jos East;Fobur Ward A;;Wada Primary Health Centre;;;;;
Jos East;Fobur Ward B;;Kerker Primary Health Centre;;;;;
Jos East;Fobur Ward B;;Nuratong Primary Health Centre;;;;;
Jos East;Fobur Ward B West;;Sabon Gari Primary Health Centre;;;;;
Jos East;Fobur Ward B West;;Laminga Primary Health Centre;;;;;
Jos East;Fobur Ward B West;;Zarazong Primary Health Centre;;;;;
Jos East;Fursum East Ward;;Niji Primary Health Centre;;;;;
Jos East;Godong Ward;;Kayarda Primary Health centre;;;;;
Jos East;Godong Ward;;Godong Primary Health Centre;;;;;
Jos East;Jarawa Kogi Ward A;;Angware Primary Health Centre;;;;;
Jos East;Jarawa Kogi Ward A;;Nashanang Primary Health Centre;;;;;
Jos East;Jarawa Kogi Ward A;;Jarawan 1 General Hospital;;;;;
Jos East;Jarawa Kogi Ward B;;Dadin Kaura Primary Health Centre;;;;;
Jos East;Jarawa Kogi Ward B;;Care Gada Primary Health Centre;;;;;
Jos East;Maigemu Ward;;Maigemu Primary Health Centre;;;;;
Jos East;Maijuju Doss Ward;;Maijuju Primary Health Centre;;;;;
Jos East;Nakwang Ward;;Dorong Primary Health Centre (Jos East);;;;;
Jos East;Nakwang Ward;;Nakwang A Primary Health Centre;;;;;
Jos East;Naton Fusa Ward;;Bayan Dutse Primary Health Centre;;;;;
Jos East;Naton Fusa Ward;;Naton Fusa Primary Health Centre;;;;;
Jos East;Naton Fusa Ward;;Rafin Sanyi Primary Health Centre;;;;;
Jos East;Naton Fusa Ward;;Fusa Primary Health Centre;;;;;
Jos East;Shere Central Ward;;Shere Ekan Primary Health Clinic;;;;;
Jos East;Shere Central Ward;;Dinya Primary Health Centre;;;;;
Jos East;Shere East Ward;;Shere Jankasa Primary Health Centre;;;;;
Jos East;Shere East Ward;;Kashidung Primary Health Centre;;;;;
Jos East;Shere West Ward;;Durbi Primary Health Centre;;;;;
Jos East;Zandi Ward;;Zandi Primary Health Centre;;;;;
Jos East;Zandi Ward;;Riseh Primary Health Centre;;;;;
Jos East;Zandi Ward;;Gandi Primary Health Centre;;;;;
Jos North;Abba Na Shehu Ward;;Abba Na Shehu Primary Health Centre;;;;;
Jos North;Ahwol Ward;;Federal Road Safety Corp Clinic;;;;;
Jos North;Ahwol Ward;;Yellwan Zangam Primary Health Centre;;;;;
Jos North;Ali Kazaure Ward;;Ali Kazaure Primary Health Centre;;;;;
Jos North;Angwa Rogo/Rimi Ward;;Suna Hospital;;;;;
Jos North;Angwa Rogo/Rimi Ward;;Angwan Rogo Primary Health Centre;;;;;
Jos North;Angwa Rogo/Rimi Ward;;Rimi Primary Health Centre (Jos North);;;;;
Jos North;Angwa Rogo/Rimi Ward;;El-Masur Clinic;;;;;
Jos North;Gangare Ward;;FOMWA Clinic;;;;;
Jos North;Gangare Ward;;Gangare Jos Primary Health Centre;;;;;
Jos North;Garba Daho Ward;;Nuredeen Clinic;;;;;
Jos North;Garba Daho Ward;;Ridwannullah Clinic;;;;;
Jos North;Ibrahim Katsina Ward;;Dogon Agogo Primary Health Centre;;;;;
Jos North;Jenta Adamu Ward;;Epidemiology Unit;;;;;
Jos North;Jenta Adamu Ward;;Jenta Adamu Primary Health Centre;;;;;
Jos North;Jenta Adamu Ward;;J/Adamu Sauki Clinic;;;;;
Jos North;Jenta Adamu Ward;;Nigerian Police Force Clinic;;;;;
Jos North;Jenta Adamu Ward;;Bingham University Teaching Hospital;;;;;
Jos North;Jenta Adamu Ward;; Jos Our Lady of Apostle Hospital;;;;;
Jos North;Jenta Apata Ward;;BMC Clinic;;;;;
Jos North;Jenta Apata Ward;;Glory Clinic;;;;;
Jos North;Jenta Apata Ward;;J/Apata Albarka Hospital;;;;;
Jos North;Jenta Apata Ward;;Jenta Apata Primary Health Centre;;;;;
Jos North;Jos Jarawa  Ward;;Jos Jarawa Ultima Hospital ;;;;;
Jos North;Jos Jarawa  Ward;;Murna Clinic;;;;;
Jos North;Jos Jarawa  Ward;;Jos Jarawa Primary Health Centre;;;;;
Jos North;Jos Jarawa  Ward;;Al-Musa Adat Clinic;;;;;
Jos North;Kabong Ward;;Godiya Clinic;;;;;
Jos North;Kabong Ward;;Utan Primary Health Centre;;;;;
Jos North;Kabong Ward;;New Kabong Primary Health Centre;;;;;
Jos North;Kabong Ward;;Grace of God Clinic;;;;;
Jos North;Kabong Ward;;Kabong Primary Health Centre;;;;;
Jos North;Kabong Ward;;Gaccon Hospital;;;;;
Jos North;Lamingo Ward;;Jama'a Nursing Home;;;;;
Jos North;Lamingo Ward;;Jos University Teaching Hospital;;;;;
Jos North;Lamingo Ward;;Kyan ECWA Clinic;;;;;
Jos North;Lamingo Ward;;Kuwanga Primary Health Centre;;;;;
Jos North;Lamingo Ward;;Islamic Health Foundation;;;;;
Jos North;Lamingo Ward;;Muheda Clinic;;;;;
Jos North;Lamingo Ward;;Lamingo Primary Health Centre;;;;;
Jos North;Naraguta Ward A;;Nassarawa Primary Health Centre;;;;;
Jos North;Naraguta Ward B;;Eldin Specialist Hospital;;;;;
Jos North;Naraguta Ward B;;Congo Russia Primary Health Centre;;;;;
Jos North;Naraguta Ward B;;Fudawa Clinic;;;;;
Jos North;Naraguta Ward B;;Fudawa Primary Health Centre;;;;;
Jos North;Naraguta Ward B;;Dogon Dutse Primary Health Centre;;;;;
Jos North;Pl Mazah Ward;;Mazah Primary Health Centre;;;;;
Jos North;Sarkin Arab Ward;;Comfort Maternity Home;;;;;
Jos North;Sarkin Arab Ward;;Samantha Lucil Hospital;;;;;
Jos North;Sarkin Arab Ward;;Sarkin Arab Primary Health Centre;;;;;
Jos North;Tafawa Balewa Ward;;Faith Alive Foundation CSO;;;;;
Jos North;Tafawa Balewa Ward;;Township Primary School Clinic;;;;;
Jos North;Tafawa Balewa Ward;;Township Primary Health Centre;;;;;
Jos North;Tafawa Balewa Ward;;Mlkan Clinic;;;;;
Jos North;Targwong - Rigiza Ward;;Naraguta Jos Primary Health Centre;;;;;
Jos North;Targwong - Rigiza Ward;;Jos University Health Service;;;;;
Jos North;Targwong - Rigiza Ward;;Babale Primary Health Centre;;;;;
Jos North;Tundun Wada Ward;;Plateau Specialist Hospital;;;;;
Jos North;Tundun Wada Ward;;Tudun Wada Jos Primary Health Centre;;;;;
Jos North;Tundun Wada Ward;;Dong Jos Primary Health Centre;;;;;
Jos North;Tundun Wada Ward;;Ikukumung Primary Health Centre;;;;;
Jos North;Tundun Wada Ward;;Wholistic Health Centre;;;;;
Jos North;Vanderpuye Ward;;Kauna Specialist Clinic;;;;;
Jos North;Vanderpuye Ward;;Vandapuye Primary Health Centre;;;;;
Jos North;Vanderpuye Ward;;National Film Institute Primary Health Centre;;;;;
Jos North;Vanderpuye Ward;;Solat Women Clinic;;;;;
Jos South;Bukuru Ward;;Jos South Evangelical Church of West Africa (ECWA) Clinic;;;;;
Jos South;Bukuru Ward;;Bukuru Central Primary Health Centre;;;;;
Jos South;Bukuru Ward;;Mushet Clinic;;;;;
Jos South;Bukuru Ward;;Sunnah Clinic;;;;;
Jos South;Chingwi Ward;;Chugwi Primary Health Centre;;;;;
Jos South;Chingwi Ward;;Heitafwil Primary Health Centre;;;;;
Jos South;Chingwi Ward;;Chol-Chugwi Primary Health Centre;;;;;
Jos South;Dashonong Ward;;Nasco Clinic;;;;;
Jos South;Dashonong Ward;;Lowrack Hospital;;;;;
Jos South;Du A Ward;;Theological College of Northern Nigeria Clinic;;;;;
Jos South;Du A Ward;;Du Primary Health Centre;;;;;
Jos South;Du B Ward;;Doi Primary Health Centre;;;;;
Jos South;Du B Ward;;Gura -Topp Primary Health Centre;;;;;
Jos South;Du B Ward;;Kwang Primary Health Centre;;;;;
Jos South;Du B Ward;;Rayfield Primary Health Centre;;;;;
Jos South;Du B Ward;;Rayfield Medical Services;;;;;
Jos South;Giring Ward;;NAF Hospital;;;;;
Jos South;Giring Ward;;Abattoir Primary Health Centre;;;;;
Jos South;Gyel Ward A;;Jos S Specialist Hospital;;;;;
Jos South;Gyel Ward A;;Gyel Primary Health Centre;;;;;
Jos South;Gyel Ward A;;Bukuru Express Primary Health Centre;;;;;
Jos South;Gyel Ward A;;Jos South Church of Christ in Nigeria Clinic;;;;;
Jos South;Gyel Ward A;;Bukuru Express Primary Health Centre;;;;;
Jos South;Gyel Ward B;;Nyango Primary Health Centre;;;;;
Jos South;Gyel Ward B;;Parkview Specialist Hospital;;;;;
Jos South;Gyel Ward B;;Rantya Primary Health Centre;;;;;
Jos South;Gyel Ward B;;State Lowcost Primary Health Centre;;;;;
Jos South;Hwolshe Ward;;Tadam Medical Centre;;;;;
Jos South;Hwolshe Ward;;Hwolshe Primary Health Centre;;;;;
Jos South;Hwolshe Ward;;New Health Clinic;;;;;
Jos South;Kuru Ward A;;Kuru 3 Primary Health Centre;;;;;
Jos South;Kuru Ward A;;Dawbak Primary Health Care;;;;;
Jos South;Kuru Ward B;;GSTC Clinic;;;;;
Jos South;Kuru Ward B;;Practice Area Kuru Clinic;;;;;
Jos South;Kushe Ward;;Kuru 2 Primary Health Centre;;;;;
Jos South;Shen Ward;;Kazong Primary Health Centre;;;;;
Jos South;Shen Ward;;Tim-Tim Clinic;;;;;
Jos South;Shen Ward;;Shen Primary Health Centre;;;;;
Jos South;Shen Ward;;Waduruk Primary Health Centre;;;;;
Jos South;Sot Ward;;Sot Gyel Primary Health Centre;;;;;
Jos South;Sot Ward;;Gurariyom Primary Health Centre;;;;;
Jos South;Tanchol Ward;;Gyero Primary Health Centre;;;;;
Jos South;Tanchol Ward;;PHC Tahei Primary Health Centre;;;;;
Jos South;Turu A Ward;;Vom-Vet Primary Health Centre;;;;;
Jos South;Turu A Ward;;Mandela Clinic;;;;;
Jos South;Turu B Ward;;Mandela Clinic;;;;;
Jos South;Turu B Ward;;Dahwol-lal Primary Health Centre;;;;;
Jos South;Turu B Ward;;Farin lamba Primary Health Centre;;;;;
Jos South;Vwang Ward;;Vom Christian Hospital;;;;;
Jos South;Vwang Ward;;Kogom Primary Health Centre;;;;;
Jos South;Vwang Ward;;Vom Vwang Primary Health Centre;;;;;
Jos South;Vwang Ward;;Chaha Women in Health Clinic;;;;;
Jos South;Vwang Ward;;Chakarum Primary Health Centre;;;;;
Jos South;Zawang Ward A;;Kwata Primary Health Centre;;;;;
Jos South;Zawang Ward A;;Zawan Primary Health Centre;;;;;
Jos South;Zawang Ward A;;Police College Staff Clinic;;;;;
Jos South;Zawang Ward A;;Dee Medical Centre;;;;;
Jos South;Zawang Ward A;;College of Health Technology Clinic;;;;;
Jos South;Zawang Ward A;;Lo-Dung Primary Health Centre;;;;;
Jos South;Zawang Ward A;;Ola Hospital (Jos South);;;;;
Jos South;Zawang Ward B;;Zawan B Comprehensive Hospital;;;;;
Jos South;Zawang Ward B;;Fatal Ground Hospital;;;;;
Kanam;Birbyang Ward;;Ganjuwwa Primary Health Centre;;;;;
Kanam;Birbyang Ward;;Yaminu Primary Health Centre;;;;;
Kanam;Dengi Ward;;Shukura Clinic;;;;;
Kanam;Dengi Ward;;GSS Dengi Primary Health Centre;;;;;
Kanam;Dengi Ward;;Dengi General Hospital;;;;;
Kanam;Dengi Ward;;Secretariat Dengi Primary Health Centre;;;;;
Kanam;Dengi Ward;;Dengi Primary Health Centre;;;;;
Kanam;Dengi Ward;;Turaki M. Dispensary;;;;;
Kanam;Dengi Ward;;Dengi Sunnah Clinic;;;;;
Kanam;Dengi Ward;;Secretariat  Primary Health Centre;;;;;
Kanam;Dugup Ward;;Dugub Primary Health Centre;;;;;
Kanam;Dugup Ward;;Munkal Primary Health Centre;;;;;
Kanam;Gagdi Ward;;Gagdi Primary Health Centre;;;;;
Kanam;Gagdi Ward;;Gwarlak Primary Health Centre;;;;;
Kanam;Gagdi Ward;;Ngorong Primary Health Centre;;;;;
Kanam;Gagdi Ward;;Angwan Hakimi Primary Health Centre;;;;;
Kanam;Gagdi Ward;;Gagdi Town Primary Health Centre;;;;;
Kanam;Gar Bagyar Ward;;Bagyar Primary Health Centre;;;;;
Kanam;Gar Bagyar Ward;;Nan-gar Primary Health Care;;;;;
Kanam;Garga Ward;;Gargar Mban Primary Health Centre;;;;;
Kanam;Garga Ward;;Gargar Kufai Primary Health Centre;;;;;
Kanam;Garga Ward;;Bankilong Primary Health Centre;;;;;
Kanam;Gidgid Ward;;Gidgid Primary Health Centre;;;;;
Kanam;Gidgid Ward;;Gyanggyang Primary Health Centre;;;;;
Kanam;Gidgid Ward;;Gwamlar Primary Health Centre;;;;;
Kanam;Gumshar Ward;;Bankilong Primary Health Centre;;;;;
Kanam;Gumshar Ward;;Gumshar Primary Health Centre;;;;;
Kanam;Gwamlar Ward;;Gwamlar Primary Health Cenntre;;;;;
Kanam;Gyambar Ward;;Gyambar Primary Health Centre;;;;;
Kanam;Jarmai Ward;;Jarmai Primary Health Centre;;;;;
Kanam;Jom Ward;;Jom Primary Health Centre;;;;;
Kanam;Kanam Ward;;Kwalmiya Primary Health Centre;;;;;
Kanam;Kanam Ward;;Takyiroh Primary Health Centre;;;;;
Kanam;Kantana Ward;;Sharuwa Primary Health Centre;;;;;
Kanam;Kantana Ward;;Katana Primary Health Centre;;;;;
Kanam;Kantana Ward;;Tukur Primary Health Centre;;;;;
Kanam;Kantana Ward;;Furyam Primary Health Centre;;;;;
Kanam;Kantana Ward;;Dogon Ruwa Primary Health Centre;;;;;
Kanam;Kunkyam North Ward;;Kunkyam Primary Health Centre;;;;;
Kanam;Kunkyam North Ward;;Yipmong Primary Health Centre;;;;;
Kanam;Kunkyam South Ward;;Yipmong Primary Health Centre;;;;;
Kanam;Kunkyam South Ward;;kagyal Primary Health Centre;;;;;
Kanam;Kyansar Ward;;Kyansar Primary Health Centre;;;;;
Kanam;Kyaram Ward;;Kuyawa Primary Health Centre;;;;;
Kanam;Munbutbo Ward;;Munbutbo Primary Health Centre;;;;;
Kanam;Namanar Ward;;Kafel Primary Health Centre;;;;;
Kanam;Namanar Ward;;Namran Primary Health Centre;;;;;
Kanam;Namanar Ward;;Dutse Kura (WIH) Primary Health Centre;;;;;
Kanke; Gunji Ward;;Kurrum Amper Primary Health Centre;;;;;
Kanke;Ampang East Ward A;;Dangchor Primary Health Centre;;;;;
Kanke;Ampang East Ward A;;Mwel Primary Health Centre;;;;;
Kanke;Ampang East Ward A;;Kuwang Primary Health Centre;;;;;
Kanke;Ampang East Ward B;;Dungung Primary Health Centre (Kanke);;;;;
Kanke;Ampang East Ward B;;Lungpye Primary Health Centre;;;;;
Kanke;Amper Central Ward;;Gakshat Primary Health Centre;;;;;
Kanke;Amper Central Ward;;Amper Primary Health Centre;;;;;
Kanke;Amper Central Ward;;Kalashi Primary Health Centre;;;;;
Kanke;Amper Central Ward;;MPHC Amper Primary Health Centre;;;;;
Kanke;Amper Chika Ward B;;Dangkang Primary Health Centre;;;;;
Kanke;Amper Chika Ward B;;Mimyak Primary Health Centre;;;;;
Kanke;Amper Seri Ward;;Golbong Primary Health Centre;;;;;
Kanke;Amper Seri Ward;;Bwinpi Primary Health Care;;;;;
Kanke;Dawaki Ward;;Dawaki Primary Health Centre;;;;;
Kanke;Dawaki Ward;;Myet Primary Health Center;;;;;
Kanke;Dawaki Ward;;Kyankyang Primary Health Centre;;;;;
Kanke;Dawaki Ward;;Bongah Primary Health Centre;;;;;
Kanke;Garram Ward;;Nyayit Primary Health Centre;;;;;
Kanke;Garram Ward;;Forkong Primary Health Centre;;;;;
Kanke;Garram Ward;;Tigya Garam Primary Health Centre;;;;;
Kanke;Garram Ward;;Kurum Garam Primary Health Centre;;;;;
Kanke;Gugur Ward;;Gugur Pada Primary Health Centre;;;;;
Kanke;Kabwir Gyangyan Ward;;Gyangyang Primary Health Centre;;;;;
Kanke;Kabwir Pada Ward;;Lur Primary Health Centre;;;;;
Kanke;Kabwir Pada Ward;;Myalche Primary Health Centre;;;;;
Kanke;Kabwir Pada Ward;;Kwal Primary Health Centre;;;;;
Kanke;Kabwir Pada Ward;;Kabwir Basic Primary Health Care;;;;;
Kanke;Kwarip Ward;;Tuwan Primary Health Centre;;;;;
Kanke;Kwarip Ward;;Rong Primary Health Centre;;;;;
Kanke;Kwarip Ward;;Lebwit Primary Health Centre;;;;;
Kanke;Langshi Ward;;Langshi Primary Health Centre;;;;;
Kanke;Nemel Ward;;Nekong Primary Health Centre;;;;;
Kanke;Nemel Ward;;Leptul Primary Health Centre;;;;;
Kanke;Nemel Ward;;Lerpye Primary Health Centre;;;;;
Kanke;Nemel Ward;;Nemel Primary Health Centre;;;;;
Kanke;Shiwer Ward;;Shiwer Primary Health Centre;;;;;
Kanke;Shiwer Ward;;Mangtam Primary Health Centre;;;;;
Kanke;Somji Ward;;Bolkon Primary Health Centre;;;;;
Kanke;Somji Ward;;Rangkim Primary Health Centre;;;;;
Kanke;Tabulung Ward;;Kulla Primary Health Centre;;;;;
Kanke;Tabulung Ward;;Tabulung Primary Health Centre;;;;;
Langtang North;Funyalang Ward;;Fun Yallang Primary Health Centre;;;;;
Langtang North;Jat Ward;;Biller Health Post;;;;;
Langtang North;Jat Ward;;Lohmak  Health Post;;;;;
Langtang North;Jat Ward;;Kunkwom Primary Health Centre/ Model centre;;;;;
Langtang North;Jat Ward;;Sabon Layi Primary Health Centre;;;;;
Langtang North;Keller Ward;;Gongbali Primary Health Centre;;;;;
Langtang North;Keller Ward;;Zamkwar Primary Health Centre;;;;;
Langtang North;Keller Ward;;Tipsim Primary Health Centre;;;;;
Langtang North;Keller Ward;;Dangyil Primary Health Centre;;;;;
Langtang North;Keller Ward;;Yakot Primary Health Centre;;;;;
Langtang North;Keller Ward;;Zakbai Primary Health Centre;;;;;
Langtang North;Kuffen Ward A;;Kuffeng A School Clinic;;;;;
Langtang North;Kuffen Ward A;;Zangzat Primary Health Centre;;;;;
Langtang North;Kuffen Ward B;;Comfort Clinic;;;;;
Langtang North;Kuffen Ward B;;Zamlir Primary Health Centre;;;;;
Langtang North;Kuffen Ward B;;Bankun Primary Health Centre;;;;;
Langtang North;Kuffen Ward B;;Newlife Clinic;;;;;
Langtang North;Kuffen Ward C;;Bapkwai Primary Health Centre;;;;;
Langtang North;Kuffen Ward C;;Takfa Primary Health Centre;;;;;
Langtang North;Kwallak Ward;;Longbap Primary Health Centre;;;;;
Langtang North;Kwallak Ward;;Kwallak Primary Health Centre;;;;;
Langtang North;Kwanpe Ward;;Tunkun Primary Health Centre;;;;;
Langtang North;Kwanpe Ward;;Kwanpe Primary Health Centre;;;;;
Langtang North;Kwanpe Ward;;Tancit Clinic;;;;;
Langtang North;Lipchok Ward;;Zamzhimin Primary Health Centre;;;;;
Langtang North;Lipchok Ward;;Lipchok Primary Health Centre;;;;;
Langtang North;Lipchok Ward;;Ndingjor Primary Health Centre;;;;;
Langtang North;Lipchok Ward;;Zamkumkum Primary Health Centre;;;;;
Langtang North;Mban Ward;;Zambirim Primary Health Centre;;;;;
Langtang North;Mban Ward;;Mban Primary Health Centre (Langtang North);;;;;
Langtang North;Nyer Ward;;Nyer Primary Health Centre;;;;;
Langtang North;Nyer Ward;;Talbut Primary Health Centre;;;;;
Langtang North;Pajat Ward;;Pajat Primary Health Centre;;;;;
Langtang North;Pajat Ward;;City Home Maternity;;;;;
Langtang North;Pajat Ward;;Wallang Primary Health Care;;;;;
Langtang North;Pajat Ward;;Luwap Clinic;;;;;
Langtang North;Pajat Ward;;Agape Clinic;;;;;
Langtang North;Pilgani Ward;;Pilgani Primary Health Centre;;;;;
Langtang North;Pishe Yashi Ward;;Shilur Health Post;;;;;
Langtang North;Pishe Yashi Ward;;Yashi Health Post;;;;;
Langtang North;Reak Ward;;Chirwak Primary Health Centre;;;;;
Langtang North;Reak Ward;;Dadur Primary Health Centre;;;;;
Langtang North;Reak Ward;;Zambau Primary Health Centre;;;;;
Langtang North;Reak Ward;;Limun Healt Post;;;;;
Langtang North;Reak Ward;;Reak Health Post;;;;;
Langtang North;Tabat Ward;;Nakowa Shishiri Primary Health Centre;;;;;
Langtang North;Tabat Ward;;Mabe Timwat Primary Health Centre;;;;;
Langtang North;Tabat Ward;;Langtang Primary Health Centre;;;;;
Langtang North;Tabat Ward;;Fale Clinic;;;;;
Langtang North;Warok Ward;;Warok Health Post;;;;;
Langtang North;Warok Ward;;Dibbar Health Post;;;;;
Langtang North;Warok Ward;;Gabong Primary Health Centre;;;;;
Langtang North;Warok Ward;;Gazum Health Post;;;;;
Langtang North;Warok Ward;;Gazum Primary Health Centre;;;;;
Langtang North;Zamko Ward;;Panzam Primary Health Centre;;;;;
Langtang North;Zamko Ward;;Zamko Juth;;;;;
Langtang North;Zamko Ward;;Zamko Alheri Clinic;;;;;
Langtang North;Zamko Ward;;Rimi Primary Health Centre (L/North);;;;;
Langtang South;Bua Tahbol Ward;;Tahboe Primary Health Centre;;;;;
Langtang South;Bua Tahbol Ward;;Barrak Primary Health Centre;;;;;
Langtang South;Dadin Kowa Ward;;Dadin Kowa Primary Health Centre;;;;;
Langtang South;Dadin Kowa Ward;;Gbaldum Primary Health Centre;;;;;
Langtang South;Fajul Ward;;Fajul Primary Health Centre;;;;;
Langtang South;Fajul Ward;;Tackchang Primary Health Centre;;;;;
Langtang South;Faya Ward;;Fumang Primary Health Centre;;;;;
Langtang South;Faya Ward;;Faya Primary Health Centre;;;;;
Langtang South;Gamaki Ward;;Gamakai Primary Health Centre;;;;;
Langtang South;Gamaki Ward;;Takalafiya Primary Health Centre;;;;;
Langtang South;Gamaki Ward;;Bolya Primary Health Centre;;;;;
Langtang South;Jemkur Ward;;Jemkur Primary Health Centre;;;;;
Langtang South;Lashel Ward;;Shiber Primary Health Centre;;;;;
Langtang South;Lashel Ward;;Wubang Primary Health Centre (Langtang South);;;;;
Langtang South;Lashel Ward;;Lashel Primary Health Centre;;;;;
Langtang South;Lashel Ward;;Zambang Primary Health Centre;;;;;
Langtang South;Mabudi North Ward;;Mabudi Primary Health Centre;;;;;
Langtang South;Mabudi North Ward;;Nagane Primary Health Centre;;;;;
Langtang South;Mabudi South Ward;;Lohkang Primary Health Centre;;;;;
Langtang South;Magama Ward;;Magama Primary Health Centre;;;;;
Langtang South;Nassarawa Ward;;Timshat Primary Health Centre;;;;;
Langtang South;Nassarawa Ward;;Karkashi Primary Health Centre;;;;;
Langtang South;Sabon Gida Ward;;Gangnum Primary Health Centre;;;;;
Langtang South;Sabon Gida Ward;;Sabon Gida Primary Health Centre;;;;;
Langtang South;Talgwang Ward;;Manwang Primary Health Centre;;;;;
Langtang South;Talgwang Ward;;Timtim Primary Health Centre;;;;;
Langtang South;Talgwang Ward;;Kamkun Primary Health Centre;;;;;
Langtang South;Talgwang Ward;;Talgwang Primary Health Centre;;;;;
Langtang South;Timbol Ward;;Ndingshan Primary Health Centre;;;;;
Langtang South;Timbol Ward;;Timbol Primary Health Centre;;;;;
Langtang South;Turaki Ward;;Kanana Primary Health Centre;;;;;
Langtang South;Turaki Ward;;Mile Four Primary Health Centre;;;;;
Langtang South;Turaki Ward;;Dorowa Primary Health Centre;;;;;
Langtang South;Turaki Ward;;Turaki Primary Health Centre;;;;;
Langtang South;Turaki Ward;;Mahaga Primary Health Centre;;;;;
Mangu;Ampang Ward;;Ampang COCIN Clinic;;;;;
Mangu;Ampang Ward;;Kombring Primary Health Centre;;;;;
Mangu;Ampang Ward;;Bidol Primary Health Centre;;;;;
Mangu;Ampang Ward;;Perka Primary Health Centre;;;;;
Mangu;Ampang Ward;;Ampang Women In Health Clinic;;;;;
Mangu;Ampang Ward;;Kopshu Primary Health Centre;;;;;
Mangu;Ampang Ward;;Fwam Primary Health Centre;;;;;
Mangu;Bwonpe Ward;;Bwonpe Primary Health Centre;;;;;
Mangu;Chakfem Ward;;Narohos Primary Health Centre;;;;;
Mangu;Chakfem Ward;;Manja Primary Health Centre;;;;;
Mangu;Chakfem Ward;;Mwar Jensalem Health Dispensary;;;;;
Mangu;Chakfem Ward;;Wubel Women in Health;;;;;
Mangu;Chakfem Ward;;Chakfem Primary Health Centre;;;;;
Mangu;Chanso Ward;;Badni Primary Health Centre;;;;;
Mangu;Chanso Ward;;Pyengiji Primary Health Centre;;;;;
Mangu;Chanso Ward;;Dukli Primary Health Centre;;;;;
Mangu;Chanso Ward;;Chanso Primary Health Centre;;;;;
Mangu;Gindiri Ward 1;;Gindiri Church of Christ in Nigeria Primary Health Centre;;;;;
Mangu;Gindiri Ward 1;;Gindiri Des Memorial Hospital Sabon Barki;;;;;
Mangu;Gindiri Ward 1;;Juth Comprehensive Health Centre;;;;;
Mangu;Gindiri Ward 1;;Girls High School Primary Health Centre;;;;;
Mangu;Gindiri Ward 1;;Tongzong Gindiri Allah Na Nan Clinic;;;;;
Mangu;Gindiri Ward 1;;Gindiri College of Education Clinic;;;;;
Mangu;Gindiri Ward 2;;Government Secondary School Bwalbwang Primary Health Care;;;;;
Mangu;Gindiri Ward 2;;Bwehtfuk Dispensary;;;;;
Mangu;Gindiri Ward 2;;Gindiri Primary Health Centre;;;;;
Mangu;Gindiri Ward 2;;Artu Memorial Clinic;;;;;
Mangu;Gindiri Ward 2;;Dalang Primary Health Centre;;;;;
Mangu;Halle Ward;;Jwak Mai Tumbi Primary Health Centre;;;;;
Mangu;Halle Ward;;Kantoma Primary Health Centre;;;;;
Mangu;Halle Ward;;Mangu Hale COCIN Clinic;;;;;
Mangu;Halle Ward;;Kinat Primary Health Centre;;;;;
Mangu;Halle Ward;;Gyambwas Primary Health Centre;;;;;
Mangu;Halle Ward;;Hale Alheri Clinic;;;;;
Mangu;Halle Ward;;Panshak Clinic Sabon Gari;;;;;
Mangu;Halle Ward;;Mairana Primary Health Centre Women in Health;;;;;
Mangu;Halle Ward;;Bugal Primary Health Centre;;;;;
Mangu;Halle Ward;;Kyampus Primary Health Centre;;;;;
Mangu;Halle Ward;;Farin Kassa Primary Health Centre;;;;;
Mangu;Halle Ward;;Mangu Halle Primary Health Centre;;;;;
Mangu;Janaret Ward;;Kondigohor Primary Health Care;;;;;
Mangu;Janaret Ward;;Jannaret Primary Health Centre;;;;;
Mangu;Jipal Ward;;Kabum Primary Health Care;;;;;
Mangu;Jipal Ward;;Bul Primary Health Centre;;;;;
Mangu;Jipal Ward;;Tokbet Community Clinic;;;;;
Mangu;Jipal Ward;;Jipal Model Primary Health Centre;;;;;
Mangu;Jipal Ward;;Katul Primary Health Centre;;;;;
Mangu;Jipal Ward;;Zwakkal Primary Health Care;;;;;
Mangu;Jipal Ward;;Rundum Primary Health Centre;;;;;
Mangu;Kadunu Ward;;Limak Dispensary;;;;;
Mangu;Kadunu Ward;;Kadunu Primary Health Centre;;;;;
Mangu;Kadunu Ward;;Doss Primary Health Centre;;;;;
Mangu;Kadunu Ward;;Patiko Primary Health Centre;;;;;
Mangu;Kadunu Ward;;Bukata Dispensary;;;;;
Mangu;Kasuwan Ali (Pumbush ) Ward;;Kasuwa Ali Women in Health Clinic;;;;;
Mangu;Kerang Ward;;Fwangkwak Primary Health Centre;;;;;
Mangu;Kerang Ward;;Fomulam Primary Health Centre;;;;;
Mangu;Kerang Ward;;Kerang Primary Health Centre;;;;;
Mangu;Kerang Ward;;Kerang Baptist Clinic;;;;;
Mangu;Kerang Ward;;Dikibin Community Clinic;;;;;
Mangu;Kombun Ward;;Ruff Primary Health Care;;;;;
Mangu;Kombun Ward;;Ruvwang Primary Health Care;;;;;
Mangu;Kombun Ward;;Millet Community Clinic;;;;;
Mangu;Kombun Ward;;Chisu Community Clinic;;;;;
Mangu;Kombun Ward;;J-Millet Women in Health Clinic;;;;;
Mangu;Kombun Ward;;Bwai Church of Christ in Nation  Maternity;;;;;
Mangu;Kombun Ward;;Hiktup Community Clinic;;;;;
Mangu;Kombun Ward;;Mper Primary Health Care;;;;;
Mangu;Kombun Ward;;Bwai Primary Health Care;;;;;
Mangu;Kombun Ward;;Murish Women in Health Clinic;;;;;
Mangu;Kombun Ward;;Bwai Haske Medical Centre;;;;;
Mangu;Kombun Ward;;Kombun Primary Health Centre;;;;;
Mangu;Langai Ward;;Moses Dispensary;;;;;
Mangu;Langai Ward;;Langai Primary Health Centre;;;;;
Mangu;Langai Ward;;Gimti Primary Health Care;;;;;
Mangu;Mangu Ward 1;;Mangu Dispensary;;;;;
Mangu;Mangu Ward 1;;Jags Clinic;;;;;
Mangu;Mangu Ward 1;;Julius Memorial Clinic;;;;;
Mangu;Mangu Ward 1;;Naallah Nakowa Hospital;;;;;
Mangu;Mangu Ward 1;;Mangu Primary Health Centre;;;;;
Mangu;Mangu Ward 1;;Sauki Medical Laboratory;;;;;
Mangu;Mangu Ward 1;;Central Medical Laboratory;;;;;
Mangu;Mangu Ward 1;;Nenman Family Health Clinic;;;;;
Mangu;Mangu Ward 2;;Mangu General Hospital;;;;;
Mangu;Mangu Ward 2;;Peoples Nursing Home;;;;;
Mangu;Mangu Ward 2;;Jwakkom Primary Health Care;;;;;
Mangu;Mangu Ward 2;;Bungha Gida Primary Health Centre;;;;;
Mangu;Mangu Ward 2;;Nisi Dominus Medical Centre;;;;;
Mangu;Mangu Ward 2;;Bungha Dawo Hope Clinic and Maternity;;;;;
Mangu;Mangu Ward 2;;Mangu COCIN Hospital and  Rehabilitation Centre S/Layi;;;;;
Mangu;Mangun Ward;;Patjwar Sekyen Clinic Mangun;;;;;
Mangu;Mangun Ward;;Nyemdung Primary Health Centre;;;;;
Mangu;Mangun Ward;;Bamyil Clinic;;;;;
Mangu;Mangun Ward;;Ruzzco Clinic/Maternity;;;;;
Mangu;Mangun Ward;;Mangun Godiya Clinic;;;;;
Mangu;Mangun Ward;;Gwakshesh Primary Health Care;;;;;
Mangu;Mangun Ward;;Nakling Dispensary;;;;;
Mangu;Mangun Ward;;Mangun Primary Health Centre;;;;;
Mangu;Mangun Ward;;Kaharyam Primary Health Centre;;;;;
Mangu;Panyam North Ward;;Panyam Church of Christ in Nation Clinic and Maternity;;;;;
Mangu;Panyam North Ward;;Kwahas Primary Health Care;;;;;
Mangu;Panyam North Ward;;Washna Primary Health Centre;;;;;
Mangu;Panyam North Ward;;Daika Primary Health Centre;;;;;
Mangu;Panyam North Ward;;Panyam COCIN Comprehensive  Health Centre;;;;;
Mangu;Panyam North Ward;;Ajing Primary Health Centre;;;;;
Mangu;Panyam North Ward;;Panyam Primary Health Centre;;;;;
Mangu;Panyam South Ward;;Kopal Primary Health Centre;;;;;
Mangu;Panyam South Ward;;Telengteng Primary Health Care;;;;;
Mangu;Panyam South Ward;;Niyes Primary Health Centre;;;;;
Mangu;Panyam South Ward;;Kogul Primary Health Centre;;;;;
Mangu;Pushit Ward;;Tillengpat Primary Health Centre;;;;;
Mangu;Pushit Ward;;Gohotkung Women in Health Clinic;;;;;
Mangu;Pushit Ward;;Gwet Primary Health Care;;;;;
Mangu;Pushit Ward;;Kulandos Clinic;;;;;
Mangu;Pushit Ward;;Kiffong Primary Health Centre;;;;;
Mangu;Pushit Ward;;Pushit Primary Health Centre;;;;;
Mikang;Baltep Ward;;Baltep Primary Health Centre;;;;;
Mikang;Din Ward;;Din Primary Health Centre;;;;;
Mikang;Din Ward;;Kongyel Primary Health Care Post;;;;;
Mikang;Din Ward;;Pangpit Primary Health Care Clinic;;;;;
Mikang;Din Ward;;Talme Primary Health Centre;;;;;
Mikang;Gadyoum Ward;;Gadyuom Primary Health Care Clinic;;;;;
Mikang;Gadyoum Ward;;Alheri Clinic;;;;;
Mikang;Kehil Ward;;Garkawa 1 Primary Health Centre;;;;;
Mikang;Kehil Ward;;Zhimakwi Dutse Primary Health Care Clinic;;;;;
Mikang;Kehil Ward;;Jimakwi Primary Health Centre;;;;;
Mikang;Koenoem A Ward;;Lifidi Primary Health Centre;;;;;
Mikang;Koenoem A Ward;;Nwoop Primary Health Centre;;;;;
Mikang;Koenoem B Ward;;Lamer Primary Health Care Clinic;;;;;
Mikang;Koenoem C Ward;;Zomo Primary Health Centre;;;;;
Mikang;Lalin Ward;;Pal Primary Health Care Post;;;;;
Mikang;Lalin Ward;;Gabiet Primary Health Centre;;;;;
Mikang;Lalin Ward;;Lalin Primary Health Centre;;;;;
Mikang;Lalin Ward;;Moeggam Primary Health Care Clinic;;;;;
Mikang;Lalin Ward;;Putling Primary Health Care Post;;;;;
Mikang;Luham Ward;;Gang Primary Health Care Clinic;;;;;
Mikang;Luham Ward;;Luham Primary Health Centre;;;;;
Mikang;Luham Ward;;Gwotgap Primary Health Care Clinic;;;;;
Mikang;Moedong Ward;;Gwotkat Primary Health Centre;;;;;
Mikang;Pal Ward;;Marpyen Primary Health Care Post;;;;;
Mikang;Piapung A Ward;;Koetes Primary Health Care Clinic;;;;;
Mikang;Piapung A Ward;;Gangoevoel Primary Health Care Clinic;;;;;
Mikang;Piapung B Ward;;St More Dispensary;;;;;
Mikang;Piapung B Ward;;Piapung Primary Health Centre;;;;;
Mikang;Piapung B Ward;;Kopji Health Clinic;;;;;
Mikang;Piapung B Ward;;Shamang Primary Health Centre;;;;;
Mikang;Telkang Ward;;Lakai Primary Health Care Post;;;;;
Mikang;Telkang Ward;;Pankai Primary Health Centre;;;;;
Mikang;Telkang Ward;;Betkang Primary Health Care Clinic;;;;;
Mikang;Tunkus Ward;;Ventex Clinic;;;;;
Mikang;Tunkus Ward;;Tunkus Primary Health Centre;;;;;
Mikang;Tunkus Ward;;Tunkus General Hospital;;;;;
Mikang;Tunkus Ward;;Yaro Primary Health Centre;;;;;
Mikang;Voryoum Ward;;Garkawa 2 Primary Health Centre;;;;;
Mikang;Yep -West Ward;;Lua Primary Health Care Post;;;;;
Pankshin;Belning Ward;;Lugor Primary Health Centre;;;;;
Pankshin;Belning Ward;;Kullingning Primary Health Centre;;;;;
Pankshin;Belning Ward;;Dungye Primary Health Centre;;;;;
Pankshin;Belning Ward;;Gung Primary Health Centre;;;;;
Pankshin;Belning Ward;;Hikmuram Primary Health Centre;;;;;
Pankshin;Belning Ward;;Koplok Primary Health Centre;;;;;
Pankshin;Belning Ward;;Church of Christ in Nigeria Maternity Home;;;;;
Pankshin;Belning Ward;;Tayin Primary Health Centre;;;;;
Pankshin;Chip Central Ward;;Nadu Primary Health Centre;;;;;
Pankshin;Chip Central Ward;;Chip Primary Health Centre;;;;;
Pankshin;Chip Central Ward;;Jepmidel Primary Health Centre;;;;;
Pankshin;Dakpai Ward;;Bwer Primary Health Centre;;;;;
Pankshin;Dakpai Ward;;Dok-Pai Primary Health Centre;;;;;
Pankshin;Dakpai Ward;;Nkup Primary Health Centre;;;;;
Pankshin;Fier Ward;;Mile 8 Primary Health Centre;;;;;
Pankshin;Fier Ward;;Fier Primary Health Centre;;;;;
Pankshin;Fier Ward;;Pankshin Church of Christ in Nigeria Dispensary;;;;;
Pankshin;Fier Ward;;Takkas Primary Health Centre;;;;;
Pankshin;Fier Ward;;Jakwal Primary Health Centre;;;;;
Pankshin;Fier Ward;;Bumnan Primary Health Centre;;;;;
Pankshin;Fier Ward;;Fifen Primary Health Centre;;;;;
Pankshin;Fier Ward;;Posat Primary Health Centre;;;;;
Pankshin;Fier Ward;;Koromlu Primary Health Centre;;;;;
Pankshin;Fier Ward;;Dungkwak Primary Health Centre;;;;;
Pankshin;Jiblik Ward;;Retyil-Dyis Primary Health Centre;;;;;
Pankshin;Jiblik Ward;;Dyis Primary Health Centre;;;;;
Pankshin;Jiblik Ward;;Guzah Primary Health Centre;;;;;
Pankshin;Jiblik Ward;;Jiblik Primary Health Centre;;;;;
Pankshin;Jing Ward;;Jing Primary Health Centre;;;;;
Pankshin;Jing Ward;;Rafin Sanye Primary Health Centre;;;;;
Pankshin;Jing Ward;;Sihin Primary Health Centre;;;;;
Pankshin;Kadung Ward;;Gassarak Primary Health Centre;;;;;
Pankshin;Kadung Ward;;Jivir Primary Health Centre;;;;;
Pankshin;Kadung Ward;;Kumbul Church of Christ in Nigeria Clinic;;;;;
Pankshin;Kadung Ward;;Kumbul Primary Health Centre;;;;;
Pankshin;Kadung Ward;;Gilling Primary Health Centre;;;;;
Pankshin;Kadung Ward;;Gurup Primary Health Centre;;;;;
Pankshin;Kadung Ward;;Mwel Jivir Primary Health Centre;;;;;
Pankshin;Kagu Ward;;Guntong Primary Health Centre;;;;;
Pankshin;Kagu Ward;;Laplek Primary Health Centre;;;;;
Pankshin;Kagu Ward;;Kagu Primary Health Centre;;;;;
Pankshin;Kagu Ward;;Dagmet Primary Health Centre;;;;;
Pankshin;Kagu Ward;;Baptish High Clinic;;;;;
Pankshin;Kagu Ward;;Kagu Church of Christ in Nigeria Clinic;;;;;
Pankshin;Kangmum Ward;;Dimwai Primary Health Centre;;;;;
Pankshin;Kangmum Ward;;Minting Primary Health Centre;;;;;
Pankshin;Kangmum Ward;;Munghokot Primary Health Centre;;;;;
Pankshin;Kangmum Ward;;Longkat Church of Christ in Nigeria Clinic;;;;;
Pankshin;Kangshu Ward;;Wuya Primary Health Centre;;;;;
Pankshin;Kangshu Ward;;Jinjim Primary Health Centre;;;;;
Pankshin;Kangshu Ward;;Janaret Primary Health Centre;;;;;
Pankshin;Kangshu Ward;;Kwanka Primary Health Centre;;;;;
Pankshin;Kangshu Ward;;Gonung Memorial Clinic;;;;;
Pankshin;Kasgong Ward;;Kauna Dispensary;;;;;
Pankshin;Kasgong Ward;;Tambes Primary Health Centre;;;;;
Pankshin;Kasgong Ward;;Duk Primary Health Centre;;;;;
Pankshin;Kasgong Ward;;Fumbis Primary Health Centre;;;;;
Pankshin;Lankan Ward;;Ninukut Primary Health Centre;;;;;
Pankshin;Lankan Ward;;Nungwus Primary Health Centre;;;;;
Pankshin;Lankan Ward;;Jak Government Secondary School Clinic;;;;;
Pankshin;Lankan Ward;;Lankan Primary Health Centre;;;;;
Pankshin;Longbam Ward;;Jibam Primary Health Centre;;;;;
Pankshin;Longbam Ward;;Kapil Women in Health Clinic;;;;;
Pankshin;Longbam Ward;;Shoro Primary Health Centre;;;;;
Pankshin;Mudkang Nyelleng Ward;;Gwabi Bot Primary Health Centre;;;;;
Pankshin;Mudkang Nyelleng Ward;;Gwabi Kor Primary Health Centre;;;;;
Pankshin;Mudkang Nyelleng Ward;;Mier Primary Health Centre;;;;;
Pankshin;Mudkang Nyelleng Ward;;Nyelleng Primary Health Centre;;;;;
Pankshin;Mudkang Nyelleng Ward;;Kadyis Primary Health Centre;;;;;
Pankshin;Pankshin Ward;;Pankshin Government College Clinic;;;;;
Pankshin;Pankshin Ward;;Pankshin Medical Centre;;;;;
Pankshin;Pankshin Ward;;Vel Primary Health Centre;;;;;
Pankshin;Pankshin Ward;;Pankshin Town Clinic;;;;;
Pankshin;Pankshin Ward;;Wulmu Primary Health Centre;;;;;
Pankshin;Pankshin Ward;;Salam Dispensary;;;;;
Pankshin;Pankshin Ward;;Buns Clinic;;;;;
Pankshin;Pankshin Ward;;All Comfort Clinic;;;;;
Pankshin;Pankshin Ward;;Pankshin Government Secondary School Clinic;;;;;
Pankshin;Pankshin Ward;;St Benedick Clinic;;;;;
Pankshin;Pankshin Ward;;Dilla Primary Health Centre;;;;;
Pankshin;Pankshin Ward;;Frank Clinic;;;;;
Pankshin;Pankshin Ward;;Pankshin General Hospital;;;;;
Pankshin;Pankshin Ward;;Fwor Primary Health Centre;;;;;
Pankshin;Pankshin Ward;;Standard Medical Laboratory;;;;;
Pankshin;Tal Ward B;;Mungne Primary Health Centre;;;;;
Pankshin;Wokkos Ward;;Kwalla Wokkos Primary Health Centre;;;;;
Pankshin;Wokkos Ward;;Gile Primary Health Centre;;;;;
Pankshin;Wokkos Ward;;Wokkos Central Primary Health Centre;;;;;
Pankshin;Wokkos Ward;;Jimin Primary Health Centre;;;;;
Pankshin;Wokkos Ward;;Dang Primary Health Centre;;;;;
Pankshin;Wokkos Ward;;Tazuk Primary Health Centre;;;;;
Pankshin;Wuchembe Ward;;Wentul Primary Health Centre;;;;;
Pankshin;Wuchembe Ward;;Shippang Primary Health Centre;;;;;
Pankshin;Wuchembe Ward;;Mudel Primary Health Centre;;;;;
Pankshin;Wuchembe Ward;;Chigwong Primary Health Centre;;;;;
Pankshin;Wuseli Ward;;Wuseli Central Primary Health Centre;;;;;
Pankshin;Wuseli Ward;;Dung-Wuseli Primary Health Centre;;;;;
Qua'an Pan;Bwall Ward;;Dungras Primary Health Centre;;;;;
Qua'an Pan;Bwall Ward;;Nagang Primary Health Care;;;;;
Qua'an Pan;Bwall Ward;;Bwall Primary Health Centre;;;;;
Qua'an Pan;Bwall Ward;;Labi Primary Health Centre;;;;;
Qua'an Pan;Bwall Ward;;Nakum Primary Health Centre;;;;;
Qua'an Pan;Doemak-Goechim Ward;;Fungleet Namoen Primary Health Centre;;;;;
Qua'an Pan;Doemak-Koplong Ward;;Doemak 1 Primary Health Centre;;;;;
Qua'an Pan;Doemak-Koplong Ward;;Ba'ap Staff Clinic;;;;;
Qua'an Pan;Doemak-Koplong Ward;;Doemak 2 Primary Health Centre;;;;;
Qua'an Pan;Doemak-Koplong Ward;;Baal Primary Health Centre;;;;;
Qua'an Pan;Dokan Kasuwa East Ward;;Dokan Kasuwa Primary Health Centre;;;;;
Qua'an Pan;Dokan Kasuwa East Ward;;Yilpia Primary Health Centre;;;;;
Qua'an Pan;Dokan Kasuwa West Ward;;Kwanoeng Primary Health Centre;;;;;
Qua'an Pan;Dokan Kasuwa West Ward;;Le'et Primary Health Centre;;;;;
Qua'an Pan;Dokan Kasuwa West Ward;;Moedu'ut Primary Health Centre;;;;;
Qua'an Pan;Janta-Aningo Ward;;Hancin Kare Primary Health Centre;;;;;
Qua'an Pan;Janta-Aningo Ward;;Angwan Latong Primary Health Centre;;;;;
Qua'an Pan;Janta-Aningo Ward;;Jenta Primary Health Centre;;;;;
Qua'an Pan;Kurgwi  West Ward;;Bakin Kande Primary Health Centre;;;;;
Qua'an Pan;Kurgwi  West Ward;;Kurgwi Primary Health Centre;;;;;
Qua'an Pan;Kurgwi East Ward;;Angwan Gagar Primary Health Centre;;;;;
Qua'an Pan;Kwa Ward;;Kwa Primary Health Centre;;;;;
Qua'an Pan;Kwa Ward;;Kopffiar Primary Health Centre;;;;;
Qua'an Pan;Kwa Ward;;Miket Primary Health Centre;;;;;
Qua'an Pan;Kwande Ward;;Turniang Primary Health Centre;;;;;
Qua'an Pan;Kwande Ward;;Gamji Muudutdan Primary Health Centre;;;;;
Qua'an Pan;Kwande Ward;;Gidan Dabat Primary Health Centre;;;;;
Qua'an Pan;Kwande Ward;;Kwande Primary Health Centre;;;;;
Qua'an Pan;Kwande Ward;;Angwan Domen Primary Health Centre;;;;;
Qua'an Pan;Kwande Ward;;Npap Primary Health Centre;;;;;
Qua'an Pan;Kwande1 Ward;;Angwan Damen Primary Health Care;;;;;
Qua'an Pan;Kwande1 Ward;;Bakin Kande Primary Health Care;;;;;
Qua'an Pan;Kwande1 Ward;;Turning Primary Health Care;;;;;
Qua'an Pan;Kwande1 Ward;;Gumji Primary Health Care;;;;;
Qua'an Pan;Kwande1 Ward;;Gidan Dabat Primary Health Care;;;;;
Qua'an Pan;Kwande1 Ward;;Kwande Primary Health Care;;;;;
Qua'an Pan;Kwande1 Ward;;Npap Primary Health Care;;;;;
Qua'an Pan;Kwang Ward;;Kwang 1 Primary Health Centre;;;;;
Qua'an Pan;Kwang Ward;;Fujing Primary Health Centre;;;;;
Qua'an Pan;Kwang Ward;;Koplong Kwang Primary Health Centre;;;;;
Qua'an Pan;Kwang Ward;;Kwang 2 Primary Health Centre;;;;;
Qua'an Pan;Kwoor Ward;;Kwoor Primary Health Centre;;;;;
Qua'an Pan;Lankaku-Kwari Ward;;Kwari Primary Health Centre;;;;;
Qua'an Pan;Lankaku-Kwari Ward;;Tuatdong Primary Health Centre;;;;;
Qua'an Pan;Lankaku-Kwari Ward;;Langkaku Primary Health Centre;;;;;
Qua'an Pan;Lankaku-Kwari Ward;;Tuatong Sua'as Primary Health Centre;;;;;
Qua'an Pan;Lankaku-Kwari Ward;;Duwe Primary Health Centre;;;;;
Qua'an Pan;Lardang Ward;;Bonggolong Primary Health Centre;;;;;
Qua'an Pan;Lardang Ward;;Lardang Primary Health Centre;;;;;
Qua'an Pan;Latok Ward;;Bong Primary Health Centre;;;;;
Qua'an Pan;Luukwo Ward;;Sabon Gida Gamji Primary Health Centre;;;;;
Qua'an Pan;Luukwo Ward;;Janyaro Primary Health Centre;;;;;
Qua'an Pan;Luukwo Ward;;Sabon Gida Primary Health Centre (Qua'an Pan);;;;;
Qua'an Pan;Luukwo Ward;;B/Ciyawa Primary Health Centre;;;;;
Qua'an Pan;Moeda/Shangfuup Ward;;Moeda/Shangfuup Cottage Hospital;;;;;
Qua'an Pan;Moeda/Shangfuup Ward;;Demchin Primary Health Centre;;;;;
Qua'an Pan;Moeda/Shangfuup Ward;;Kwalla Primary Health Centre;;;;;
Qua'an Pan;Moeda/Shangfuup Ward;;Maramba Damshin Primary Health Centre;;;;;
Qua'an Pan;Moeda/Shangfuup Ward;;Vutu Primary Health Centre;;;;;
Qua'an Pan;Namu Ward;;Gung Sua'as Primary Health Centre;;;;;
Qua'an Pan;Namu Ward;;Tanglong Primary Health Care;;;;;
Qua'an Pan;Namu Ward;;Namu Primary Health Centre;;;;;
Qua'an Pan;Njak-Shindai Ward;;Mangoro Uku Primary Health Centre;;;;;
Qua'an Pan;Njak-Shindai Ward;;Angwan Mangu Primary Health Centre;;;;;
Qua'an Pan;Njak-Shindai Ward;;Yayil Primary Health Centre;;;;;
Qua'an Pan;Njak-Shindai Ward;;Koplong Primary Health Centre;;;;;
Qua'an Pan;Njak-Shindai Ward;;Njak Primary Health Centre;;;;;
Qua'an Pan;Yillar/Tim Ward;;Kopfogoom Primary Health Centre;;;;;
Qua'an Pan;Yillar/Tim Ward;;Tim Primary Health Centre;;;;;
Qua'an Pan;Yillar/Tim Ward;;Yillar Primary Health Centre;;;;;
Riyom;Attakar Ward;;Gotron Primary Health Centre;;;;;
Riyom;Attakar Ward;;Gotoro Primary Health Care;;;;;
Riyom;Bachit Ward;;Lwa-Bachi Primary Health Centre;;;;;
Riyom;Bachit Ward;;Rakwang Bachit Primary Health Centre;;;;;
Riyom;Bachit Ward;;Bachit Primary Health Centre;;;;;
Riyom;Bum Ward;;Danwal Primary Health Centre;;;;;
Riyom;Bum Ward;;Bum Primary Health Centre;;;;;
Riyom;Bum Ward;;Tomborong Primary Health Centre;;;;;
Riyom;Danto Ward;;Ade Jaram Private Clinic ;;;;;
Riyom;Danto Ward;;Koronfang Primary Health Centre;;;;;
Riyom;Danto Ward;;Koroniho Primary Health Centre;;;;;
Riyom;Fangroi Ward;;Gonkot Primary Health Centre;;;;;
Riyom;Gura Ward;;Kwakwi Station Primary Health Centre;;;;;
Riyom;Gura Ward;;Jilead Private Medical Centre;;;;;
Riyom;Gura Ward;;Nkun Primary Health Centre;;;;;
Riyom;Gura Ward;;Kwakwi Primary Health Centre;;;;;
Riyom;Jol Ward;;Janda Primary Health Centre;;;;;
Riyom;Jol Ward;;Daku Primary Health Centre;;;;;
Riyom;Jol Ward;;Jol Primary Health Centre;;;;;
Riyom;Kwi Ward;;Kwi-Riyom Primary Health Centre;;;;;
Riyom;Kwi Ward;;Kwi Primary Health Centre;;;;;
Riyom;Kwogo Ward;;Gol-Hoss Primary Health Centre;;;;;
Riyom;Kwogo Ward;;Nichi Primary Health Centre (Riyom);;;;;
Riyom;Kwogo Ward;;Rafin Acha Primary Health Centre;;;;;
Riyom;Ra-Hoss Ward;;Nukur Ward Primary Health Centre;;;;;
Riyom;Ra-Hoss Ward;;Tyana Primary Health Centre;;;;;
Riyom;Ra-Hoss Ward;;Sambak Primary Health Centre;;;;;
Riyom;Ra-Hoss Ward;;Ra-Hoss Primary Health Centre;;;;;
Riyom;Ra-Hoss Ward;;Mere Primary Health Centre;;;;;
Riyom;Rim Ward;;Angwan-Wereng Primary Health Centre;;;;;
Riyom;Rim Ward;;Dyan Primary Health Centre;;;;;
Riyom;Rim Ward;;Rim Primary Health Centre;;;;;
Riyom;Riyom Ward;;Riyom Primary Health Centre;;;;;
Riyom;Riyom Ward;;Byei primary Health Centre;;;;;
Riyom;Riyom Ward;;Dachindo Primary Health Centre;;;;;
Riyom;Riyom Ward;;Da-Pam Fom Clinic;;;;;
Riyom;Riyom Ward;;Ade J/Memorial Clinic;;;;;
Riyom;Sharubutu Ward;;Sharubutu Primary Health Centre;;;;;
Riyom;Sharubutu Ward;;Bach Model Health Centre;;;;;
Riyom;Sharubutu Ward;;Bachi Primary Health Centre;;;;;
Riyom;Sharubutu Ward;;Bachi Primary Health Centre;;;;;
Riyom;Sharubutu Ward;;Bangai Women in Health Clinic;;;;;
Riyom;Sharubutu Ward;;Bangai Primary Health Centre;;;;;
Riyom;Shonong Ward;;Zere Primary Health Centre;;;;;
Riyom;Shonong Ward;;Shonong Primary Health Centre;;;;;
Riyom;Shonong Ward;;Lwa Primary Health Centre;;;;;
Riyom;Shonong Ward;;Fang Primary Health Centre;;;;;
Riyom;Shonong Ward;;Korrong Fang Primary Health Centre;;;;;
Riyom;Shonong Ward;;Nichi Primary Health Centre;;;;;
Riyom;Shonong Ward;;Sehshong Primary Health Centre;;;;;
Riyom;Sopp Ward;;Sopp Primary Health Centre;;;;;
Riyom;Sopp Ward;;Kak Primary Health Centre;;;;;
Riyom;Sopp Ward;;Tom Gangare Primary Health Centre;;;;;
Riyom;Sopp Ward;;Tigi Primary Health Centre;;;;;
Riyom;Ta Hoss Ward;;Ta-Hoss Primary Health Centre;;;;;
Riyom;Ta Hoss Ward;;Bindi Primary Health Centre;;;;;
Riyom;Ta Hoss Ward;;Bindi Primary Health Centre;;;;;
Riyom;Tse Ward;;Wan Memorial Clinic;;;;;
Riyom;Tse Ward;;Ganawuri Planned Parenthood of Nigeria Clinic;;;;;
Riyom;Tse Ward;;Danuwal Primary Health Centre;;;;;
Riyom;Wereng Kwok Ward;;Wereng Primary Health Centre;;;;;
Riyom;Wereng Kwok Ward;;Wereng Kerana Primary Health Centre;;;;;
Riyom;Wereng Kwok Ward;;Dabwan Primary Health Centre;;;;;
Riyom;Wereng Kwok Ward;;Baten Primary Health Centre;;;;;
Riyom;Wereng Kwok Ward;;Wereng Camp Primary Health Centre;;;;;
Riyom;Wereng Kwok Ward;;Riyom Government Secondary Shcool Clinic;;;;;
Shendam;Derteng Ward;;Duankwar Primary Health Centre;;;;;
Shendam;Derteng Ward;;Derteng Primary Health Centre;;;;;
Shendam;Dokan Tofa Ward;;Fet Primary Health Centre;;;;;
Shendam;Dokan Tofa Ward;;Lanes Primary Health Care;;;;;
Shendam;Dokan Tofa Ward;;Dokan Tofa Primary Health Centre;;;;;
Shendam;Dokan Tofa Ward;;Gunglong Primary Health Centre;;;;;
Shendam;Jiban Ward;;Rijiya Giwa Primary Health Centre;;;;;
Shendam;Jiban Ward;;Pebar Primary Health Centre;;;;;
Shendam;Jiban Ward;;Kuka Primary Health Centre;;;;;
Shendam;Jiban Ward;;Godiya Dispensary;;;;;
Shendam;Jiban Ward;;Tudun Dorowa Primary Health Centre;;;;;
Shendam;Kalong Ward;;Kalong Primary Health Centre;;;;;
Shendam;Kalong Ward;;Ndayak Primary Health Centre;;;;;
Shendam;Kalong Ward;;Angwa Zam Primary Health Centre;;;;;
Shendam;Kalong Ward;;Goesa Primary Health Centre;;;;;
Shendam;Kurumbo Ward;;Pedong Primary Health Centre;;;;;
Shendam;Kurumbo Ward;;Lakushi Primary Health Centre;;;;;
Shendam;Kurumbo Ward;;Yammini Primary Health Centre;;;;;
Shendam;Kurumbo Ward;;Sabon Layi Primary Health Centre (Shendam);;;;;
Shendam;Kwapkilik Ward;;Dungba Primary Health Centre;;;;;
Shendam;Kwapkilik Ward;;Longvel Primary Health Centre;;;;;
Shendam;Mambial Ward;;Biembiem Primary Health Centre;;;;;
Shendam;Mambial Ward;;Church of Christ in Nigeria Dispensary (Mambial);;;;;
Shendam;Moekat Ward;;Npoll Primary Health Centre;;;;;
Shendam;Moekat Ward;;Shimmankar Primary Health Centre;;;;;
Shendam;Moekat Ward;;Pedong Primary Health centre;;;;;
Shendam;Moekat Ward;;Moekak Primary Health Centre;;;;;
Shendam;Ngootlong Ward;;Chindong Dispensary;;;;;
Shendam;Ngootlong Ward;;Angwa Dadi Primary Health Centre;;;;;
Shendam;Ngootlong Ward;;Demshin Primary Health Centre;;;;;
Shendam;Ngootlong Ward;;Angwa Rina Primary Health Centre;;;;;
Shendam;Nyak Ward;;Dillori Primary Health Centre;;;;;
Shendam;Nyak Ward;;Ajimakai Primary Health Centre;;;;;
Shendam;Nyak Ward;;Tamini Primary Health Centre;;;;;
Shendam;Pang Wasa Ward;;Yelwa Primary Health care;;;;;
Shendam;Pangshom Ward;;Total Primary Health Centre;;;;;
Shendam;Pangshom Ward;;Comfort Hospital;;;;;
Shendam;Pangshom Ward;;Ngarass Primary Health Centre;;;;;
Shendam;Pangshom Ward;;Poedeil Primary Health Centre;;;;;
Shendam;Pangshom Ward;;Gidan Adamu Primary Health Centre;;;;;
Shendam;Pangshom Ward;;Tingzet Primary Health Centre;;;;;
Shendam;Poeship Ward;;Poeship Primary Health Centre;;;;;
Shendam;Poeship Ward;;Shepwan Primary Health Centre;;;;;
Shendam;Poeship Ward;;Ango Primary Health Centre;;;;;
Shendam;Poeship Ward;;Nder Primary Health Centre;;;;;
Shendam;Poeship Ward;;Salama Primary Health Centre;;;;;
Shendam;Shedam A Ward;;Protom Medical Laboratory;;;;;
Shendam;Shedam A Ward;;Goodnews Dispensary;;;;;
Shendam;Shedam A Ward;;Kurum Lazai Primary Health Centre;;;;;
Shendam;Shedam A Ward;;Shendam Primary Health Centre;;;;;
Shendam;Shedam A Ward;;Church of Christ in Nigeria Primary Health Centre;;;;;
Shendam;Shedam A Ward;;Shendam Primary Health Centre (Shendam);;;;;
Shendam;Shedam A Ward;;Bene Hospital;;;;;
Shendam;Shedam A Ward;;Care School Clinic;;;;;
Shendam;Shedam A Ward;;May Hospital;;;;;
Shendam;Shedam A Ward;;Shendam Government Girls Secondary School Clinic;;;;;
Shendam;Shedam A Ward;;Shendam Staff Clinic;;;;;
Shendam;Shedam A Ward;;Shedam A General Hospital;;;;;
Shendam;Shedam A Ward;;Dilla Clinic;;;;;
Shendam;Shedam A Ward;;Kwansan Primary Health Centre;;;;;
Shendam;Shedam A Ward;;Zeh Clinic;;;;;
Shendam;Yelwa East Ward;;Yelwa East Medical Centre;;;;;
Shendam;Yelwa East Ward;;Yelwa Medical Centre;;;;;
Shendam;Yelwa West Ward;;Yelwa Primary Health Centre;;;;;
Shendam;Zemsuk Ward;;Lawur Primary Health Centre;;;;;
Shendam;Zemsuk Ward;;Samlong Primary Health Centre;;;;;
Wase;Bashar Ward;;Bashar Primary Health Centre;;;;;
Wase;Bashar Ward;;Jarmai Primary Health Centre (Wase);;;;;
Wase;Bashar Ward;;Murai Primary Health Centre;;;;;
Wase;Danbiram Ward;;Wase Town Primary Health Centre;;;;;
Wase;Gaji Bashar Ward;;Safiyo Primary Health Centre;;;;;
Wase;Gaji Ward;;Gaji Bashar Primary Health Centre;;;;;
Wase;Garkuwa Ward;;Garkuwa Cottage Hospital;;;;;
Wase;Garkuwa Ward;;Emir Palace Primary Health Centre;;;;;
Wase;Gimbi-Pinau Ward;;Pinau Primary Health Centre;;;;;
Wase;Gimbi-Pinau Ward;;Gimbi Primary Health Centre;;;;;
Wase;Gudus Ward;;Kungurmi Primary Health Centre;;;;;
Wase;Gudus Ward;;Gudus Primary Health Centre;;;;;
Wase;Gudus Ward;;Bunyun Primary Health Centre;;;;;
Wase;Kadarko Ward;;Kadarko Primary Health Centre;;;;;
Wase;Kampani Ward;;Kampani Primary Health Centre;;;;;
Wase;Kampani Ward;;Zak Primary Health Centre;;;;;
Wase;Kumbong Ward;;Chapkwi Primary Health Centre;;;;;
Wase;Kumbong Ward;;Duwi Primary Health Centre;;;;;
Wase;Kumbong Ward;;Kumbong Primary Health Centre;;;;;
Wase;Kuyambanin Ward;;Wase VTC Clinic;;;;;
Wase;Lamba Ward;;Danyam Primary Health Centre;;;;;
Wase;Lamba Ward;;Gyambar Primary Health Centre (Wase);;;;;
Wase;Lamba Ward;;Lamba Primary Health Centre;;;;;
Wase;Lamba Ward;;Nassarawa Primary Health Centre (Wase);;;;;
Wase;Mallam Adama Ward;;Wase Government Secondary School Primary Health Centre;;;;;
Wase;Mallam Adama Ward;;Government Science School Primary Health Centre;;;;;
Wase;Mavo Ward;;Kanwa Primary Health Centre;;;;;
Wase;Mavo Ward;;Mavo Primary Health Centre;;;;;
Wase;Mavo Ward;;Bakin Rijiya Primary Health Centre;;;;;
Wase;Nyalum Ward;;Nyalum Primary Health Centre;;;;;
Wase;Wadata-Garga Ward;;Wadata Primary Health Centre;;;;;
Wase;Wase Tofa Ward;;Wase Tofa Primary Health Centre;;;;;
Wase;Yola Wakat Ward;;Yola Wakat Primary Health Centre;;;;;
Wase;Yuli Ward;;Yuli Primary Health Centre;;;;;
