LGA;Ward;Settlement;Facility;Type;Ownership;Address;Longitude;Latitude
Binji;Binji Ward (Binji);;Binji Upgraded Dispensary;;;;;
Binji;Binji Ward (Binji);;Binji General Hospital;;;;;
Binji;Bunkari Ward;;Danmali Dispensary;;;;;
Binji;Bunkari Ward;;Bunkari Model Primary Health Centre;;;;;
Binji;Gawazzai Ward;;Yardewu Dispensary;;;;;
Binji;Gawazzai Ward;;Matabare Dispensary;;;;;
Binji;Gawazzai Ward;;Gawazzai Dispensary;;;;;
Binji;Inname Ward;;Inname Dispensary;;;;;
Binji;Inname Ward;;Ginjo Dispensary (Binji LGA);;;;;
Binji;Jamali Ward;;Jamali Tsohuwa Dispensary;;;;;
Binji;Jamali Ward;;Jamali Sabuwa Dispensary;;;;;
Binji;Jamali Ward;;Dalijan Dispensary;;;;;
Binji;Maikulki Ward;;Maikulki Upgraded Dispensary;;;;;
Binji;Maikulki Ward;;Kunkurwo Dispensary;;;;;
Binji;Maikulki Ward;;Margai Dispensary;;;;;
Binji;Samama Ward;;Samama Dispensary;;;;;
Binji;Soron Gabas Ward;;Kandiza Dispensary;;;;;
Binji;Soron Gabas Ward;;Gwafitto Dispensary;;;;;
Binji;Soron Gabas Ward;;Soro Dispensary;;;;;
Binji;Soron Gabas Ward;;Tummuni Dispensary;;;;;
Binji;Soron Gabas Ward;;Fako Dispensary;;;;;
Binji;Soron Yamma Ward;;Birnin Wari Dispensary;;;;;
Binji;Soron Yamma Ward;;Kalgo Dispensary;;;;;
Binji;Soron Yamma Ward;;Kura Dispensary;;;;;
Binji;Soron Yamma Ward;;Karani Dispensary;;;;;
Binji;Tudun Kose Ward;;Tudun Kose Dispensary;;;;;
Binji;Tudun Kose Ward;;Twaidin Zaidi Dispensary;;;;;
Binji;Tudun Kose Ward;;Twaidi Dikko Dispensary;;;;;
Binji;Tudun Kose Ward;;Gidan Maidebe Dispensary;;;;;
Bodinga;Badau/Darhela Ward;;Darhela Upgraded Dispensary;;;;;
Bodinga;Badau/Darhela Ward;;Badau Dispensary;;;;;
Bodinga;Bagarawa Ward;;Bagarawa Primary Health Centre;;;;;
Bodinga;Bangi/Dabaga Ward;;Wumumu Dispensary;;;;;
Bodinga;Bangi/Dabaga Ward;;Bangi Dispensary;;;;;
Bodinga;Bangi/Dabaga Ward;;Dabaga Dispensary;;;;;
Bodinga;Bodinga/Tauma Ward;;Bodinga Town Dispensary;;;;;
Bodinga;Bodinga/Tauma Ward;;Bodnga General Hospital;;;;;
Bodinga;Danchadi Ward;;Danchadi Primary Health Centre;;;;;
Bodinga;Danchadi Ward;;Danchadi Town Dispensary;;;;;
Bodinga;Dingyadi Ward;;Badawa Community Dispensary;;;;;
Bodinga;Dingyadi Ward;;Kaura Buba Dispensary;;;;;
Bodinga;Dingyadi Ward;;Dingyadi Primary Health Centre;;;;;
Bodinga;Dingyadi Ward;;Dingyadi Town Dispensary;;;;;
Bodinga;Dingyadi Ward;;Gidan Kijjo Dispensary;;;;;
Bodinga;Kauramiyo/Mazan Ward;;Jirga Dispensary;;;;;
Bodinga;Kauramiyo/Mazan Ward;;Kuramangala Dispensary;;;;;
Bodinga;Kauramiyo/Mazan Ward;;Jabe Dispensary;;;;;
Bodinga;Kauramiyo/Mazan Ward;;So Mazangari Dispensary;;;;;
Bodinga;Kwacciyar Lalle Ward;;Zangalawa Dispensary;;;;;
Bodinga;Sifawa/Lukuyawa Ward;;Lukuyawa Dispensary;;;;;
Bodinga;Sifawa/Lukuyawa Ward;;AbdulSalami Dispensary;;;;;
Bodinga;Sifawa/Lukuyawa Ward;;Sifawa Dispensary;;;;;
Bodinga;Takatuku/Madorawa Ward;;Takatuku Clinic;;;;;
Bodinga;Takatuku/Madorawa Ward;;Madorawa Dispensary;;;;;
Bodinga;Tulluwa/Kulafasa Ward;;Kaurar Tsara Dispensary;;;;;
Bodinga;Tulluwa/Kulafasa Ward;;Kaura Kwasau Dispensary;;;;;
Bodinga;Tulluwa/Kulafasa Ward;;Tulluwa Dispensary;;;;;
Bodinga;Tulluwa/Kulafasa Ward;;Dan Ajiwa Community Dispensary;;;;;
Dange-Shuni;Bodai Ward;;Bodai Kaura Dispensary;;;;;
Dange-Shuni;Bodai Ward;;Bodai Sajo Dispensary;;;;;
Dange-Shuni;Dange Ward;;Dange Model Primary Health Centre;;;;;
Dange-Shuni;Dange Ward;;Dange Nursing home;;;;;
Dange-Shuni;Dange Ward;;Kindiru Dispensary;;;;;
Dange-Shuni;Fajaldu Ward;;Fajaldu Primary Health Centre;;;;;
Dange-Shuni;Fajaldu Ward;;Budude Dispensary;;;;;
Dange-Shuni;Ge'ere Gajara Ward;;Dabagin Ardo Upgraded Dispensary;;;;;
Dange-Shuni;Ge'ere Gajara Ward;;Ge'ere Dispensary;;;;;
Dange-Shuni;Ge'ere Gajara Ward;;Gajara Dispensary;;;;;
Dange-Shuni;Rikina Ward;;Sabaru Dispensary;;;;;
Dange-Shuni;Rikina Ward;;Rikina Dispensary;;;;;
Dange-Shuni;Rudu Amanawa Ward;;GGISS Health Clinic;;;;;
Dange-Shuni;Rudu Amanawa Ward;;Amanawa Basic Health Clinic;;;;;
Dange-Shuni;Rudu Amanawa Ward;;Amanawa General Hospital;;;;;
Dange-Shuni;Rudu Amanawa Ward;;Rudu Dispensary;;;;;
Dange-Shuni;Ruggar Gidado Ward;;Ruggar Dubu Dispensary;;;;;
Dange-Shuni;Shuni Ward;;Shuni Nursing home;;;;;
Dange-Shuni;Shuni Ward;;Ruggar Kura Dispensary;;;;;
Dange-Shuni;Shuni Ward;;Shuni Upgraded Dispensary;;;;;
Dange-Shuni;Tsafanade Ward;;Tsafanade Dispensary;;;;;
Dange-Shuni;Tsafanade Ward;;Majiya Tsakar Gida Dispensary;;;;;
Dange-Shuni;Tuntube Tsefe Ward;;Dambuwa Dispensary;;;;;
Dange-Shuni;Tuntube Tsefe Ward;;Army General Hospital;;;;;
Dange-Shuni;Tuntube Tsefe Ward;;Tuntube Dispensary;;;;;
Dange-Shuni;Tuntube Tsefe Ward;;Kwannawa Dispensary;;;;;
Dange-Shuni;Tuntube Tsefe Ward;;Tsefe Dispensary;;;;;
Dange-Shuni;Wababe Salau Ward;;Wababe Dispensary;;;;;
Dange-Shuni;Wababe Salau Ward;;Hausare PHC;;;;;
Gada;Dukamaje Ward;;Ilah Dispensary;;;;;
Gada;Dukamaje Ward;;Tsagalgale Dispensary;;;;;
Gada;Dukamaje Ward;;Gidan Chikiyal Dispensary;;;;;
Gada;Dukamaje Ward;;G/Albakari Dispensary;;;;;
Gada;Dukamaje Ward;;Bigel Dispensary;;;;;
Gada;Dukamaje Ward;;Tabanni Dispensary;;;;;
Gada;Dukamaje Ward;;Rabamawa Dispensary;;;;;
Gada;Dukamaje Ward;;Dukamaje PHC;;;;;
Gada;Gada Ward;;Gada Town Dispensary;;;;;
Gada;Gada Ward;;Baredi Community Dispensary;;;;;
Gada;Gada Ward;;Gidan Madugu Dispensary;;;;;
Gada;Gada Ward;;Gada General Hospital;;;;;
Gada;Gilbadi Ward;;Gilbadi Dispensary;;;;;
Gada;Gilbadi Ward;;Tsaro Dispensary;;;;;
Gada;Gilbadi Ward;;Takalmawa Community Dispensary;;;;;
Gada;Kadadi Ward;;Kadadi Maidabo Dispensary;;;;;
Gada;Kadadi Ward;;Tsururu Dispensary;;;;;
Gada;Kadadi Ward;;Tuffal Aliyu Dispensary;;;;;
Gada;Kadadi Ward;;Ingaboro Community Dispensary;;;;;
Gada;Kadadi Ward;;Kadadi Upgraded Dispensary;;;;;
Gada;Kadadi Ward;;Sagera Dikko Community Dispensary;;;;;
Gada;Kadadi Ward;;Rafin-Duma Dispensary;;;;;
Gada;Kadassaka Ward;;Kadassaka Dispensary;;;;;
Gada;Kadassaka Ward;;T/Bulus Dispensary;;;;;
Gada;Kaddi Ward;;Gadabo Dispensary;;;;;
Gada;Kaddi Ward;;Kaddi Upgraded Dispensary;;;;;
Gada;Kaddi Ward;;Digindi Dispensary;;;;;
Gada;Kaffe Ward;;Alibawa Dispensary;;;;;
Gada;Kaffe Ward;;Kaffe Primary Health Centre;;;;;
Gada;Kaffe Ward;;Gidan Gyado Dispensary;;;;;
Gada;Kiri Ward;;Kiri Dispensary;;;;;
Gada;Kiri Ward;;Kaine Dispensary;;;;;
Gada;Kiri Ward;;Gidan Dabo Dispensary;;;;;
Gada;Kwarma Ward;;Safiyal Dispensary;;;;;
Gada;Kwarma Ward;;Sabon Gida Dispensary;;;;;
Gada;Kwarma Ward;;Kwarma Dispensary;;;;;
Gada;Kyadawa Ward;;Holai Upgraded Dispensary;;;;;
Gada;Kyadawa Ward;;Wauru Primary Health Centre;;;;;
Gada;Kyadawa Ward;;Kyadawa Dispensary;;;;;
Gada;Kyadawa Ward;;Gidan Amamata Clinic;;;;;
Gada;Tsitse Ward;;Gidan Hashimu Primary Health Centre;;;;;
Gada;Tsitse Ward;;Tsitse Dispensary;;;;;
Goronyo;Birjingo Ward;;Birjingo Dispensary;;;;;
Goronyo;Boyekai Ward;;Boyekai Dispensary;;;;;
Goronyo;Kojiyo Ward;;Kojiyo Dispensary;;;;;
Goronyo;Kojiyo Ward;;Darbabiya Dispensary;;;;;
Goronyo;Kwakwazo Ward;;Kwakwazo Dispensary;;;;;
Goronyo;Kwakwazo Ward;;Fadarawa Dispensary;;;;;
Goronyo;Rimawa Ward;;Kaikazzaka Dispensary;;;;;
Goronyo;Rimawa Ward;;Rimawa Dispensary;;;;;
Goronyo;Rimawa Ward;;Falaliya Dispensary;;;;;
Goronyo;S/G Dole Ward;;S/G Dole Dispensary;;;;;
Goronyo;S/G Dole Ward;;Tsohon Garin Dole Dispensry;;;;;
Goronyo;S/G Dole Ward;;Dan Tasakko Dispensary;;;;;
Goronyo;Shinaka Ward;;Zamacce Dispensary;;;;;
Goronyo;Shinaka Ward;;Tuluske Dispensary;;;;;
Goronyo;Shinaka Ward;;Shinaka Model Primary Health Centre;;;;;
Goronyo;Takakume Ward;;Gorau Dispensary;;;;;
Goronyo;Takakume Ward;;Takakume Dispensary;;;;;
Gudu;Awulkiti Ward;;Bare Bari Dispensary;;;;;
Gudu;Awulkiti Ward;;Kukoki Dispensary;;;;;
Gudu;Bachaka Ward;;Salawa Dispensary;;;;;
Gudu;Bachaka Ward;;Bachaka Dispensary;;;;;
Gudu;Bachaka Ward;;Shatoka Dispensary;;;;;
Gudu;Balle Ward;;Balle Primary Health Centre;;;;;
Gudu;Balle Ward;;Rafin Kubu Dispensary;;;;;
Gudu;Balle Ward;;Balle General Hospital;;;;;
Gudu;Chilas Ward;;Chilas Dispensary;;;;;
Gudu;Chilas Ward;;Makuya Dispensary;;;;;
Gudu;Chilas Ward;;Dangadabro Dispensary;;;;;
Gudu;Gwazange Ward;;Boto Dispensary;;;;;
Gudu;Gwazange Ward;;Yaka Dispensary;;;;;
Gudu;Karfen Chana Ward;;Karfen Chana Dispensary;;;;;
Gudu;Karfen Chana Ward;;Bungel Dispensary;;;;;
Gudu;Karfen Sarki Ward;;Karfen Sarki Primary Health Centre;;;;;
Gudu;Karfen Sarki Ward;;Filasko Dispensary;;;;;
Gudu;Kurdula Ward;;Katsura Dispensary;;;;;
Gudu;Kurdula Ward;;Darusa Musa Dispensary;;;;;
Gudu;Kurdula Ward;;Kurdula PHC;;;;;
Gudu;Marake Ward;;Jimajimi Dispensary;;;;;
Gudu;Marake Ward;;Marake Dispensary;;;;;
Gudu;Marake Ward;;Tagimba Dispensary;;;;;
Gudu;Tullun Doya Ward;;Illela Dispensary;;;;;
Gudu;Tullun Doya Ward;;Tullun Doya Dispensary;;;;;
Gwadabawa;Asara Ward;;Tudun Tudu Biga Dispensary;;;;;
Gwadabawa;Asara Ward;;Rumbuje Dispensary;;;;;
Gwadabawa;Asara Ward;;Asara Dispensary;;;;;
Gwadabawa;Attakwanyo Ward;;Attakwanyo Dispensary;;;;;
Gwadabawa;Attakwanyo Ward;;Gidan Magaji Waziri Primary Health Center;;;;;
Gwadabawa;Attakwanyo Ward;;Katallah Dispensary;;;;;
Gwadabawa;Attakwanyo Ward;;Kangiye Dispensary;;;;;
Gwadabawa;Attakwanyo Ward;;Burdi Dispensary;;;;;
Gwadabawa;Chimmola Ward;;T/Tudu Kwankwanbilo Dispensary;;;;;
Gwadabawa;Chimmola Ward;;Chimmola Upgraded Dispensary;;;;;
Gwadabawa;Chimmola Ward;;Kagara Primary Health Center;;;;;
Gwadabawa;Chimmola Ward;;Lukwa Dispensary;;;;;
Gwadabawa;Gidan Kaya Ward;;Galadanchi Dispensary;;;;;
Gwadabawa;Gidan Kaya Ward;;Kililawa Dispensary;;;;;
Gwadabawa;Gidan Kaya Ward;;Gwara Dispensary;;;;;
Gwadabawa;Gidan Kaya Ward;;Yargada Dispensary;;;;;
Gwadabawa;Gidan Kaya Ward;;Gidan Kaya Dispensary;;;;;
Gwadabawa;Gidan Kaya Ward;;Gidan Dogaza Dispensary;;;;;
Gwadabawa;Gigane Ward;;Gigane Dispensary;;;;;
Gwadabawa;Gigane Ward;;Tunkura Dikko Dispensary;;;;;
Gwadabawa;Gigane Ward;;Sakamaru Dispensary;;;;;
Gwadabawa;Gigane Ward;;Meli Dispensary;;;;;
Gwadabawa;Gwadabawa Ward;;Ranganda Dispensary;;;;;
Gwadabawa;Gwadabawa Ward;;Abdallo Dispensary;;;;;
Gwadabawa;Gwadabawa Ward;;Tudun Doki Dispensary;;;;;
Gwadabawa;Gwadabawa Ward;;Chancha Dispensary;;;;;
Gwadabawa;Gwadabawa Ward;;Marina Clinic;;;;;
Gwadabawa;Gwadabawa Ward;;Tudun Wada Gwadabawa Dispensary;;;;;
Gwadabawa;Gwadabawa Ward;;Gwadabawa General Hospital;;;;;
Gwadabawa;Huchi Ward;;Huchi Dispensary;;;;;
Gwadabawa;Mammande Ward;;Mammande Upgraded Dispensary;;;;;
Gwadabawa;Mammande Ward;;Zugana Dispensary;;;;;
Gwadabawa;Mammande Ward;;Bamana Dispensary;;;;;
Gwadabawa;Mammansuka Ward;;Makina Dispensary;;;;;
Gwadabawa;Mammansuka Ward;;Fadan Kai Dispensary;;;;;
Gwadabawa;Mammansuka Ward;;Mammansuka Dispensary;;;;;
Gwadabawa;Salame Ward;;Salame Dispensary;;;;;
Gwadabawa;Salame Ward;;Dan Abba Dispensary;;;;;
Gwadabawa;Salame Ward;;Kiliya Dispensary;;;;;
Gwadabawa;Tambagarka Ward;;Kalaba Dispensary;;;;;
Gwadabawa;Tambagarka Ward;;Tambagarka Dispensary;;;;;
Gwadabawa;Tambagarka Ward;;Wadai Dispensary;;;;;
Illela;Araba Ward;;Danboka Dispensary;;;;;
Illela;Araba Ward;;Bakin Dutsi Dispensary;;;;;
Illela;Araba Ward;;Araba Dispensary;;;;;
Illela;Araba Ward;;Dango Dispensary;;;;;
Illela;D/Sabon Gari Ward;;Darna Kiliya Dispensary;;;;;
Illela;D/Sabon Gari Ward;;G/Tudu Dispensary;;;;;
Illela;D/Sabon Gari Ward;;Harigawa Dispensary;;;;;
Illela;D/Sabon Gari Ward;;Darna Sabon Gari Dispensary;;;;;
Illela;D/Sabon Gari Ward;;Mullela Dispensary;;;;;
Illela;D/Tsolawo Ward;;Dan Kadu Dispensary;;;;;
Illela;D/Tsolawo Ward;;D/Tsolawo Dispensary;;;;;
Illela;D/Tsolawo Ward;;Dabagin Tankari Dispensary;;;;;
Illela;Damba Ward;;Buwade Dispensary;;;;;
Illela;Damba Ward;;Gudun Gudun Dispensary;;;;;
Illela;Damba Ward;;Tsauna Dispensary;;;;;
Illela;Damba Ward;;Damba Dispensary;;;;;
Illela;Damba Ward;;Tarke Dispensary;;;;;
Illela;G/Hamma Ward;;Ambarura Dispensary;;;;;
Illela;G/Hamma Ward;;Jagai Dispensary;;;;;
Illela;G/Hamma Ward;;Gidan Hamma Dispensary;;;;;
Illela;G/Hamma Ward;;Here Dispensary;;;;;
Illela;Garu Ward (Illela);;Tsangalandam Dispensary;;;;;
Illela;Garu Ward (Illela);;Garu Dispensary;;;;;
Illela;Gidan Katta Ward;;Basanta Dispensary;;;;;
Illela;Gidan Katta Ward;;Gaidau Dispensary;;;;;
Illela;Gidan Katta Ward;;Gidan Katta Dispensary;;;;;
Illela;Illela Ward;;T/Gudale Dispensary;;;;;
Illela;Illela Ward;;Aminchi Nursing Home;;;;;
Illela;Illela Ward;;Sonane Modern Dispensary;;;;;
Illela;Illela Ward;;Daboe Clinic and Maternity;;;;;
Illela;Illela Ward;;Amarawa Dispensary;;;;;
Illela;Illela Ward;;Illela General Hospital;;;;;
Illela;Illela Ward;;GGSS Clinic;;;;;
Illela;Kalmalo Ward;;Jema Dispensary;;;;;
Illela;Kalmalo Ward;;Rumji Dispensary;;;;;
Illela;Kalmalo Ward;;Kalmalo Dispensary;;;;;
Illela;R/Gatti Ward;;Lafani Dispensary;;;;;
Illela;R/Gatti Ward;;R/Gatti Dispensary;;;;;
Illela;R/Gatti Ward;;Gidan Chiwake Dispensary;;;;;
Illela;R/Gatti Ward;;Rumgumawar Jao Dispensary;;;;;
Illela;Tozai Ward (Illela);;Gidan Bango Dispensary;;;;;
Illela;Tozai Ward (Illela);;Tozai Dispensary;;;;;
Isa;Bargaja Ward;;D/Zanke Clinic;;;;;
Isa;Bargaja Ward;;Bargaja Dispensary;;;;;
Isa;Bargaja Ward;;Modachi Dispensary;;;;;
Isa;Bargaja Ward;;Gazau Dispensary;;;;;
Isa;Bargaja Ward;;Kalage Dispensary (Isa LGA);;;;;
Isa;Gebe A Ward;;Kamarawa Dispensary;;;;;
Isa;Gebe A Ward;;Sabon Gari D/Gwandi Dispensary;;;;;
Isa;Gebe A Ward;;Manawa Dispensary;;;;;
Isa;Gebe A Ward;;Gebe Dispensary;;;;;
Isa;Gebe A Ward;;New Kamarawa Dispensary;;;;;
Isa;Gebe B Ward;;Suruddubu Dispensary;;;;;
Isa;Gebe B Ward;;Bafarawa Primary Health Centre;;;;;
Isa;Isa North Ward;;Tudun Wada Dispensary;;;;;
Isa;Isa South Ward;;Kurar Mota Dispensary;;;;;
Isa;Isa South Ward;;K/Isa Dispensary;;;;;
Isa;Isa South Ward;;Isa South Maternal and Child Health Clinic;;;;;
Isa;Isa South Ward;;Isa South General Hospital;;;;;
Isa;Tidibali Ward;;TIdibali Dispensary;;;;;
Isa;Tidibali Ward;;Kalkairu Dispensary;;;;;
Isa;Tidibali Ward;;Adarawa Dispensary;;;;;
Isa;Tidibali Ward;;Chohi Dispensary;;;;;
Isa;Tidibali Ward;;Gamaroji Dispensary;;;;;
Isa;Tozai Ward (Isa);;Dan Adama Dispensary;;;;;
Isa;Tozai Ward (Isa);;Satiru Dispensary;;;;;
Isa;Tozai Ward (Isa);;Katanga C Dispensary;;;;;
Isa;Tozai Ward (Isa);;Tozai Dispensary (Isa);;;;;
Isa;Tsabre Ward;;Gidan Dikko Maternal and Child Health Clinic;;;;;
Isa;Tsabre Ward;;Girnashe Dispensary;;;;;
Isa;Tsabre Ward;;Gidan Abdulkarim Dispensery;;;;;
Isa;Tsabre Ward;;Tsabre Dispensary (Isa);;;;;
Isa;Turba Ward;;Gumal Dispensary;;;;;
Isa;Turba Ward;;Turba Dispensary;;;;;
Isa;Turba Ward;;Shalla Dispensary;;;;;
Isa;Yanfako Ward;;Yanfako Dispensary;;;;;
Isa;Yanfako Ward;;Tafkin Fili Dispensary;;;;;
Kebbe;Fakku Ward;;Sha'allwashi Dispensary;;;;;
Kebbe;Fakku Ward;;Rara Dispensary;;;;;
Kebbe;Fakku Ward;;Fakku Dispensary;;;;;
Kebbe;Girkau Ward;;Girkau Upgraded Dispensary;;;;;
Kebbe;Girkau Ward;;Zugu Dispensary;;;;;
Kebbe;Girkau Ward;;Jabga Dispensary;;;;;
Kebbe;Kebbe East Ward;;Dukura Dispensary;;;;;
Kebbe;Kebbe West Ward;;Kebbe General Hospital;;;;;
Kebbe;Kebbe West Ward;;Umbutu Dispensary;;;;;
Kebbe;Kuchi Ward;;Kuchi Primary Health Centre;;;;;
Kebbe;Margai East Ward;;Gadacce Dispensary;;;;;
Kebbe;Margai East Ward;;Jigiri Dispensary;;;;;
Kebbe;Margai West Ward;;Margai Upgraded Dispensary;;;;;
Kebbe;Margai West Ward;;Karma Dispensary;;;;;
Kebbe;Nasagudu Ward;;Kundutta Dispensary;;;;;
Kebbe;Nasagudu Ward;;Nasagudu Dispensary;;;;;
Kebbe;Sangi Ward;;Sangi Dispensary;;;;;
Kebbe;Sangi Ward;;Jigawa Dispensary;;;;;
Kebbe;Sangi Ward;;Sabon-Birni Dispensary;;;;;
Kebbe;Ungushi Ward;;Ungushi Dispensary;;;;;
Kebbe;Ungushi Ward;;Maikurfuna Dispensary;;;;;
Kware;Bankanu Ward;;Kasgada Disp;;;;;
Kware;Bankanu Ward;;Kware Comprehensive Health Centre;;;;;
Kware;Bankanu Ward;;Kalalawa Dispensary;;;;;
Kware;Bankanu Ward;;Tutuba PHC;;;;;
Kware;Basansan/Lemi Ward;;Lemi Community Dispensary;;;;;
Kware;Basansan/Lemi Ward;;Basansan Dispensary;;;;;
Kware;Durbawa Ward;;Durbawa Dispensary;;;;;
Kware;Durbawa Ward;;Gidan Gero PHC;;;;;
Kware;Gandun Modibbo Ward;;Umaruma Primary Health Centre;;;;;
Kware;Gandun Modibbo Ward;;Gandu Disensary;;;;;
Kware;Gandun Modibbo Ward;;Malamawa Dan adada Dispensary;;;;;
Kware;H/Ali Marbawa Ward;;Marabawa Upgraded Dispensary;;;;;
Kware;H/Ali Marbawa Ward;;Hamma Ali Primary Health Centre;;;;;
Kware;H/Ali Marbawa Ward;;Karende Community Dispensary;;;;;
Kware;Kabanga Ward;;Kabanga Dispensary;;;;;
Kware;Kware Ward;;Kware Primary Health Centre;;;;;
Kware;More Gidan Rugga Ward;;Rungar Liman Community Dispensary;;;;;
Kware;Sabon Birni G/Karma Ward;;Doba Comm Disp;;;;;
Kware;Sabon Birni G/Karma Ward;;Gundunga Upgraded Dispensary;;;;;
Kware;Sabon Birni G/Karma Ward;;Ihi Community Dispensary;;;;;
Kware;Sabon Birni G/Karma Ward;;Tungar Galadima PHc;;;;;
Kware;Sabon Birni G/Karma Ward;;So Balkore Model Primary Health Centre;;;;;
Kware;Sabon Birni G/Karma Ward;;Sabon Birni Disp;;;;;
Kware;Tsaki Walakae Ward;;Tsaki Community Dispensary;;;;;
Kware;Tsaki Walakae Ward;;Walakae Dispensary;;;;;
Kware;Tsaki Walakae Ward;;Zamau Community Dispensary;;;;;
Kware;Tsaki Walakae Ward;;Lambo Community Dispensary;;;;;
Kware;Tunga/Mallamawa Ward;;Mallamar Yari Dispensary;;;;;
Kware;Tunga/Mallamawa Ward;;Yarbarade Dispensary;;;;;
Kware;Tunga/Mallamawa Ward;;Tunga Dispensary;;;;;
Kware;Tunga/Mallamawa Ward;;Gidan Basakkare Dispensary;;;;;
Rabah;Gandi 1 Ward;;Gandi Primary Health Centre;;;;;
Rabah;Gandi 1 Ward;;Warwanna Dispensary;;;;;
Rabah;Gandi 2 Ward;;Dankarmawa Dispensary;;;;;
Rabah;Gandi 2 Ward;;Alikiru Dispensary;;;;;
Rabah;Goddodi Ward;;Gidan Buwai Dispensary;;;;;
Rabah;Goddodi Ward;;Goddodi Dispensary;;;;;
Rabah;Goddodi Ward;;Angamba Dispensary;;;;;
Rabah;Kurya Ward;;Kurya Dispensary;;;;;
Rabah;Kurya Ward;;Rakwamni Dispensary;;;;;
Rabah;Maikujera Ward;;Riji Dispensary;;;;;
Rabah;Maikujera Ward;;Gidan Danayya Dispensary;;;;;
Rabah;Maikujera Ward;;Maikujera Dispensary;;;;;
Rabah;Rabah Ward;;Kogogo Disp;;;;;
Rabah;Rabah Ward;;Rabah General Hospital;;;;;
Rabah;Rabah Ward;;Rabah Town Dispensary;;;;;
Rabah;Rabah Ward;;Tabbani Dispensary;;;;;
Rabah;Rara Ward;;Dudu Barade Dispensary;;;;;
Rabah;Rara Ward;;Rara Primary Health Centre;;;;;
Rabah;Tofa Ward;;Tofa Dispensary;;;;;
Rabah;Tofa Ward;;Gawakuke Primary Health Centre;;;;;
Rabah;Tofa Ward;;Burmawa Masaka Dispensary;;;;;
Rabah;Tofa Ward;;Gidan Doka Dispensary;;;;;
Rabah;Tofa Ward;;Gidan Almajir Dispensary;;;;;
Rabah;Tsamiya Ward (Rabah);;Tsamiya Dispensary;;;;;
Rabah;Tursa Ward;;Tursa Dispensary;;;;;
Rabah;Tursa Ward;;Sabaru Dispensary;;;;;
Rabah;Yartsakuwa Ward;;Badamma Dispensary;;;;;
Rabah;Yartsakuwa Ward;;Yartsakuwa Health Clinic;;;;;
Rabah;Yartsakuwa Ward;;Danbanda Dispensary;;;;;
Sabon Birni;Gangara Ward;;Gangara Dispensary;;;;;
Sabon Birni;Gangara Ward;;Dadin Kowa Dispensary;;;;;
Sabon Birni;Gatawa Ward;;Gatawa Model Primary Health Centre;;;;;
Sabon Birni;Gatawa Ward;;Araga Dispensary;;;;;
Sabon Birni;Gatawa Ward;;Burkwasuma Dispensary;;;;;
Sabon Birni;Gatawa Ward;;Dama Comm Dispensary;;;;;
Sabon Birni;Gatawa Ward;;D/Kura Comm Dispensary;;;;;
Sabon Birni;Gatawa Ward;;Zangon Mallam Community Clinic;;;;;
Sabon Birni;Kalgo Ward;;Adamawa Dispensary;;;;;
Sabon Birni;Kalgo Ward;;Sardauna Dispensary;;;;;
Sabon Birni;Kalgo Ward;;Kalgo Dispensary (Sobon Birni LGA);;;;;
Sabon Birni;Kalgo Ward;;Garin Maikasuwa Dispensary;;;;;
Sabon Birni;Kalgo Ward;;Dukuma Dispensary;;;;;
Sabon Birni;Kalgo Ward;;Teke Dispensary;;;;;
Sabon Birni;Kurawa Ward;;Zangon Bugaje Disp;;;;;
Sabon Birni;Kurawa Ward;;Dakwaro Dispensary;;;;;
Sabon Birni;Kurawa Ward;;Kurawa Dispensary;;;;;
Sabon Birni;Kurawa Ward;;Kwatsal Dispensary;;;;;
Sabon Birni;Kurawa Ward;;Dabugi Dispensary;;;;;
Sabon Birni;Lajinge Ward;;Lanjegu Dispensary;;;;;
Sabon Birni;Lajinge Ward;;Dan Tudu Dispensary;;;;;
Sabon Birni;Lajinge Ward;;Jijjira Dispensary;;;;;
Sabon Birni;Lajinge Ward;;Lajinge Dispensary;;;;;
Sabon Birni;Makuwana Ward;;Makuwana Dispensary;;;;;
Sabon Birni;Makuwana Ward;;Yarbulutu Dispensary;;;;;
Sabon Birni;Sabon Birni Ward;;Nasara Clinic (Sabon Birni);;;;;
Sabon Birni;Sabon Birni Ward;;Sabon Birni General Hospital;;;;;
Sabon Birni;Takatsaba Ward (Sabon Birni);;Garin Abara Dispensary;;;;;
Sabon Birni;Takatsaba Ward (Sabon Birni);;G/Umara Comm Dispensary;;;;;
Sabon Birni;Takatsaba Ward (Sabon Birni);;Didan Buta Dispensary;;;;;
Sabon Birni;Takatsaba Ward (Sabon Birni);;Bachaka Up-Graded Dispensary;;;;;
Sabon Birni;Takatsaba Ward (Sabon Birni);;Kyara Dispensary;;;;;
Sabon Birni;Takatsaba Ward (Sabon Birni);;Kalage Dispensary;;;;;
Sabon Birni;Takatsaba Ward (Sabon Birni);;T/Tsaba Dispensary;;;;;
Sabon Birni;Takatsaba Ward (Sabon Birni);;D/Kware Comm Dispensary;;;;;
Sabon Birni;Tara Ward;;Tara Dispensary;;;;;
Sabon Birni;Tara Ward;;G/Idi Clinic;;;;;
Sabon Birni;Tara Ward;;Randabawa Clinic;;;;;
Sabon Birni;Tsamaye Ward;;Tsamaye Dispensary;;;;;
Sabon Birni;Tsamaye Ward;;Labau Dispensary;;;;;
Sabon Birni;Tsamaye Ward;;Gidan Gado Dispensary;;;;;
Sabon Birni;U/Lalle Ward;;Kiritawa Community Dispensary;;;;;
Sabon Birni;U/Lalle Ward;;Sangerawa Community Dispensary;;;;;
Sabon Birni;U/Lalle Ward;;Tagirke Dispensary;;;;;
Sabon Birni;U/Lalle Ward;;Taminn Dawa Dispensary;;;;;
Sabon Birni;U/Lalle Ward;;Magarau Community Dispensary;;;;;
Sabon Birni;U/Lalle Ward;;U/Lalle Dispensary;;;;;
Sabon Birni;U/Lalle Ward;;Gayya Da Kwari Dispensary;;;;;
Sabon Birni;U/Lalle Ward;;Mallamawa Dispensary;;;;;
Shagari;Dandin Mahe Ward;;Ruggar Mallam Dispensary;;;;;
Shagari;Dandin Mahe Ward;;Mabera Dispensary;;;;;
Shagari;Dandin Mahe Ward;;Dutse Dispesary;;;;;
Shagari;Dandin Mahe Ward;;Dandin Mahe Upgraded Dispensary;;;;;
Shagari;Dandin Mahe Ward;;Ginga Dispensary;;;;;
Shagari;Gangan Ward;;Tungarbarki Dispensary;;;;;
Shagari;Gangan Ward;;Gangan Dispensary;;;;;
Shagari;Horo Ward;;Dan Baro Dispensary;;;;;
Shagari;Horo Ward;;Horo Basic Health Clinic;;;;;
Shagari;Jaredi Ward;;Jaredi Rural Dispensary;;;;;
Shagari;Jaredi Ward;;Sire Dispensary;;;;;
Shagari;Kajiji Ward;;Kajiji Upgraded Dispensary;;;;;
Shagari;Kajiji Ward;;Kesoje Dispensary;;;;;
Shagari;Kajiji Ward;;Aggur Dispensary;;;;;
Shagari;Kajiji Ward;;Rugga;;;;;
Shagari;Kambama Ward;;Kambama Upgraded Dispensary;;;;;
Shagari;Kambama Ward;;Sullubawa Disp;;;;;
Shagari;Lambara Ward;;Lambara Dispensary;;;;;
Shagari;Lambara Ward;;Doruwa Dispensary;;;;;
Shagari;Mandera Ward;;Daringuru Dispensary;;;;;
Shagari;Mandera Ward;;Mandera Dispensary;;;;;
Shagari;Mandera Ward;;Gidan Tudu Dispensary;;;;;
Shagari;Sanyinawal Ward;;Kalangu Disp;;;;;
Shagari;Sanyinawal Ward;;Runjin Kaka Dispensary;;;;;
Shagari;Sanyinawal Ward;;Sanyinawal Basic Health Clinic;;;;;
Shagari;Sanyinawal Ward;;Bulanyaki Dispensary;;;;;
Shagari;Shagari Ward;;General Hospital Shagari;;;;;
Shagari;Shagari Ward;;Wanke Rural Dispensary;;;;;
Shagari;Shagari Ward;;Sagi Dispensary;;;;;
Silame;Gande Ward;;Gitta Rana Dispensary;;;;;
Silame;Gande Ward;;Gande Primary Health Centre;;;;;
Silame;Gande Ward;;Male Dispensary;;;;;
Silame;Gande Ward;;Garin Magaji Dispensary;;;;;
Silame;Gande Ward;;Zeringo Dispensary;;;;;
Silame;Gande Ward;;Kaya Dispensary (Silame LGA);;;;;
Silame;Gaukai Ward;;Gaukai Dispensary;;;;;
Silame;Gaukai Ward;;Chofal Dispensary;;;;;
Silame;Gaukai Ward;;Yola Dispensary;;;;;
Silame;Jekanadu Ward;;Jekanadu Dispensary;;;;;
Silame;Jekanadu Ward;;Tozo Dispensary;;;;;
Silame;Jekanadu Ward;;Gabbuwa Dispensary;;;;;
Silame;Katami North Ward;;Gujiya Dispensary;;;;;
Silame;Katami North Ward;;Tungar Atto Dispensary;;;;;
Silame;Katami North Ward;;Tungar Isa Dispensary;;;;;
Silame;Katami South Ward;;Algon Primary Health Care Centre;;;;;
Silame;Katami South Ward;;Gadambe Dispensary;;;;;
Silame;Katami South Ward;;Tanera Dispensary;;;;;
Silame;Kubodu Ward;;Kubodu Dispensary;;;;;
Silame;Kubodu Ward;;Kubodu Kasa Dispensary;;;;;
Silame;Kubodu Ward;;Shabra Dispensary (Silame LGA);;;;;
Silame;Labani Ward;;Koggel Dispensary;;;;;
Silame;Labani Ward;;Rundi Dispensary;;;;;
Silame;Labani Ward;;Betare Dispensaty;;;;;
Silame;Labani Ward;;Galadi Dispensary;;;;;
Silame;Labani Ward;;Labani Dispensary;;;;;
Silame;Maje Ward;;Tanane Dispensary;;;;;
Silame;Maje Ward;;Maje Dispensary;;;;;
Silame;Maje Ward;;Gidan Tudu Maje Silame Dispensary;;;;;
Silame;Marafa Ward;;Danjawo Dispensary;;;;;
Silame;Marafa Ward;;Gungu Dispensary;;;;;
Silame;Marafa Ward;;Marafa Dispensary;;;;;
Silame;Marafa Ward;;Gunki Dispensary;;;;;
Silame;Silame Ward;;Dan Kala Dispensary;;;;;
Silame;Silame Ward;;Silame Primary Health Centre;;;;;
Sokoto North;Magajin Gari A Ward;;Helele Clinic;;;;;
Sokoto North;Magajin Gari B Ward;;Assada Dispensary;;;;;
Sokoto North;Magajin Rafi A Ward;;Alkamawa Clinic;;;;;
Sokoto North;Magajin Rafi B Ward;;Sokoto Central Prison Clinic;;;;;
Sokoto North;Sarki Adar Gidan Igwe Ward;;Runiin Sambo Clinic;;;;;
Sokoto North;Sarki Adar Gidan Igwe Ward;;Tudun Faila Dispensary;;;;;
Sokoto North;Sarkin Adar Gandu Ward;;Gidan Dare Gandu Dispensary;;;;;
Sokoto North;Sarkin Adar Gandu Ward;;Kofar Kade Clinic;;;;;
Sokoto North;Sarkin Adar Gandu Ward;;Holy Family Mother and Child Clinic;;;;;
Sokoto North;Sarkin Adar Gandu Ward;;Central Market Clinic;;;;;
Sokoto North;Sarkin Adar Gandu Ward;;Noma Clinic;;;;;
Sokoto North;Sarkin Musulmi A Ward;;Sultan Palace Clinic;;;;;
Sokoto North;Sarkin Musulmi A Ward;;Sokoto North Women and Child Welfare Clinic;;;;;
Sokoto North;Sarkin Musulmi B Ward;;Rinin Tawaye Primary Health Centre;;;;;
Sokoto North;Waziri A Ward;;Rumbukawa Clinic;;;;;
Sokoto North;Waziri C Ward;;Kofar Rini Clinic;;;;;
Sokoto South;Gagi A Ward;;Gidan Masau Dispensary;;;;;
Sokoto South;Gagi A Ward;;Mana Tudu Dispensary;;;;;
Sokoto South;Gagi A Ward;;Mana Babba Clinic;;;;;
Sokoto South;Gagi A Ward;;Gagi Basic Health Clinic;;;;;
Sokoto South;Gagi B Ward;;Mabera Mujaya Dispensary;;;;;
Sokoto South;Gagi C Ward;;Saraki Clinic;;;;;
Sokoto South;Gagi C Ward;;Gidan Dahala Dispensary;;;;;
Sokoto South;Gagi C Ward;;Free Hand Specialist Hospital;;;;;
Sokoto South;Gagi C Ward;;Wali Bako Specialist Medical Centre;;;;;
Sokoto South;Gagi C Ward;;Police Clinic;;;;;
Sokoto South;Gagi C Ward;;Mabera Basic Health Clinic;;;;;
Sokoto South;Gagi C Ward;;Shephered Clinic;;;;;
Sokoto South;Rijiya A Ward;;Sokoto Specialist Hospital;;;;;
Sokoto South;Rijiya A Ward;;Gaskiya Optical Centre (Sarkin Adar A);;;;;
Sokoto South;Rijiya B Ward;;Hamdala Medical Centre;;;;;
Sokoto South;Rijiya B Ward;;Karaye Hospital;;;;;
Sokoto South;Rijiya B Ward;;Nakowa Diagnostic Laboratory;;;;;
Sokoto South;Rijiya B Ward;;Az Home Physiotherapy Centre;;;;;
Sokoto South;Rijiya B Ward;;Shiekh Gummi Clinic;;;;;
Sokoto South;Sarkin Adar A Ward;;Aliyu Jodi Clinic;;;;;
Sokoto South;Sarkin Adar A Ward;;Mariam Abacha Women and Child Welfare Clinic;;;;;
Sokoto South;Sarkin Adar A Ward;;Zafifi Ultrasound Diagnostic Centre;;;;;
Sokoto South;Sarkin Adar A Ward;;Sahel Specialist Hospital;;;;;
Sokoto South;Sarkin Adar A Ward;;Kwanni Clinic;;;;;
Sokoto South;Sarkin Zamfara A Ward;;Hafsat Ahmad Bello Clinic;;;;;
Sokoto South;Sarkin Zamfara A Ward;;Turaki Basic Health Clinic;;;;;
Sokoto South;Sarkin Zamfara A Ward;;Tararo Outpatient Clinic;;;;;
Sokoto South;Sarkin Zamfara B Ward;;Rijia Clinic;;;;;
Sokoto South;Sarkin Zamfara B Ward;;Godiya Hospital;;;;;
Sokoto South;Sarkin Zamfara B Ward;;Hussaini Medical Centre;;;;;
Sokoto South;Sarkin Zamfara B Ward;;Yar Akija Basic Health Clinic;;;;;
Sokoto South;Tudun Wada A Ward (Sokoto South);;Marina Clinic;;;;;
Sokoto South;Tudun Wada A Ward (Sokoto South);;Al-Fijir Specialist Hospital;;;;;
Sokoto South;Tudun Wada A Ward (Sokoto South);;Dallatu Clinic;;;;;
Sokoto South;Tudun Wada A Ward (Sokoto South);;Tundun Wada Clinic (SS);;;;;
Sokoto South;Tudun Wada B Ward (Sokoto South);;Standard Clinic;;;;;
Sokoto South;Tudun Wada B Ward (Sokoto South);;Minanata Clinc;;;;;
Sokoto South;Tudun Wada B Ward (Sokoto South);;Planned Parenthood Federation of Nigeria Clinic;;;;;
Tambuwal;Bagida Lukingo Ward;;Maradu Basic Health Centre;;;;;
Tambuwal;Bagida Lukingo Ward;;Bagida Upgraded Dispensary;;;;;
Tambuwal;Bagida Lukingo Ward;;Dogon Marke Dispensary;;;;;
Tambuwal;Bagida Lukingo Ward;;Ganuwa Dispensary;;;;;
Tambuwal;Bagida Lukingo Ward;;Dan Madi Dispensary;;;;;
Tambuwal;Bakaya Ward;;Madacci Dispensary;;;;;
Tambuwal;Bakaya Ward;;Bakaya Upgraded Dispensary;;;;;
Tambuwal;Bakaya Ward;;R/Liman Dispensary;;;;;
Tambuwal;Barkeji Ward;;Sabawa Dispensary;;;;;
Tambuwal;Barkeji Ward;;Nabaguda Dispensary;;;;;
Tambuwal;Barkeji Ward;;Kalgo Dispensary (Tambuwal);;;;;
Tambuwal;Barkeji Ward;;Barkeji Dispensary;;;;;
Tambuwal;Bashire Ward;;Masu Basic Health Centre;;;;;
Tambuwal;Bashire Ward;;Maikada Dispensary;;;;;
Tambuwal;Bashire Ward;;Bashire Upgraded Dispensary;;;;;
Tambuwal;Dogon Daji Ward;;Dogon Daji General Hospital;;;;;
Tambuwal;Dogon Daji Ward;;Gozama Basic Health Centre;;;;;
Tambuwal;Dogon Daji Ward;;Salah Upgraded Dispensary;;;;;
Tambuwal;Dogon Daji Ward;;Tunga Community Dispensary;;;;;
Tambuwal;Dogon Daji Ward;;Gambu Dispensary;;;;;
Tambuwal;Dogon Daji Ward;;Bancho Dispensary;;;;;
Tambuwal;Dogon Daji Ward;;Maikade Dispensary;;;;;
Tambuwal;Faga/Alasan Ward;;Kaura Dispensary (Tambul);;;;;
Tambuwal;Faga/Alasan Ward;;Faga Primary Health Centre;;;;;
Tambuwal;Faga/Alasan Ward;;Faga-Alasa Primary Health Centre;;;;;
Tambuwal;Jabbo Ward;;Jabbo Primary Health Centre;;;;;
Tambuwal;Jabbo Ward;;Hiliya Dispensary;;;;;
Tambuwal;Jabbo Ward;;Gyasalode Dispensary;;;;;
Tambuwal;Jabbo Ward;;Modo Dispensary;;;;;
Tambuwal;Romon Sarki Ward;;Barga Dispensary;;;;;
Tambuwal;Romon Sarki Ward;;Kaya Dispensary (Tambuwal LGA);;;;;
Tambuwal;Romon Sarki Ward;;R/Sarki Dispensary;;;;;
Tambuwal;Saida/Goshi Ward;;Tsiwa Dispensary;;;;;
Tambuwal;Saida/Goshi Ward;;Saida Dispensary;;;;;
Tambuwal;Saida/Goshi Ward;;Garan Dispensary;;;;;
Tambuwal;Saida/Goshi Ward;;Goshi Dispensary;;;;;
Tambuwal;Saida/Goshi Ward;;Bangala Dispensary;;;;;
Tambuwal;Saida/Goshi Ward;;Tandamari Dispensary;;;;;
Tambuwal;Saida/Goshi Ward;;Buwade Dispensary (Tambuwal);;;;;
Tambuwal;Saida/Goshi Ward;;Gudum Dispensary;;;;;
Tambuwal;Saida/Goshi Ward;;Gambuwa Dispensary;;;;;
Tambuwal;Sanyinna Ward;;Sanyinna Primary Health Centre;;;;;
Tambuwal;Tambuwal Ward;;Shinfiri Dispensary;;;;;
Tambuwal;Tambuwal Ward;;Tambuwal General Hospital;;;;;
Tambuwal;Tambuwal Ward;;Tambuwal Primary Health Centre;;;;;
Tangaza;Gidan Madi Ward;;Gidan Dadi Dispensary;;;;;
Tangaza;Gidan Madi Ward;;Gidan Madi Upgraded Dispensary;;;;;
Tangaza;Kalanjeni Ward;;Gidima Dispensary;;;;;
Tangaza;Kalanjeni Ward;;Kalanjeni Dispensary;;;;;
Tangaza;Kuche Huru Ward;;Kwannawa Dispensary (Tangaza);;;;;
Tangaza;Kuche Huru Ward;;Kuche Huru Dispensary;;;;;
Tangaza;Kuche Huru Ward;;Araba Dispensary (Tangaza);;;;;
Tangaza;Mogonho Ward;;Takkau Dispensary;;;;;
Tangaza;Mogonho Ward;;Mogonho Dispensary;;;;;
Tangaza;Mogonho Ward;;Sanyinna Dispensary;;;;;
Tangaza;Mogonho Ward;;Masallachi Dispensary;;;;;
Tangaza;Mogonho Ward;;Ginjo Dispensary;;;;;
Tangaza;Raka Ward;;Gandaba Dispensary;;;;;
Tangaza;Raka Ward;;Raka Dispensary;;;;;
Tangaza;Ruwa Wuri Ward;;Sarma A Dispensary;;;;;
Tangaza;Ruwa Wuri Ward;;Manja Dispensary;;;;;
Tangaza;Ruwa Wuri Ward;;Tunigara Dispensary;;;;;
Tangaza;Ruwa Wuri Ward;;Ruwa Wuri Dispensary;;;;;
Tangaza;Ruwa Wuri Ward;;Sarma B Dispensary;;;;;
Tangaza;Sakkwai Ward;;Kandam Dispensary;;;;;
Tangaza;Sakkwai Ward;;Sakkwai Dispensary;;;;;
Tangaza;Sakkwai Ward;;Wasaniya Dispensary;;;;;
Tangaza;Sakkwai Ward;;Alkasun Dispensary;;;;;
Tangaza;Sakkwai Ward;;Mano Dispensary;;;;;
Tangaza;Salewa Ward;;Bauni Dispensary;;;;;
Tangaza;Salewa Ward;;Salewa Dispensary;;;;;
Tangaza;Salewa Ward;;Zurmuku Dispensary;;;;;
Tangaza;Sutti Ward;;Bararahe Dispensary;;;;;
Tangaza;Sutti Ward;;Alela Dispensary;;;;;
Tangaza;Sutti Ward;;Kwarakka Dispensary;;;;;
Tangaza;Sutti Ward;;Rini Dispensary;;;;;
Tangaza;Tangaza Ward;;Gurdam Dispensary;;;;;
Tangaza;Tangaza Ward;;Baidi Dispensary;;;;;
Tangaza;Tangaza Ward;;Labsani Dispensary;;;;;
Tangaza;Tangaza Ward;;Tangza Town Dispensary;;;;;
Tangaza;Tangaza Ward;;Tangaza General Hospital;;;;;
Tureta;Bimasa/Gidan Kare Ward;;Bimasa Dispensary;;;;;
Tureta;Bimasa/Gidan Kare Ward;;Gidan Kare Primary Health Centre;;;;;
Tureta;Bimasa/Gidan Kare Ward;;Dorawa Dispensary;;;;;
Tureta;Dan Gulbi Ward;;Dangulbi Dispensary;;;;;
Tureta;Duma Ward;;Duma Dispensary;;;;;
Tureta;Hura Girke Ward;;Fura Girke Primary Health Centre;;;;;
Tureta;Hura Girke Ward;;Garbe Kanne Dispensary;;;;;
Tureta;Hura Girke Ward;;Randa Dispensary;;;;;
Tureta;Kuruwa Ward;;Kuruwa Dispensary;;;;;
Tureta;Kuruwa Ward;;Galadimai Primary Health Centre;;;;;
Tureta;Kwarare Ward;;Kwarare Dispensary;;;;;
Tureta;Lamba Tureta Ward;;Gidan Garkwa Primary Health Centre;;;;;
Tureta;Lamba Tureta Ward;;Lamba Tureta Upgraded Dispensary;;;;;
Tureta;Lofa Ward;;Lofa Dispensary;;;;;
Tureta;Tsamiya Ward (Tureta);;Tsimiya Model Primary Health Centre;;;;;
Tureta;Tsamiya Ward (Tureta);;Gidan Dangiwa Dispensary;;;;;
Tureta;Tureta Ward;;Tureta General Hospital;;;;;
Tureta;Tureta Ward;;Rafin Buda Primary Health Centre;;;;;
Tureta;Tureta Ward;;Tureta Dispensary;;;;;
Wamako;Arkilla Gwiwa Ward;;Gwiwa Clinic;;;;;
Wamako;Arkilla Gwiwa Ward;;Arkilla Primary Health Centre;;;;;
Wamako;Arkilla Gwiwa Ward;;Kontogora Clinic;;;;;
Wamako;Arkilla Gwiwa Ward;;Usman Danfodio University Teaching Hospital;;;;;
Wamako;Arkilla Gwiwa Ward;;Gwiwa Community Health Centre;;;;;
Wamako;Bado Kasarawa Ward;;Bado Dispensary;;;;;
Wamako;Bado Kasarawa Ward;;Shehu Shagari College of Education Clinic;;;;;
Wamako;Bado Kasarawa Ward;;Farfaru Clinic;;;;;
Wamako;Bado Kasarawa Ward;;Maganawa Dispensary;;;;;
Wamako;Bado Kasarawa Ward;;Kasarawa Dispensary;;;;;
Wamako;Bado Kasarawa Ward;;Bini Dispensary;;;;;
Wamako;Dundaye Gumburawa Ward;;Kaurare Dispensary;;;;;
Wamako;Dundaye Gumburawa Ward;;Tambaranga Dispensary;;;;;
Wamako;Dundaye Gumburawa Ward;;Yarlabe Dispensary;;;;;
Wamako;Dundaye Gumburawa Ward;;Danjawa Dispensary;;;;;
Wamako;Dundaye Gumburawa Ward;;Tangwale Dispensary;;;;;
Wamako;Dundaye Gumburawa Ward;;Dundaye Clinic;;;;;
Wamako;Gidan Bubu Ward;;Gidan Bubu Dispensary;;;;;
Wamako;Gidan Bubu Ward;;Gidan Tudu Dispensary (Wamakko);;;;;
Wamako;Gidan Bubu Ward;;Bakin Gulbi Primary Health Centre;;;;;
Wamako;Gidan Bubu Ward;;Gidan Sarkin Dunki Dispensary;;;;;
Wamako;Gidan Bubu Ward;;Gidan Yaro Dispensary;;;;;
Wamako;Gidan Hamidu Ward;;Gidan Habibu Dispensary;;;;;
Wamako;Gidan Hamidu Ward;;Ja'oji Dispensary;;;;;
Wamako;Gidan Hamidu Ward;;Gidan Hamidu Primary Health Centre;;;;;
Wamako;Gidan Hamidu Ward;;Gidan Karo Dispensary;;;;;
Wamako;Gumbi Wajake Ward;;Yar Abba Dispensary;;;;;
Wamako;Gumbi Wajake Ward;;Wajake Dispensary;;;;;
Wamako;Gumbi Wajake Ward;;Gumbi Dispensary;;;;;
Wamako;Gwamatse Ward;;Dankyal Dispensary;;;;;
Wamako;Gwamatse Ward;;Gwamatse Dispensary;;;;;
Wamako;Gwamatse Ward;;Samalu Dispensary;;;;;
Wamako;Gwamatse Ward;;Lagau Dispensary;;;;;
Wamako;Gwamatse Ward;;Gidan Kaduna Primary Health Centre;;;;;
Wamako;Kalambaina Girafshi Ward;;Bakin Kusu Dispensary;;;;;
Wamako;Kammata Ward;;Gatare Dispensary;;;;;
Wamako;Kammata Ward;;Ruggar Mande Clinic;;;;;
Wamako;Kammata Ward;;Fanari Dispensary;;;;;
Wamako;Kammata Ward;;Yarume Dispensary;;;;;
Wamako;Kaura Gedawa Ward;;Gedawa Dispensary;;;;;
Wamako;Kaura Gedawa Ward;;Badano Dispensary;;;;;
Wamako;Kaura Gedawa Ward;;Yaurawa Disp;;;;;
Wamako;Kaura Gedawa Ward;;Liggere Dispensary;;;;;
Wamako;Kaura Gedawa Ward;;Daraye Dispensary;;;;;
Wamako;Kaura Gedawa Ward;;Zarori PHC;;;;;
Wamako;Kaura Gedawa Ward;;Kaura Kimba Dispensary;;;;;
Wamako;Wamakko Ward;;Mukere Dispensary;;;;;
Wamako;Wamakko Ward;;Wamakko Dispensary;;;;;
Wurno;Achida Ward;;Achida Primary Health Centre;;;;;
Wurno;Achida Ward;;So Tahir Clinic Achida;;;;;
Wurno;Achida Ward;;Achida Model Primary Health Centre;;;;;
Wurno;Alkammu Ward;;Kwassre Dispensary;;;;;
Wurno;Alkammu Ward;;Yantabau Dispensary;;;;;
Wurno;Alkammu Ward;;Kandam Dispensary (Wurno LGA);;;;;
Wurno;Alkammu Ward;;Gyalgyal Dispensary;;;;;
Wurno;Alkammu Ward;;Alkammu Dispensary;;;;;
Wurno;Chacho Marnona Ward;;Munki Dispensary;;;;;
Wurno;Chacho Marnona Ward;;Kadagiwa Dispensary;;;;;
Wurno;Chacho Marnona Ward;;Sabon Garin Liman Dispensary;;;;;
Wurno;Chacho Marnona Ward;;Chacho Dispensary;;;;;
Wurno;Chacho Marnona Ward;;Tambakaga Dispensary;;;;;
Wurno;Chacho Marnona Ward;;Gawo Dispensary;;;;;
Wurno;Chacho Marnona Ward;;Marnona Dispensary;;;;;
Wurno;Dimbiso Ward;;Dimbiso Dispensary;;;;;
Wurno;Dinawa Ward;;Saketa Dispensary;;;;;
Wurno;Dinawa Ward;;Dinawa Dispensary;;;;;
Wurno;Kwargaba Ward;;Kwargaba Dispensary;;;;;
Wurno;Kwargaba Ward;;Barayazaki Dispensary;;;;;
Wurno;Kwargaba Ward;;Lugu Dispensary;;;;;
Wurno;Kwasare Ward;;Sisawa Dispensary;;;;;
Wurno;Kwasare Ward;;Kwasare Dispensary;;;;;
Wurno;Lahudo Ward;;Lahudo Dispensary;;;;;
Wurno;Lahudo Ward;;Gidan Bango Dispensary (Wurno LGA);;;;;
Wurno;Magarya Ward;;Wurno General Hospital;;;;;
Wurno;Marafa Ward (Wurno LGA);;Wurno Township Dispensary;;;;;
Wurno;Tunga Ward;;Tunga Dispensary (Wurno);;;;;
Wurno;Tunga Ward;;Wurno Government Secondary School Clinic;;;;;
Yabo;Bakale Ward;;Bakale Dispensary;;;;;
Yabo;Bakale Ward;;Shabra Dispensary;;;;;
Yabo;Bengaje Ward;;Bengaje Dispensary;;;;;
Yabo;Bengaje Ward;;Dono Dispensary;;;;;
Yabo;Bengaje Ward;;Birdi_Birdi Dispensary;;;;;
Yabo;Binji_Muza Ward;;Kibiyare Dispensary;;;;;
Yabo;Binji_Muza Ward;;Binji Primary Health Centre;;;;;
Yabo;Birnin Ruwa Ward;;Birnin Ruwa Dispensary;;;;;
Yabo;Birnin Ruwa Ward;;Kamfatare Dispensary;;;;;
Yabo;Dagawa Ward;;Gomara Dispensary;;;;;
Yabo;Dagawa Ward;;Ruggar Kijjo Dispensary;;;;;
Yabo;Dagawa Ward;;Dagawa Dispensary;;;;;
Yabo;Fakka Ward;;Gudurega Dispensary;;;;;
Yabo;Fakka Ward;;Fakka Dispensary;;;;;
Yabo;Kilgori Ward;;Alkalije Dispensary;;;;;
Yabo;Kilgori Ward;;Kilgori Primary Health Centre;;;;;
Yabo;Torankawa Ward;;Muza Dispensary;;;;;
Yabo;Torankawa Ward;;Torankawa Dispensary;;;;;
Yabo;Yabo A Ward;;Yabo General Hospital;;;;;
Yabo;Yabo A Ward;;Yabo Town Dispensary;;;;;
Yabo;Yabo A Ward;;Yabo Women Child Welfare Clinic;;;;;
Yabo;Yabo A Ward;;Addam Dispensary;;;;;
Yabo;Yabo B Ward;;Kaura Dispensary;;;;;
