LGA;Ward;Settlement;Facility;Type;Ownership;Address;Longitude;Latitude
Aba North;Uratta Ward;;Ourlady Clinic and Maternity;;;;;
Aba North;Uratta Ward;;Ogbosisi Health Post;;;;;
Aba North;Uratta Ward;;Kelechi Hospital;;;;;
Aba North;Umuola Ward;;Seventh Day Adventist Hospital;;;;;
Aba North;Umuola Ward;;Umuola Egbelu Health Centre;;;;;
Aba North;Umuola Ward;;Umuola Okpulor Health Post;;;;;
Aba North;Umuola Ward;;God's Will Clinic;;;;;
Aba North;Umuola Ward;;Pricess Mary Hospital;;;;;
Aba North;Umuola Ward;;Ukwuodara Health Post;;;;;
Aba North;Umuola Ward;;Alpha Inland Hospital;;;;;
Aba North;Umuola Ward;;Kahabiri Hospital;;;;;
Aba North;Umuogor Ward;;Umuogor Health Post;;;;;
Aba North;Umuogor Ward;;Osoke Health Centre;;;;;
Aba North;St Eugene Ward;;Ikechukwu Maternity Home;;;;;
Aba North;St Eugene Ward;;Revival Miracle Maternity Hospital;;;;;
Aba North;St Eugene Ward;;Micro Hospital;;;;;
Aba North;St Eugene Ward;;Eugene Hospital;;;;;
Aba North;Osusu 2 Ward;;Touch Health Hospital;;;;;
Aba North;Osusu 2 Ward;;St Theresa Hospital;;;;;
Aba North;Osusu 2 Ward;;Osusu Clinic;;;;;
Aba North;Osusu 2 Ward;;His Stripes Hospital;;;;;
Aba North;Osusu 1 Ward;;Evergreen Hospital;;;;;
Aba North;Osusu 1 Ward;;Emmanuel Hospital;;;;;
Aba North;Osusu 1 Ward;;Good Samaritaan Hospital;;;;;
Aba North;Osusu 1 Ward;;Olive Hospital;;;;;
Aba North;Osusu 1 Ward;;Osusu 1 Primary Health Centre;;;;;
Aba North;Old GRA Ward;;Tina Maternity;;;;;
Aba North;Old GRA Ward;;El-Asamen Hospital;;;;;
Aba North;Old GRA Ward;;GRA Health Post;;;;;
Aba North;Old GRA Ward;;Rosevine Hospital;;;;;
Aba North;Ogbor 2 Ward;;Stone Hospital;;;;;
Aba North;Ogbor 2 Ward;;Pepples Road Clinic;;;;;
Aba North;Ogbor 2 Ward;;Blessed Heaven Hospital;;;;;
Aba North;Ogbor 2 Ward;;Group Medical Practice;;;;;
Aba North;Ogbor 2 Ward;;Ogbor Hill Clinic;;;;;
Aba North;Ogbor 1 Ward;;Zikora Hospital;;;;;
Aba North;Ogbor 1 Ward;;Isaac Chukwu Hospital;;;;;
Aba North;Ogbor 1 Ward;;Nissi Hospital;;;;;
Aba North;Ogbor 1 Ward;;Living Word Hospital;;;;;
Aba North;Ogbor 1 Ward;;Impact Hospital;;;;;
Aba North;Ogbor 1 Ward;;Ogbor Clinic Eze Egege Palace;;;;;
Aba North;Industrial Ward;;Industrial Health Post;;;;;
Aba North;Eziama Ward;;Eziama Public Health Clinic;;;;;
Aba North;Eziama Ward;;Euna Hospital;;;;;
Aba North;Asa-Okpulor Ward;;Asa-Okpulor II Health Centre;;;;;
Aba North;Asa-Okpulor Ward;;Asaokpulor Health Centre;;;;;
Aba North;Asaokpuaja Ward;;Berma Hospital;;;;;
Aba North;Asaokpuaja Ward;;Asaokpuaja Health Post;;;;;
Aba North;Ariaria Ward;;Green Land Hospital;;;;;
Aba North;Ariaria Ward;;Powerline Health Post;;;;;
Aba North;Ariaria Ward;;Umunneato Health Clinic;;;;;
Aba North;Ariaria Ward;;Chidima Hospital;;;;;
Aba North;Ariaria Ward;;Land Mark Hospital;;;;;
Aba North;Ariaria Ward;;New Lead Hospital;;;;;
Aba North;Ariaria Ward;;Ukwumango Health Post;;;;;
Aba North;Ariaria Ward;;Ivory Hospital;;;;;
Aba North;Ariaria Ward;;Goodness& Mercy;;;;;
Aba South;Umuogele Ward;;New Life Hospital;;;;;
Aba South;Umuogele Ward;;Umuogele Primary Health Centre;;;;;
Aba South;Okporoenyi Ward;;Nnentu Health Post;;;;;
Aba South;Okporoenyi Ward;;Umuokennunu Primary Health Centre;;;;;
Aba South;Okporoenyi Ward;;Umuebeke Primary Health Centre;;;;;
Aba South;Ngwa 2 Ward;;Divine Favour Maternity;;;;;
Aba South;Ngwa 2 Ward;;Integrated Health Foundation Maternity;;;;;
Aba South;Ngwa 2 Ward;;Ozuitem Health Centre;;;;;
Aba South;Ngwa 2 Ward;;Our Lady of Sick Hospital;;;;;
Aba South;Ngwa 2 Ward;;Isaac Okwuonu Maternity Home;;;;;
Aba South;Ngwa 2 Ward;;St Luke Health Post;;;;;
Aba South;Ngwa 1 Ward;;Shammer Hospital;;;;;
Aba South;Ngwa 1 Ward;;Ndiegoro Health Post;;;;;
Aba South;Ngwa 1 Ward;;Ohazu I Health Post;;;;;
Aba South;Ngwa 1 Ward;;Agu Foundation Hosptial;;;;;
Aba South;Ngwa 1 Ward;;St. Benard Hospital;;;;;
Aba South;Ngwa 1 Ward;;Igwebuike Health Clinic;;;;;
Aba South;Ngwa 1 Ward;;Petra Hospital (Ngwa II);;;;;
Aba South;Mosque Ward;; Aba School of Health Health Clinic;;;;;
Aba South;Iheorji Ward;;Amankita Health Centre;;;;;
Aba South;Iheorji Ward;;St John's Clinic;;;;;
Aba South;Iheorji Ward;;Presbyterian Health Post;;;;;
Aba South;Igwebuike Ward;;Ohazu 4 Primary Health Centre;;;;;
Aba South;Igwebuike Ward;;Amaufuru Primary Health Centre;;;;;
Aba South;Igwebuike Ward;;Faith in God Hospital;;;;;
Aba South;Igwebuike Ward;;Chinwe Hospital;;;;;
Aba South;Igwebuike Ward;;Ohazu II Health Centre;;;;;
Aba South;Igwebuike Ward;;Chinwe Maternity Home;;;;;
Aba South;Igwebuike Ward;;Umuosi Health Centre;;;;;
Aba South;Glocester Ward;;Abia State University Teaching Hospital;;;;;
Aba South;Eziukwu 2 Ward;;Lady Anaesthesia Hospital ;;;;;
Aba South;Eziukwu 2 Ward;;Asaokpuaja Health Centre;;;;;
Aba South;Eziukwu 2 Ward;;Chosen Health Post;;;;;
Aba South;Eziukwu 2 Ward;;Amaogbonna Health Post;;;;;
Aba South;Eziukwu 2 Ward;;Clehanson Hospital;;;;;
Aba South;Eziukwu 2 Ward;;Ikechukwu Maternity;;;;;
Aba South;Eziukwu 2 Ward;;Onyemaechi Maternity Home;;;;;
Aba South;Eziukwu 1 Ward;;St. James Health Post;;;;;
Aba South;Eziukwu 1 Ward;;Mendel Hospital and Diagnostic Centre;;;;;
Aba South;Eziukwu 1 Ward;;Better Life Maternity Hospital;;;;;
Aba South;Eziukwu 1 Ward;;Okpjiaku Health Centre;;;;;
Aba South;Eziukwu 1 Ward;;Obuda Health Centre;;;;;
Aba South;Eziukwu 1 Ward;;Nwadike Hospital;;;;;
Aba South;Eziukwu 1 Ward;;Eziukwu Primary Health Centre;;;;;
Aba South;Enyimba Ward;;Abaukwu Health Centre;;;;;
Aba South;Enyimba Ward;;Faith Foundation Hospital;;;;;
Aba South;Enyimba Ward;;Victory Hospital;;;;;
Aba South;Enyimba Ward;;Victory Hospital (Igwebuike);;;;;
Aba South;Enyimba Ward;;Amara Maternity;;;;;
Aba South;Enyimba Ward;;St Paul's Health Post;;;;;
Aba South;Enyimba Ward;;John Okorie Memorial Hospital;;;;;
Aba South;Elu Ohazu Ward;;Our Saviour Maternity Home;;;;;
Aba South;Elu Ohazu Ward;;Asaeme Health Centre;;;;;
Aba South;Elu Ohazu Ward;;St. Joseph Hospital;;;;;
Aba South;Elu Ohazu Ward;;Mount Zion Maternity Home;;;;;
Aba South;Elu Ohazu Ward;;St Jude Health Post;;;;;
Aba South;Ekeoha Ward;;CKC Health Post;;;;;
Aba South;Ekeoha Ward;;Ekeoha Clinic;;;;;
Aba South;Asa Ward;;Asa Health Clinic;;;;;
Aba South;Asa Ward;;Mendel Hospital;;;;;
Aba South;Aba Town Hall Ward;;Ekeoma Hospital;;;;;
Aba South;Aba Town Hall Ward;;Georges Health Post;;;;;
Aba South;Aba Town Hall Ward;;Chees Hospital;;;;;
Aba South;Aba Town Hall Ward;;Health Office Maternal and Child Health Center;;;;;
Aba South;Aba Town Hall Ward;;Nazareth Hospital;;;;;
Aba South;Aba River Ward;;Ngwa Road End Health Clinic;;;;;
Aba South;Aba River Ward;;St. Anthony Hospital;;;;;
Aba South;Aba River Ward;;New Era Hospital;;;;;
Aba South;Aba River Ward;;Mother of Mercy Clinic;;;;;
Arochukwu;Ututu Ward;;Obiene Health Centre;;;;;
Arochukwu;Ututu Ward;;Abuma Health Centre;;;;;
Arochukwu;Ututu Ward;;Ukwuakwu Health Centre;;;;;
Arochukwu;Ututu Ward;;Amakofia Health Centre;;;;;
Arochukwu;Ovukwu Ward;;Ndi-Oji Health Centre;;;;;
Arochukwu;Ovukwu Ward;;Ndi Okereke Abam Health Post;;;;;
Arochukwu;Ohafor 2 Ward;;Ameke Abam Health Centre;;;;;
Arochukwu;Ohafor 2 Ward;;Ndi Ebe Abam Health Centre;;;;;
Arochukwu;Ohafor 1 Ward;;Ndi Ememe Health Centre;;;;;
Arochukwu;Ohafor 1 Ward;;Amuru Abam Health Centre;;;;;
Arochukwu;Ohafor 1 Ward;;Ozu Abam Health Centre;;;;;
Arochukwu;Ohaeke Ward;;Idima Abam Health Centre;;;;;
Arochukwu;Isu Ward;;Obieze Health Centre;;;;;
Arochukwu;Isu Ward;;Iheosu Health Centre;;;;;
Arochukwu;Isu Ward;;Isu Health Centre;;;;;
Arochukwu;Ikwun 2 Ward;;Umuzongbo Health Centre;;;;;
Arochukwu;Ikwun 1 Ward;;Umuye Health Centre;;;;;
Arochukwu;Ikwun 1 Ward;;Ndi Okpo Health Centre;;;;;
Arochukwu;Ikwun 1 Ward;;Uburu Health Centre;;;;;
Arochukwu;Ikwun 1 Ward;;Obichie Health Centre;;;;;
Arochukwu;Ikwun 1 Ward;;Atan Ihe Health Centre;;;;;
Arochukwu;Etiti Abam Ward;;Ndi Okorie Health Centre;;;;;
Arochukwu;Etiti Abam Ward;;Atan Abam Health Centre;;;;;
Arochukwu;Eleoha Ututu Ward;;Nkpakpi Health Centre;;;;;
Arochukwu;Eleoha Ututu Ward;;Eleoha Health Centre;;;;;
Arochukwu;Eleoha Ihe 3 Ward ;;Okpo Health Centre;;;;;
Arochukwu;Eleoha Ihe 2 Ward ;;Achara Health Centre;;;;;
Arochukwu;Eleoha Ihe 2 Ward ;;Amafia/Amaetiti Health Centre;;;;;
Arochukwu;Eleoha Ihe 1 Ward;;Aduanu Health Centre;;;;;
Arochukwu;Eleoha Ihe 1 Ward;;Amamiri Health Centre;;;;;
Arochukwu;Ebemoha Ward;;Ndi Agwu Health Centre;;;;;
Arochukwu;Arochukwu Ward 4;;Amannagwu Health Centre;;;;;
Arochukwu;Arochukwu Ward 4;;Ibom Health Centre;;;;;
Arochukwu;Arochukwu Ward 3;;Atani Health Centre;;;;;
Arochukwu;Arochukwu Ward 3;;Asaga Health Centre;;;;;
Arochukwu;Arochukwu Ward 3;;Amuvi Health Centre;;;;;
Arochukwu;Arochukwu Ward 2;;Obinkita Health Centre;;;;;
Arochukwu;Arochukwu Ward 2;;St Anthony's Hospital (Arochukwu);;;;;
Arochukwu;Arochukwu Ward 2;;Ugwuavo Health Centre;;;;;
Arochukwu;Arochukwu 1 Ward;;Utughaugwu Health Centre;;;;;
Arochukwu;Arochukwu 1 Ward;;Health Office Clinic;;;;;
Arochukwu;Arochukwu 1 Ward;;Arochukwu General Hospital;;;;;
Arochukwu;Arochukwu 1 Ward;;Ugwuakuma Health Centre;;;;;
Bende;Uzuakoli 2 Ward;;Uzuakoli Primary Health Centre;;;;;
Bende;Umuimenyi Ward;;Lohum Primary Health Centre;;;;;
Bende;Umuimenyi Ward;;Lodu Imenyi Primary Health Centre;;;;;
Bende;Umuimenyi Ward;;Amaorji Imenyi Health Centre;;;;;
Bende;Umuimenyi Ward;;Akoli Health Centre;;;;;
Bende;Umuimenyi Ward;;Amorji Lodu Health Centre;;;;;
Bende;Umuhu Ward;;Umuhu Primary Health Centre;;;;;
Bende;Umuhu Ward;;Umuokwe Primary Health Centre;;;;;
Bende;Ugwueke Ward;;Amaba Primary Health Centre;;;;;
Bende;Ozuitem Ward;;Umuobasi Ukwu Health Centre;;;;;
Bende;Ozuitem Ward;;Mba Health Centre;;;;;
Bende;Ozuitem Ward;;Isiegbu Primary Health Centre;;;;;
Bende;Nkpa 2 Ward;;Ugwunkpa Health Centre;;;;;
Bende;Nkpa 2 Ward;;Amaegbuato Primary Health Centre;;;;;
Bende;Nkpa 1 Ward;;Okpuhu Primary Health Centre;;;;;
Bende;Itumbauzo 2 Ward;;Ntalakwu Primary Health Centre;;;;;
Bende;Itumbauzo 1 Ward;;Ubibia Health Centre;;;;;
Bende;Itumbauzo 1 Ward;;Ndiwo Primary Health Centre;;;;;
Bende;Itumbauzo 1 Ward;;Ntubi Primary Health Centre;;;;;
Bende;Itumbauzo 1 Ward;;Okopedi Health Centre;;;;;
Bende;Item 4 Ward;;Amaokwe Maternity Home;;;;;
Bende;Item 4 Ward;;Amaokwe Primary Health Centre;;;;;
Bende;Item 3 Ward;;Akanu Model Primary Health Centre;;;;;
Bende;Item 3 Ward;;Okai Health Centre;;;;;
Bende;Item 2 Ward;;Okoko Maternity Home;;;;;
Bende;Item 1 Ward;;Amaekpu Health Centre;;;;;
Bende;Igbere 3 Ward;;Umuisi Primary Health Centre;;;;;
Bende;Igbere 3 Ward;;Amankalu Igbere Primary Health Centre;;;;;
Bende;Igbere 2 Ward;;Amaiyi Igbere Health Centre;;;;;
Bende;Igbere 2 Ward;;Amaukwu Igbere Primary Health Centre;;;;;
Bende;Igbere 1 Ward;;Okafia Ultra Modern Health Centre;;;;;
Bende;Igbere 1 Ward;;Igbere Primary Health Centre;;;;;
Bende;Bende Ward;;Standard Health Clinic;;;;;
Bende;Bende Ward;;Bende Maternity Home;;;;;
Bende;Bende Ward;;Okoroenyi Health Centre;;;;;
Bende;Bende Ward;;Bende Community Health Centre;;;;;
Bende;Bende Ward;;Bende Ovu Primary Health Centre;;;;;
Bende;Alayi B Ward;;Isiaku Primary Health Centre;;;;;
Bende;Alayi B Ward;;Amankalu Primary Health Centre;;;;;
Bende;Alayi A Ward;;Alayi Maternity Home;;;;;
Bende;Alayi A Ward;;Ezinne Maternity Home;;;;;
Bende;Alayi A Ward;;Umuenyere Alayi Primary Health Centre;;;;;
Bende;Alayi A Ward;;Agboakoli Alayi Primary Health Centre;;;;;
Ikwuano;Usaka Ward;;Usaka-Ukwu Health Centre;;;;;
Ikwuano;Uhala-Uda/Origwe Ward;;Nnono Health Centre;;;;;
Ikwuano;Ugwuegbu Ward;;Usaka-Obugwu Health Centre;;;;;
Ikwuano;Oloko 2 Ward;;Nchara Akanu Outreach Unit;;;;;
Ikwuano;Oloko 2 Ward;;Nsaka-Eleogu Health Centre;;;;;
Ikwuano;Oloko 2 Ward;;Nchara Otoro Outreach Unit;;;;;
Ikwuano;Oloko 2 Ward;;Amizi Health Centre (Ikwuano LGA);;;;;
Ikwuano;Oloko 1 Ward;;Obuohia Okike Health Centre;;;;;
Ikwuano;Oloko 1 Ward;;Christiana Maternity Home;;;;;
Ikwuano;Oloko 1 Ward;;Oloko Health Centre;;;;;
Ikwuano;Oloko 1 Ward;;Nkasi Maternity Home;;;;;
Ikwuano;Oloko 1 Ward;;Isiugwu Health Centre;;;;;
Ikwuano;Oloko 1 Ward;;Awomukwu Health Centre;;;;;
Ikwuano;Oboro 4 Ward;;Isi Ala Health Centre;;;;;
Ikwuano;Oboro 3 Ward;;Alozie Maternity Home;;;;;
Ikwuano;Oboro 3 Ward;;Okwe Health Centre;;;;;
Ikwuano;Oboro 3 Ward;;Grace Maternity Home;;;;;
Ikwuano;Oboro 3 Ward;;Oboro Health Centre;;;;;
Ikwuano;Oboro 3 Ward;;Ntalakwu Health Centre;;;;;
Ikwuano;Oboro 2 Ward;;Umudike Ukwu Health Centre;;;;;
Ikwuano;Oboro 2 Ward;;Michael Okpara University of Agriculture Health Centre;;;;;
Ikwuano;Oboro 2 Ward;;Amabaime Outreach Unit;;;;;
Ikwuano;Oboro 1 Ward;;Amawum Outreach Unit;;;;;
Ikwuano;Ikemba Ward;;Ikemba Health Centre;;;;;
Ikwuano;Ibere 2 Ward;;Nkalunta Health Centre;;;;;
Ikwuano;Ibere 2 Ward;;Iyila Health Centre;;;;;
Ikwuano;Ibere 2 Ward;;Obuohia Ibere Health Centre;;;;;
Ikwuano;Ibere 2 Ward;;Itu-Nta Health Centre;;;;;
Ikwuano;Ibere 2 Ward;;Iyalu Health Centre;;;;;
Ikwuano;Ibere 1 Ward;;Ngwugwo Health Centre;;;;;
Ikwuano;Ibere 1 Ward;;Iberenta Health Centre;;;;;
Ikwuano;Ibere 1 Ward;;Ahia Orie Health Centre;;;;;
Ikwuano;Ibere 1 Ward;;Ihim Health Centre;;;;;
Ikwuano;Azuiyi Ward;;Love Ajagba Maternity Home;;;;;
Ikwuano;Ariam 1 Ward;;Ariam Health Centre;;;;;
Ikwuano;Ariam 1 Ward;;Ariam Primary Health Centre;;;;;
Ikwuano;Ajatanigu Ward;;Umuigu Health Centre;;;;;
Ikwuano;Ajatanigu Ward;;Aro-Ajatakiri Health Centre;;;;;
Isiala-Ngwa North;Umunna Ward;;Umuode Health Centre;;;;;
Isiala-Ngwa North;Umuha Ward;;Uratta Health Centre;;;;;
Isiala-Ngwa North;Oria na Ugaa Ward;;Oriaa Na Ugaa Hospital (Ntigha);;;;;
Isiala-Ngwa North;Ngwaukwu Ward 2;;Obikabia  Haelth Post;;;;;
Isiala-Ngwa North;Ngwaukwu Ward 1;;Okpula Ngwa Primary Health Centre;;;;;
Isiala-Ngwa North;Ngwaukwu Ward 1;;Osusu Health Centre;;;;;
Isiala-Ngwa North;Mbawsi Umuomainta Ward;;Basic Health Clinic;;;;;
Isiala-Ngwa North;Mbawsi Umuomainta Ward;;God Own Heritage Health Clinic;;;;;
Isiala-Ngwa North;Isiala Nsulu Ward;;Umuala Health Post;;;;;
Isiala-Ngwa North;Isiala Nsulu Ward;;Eziala Health Centre;;;;;
Isiala-Ngwa North;Isiala Amapu Ward;;Isiala Amapu Health Post;;;;;
Isiala-Ngwa North;Isiala Amapu Ward;;Ichi Ukwu Health Centre;;;;;
Isiala-Ngwa North;Ihie Ward;;Ihie Primary Health Centre;;;;;
Isiala-Ngwa North;Eziama Ntigha Ward;;Imerem Health Post;;;;;
Isiala-Ngwa North;Eziama Ntigha Ward;;Obingwa Health Post;;;;;
Isiala-Ngwa North;Eziama Ntigha Ward;;Ntigha Primary Health Centre;;;;;
Isiala-Ngwa North;Amano Nsulu Ward;;Ikputu Health Centre;;;;;
Isiala-Ngwa North;Amano Nsulu Ward;;Umuezeukwu Health Post;;;;;
Isiala-Ngwa North;Amaekpu Isiahia Ward;;Apu na Ekpu Health Centre;;;;;
Isiala-Ngwa North;Amaasa Ward;;Ohuhu Nsulu Health Centre;;;;;
Isiala-Ngwa North;Amaasa Ward;;Umuakwu Primary Health Centre;;;;;
Isiala-Ngwa North;Ahiabaubi Umuchima Ward;;Ahiabaubi Primary Health Centre;;;;;
Isiala-Ngwa North;Agburuezeukwu Ward;;Agburuike Health Post;;;;;
Isiala-Ngwa North;Agburuezeukwu Ward;;Agburuezeukwu Health Centre;;;;;
Isiala-Ngwa North;Achiudo Ward;;Usaka Primary Health Centre;;;;;
Isiala-Ngwa North;Achiudo Ward;;Amachi Health Centre;;;;;
Isiala-Ngwa North;Abayi Amorji Ward;;Abayi Health Centre;;;;;
Isiala-Ngwa North;Abayi Amorji Ward;;Amaorji Primary Health Centre;;;;;
Isiala-Ngwa South;Owerenoche Ward;;Owerrinta Health Post;;;;;
Isiala-Ngwa South;Ovuokwu Ward;;Eketa Health Centre;;;;;
Isiala-Ngwa South;Ovuokwu Ward;;Umuene Primary Health Centre;;;;;
Isiala-Ngwa South;Ovuokwu Ward;;Okpuala Obizi Health Post;;;;;
Isiala-Ngwa South;Ovuokwu Ward;;Umuawa Primary Health Centre;;;;;
Isiala-Ngwa South;Ovungwu Ward;;Africare Health Centre;;;;;
Isiala-Ngwa South;Ovungwu Ward;;Agbaragwu Primary Health Centre;;;;;
Isiala-Ngwa South;Ovungwu Ward;;Amano Health Post;;;;;
Isiala-Ngwa South;Osokwa Ward;;Ikem Nvosi Health Centre;;;;;
Isiala-Ngwa South;Osokwa Ward;;Umuabali Health Centre;;;;;
Isiala-Ngwa South;Osokwa Ward;;Eteghe N'agbogho Primary Health Centre;;;;;
Isiala-Ngwa South;Osokwa Ward;;Osokwa Primary Health Centre;;;;;
Isiala-Ngwa South;Osokwa Ward;;Umuhu Health Centre;;;;;
Isiala-Ngwa South;Omoba Ward;;Omoba Health Centre;;;;;
Isiala-Ngwa South;Okporo Ahaba Ward;;Umuajuju Health Centre;;;;;
Isiala-Ngwa South;Okporo Ahaba Ward;;Umuhie Health Centre;;;;;
Isiala-Ngwa South;Okporo Ahaba Ward;;Mbutu Umuoko Primary Health Centre;;;;;
Isiala-Ngwa South;Ngwaobi Ward;;Christianways Mission Hospital;;;;;
Isiala-Ngwa South;Ngwaobi Ward;;Ngwaobi Primary Health Centre;;;;;
Isiala-Ngwa South;Mbutu Ukwu Ward;;Mbutu Ukwu Health Centre;;;;;
Isiala-Ngwa South;Mbutu Ngwa Ward;;Mbutu Ngwa Health Centre;;;;;
Isiala-Ngwa South;Ehi-na-Uguru Ward;;Umuehim Primary Health Centre;;;;;
Isiala-Ngwa South;Ehi-na-Uguru Ward;;Ebeyi Primary Health Centre;;;;;
Isiala-Ngwa South;Anyambutu Ward;;Anyambutu Primary Health Centre;;;;;
Isiala-Ngwa South;Amaitolu Ward;;Umuotiri Primary Health Centre;;;;;
Isiala-Ngwa South;Amaitolu Ward;;Ngwama Primary Health Centre;;;;;
Isiala-Ngwa South;Amaise Ward;;Amaokpu Health Post;;;;;
Isiala-Ngwa South;Amaise Ward;;Umuekene Health Centre;;;;;
Isiala-Ngwa South;Amaise Ahaba Ward;;Ugba Primary Health Centre;;;;;
Isiala-Ngwa South;Amaise Ahaba Ward;;St Simon's Clinic;;;;;
Isiala-Ngwa South;Alaukwu Ward;;Alaukwu Model Primary Health Centre;;;;;
Isiala-Ngwa South;Aku-na Ekpu Ward I ;;Umunevo Health Post;;;;;
Isiala-Ngwa South;Aku-na Ekpu Ward I ;;Mgbokonta Primary Health Centre;;;;;
Isiala-Ngwa South;Aku-na Ekpu Ward I ;;Amaku Health Centre;;;;;
Isiala-Ngwa South;Aku-na Ekpu Ward I ;;Umuko Health Centre;;;;;
Isiala-Ngwa South;Aku-na Ekpu Ward I ;;Umumkpeyi Primary Health Centre;;;;;
Isiala-Ngwa South;Aku-na Ekpu Ward I ;;Obuba Primary Health Centre;;;;;
Isuikwuato;Umunnekwu 1 Ward;;Ugwuntu Health Centre;;;;;
Isuikwuato;Umunnekwu 1 Ward;;Mgbelu Umunnekwu Health Centre;;;;;
Isuikwuato;Oguduasa Ward;;Amiyiuhu Health Centre;;;;;
Isuikwuato;Obialaugo Ward;;Umuobiala Primary Health Centre;;;;;
Isuikwuato;Ngodo Ugwuele Ward;;Ugwuele Health Centre;;;;;
Isuikwuato;Ngodo Ugwuele Ward;;Ngodo Health Centre;;;;;
Isuikwuato;Ndundu Ward;;Ndundu Health Centre;;;;;
Isuikwuato;Isunabo Ward (Isukwator);;Ukwunwangwu Uturu Primary Health Centre;;;;;
Isuikwuato;Isiala Ward;;Otampa Health Clinic;;;;;
Isuikwuato;Isiala Ward;;Amaba Health Centre (Isukwaitor);;;;;
Isuikwuato;Isiala Ward;;Isuikwuato General Hoapital;;;;;
Isuikwuato;Isiala Ward;;Echiele Health Centre;;;;;
Isuikwuato;Imenyi 2 Ward;;Imenyi Ahaba Primary Health Centre;;;;;
Isuikwuato;Imenyi 1 Ward;;Ohiyinta Health Centre;;;;;
Isuikwuato;Ezere Ward;;Ozara Health Centre;;;;;
Isuikwuato;Eluma Ward;;Umuerem Health Centre;;;;;
Isuikwuato;Eluma Ward;;Eluma Primary Health Centre;;;;;
Isuikwuato;Eluma Ward;;Umueberaja Health Centre;;;;;
Isuikwuato;Amiyiobinohia Ward;;Nunya Health Centre;;;;;
Isuikwuato;Amiyiobinohia Ward;;Amiyiobinohia Health Centre;;;;;
Isuikwuato;Achara Ward;;Achara Primary Health Centre;;;;;
Isuikwuato;Acha/Amachara Ward;;Maduabuchi Hospital and Maternity;;;;;
Isuikwuato;Acha/Amachara Ward;;Acha Primary Health Centre;;;;;
Isuikwuato;Acha/Amachara Ward;;Amachara Health Centre;;;;;
Isuikwuato;Absu/Umuayi Ward;;Mbaugwu Memorial Hospital;;;;;
Isuikwuato;Absu/Umuayi Ward;;Marist Cottage (Uturu) Hospital ;;;;;
Isuikwuato;Absu/Umuayi Ward;;Mbaugwu Primary Health Centre;;;;;
Isuikwuato;Absu/Umuayi Ward;;Swiss Foundation Hospital;;;;;
Obi Nwga;Ntighauzor Ward;;Ntighauzor Primary Health Centre;;;;;
Obi Nwga;Ntighauzor Ward;;Mgbano Ntighauzor Primary Health Centre;;;;;
Obi Nwga;Ntighauzor Ward;;Okuenyi Health Post;;;;;
Obi Nwga;Ndiakata Ward;;Umuokereke Ngwa Health Post;;;;;
Obi Nwga;Ndiakata Ward;;Isiala Ndu Primary Health Centre;;;;;
Obi Nwga;Ndiakata Ward;;Ndiakata Health Post;;;;;
Obi Nwga;Ndiakata Ward;;Umuokpu Health Post;;;;;
Obi Nwga;Mgboko Umuanunu 2 Ward;;Mgboko-Okengwa Health Post;;;;;
Obi Nwga;Mgboko Umuanunu 1 Ward;;Mgboko Anya Primary Health Centre;;;;;
Obi Nwga;Mgboko Umuanunu 1 Ward;;Nenu Health Post;;;;;
Obi Nwga;Mgboko Umuanunu 1 Ward;;Umuokahia 2 Primary Health Care;;;;;
Obi Nwga;Mgboko Umuanunu 1 Ward;;Umuaro Primary Health Centre;;;;;
Obi Nwga;Mgboko Itungwa Ward;;Itungwa primary Health Centre;;;;;
Obi Nwga;Mgboko Itungwa Ward;;Osaa Ukwu Health Post;;;;;
Obi Nwga;Mgboko Itungwa Ward;;Akanu Okpulo Primary Health Centre;;;;;
Obi Nwga;Mgboko Amiri Ward;;Mgboko Amiri Primary Health Centre;;;;;
Obi Nwga;Isiala Itu Ward;;Isiala Itu Primary Health Centre;;;;;
Obi Nwga;Alaukwu Ohanze Ward;;Ohanze Primary Health Centre;;;;;
Obi Nwga;Alaukwu Ohanze Ward;;Umuezigbe Health Post;;;;;
Obi Nwga;Alaukwu Ohanze Ward;;Umuanatawom Primary Health Centre;;;;;
Obi Nwga;Alaukwu Ohanze Ward;;Umuobiakwa Primary Health Centre;;;;;
Obi Nwga;Alaukwu Ohanze Ward;;Uwoahiafor Primary Health Centre;;;;;
Obi Nwga;Akumaimo Ward;;Isiala Ovom Health Post;;;;;
Obi Nwga;Akumaimo Ward;;Umuanunu Health Post;;;;;
Obi Nwga;Akumaimo Ward;;Akumimo Primary Health Centre;;;;;
Obi Nwga;Akpa-Mbato Ward;;Akpa Mbato Health Centre;;;;;
Obi Nwga;Ahiaba 5 Ward ;;Alaoma Health Post;;;;;
Obi Nwga;Ahiaba 5 Ward ;;Osaa Okea Primary Health Centre;;;;;
Obi Nwga;Ahiaba 5 Ward ;;Ahiaba Health Post;;;;;
Obi Nwga;Ahiaba 5 Ward ;;Umunalika Health Post;;;;;
Obi Nwga;Ahiaba 5 Ward ;;Osusu Umuikpeghi Health Post;;;;;
Obi Nwga;Ahiaba 5 Ward ;;Umuagu Primary Health Centre;;;;;
Obi Nwga;Abayi 2 Ward;;Umuokahia Health Post;;;;;
Obi Nwga;Abayi 2 Ward;;Ntigha Oriebe Health Post;;;;;
Obi Nwga;Abayi 2 Ward;;Abayi Okoroato Health Post;;;;;
Obi Nwga;Abayi 2 Ward;;Ukpakiri Health Post;;;;;
Obi Nwga;Abayi 2 Ward;;Orienze Spec. Hospital;;;;;
Obi Nwga;Abayi 2 Ward;;Regent Cross Clinic;;;;;
Obi Nwga;Abayi 2 Ward;;Ehere Primary Health Centre;;;;;
Obi Nwga;Abayi 1 Ward;;Osusu Amukwa Health Post;;;;;
Obi Nwga;Abayi 1 Ward;;Abayi Amano Health Centre;;;;;
Obi Nwga;Abala Ward ;;Abala Nkamiri Health Post;;;;;
Obi Nwga;Abala Ward ;;Ibeme Primary Health Centre;;;;;
Obi Nwga;Abala Ward ;;Abala Primary Health Centre;;;;;
Obi Nwga;Abala Ward ;;Oberete Isiala Health Post;;;;;
Ohafia;Ugwufie Ward;;Ugwufie Health Centre;;;;;
Ohafia;Uduma Ward;;Ndiuduma Health Clinic;;;;;
Ohafia;Owuwanyanuwu Ward;;Nkwebi Health Post;;;;;
Ohafia;Owuwanyanuwu Ward;;Okagwe Health Centre (Ohafia);;;;;
Ohafia;Okamu Ward;;Okonta Health Post;;;;;
Ohafia;Okamu Ward;;Amangwu Primary Health Centre;;;;;
Ohafia;Okamu Ward;;Okon Aku Health Clinic;;;;;
Ohafia;Okamu Ward;;Ufiele Health Centre;;;;;
Ohafia;Okamu Ward;;Amuma Health Clinic;;;;;
Ohafia;Ohafor Ward;;Ohafor Model Health Clinic;;;;;
Ohafia;Ohafor Ward;;Otodo Health Post;;;;;
Ohafia;Ndi Etiti Ward;;Nkporo Health Centre;;;;;
Ohafia;Ndi Elu Ward;;Etitiama Health Centre;;;;;
Ohafia;Ndi Agbor Ward;;Basic Health Centre;;;;;
Ohafia;Ndi Agbor Ward;;Ukwa Health Centre;;;;;
Ohafia;Isiama Ward;;Amaepu Health Centre;;;;;
Ohafia;Isiama Ward;;Isiama Health Clinic;;;;;
Ohafia;Isiama Ward;;Uzondu Hospital ;;;;;
Ohafia;Ebemoha Ward;;Mbem Hospital Ohafia;;;;;
Ohafia;Ebemoha Ward;;Ekelogo Health Centre;;;;;
Ohafia;Ebemoha Ward;;Ihenta Health Centre;;;;;
Ohafia;Ebemoha Ward;;Eziukwu Health Centre;;;;;
Ohafia;Ania Ward;;Isi Ugwu Health Post;;;;;
Ohafia;Ania Ward;;Abia Health Centre;;;;;
Ohafia;Amogudu 2 Ward;;Amogudu 2 Health Centre;;;;;
Ohafia;Amogudu 1 Ward;;Amamba Health Post;;;;;
Ohafia;Amiyi/Umuokwuru Ward;;Amurie Health Centre;;;;;
Ohafia;Ameke 2 Ward ;;Ekpankume Health Centre;;;;;
Ohafia;Ameke 1 Ward;;Ameke1 Health Post;;;;;
Ohafia;Amaibe-Ezoke Ward;;Goodnews Health Post (Ndi Orike);;;;;
Ohafia;Amaibe-Ezoke Ward;;Eziafor Health Clinic;;;;;
Ohafia;Amaibe-Ezoke Ward;;Amuke Health Clinic;;;;;
Ohafia;Akanukwu Ward;;Akanukwu Health Centre;;;;;
Ohafia;Akanukwu Ward;;Ania Health Centre;;;;;
Ohafia;Agboji Ward;;Okagwe Agboji Health Centre;;;;;
Ohafia;Agboji Ward;;Agboji Health Centre;;;;;
Osisioma Ngwa;UrattaAmaise Ward;;Umuagbara Primary Health Centre;;;;;
Osisioma Ngwa;UrattaAmaise Ward;;Okpokorocha Health Centre;;;;;
Osisioma Ngwa;Uratta Ward (Osisioma Ngwa);;Opokoroala Primary Health Care;;;;;
Osisioma Ngwa;Uratta Ward (Osisioma Ngwa);;Egbede Health Post;;;;;
Osisioma Ngwa;Uratta Ward (Osisioma Ngwa);;Mopol Base Primary Health Centre;;;;;
Osisioma Ngwa;Umunneise Ward;;Okpuala Umugwor Primary Health Centre;;;;;
Osisioma Ngwa;Otuobi Ward;;Otuobi Primary Health Centre;;;;;
Osisioma Ngwa;Osokwa Ward (Osisioma Ngwa);;Okpuala Ukwu Primary Health Centre;;;;;
Osisioma Ngwa;Okpu-Umuobo Ward;;God's Own Maternity;;;;;
Osisioma Ngwa;Okpu-Umuobo Ward;;Okpu Umuobo Primary Health Centre;;;;;
Osisioma Ngwa;Ode-Ukwu Ward;;Umuode Primary Health Centre;;;;;
Osisioma Ngwa;Mbutuoma Ward;;Mbutuoma Primary Health Centre;;;;;
Osisioma Ngwa;Mbutuoma Ward;;Shiloh Hospital;;;;;
Osisioma Ngwa;Mbutu Umuojima Ward;;Umuojima Okereke Health Post;;;;;
Osisioma Ngwa;Mbutu Umuojima Ward;;Umuojima Ogbu Health Post;;;;;
Osisioma Ngwa;Isiala Okpu Ward;;Bethsaida Clinic;;;;;
Osisioma Ngwa;Etiti Amavo Ward;;Amavo Tank Health Post;;;;;
Osisioma Ngwa;Etiti Amavo Ward;;Amavo Ukwu Health Post;;;;;
Osisioma Ngwa;Etiti Amavo Ward;;Etiti Amavo Health Post;;;;;
Osisioma Ngwa;Arongwa Ward;;Ekearo Primary Health Centre;;;;;
Osisioma Ngwa;Arongwa Ward;;Aro Umuka Health Post;;;;;
Osisioma Ngwa;Arongwa Ward;;Umuohia Health Post;;;;;
Osisioma Ngwa;Amavo-Nkwogu Ward;;Uzochi Maternity Home;;;;;
Osisioma Ngwa;Amavo-Nkwogu Ward;;Amavo Nkwogu Health Post;;;;;
Osisioma Ngwa;Amator Ward;;Umuagbai Health Post;;;;;
Osisioma Ngwa;Amasator Ward;;Merit Maternity;;;;;
Osisioma Ngwa;Amasator Ward;;St Andrews Maternity Home;;;;;
Osisioma Ngwa;Amasator Ward;;Chrispat Hospital;;;;;
Osisioma Ngwa;Amasator Ward;;Oribis Hospital;;;;;
Osisioma Ngwa;Amasator Ward;;Umule Health Clinic;;;;;
Osisioma Ngwa;Amasator Ward;;UC Golden Maternity;;;;;
Osisioma Ngwa;Amasator Ward;;Umungasi Health Post;;;;;
Osisioma Ngwa;Amasator Ward;;Romalex Hospital;;;;;
Osisioma Ngwa;Amasator Ward;;Divine Link;;;;;
Osisioma Ngwa;Amasator Ward;;Mount Zoin Hospital;;;;;
Osisioma Ngwa;Amasator Ward;;Ahiaba Umueze Health Post;;;;;
Osisioma Ngwa;Amasator Ward;;Umuchichi Health Post;;;;;
Osisioma Ngwa;Amasator Ward;;Living Word Hospital (Osisiamo Ngwa);;;;;
Osisioma Ngwa;Amasaa Ward;;Umuimo Primary Health Centre;;;;;
Osisioma Ngwa;Amasaa Ward;;Amator Ukwu Health Post;;;;;
Osisioma Ngwa;Amasaa Ward;;Umuobasi Primary Health Centre;;;;;
Osisioma Ngwa;Amasaa Ward;;Mbutunta Health Post;;;;;
Osisioma Ngwa;Amasaa Ward;;Unity Model Clinic and Family Planning;;;;;
Osisioma Ngwa;Amaitolu Ward (Osisioma);;Ariaria Health Post;;;;;
Osisioma Ngwa;Amaitolu Ward (Osisioma);;Umudioka Hospital;;;;;
Osisioma Ngwa;Amaitolu Ward (Osisioma);;Gasoline Health Centre;;;;;
Osisioma Ngwa;Amaitolu Ward (Osisioma);;Abayi Ariaria Primary Health Centre;;;;;
Osisioma Ngwa;Amaitolu Ward (Osisioma);;Asa Oberete Primary Health Centre;;;;;
Osisioma Ngwa;Amaitolu Ward (Osisioma);;Umuozuo Health Post;;;;;
Osisioma Ngwa;Amaitolu Ward (Osisioma);;St Elizabeth Hospital;;;;;
Osisioma Ngwa;Amaise Amapuife Ward;;Owuala Primary Health Centre;;;;;
Osisioma Ngwa;Amaise Amapuife Ward;;Amapuife Primary Health Centre;;;;;
Ugwunagbo;Umugo Ward;;Umugo Health Clinic;;;;;
Ugwunagbo;Umugo Ward;;Amavo Health Centre;;;;;
Ugwunagbo;Umugo Ward;;Alaoji Health Centre;;;;;
Ugwunagbo;Umugo Ward;;Cecilia Maternity;;;;;
Ugwunagbo;Umuchima Ward;;Ukebe Health Post;;;;;
Ugwunagbo;Umuarukwu Ward;;Umuakwa Primary Health Care;;;;;
Ugwunagbo;Umuarukwu Ward;;Umuchukwu Primary Health Centre;;;;;
Ugwunagbo;Umuada Ward;;Nkem Maternity;;;;;
Ugwunagbo;Umuada Ward;;Akanu Model Health Centre;;;;;
Ugwunagbo;Owerri-Aba Ward;;Confidence Maternity;;;;;
Ugwunagbo;Owerri-Aba Ward;;Umukama Primary Health Centre;;;;;
Ugwunagbo;Owerri-Aba Ward;;Gods Own Maternity;;;;;
Ugwunagbo;Owerri-Aba Ward;;Favour Clinic;;;;;
Ugwunagbo;Owerri-Aba Ward;;Gold Maternity;;;;;
Ugwunagbo;Owerri-Aba Ward;;Owerri Aba Health Clinic;;;;;
Ugwunagbo;Obegu Ward;;Obegu Health Clinic;;;;;
Ugwunagbo;Obeaja Ward;;Umuodo Primary Health Centre;;;;;
Ugwunagbo;Obeaja Ward;;Ugwunagbo Health Clinic;;;;;
Ugwunagbo;Obeaja Ward;;Obeaja Health Post;;;;;
Ugwunagbo;Obeaja Ward;;St. Mark's Hospital;;;;;
Ugwunagbo;Nkpukpuevula Ward;;War Front Health Post;;;;;
Ugwunagbo;Nkpukpuevula Ward;;St. John Jesus;;;;;
Ugwunagbo;Nkpukpuevula Ward;;Our Lady of the Sick;;;;;
Ugwunagbo;Nkpukpuevula Ward;;Umule Osoamadi Health Post;;;;;
Ugwunagbo;Nkpukpuevula Ward;;Aza Primary Health Centre;;;;;
Ugwunagbo;Ngwaiyiekwe Ward;;Ngwaiyiekwe Health Clinic;;;;;
Ugwunagbo;Ngwaiyiekwe Ward;;Isimmanu Primary Health Centre;;;;;
Ugwunagbo;Ihieukwu Ward;;Ihie Health Centre (Ihieukwu);;;;;
Ugwunagbo;Ihieukwu Ward;;Umuagara Primary Health Centre;;;;;
Ugwunagbo;Ihie-Obeaku Ward;;Nwoduaku Mem. Hospital;;;;;
Ugwunagbo;Ihie-Obeaku Ward;;Isiala Ihie Health Clinic;;;;;
Ugwunagbo;Ihie-Obeaku Ward;;Nwodaku Memorial Hospital;;;;;
Ugwunagbo;Asa-Umunka Ward;;Egbelu Umunka Health Clinic;;;;;
Ugwunagbo;Asa-Umunka Ward;;Asa Umunka Primary Health Centre ;;;;;
Ugwunagbo;Amapu-Ideobia Ward;;Amapu Ideobia Health Centre;;;;;
Ugwunagbo;Amapu-Ideobia Ward;;Umuaja Primary Health Centre;;;;;
Ugwunagbo;Abayi Mbasa Ward;;Abayi Nchokoro Health Centre;;;;;
Ukwa East;Umuigube Achara Ward;;Akirika Uku Primary Health Centre;;;;;
Ukwa East;Umuigube Achara Ward;;Akiruka Obu Primary Health Centre;;;;;
Ukwa East;Umuigube Achara Ward;;Akirika Nta Health Post;;;;;
Ukwa East;Ohuru/Mkporobe Ward;;Isimkporobe Primary Health Centre;;;;;
Ukwa East;Ohuru/Mkporobe Ward;;Ukebe Primary Health Centre;;;;;
Ukwa East;Ohuru/Mkporobe Ward;;Ohuru Primary Health Centre;;;;;
Ukwa East;Ohuru/Mkporobe Ward;;Umule Mkporobe Primary Health Centre;;;;;
Ukwa East;Ohambele Ward;;Ohambele Primary Health Centre;;;;;
Ukwa East;Ohambele Ward;;Eti Health Post;;;;;
Ukwa East;Obohia Ward;;Obohia Primary Health Centre;;;;;
Ukwa East;Obeaku Ward;;Obeaku Primary Health Centre;;;;;
Ukwa East;Obeaku Ward;;Uhunna Primary Health Centre;;;;;
Ukwa East;Mkpukpuaja Ogbuagu Ward;;Mopol Barracks Health Post;;;;;
Ukwa East;Mkpukpuaja Ogbuagu Ward;;Mkpukpuaja Ogbuagu Health Post;;;;;
Ukwa East;Mbam Abuo Ward;;Obohia Health Post;;;;;
Ukwa East;Ikwuriotor West Ward;;Obuozu Primary Health Centre;;;;;
Ukwa East;Ikwuriotor West Ward;;Umuogor Health Post (Ukwa East);;;;;
Ukwa East;Ikwuriotor West Ward;;Mkpukpuoha Health Post;;;;;
Ukwa East;Ikwuriotor West Ward;;Abaki Primary Health Centre;;;;;
Ukwa East;Ikwuriotor East Ward;;Akanu Primary Health Centre;;;;;
Ukwa East;Ikwuorie Ward;;Ujuru Primary Health Centre;;;;;
Ukwa East;Ikwuorie Ward;;Ohanku Primary Health Centre;;;;;
Ukwa East;Ikwuorie Ward;;Okotoko Primary Health Centre;;;;;
Ukwa East;Ikwuorie Ward;;Amaobu Primary Health Centre;;;;;
Ukwa East;Ikwueke West Ward;;Mkpuohia Oba Primary Health Centre;;;;;
Ukwa East;Ikwueke West Ward;;Obunku Primary Health Centre;;;;;
Ukwa East;Ikwueke West Ward;;Ohanso Health Post;;;;;
Ukwa East;Ikwueke West Ward;;Obikoro Health Post;;;;;
Ukwa East;Azumini Ward;;Azumini Primary Health Centre;;;;;
Ukwa East;Amakam Akwete Ward;;Amakam Akwete Health Post;;;;;
Ukwa East;Akwete Ohandu Ward;;Ohandu Primary Health Centre;;;;;
Ukwa West;Oza-West Ward;;Obiga Health Centre;;;;;
Ukwa West;Oza-West Ward;;Umuorie Health Centre;;;;;
Ukwa West;Oza-West Ward;;Umukalu Health Centre;;;;;
Ukwa West;Oza-West Ward;;Foundational Hospital;;;;;
Ukwa West;Oza-Ukwu Ward II;;Umuebulungwu Health Centre;;;;;
Ukwa West;Oza-Ukwu Ward I;;National Primary Health Centre Umuadienwe;;;;;
Ukwa West;Oza-Ukwu Ward I;;St Anthony's Hospital (Ukwa West);;;;;
Ukwa West;Oza-Ukwu Ward I;;Owo-Aso Health Centre;;;;;
Ukwa West;Oza-Ukwu Ward I;;Umuiku Health Centre;;;;;
Ukwa West;Ogwe Ward;;Loveday Ememe Clinic;;;;;
Ukwa West;Ogwe Ward;;Ogwe Health Centre;;;;;
Ukwa West;Obuzor Ward;;Obibor Health Centre;;;;;
Ukwa West;Obuzor Ward;;Ezendioma Health Centre;;;;;
Ukwa West;Obuzor Ward;;Umuelechi Health Clinic;;;;;
Ukwa West;Obuzor Ward;;Umuahala Health Post;;;;;
Ukwa West;Obuzor Ward;;Umuitor Health Centre;;;;;
Ukwa West;Obokwe Ward II;;Obokwe Health Centre;;;;;
Ukwa West;Obokwe Ward I;;Obokwe Primary Health Centre;;;;;
Ukwa West;Isi-Umuiku Ward;;Isi-Umuiku Primary Health Centre;;;;;
Ukwa West;Ipu West Ward;;Owaza Cottage Hospital;;;;;
Ukwa West;Ipu West Ward;;Umungede Health Centre;;;;;
Ukwa West;Ipu South Ward;;Imo River Health Centre;;;;;
Ukwa West;Ipu South Ward;;Uzuaku Health Post;;;;;
Ukwa West;Ipu East Ward;;Chimstal Hospital;;;;;
Ukwa West;Ipu East Ward;;Ngozi Maternity (Ukwa West);;;;;
Ukwa West;Ipu East Ward;;Obehie Health Centre;;;;;
Ukwa West;Ipu East Ward;;Umudiobia Health Centre;;;;;
Ukwa West;Asa South Ward II;;Umuaka Health Centre;;;;;
Ukwa West;Asa South Ward I;;Ugwati Health Centre;;;;;
Ukwa West;Asa North Ward;;Omumauzor Primary Health Centre;;;;;
Ukwa West;Asa North Ward;;Umuekechi Health Centre;;;;;
Umuahia North;Urban Ward 5;;Uche Medicare;;;;;
Umuahia North;Urban Ward 5;;World Bank Health Clinic;;;;;
Umuahia North;Urban Ward 4;;Infact Welfare Clinic;;;;;
Umuahia North;Urban Ward 4;;Umuahia Federal Medical Centre;;;;;
Umuahia North;Urban Ward 4;;Health Office Clinic;;;;;
Umuahia North;Urban Ward 4;;Ugba Health Centre;;;;;
Umuahia North;Urban Ward 4;;Blessing Hospital;;;;;
Umuahia North;Urban Ward 3;;El-Shadal Hospital;;;;;
Umuahia North;Urban Ward 2;;Anelechi Hospital;;;;;
Umuahia North;Urban Ward 2;;Amuzukwu Health Centre;;;;;
Umuahia North;Urban Ward 1;;Isiama Afara Health Clinic;;;;;
Umuahia North;Umuhu Ward (Umuahia North);;Umuezeama Health Centre;;;;;
Umuahia North;Umuhu Ward (Umuahia North);;Umuezike Health Centre;;;;;
Umuahia North;Umuhu Ward (Umuahia North);;Isingiwu Ofeme Primary Health Centre;;;;;
Umuahia North;Umuhu Ward (Umuahia North);;Ihite Ude Ofeme Health Centre;;;;;
Umuahia North;Umuhu Ward (Umuahia North);;Amaogwugwu Health Centre;;;;;
Umuahia North;Oriendu Ward;;Ekeoba Health Centre;;;;;
Umuahia North;Oriendu Ward;;Oriendu Health Centre;;;;;
Umuahia North;Okaiuga Alike Ward;;Umukabia Health Centre;;;;;
Umuahia North;Nkwoegwu Ward;;Nkwoegwu Health Centre;;;;;
Umuahia North;Nkwoegwu Ward;;Our Lady of Apostle Maternity Clinic;;;;;
Umuahia North;Nkwochara Ward;;Umuawa Aloacha Health Clinic;;;;;
Umuahia North;Ndume Ward;;Umuana Ndume Health Centre;;;;;
Umuahia North;Isingwu Ward;;Umuda Isingwu Health Clinic;;;;;
Umuahia North;Isingwu Ward;;Okpu Isingwu Health Clinic;;;;;
Umuahia North;Isingwu Ward;;Amafor Health Clinic;;;;;
Umuahia North;Isingwu Ward;;Amato Health Centre;;;;;
Umuahia North;Ibeku West Ward;;Avoukwu Health Centre;;;;;
Umuahia North;Ibeku West Ward;;Amuzoro Health Centre ;;;;;
Umuahia North;Ibeku East 2 Ward;;Emede Health Centre;;;;;
Umuahia North;Ibeku East 2 Ward;;Amauhie Primary Health Centre;;;;;
Umuahia North;Ibeku East 2 Ward;;Eziama Ossah Health Centre;;;;;
Umuahia North;Ibeku East 1 Ward;;Isiadu Health Centre;;;;;
Umuahia North;Ibeku East 1 Ward;;Umuajiji Isieke Health Centre;;;;;
Umuahia North;Ibeku East 1 Ward;;Nkata Health Centre;;;;;
Umuahia North;Ibeku East 1 Ward;;Okwuta Health Centre;;;;;
Umuahia North;Ibeku East 1 Ward;;Amaeke Ibeku Health Centre;;;;;
Umuahia North;Ibeku East 1 Ward;;Mbom Health Centre;;;;;
Umuahia North;Azueke Ward;;Ofeke Ndume Health Centre;;;;;
Umuahia North;Azueke Ward;;Compassionate Home/Hospital;;;;;
Umuahia North;Afugiri Ward 2;;Afugiri Primary Health Centre;;;;;
Umuahia North;Afugiri Ward;;Ekeokwuru Health Centre;;;;;
Umuahia North;Afugiri Ward;;Umuegwu Okpuala Primary Health Centre;;;;;
Umuahia North;Afaraukwu Ward;;Ohokobe Umuokeyi Health Centre;;;;;
Umuahia North;Afaraukwu Ward;;Madonna Catholic Hospital;;;;;
Umuahia North;Afaraukwu Ward;;Okwulaga Afara Health Clinic;;;;;
Umuahia South;Ubakala B Ward;;Amuzu Primary Health Centre;;;;;
Umuahia South;Ubakala B Ward;;Abam Primary Health Centre;;;;;
Umuahia South;Ubakala B Ward;;Amaibo Healrh Centre;;;;;
Umuahia South;Ubakala B Ward;;Umuogo Health Centre;;;;;
Umuahia South;Ubakala A Ward;;Avodim Health Centre;;;;;
Umuahia South;Ubakala A Ward;;Umuosu1 Health Centre;;;;;
Umuahia South;Ubakala A Ward;;Ipupe 1 Primary Health Centre;;;;;
Umuahia South;Ubakala A Ward;;Ubakala Primary Health Care;;;;;
Umuahia South;Ubakala A Ward;;Ipupe 2 Primary Health Centre;;;;;
Umuahia South;Omaegwu Ward;;Elugwu Umuoram Primary Health Centre;;;;;
Umuahia South;Omaegwu Ward;;Ekenobizi Primary Health Centre;;;;;
Umuahia South;Omaegwu Ward;;Ehume Health Centre;;;;;
Umuahia South;Omaegwu Ward;;Dikeukwu Primary Health Centre;;;;;
Umuahia South;Omaegwu Ward;;Ohiya Primary Health Centre;;;;;
Umuahia South;Old Umuahia Ward;;Old Umuahia Primary Health Centre;;;;;
Umuahia South;Ohiaocha Ward;;Umunwanwa Health Centre;;;;;
Umuahia South;Ohiaocha Ward;;Ogbodimbe Primary Health Centre;;;;;
Umuahia South;Ogbodiukwu Ward;;Umuanya Primary Health Centre;;;;;
Umuahia South;Ogbodiukwu Ward;;Ogbodiukwu Health Centre;;;;;
Umuahia South;Nsirimo Ward;;Nsirimo Primary Health Centre;;;;;
Umuahia South;Eziama Ward (Umuahia South);;Eziama Primary Health Centre;;;;;
Umuahia South;Ezeleke Ward;;Amachara General Hospital;;;;;
Umuahia South;Ezeleke Ward;;Ezeleke Primary Health Centre;;;;;
Umuahia South;Amakama Ward;;Amakama Health Centre;;;;;
Umuahia South;Ahiaukwu B Ward;;Umuoparaozara Primary Health Centre;;;;;
Umuahia South;Ahiaukwu B Ward;;Ahiaukwu Primary Health Centre;;;;;
Umuahia South;Ahiaukwu B Ward;;Umuajata Primary Health Centre;;;;;
Umuahia South;Ahiaukwu A Ward;;Agbama Primary Health Centre;;;;;
Umuahia South;Ahiaukwu A Ward;;Umutowe Primary Health Care;;;;;
Umuahia South;Ahiaukwu A Ward;;Amizi Health Centre;;;;;
Umuahia South;Ahiaukwu A Ward;;Ahiaukwu Health Centre;;;;;
Umuahia South;A U U Ward;;Umuobia Primary Health Centre;;;;;
Umuahia South;A U U Ward;;Amangwu Health Centre;;;;;
Umu-Nneochi;Umuobasi Ward;;Umuobasi Health Centre;;;;;
Umu-Nneochi;Umuaku Ward II;;Amakpoke Health Centre;;;;;
Umu-Nneochi;Umuaku Ward 1;;Umuaku Health Centre;;;;;
Umu-Nneochi;Umuaku Ward 1;;Amaeke Health Centre;;;;;
Umu-Nneochi;Ubahu Akawa Ward;;Nneato Health Centre;;;;;
Umu-Nneochi;Ubahu Akawa Ward;;Akawa Health Centre;;;;;
Umu-Nneochi;Obinurulo/Obigu Lomara Ward;;Yava Hospital;;;;;
Umu-Nneochi;Obinurulo/Obigu Lomara Ward;;Lomara Health Centre;;;;;
Umu-Nneochi;Obinurulo/Obigu Lomara Ward;;Obinolu Health Centre;;;;;
Umu-Nneochi;Obinulo/Umuagbokocha/Uhude Ward;;Great Emmanuel Hospital/Maternity;;;;;
Umu-Nneochi;Obinulo/Umuagbokocha/Uhude Ward;;Amorie Health Centre;;;;;
Umu-Nneochi;Obinulo/Umuagbokocha/Uhude Ward;;Ngodo Health Centre (Umunn);;;;;
Umu-Nneochi;Mbala Achara Ward;;Mbala Health Centre;;;;;
Umu-Nneochi;Mbala Achara Ward;;Umuokpara Health Centre;;;;;
Umu-Nneochi;Mbala Achara Ward;;Akporo Achara Health Centre;;;;;
Umu-Nneochi;Lokpaukwu Ward;;Umuchieze Health Centre;;;;;
Umu-Nneochi;Lokpaukwu Ward;;Emmanuel Memorial Maternity Home;;;;;
Umu-Nneochi;Lokpaukwu Ward;;Eziama Health Center;;;;;
Umu-Nneochi;Lokpaukwu Ward;;Gerald Hospital;;;;;
Umu-Nneochi;Lokpaukwu Ward;;Uru-Lokpaukwu Health Centre;;;;;
Umu-Nneochi;Lokpanta Ward;;Lokpanta Basic Health Center;;;;;
Umu-Nneochi;Leru Ward;;St Mary's Maternity Home;;;;;
Umu-Nneochi;Leru Ward;;Leru Health Centre;;;;;
Umu-Nneochi;Lekwesi Ward;;Lekwesi Health Centre;;;;;
Umu-Nneochi;Lekwesi Ward;;Akparata Primary Health Centre;;;;;
Umu-Nneochi;Lekwesi Ward;;Amorji Health Centre;;;;;
Umu-Nneochi;Ezingodo Ward;;Ezingodo Health Centre;;;;;
Umu-Nneochi;Eziama Ugwu Ward;;Ezioba Health Centre;;;;;
Umu-Nneochi;Eziama Agbor Ward;;Eziama Health Centre;;;;;
Umu-Nneochi;Eziama Agbor Ward;;Umuobi Health Centre;;;;;
Umu-Nneochi;Aroikpa Ward;;Aroikpa Health Centre;;;;;
Umu-Nneochi;Amuda Ward;;Amuda General Hospital;;;;;
Umu-Nneochi;Amuda Ward;;Isuochi Primary Health Centre;;;;;
Umu-Nneochi;Amuda Ward;;Umuogele Health Centre;;;;;
Umu-Nneochi;Amuda Ward;;Unity Enugu Extension Clinic;;;;;
Umu-Nneochi;Amuda Ward;;St Anthony's Hospital (Amuda);;;;;
Umu-Nneochi;Amuba Umuagbuele Ward;;Obulo Health Centre;;;;;
Umu-Nneochi;Amaorie Ward;;Umuelem Health Centre;;;;;
Umu-Nneochi;Amaorie Ward;;Ngada Health Centre;;;;;
Umu-Nneochi;Amaorie Ward;;Ndiawa Health Centre;;;;;
