LGA;Ward;Settlement;Facility;Type;Ownership;Address;Longitude;Latitude
Abi;Adadama Ward;;Adadama Primary Health Centre;;;;;
Abi;Adadama Ward;;Emikwo Health Post;;;;;
Abi;Adadama Ward;;Isong-Inyang Health Post;;;;;
Abi;Adadama Ward;;Imina Primary Health Centre;;;;;
Abi;Afafanyi/Igonigoni Ward;;Abenyi Uzor Health Post;;;;;
Abi;Afafanyi/Igonigoni Ward;;Afafanyi Primary Health Centre;;;;;
Abi;Afafanyi/Igonigoni Ward;;Ezom Ezom Health Post;;;;;
Abi;Ebom/Ebijakara Ward;;Ebom Primary Health Centre;;;;;
Abi;Ebom/Ebijakara Ward;;Fonavai Health Post;;;;;
Abi;Ebom/Ebijakara Ward;;Egbezum Health Post;;;;;
Abi;Ediba/Anong Ward;;Enusokwe Health Post;;;;;
Abi;Ediba/Anong Ward;;Ezono Health Post;;;;;
Abi;Ediba/Anong Ward;;Akpan Health Post;;;;;
Abi;Ediba/Anong Ward;;Ediba Comprehensive Health Centre;;;;;
Abi;Ediba/Anong Ward;;Enugwehuma Health Post;;;;;
Abi;Ediba/Anong Ward;;Anong Health Centre;;;;;
Abi;Ediba/Anong Ward;;Ediba Primary Health Centre (Abi);;;;;
Abi;Ekureku 1 Ward;;Ekureku-Be Health Post;;;;;
Abi;Ekureku 1 Ward;;Anong Letafor Health Post;;;;;
Abi;Ekureku 1 Ward;;Akarefor Health Post;;;;;
Abi;Ekureku 1 Ward;;Akoha Health Post;;;;;
Abi;Ekureku 1 Ward;;Anong Likpor Health Post;;;;;
Abi;Ekureku 1 Ward;;Anong/Ezeke Primary Health Centre;;;;;
Abi;Ekureku 2 Ward;;Egboronyi Health Centre;;;;;
Abi;Ekureku 2 Ward;;Agbarabe Primary Health  Centre;;;;;
Abi;Ekureku 2 Ward;;Emin Ekpon Health Post;;;;;
Abi;Ekureku 2 Ward;;Ngarebe Primary Health Centre;;;;;
Abi;Ekureku 2 Ward;;Itigeve Health Post;;;;;
Abi;Imabana 1 Ward;;Igbo-Imabana Model Primary Health Centre;;;;;
Abi;Imabana 1 Ward;;Igbor Health Post;;;;;
Abi;Imabana 1 Ward;;Egade Health Post;;;;;
Abi;Imabana 1 Ward;;Ilike Health Post;;;;;
Abi;Imabana 2 Ward;;Ebor Health Post;;;;;
Abi;Imabana 2 Ward;;Ikpalegwa Primary Health Centre;;;;;
Abi;Imabana 2 Ward;;Lehangha Health Centre;;;;;
Abi;Itigidi Ward;;Agba Health Post;;;;;
Abi;Itigidi Ward;;Levachie Health Post;;;;;
Abi;Itigidi Ward;;Itigidi Primary Health Centre;;;;;
Abi;Itigidi Ward;;Lekpachiel Health Post;;;;;
Abi;Itigidi Ward;;Eja Memorial Hospital;;;;;
Abi;Usumotog Ward;;Abeugo Health Centre;;;;;
Abi;Usumotog Ward;;Enoekpore Health Post;;;;;
Abi;Usumotog Ward;;Usumutong Primary Health Centre;;;;;
Abi;Usumotog Ward;;Ebokwo Health Post;;;;;
Akamkpa;Akamkpa Urban Ward;;Akamkpa Council Health Post;;;;;
Akamkpa;Akamkpa Urban Ward;;Old Netim Primary Health Centre;;;;;
Akamkpa;Akamkpa Urban Ward;;Staff Housing Health Post ;;;;;
Akamkpa;Akamkpa Urban Ward;;Okomita Health Post;;;;;
Akamkpa;Akamkpa Urban Ward;;Usy Medical Centre;;;;;
Akamkpa;Akamkpa Urban Ward;;Okomo Braya Health Post;;;;;
Akamkpa;Akamkpa Urban Ward;;Wegan Consulting Clinic;;;;;
Akamkpa;Akamkpa Urban Ward;;Aninking Health Post;;;;;
Akamkpa;Akamkpa Urban Ward;;Mma Efa Health Centre;;;;;
Akamkpa;Akamkpa Urban Ward;;Akamkpa General Hospital;;;;;
Akamkpa;Awi Ward;;Ayaebam Health Centre;;;;;
Akamkpa;Awi Ward;;Nsan Primary Health Centre;;;;;
Akamkpa;Awi Ward;;Awi Health Primary Centre;;;;;
Akamkpa;Awi Ward;;Obung Health Centre;;;;;
Akamkpa;Eku Ward;;Okarara Health Post;;;;;
Akamkpa;Eku Ward;;Osomba Primary Health Centre;;;;;
Akamkpa;Iko Ward;;Owai Health Centre;;;;;
Akamkpa;Iko Ward;;Iko Esai Health Centre;;;;;
Akamkpa;Iko Ward;;New Ekuri Health Centre;;;;;
Akamkpa;Iko Ward;;Iko Ekperem Primary Health Centre;;;;;
Akamkpa;Iko Ward;;Old Ekuri Health Centre;;;;;
Akamkpa;Ikpai Ward;;Mfamiyen Health Post;;;;;
Akamkpa;Ikpai Ward;;Ntebachort Health Centre;;;;;
Akamkpa;Ikpai Ward;;Mkpot Health Centre;;;;;
Akamkpa;Ikpai Ward;;Ekang (Akamkpa) Health Centre;;;;;
Akamkpa;Ikpai Ward;;Orem Health Post;;;;;
Akamkpa;Ikpai Ward;;Nyaje Primary Health Centre;;;;;
Akamkpa;Ikpai Ward;;Old Ndebiji Health Post;;;;;
Akamkpa;Ikpai Ward;;Ojuk Health Post;;;;;
Akamkpa;Mbarakom Ward;;Mbarakom Primary Health Centre;;;;;
Akamkpa;Mbarakom Ward;;Nyakachang Health Post;;;;;
Akamkpa;Oban Ward;;Ekong Health Post;;;;;
Akamkpa;Oban Ward;;Ndeghe Health Post;;;;;
Akamkpa;Oban Ward;;Oban Primary Health Centre;;;;;
Akamkpa;Oban Ward;;Camp 4 Health Post;;;;;
Akamkpa;Ojuk North Ward;;Oberakai Health Post;;;;;
Akamkpa;Ojuk North Ward;;Ekong Anaku Health Centre;;;;;
Akamkpa;Ojuk North Ward;;Mbubui Health Post;;;;;
Akamkpa;Ojuk North Ward;;Mfamosing  Primary Health Centre;;;;;
Akamkpa;Ojuk South Ward;;Aningeje Primary Health Centre;;;;;
Akamkpa;Uyanya Ward;;Akwa Ibani Health Centre;;;;;
Akamkpa;Uyanya Ward;;Ojor Health Centre;;;;;
Akamkpa;Uyanya Ward;;Enunghurt Health Centre;;;;;
Akamkpa;Uyanya Ward;;Iwuru Central Health Centre;;;;;
Akamkpa;Uyanya Ward;;Uyanga Primary Health Centre;;;;;
Akamkpa;Uyanya Ward;;Ifumkpa Health Centre;;;;;
Akamkpa;Uyanya Ward;;Uwet Health Post;;;;;
Akpabuyo;Atimbo East Ward;;Esuk Ekpo Eyo Health Post;;;;;
Akpabuyo;Atimbo East Ward;;Ikot Uba Health Post;;;;;
Akpabuyo;Atimbo East Ward;;Ekpene Ikot Umo Health Post;;;;;
Akpabuyo;Atimbo East Ward;;Ikot Edem Ndarake Health Post;;;;;
Akpabuyo;Atimbo East Ward;;Ifondo Health Post;;;;;
Akpabuyo;Atimbo West Ward;;Eto Mkpe Health Post;;;;;
Akpabuyo;Atimbo West Ward;;Ikot Okpo Ene Health Post;;;;;
Akpabuyo;Atimbo West Ward;;Etomkpe Archibong Health Post;;;;;
Akpabuyo;Atimbo West Ward;;Atim Assam Health Centre;;;;;
Akpabuyo;Edem Odo Ward;;Esuk Mba Health Centre;;;;;
Akpabuyo;Edem Odo Ward;;Ekpri Ikot Ene Health Centre;;;;;
Akpabuyo;Edem Odo Ward;;Esuk Mbat Health Post;;;;;
Akpabuyo;Edet Nsa ward;;Ikot Asuqua Health Post;;;;;
Akpabuyo;Edet Nsa ward;;Ikong Health Post;;;;;
Akpabuyo;Edet Nsa ward;;Nkakat Eyamba Health Centre;;;;;
Akpabuyo;Effanga Offiong Ward;;Idim Eso Heallth Post;;;;;
Akpabuyo;Eneyo North War;;Ikot Otu Abasi Health Centre;;;;;
Akpabuyo;Eneyo North War;;Ikot Ekpo PHC;;;;;
Akpabuyo;Eneyo North War;;Esuk Ewa Ekpo Health Post;;;;;
Akpabuyo;Eneyo North War;;Okoroba Health Post;;;;;
Akpabuyo;Eneyo North War;;Ikot Umoh Edem Health Post;;;;;
Akpabuyo;Eneyo South Ward;;Ikot Ene Umo Health Post;;;;;
Akpabuyo;Eneyo South Ward;;Ikot Asuquo Affiong Anye Health Centre;;;;;
Akpabuyo;Eneyo South Ward;;Akpap Etim Iyang Health Post;;;;;
Akpabuyo;Idundu/Anyanga-Nse Ward;;Asabanka Health Centre;;;;;
Akpabuyo;Idundu/Anyanga-Nse Ward;;Anyanganse Health Post;;;;;
Akpabuyo;Idundu/Anyanga-Nse Ward;;Idundu Primary Health Centre;;;;;
Akpabuyo;Ikot Eyo Ward;;Health Post Ikot Anasua;;;;;
Akpabuyo;Ikot Eyo Ward;;Usung Ibawa Health Post;;;;;
Akpabuyo;Ikot Eyo Ward;;Ikot Okon Edem Health Post;;;;;
Akpabuyo;Ikot Eyo Ward;;Ifiang King Duke Health Centre;;;;;
Akpabuyo;Ikot Nakanda Ward;;Ikot Nakanda Primary Health Centre;;;;;
Akpabuyo;Ikot Nakanda Ward;;Ikot Nya Nya Health Post;;;;;
Akpabuyo;Ikot Nakanda Ward;;Esuk Idebe Health Post;;;;;
Bakassi;Abakpa Ward;;Usung Esuk Health Centre;;;;;
Bakassi;Abakpa Ward;;Abakpa Health Centre;;;;;
Bakassi;Abakpa Ward;;Ikot Effiom Health Post;;;;;
Bakassi;Abakpa Ward;;Akpap Okon Ene Health Post;;;;;
Bakassi;Efut Esighi Ward;;Ekpene Esuk Primary Health Centre;;;;;
Bakassi;Efut Esighi Ward;;Efut Esighi Primary Health Centre;;;;;
Bakassi;Efut Esighi Ward;;Idua Iwang Health Post;;;;;
Bakassi;Ekpri Ikang Ward;;Edik Idim Ikot Eyi Health Post;;;;;
Bakassi;Ekpri Ikang Ward;;Akwa Obutong Health post;;;;;
Bakassi;Ekpri Ikang Ward;;Ekpri Ikang Primary Health Centre;;;;;
Bakassi;Ekpri Ikang Ward;;Edik Idim Ikot Effanga Health Post;;;;;
Bakassi;Ekpri Ikang Ward;;Ekpri Obutong Health Centre;;;;;
Bakassi;Esighi Ward;;Ikot Ene Ene Health Post;;;;;
Bakassi;Esighi Ward;;Esighi Primary Health Centre;;;;;
Bakassi;Esighi Ward;;Esighi Itam Health Post;;;;;
Bakassi;Esighi Ward;;Ikot Ene Uyi Health Post;;;;;
Bakassi;Ifiang Ayong Ward;;Ifiang Ayong Health Centre;;;;;
Bakassi;Ifiang Nsung Ward;;Ifiang Nsung Primary Health Centre;;;;;
Bakassi;Ifiang Nsung Ward;;Edik Okon Idem Health Post;;;;;
Bakassi;Ifiang Nsung Ward;;Ifiang Akwa Health Post;;;;;
Bakassi;Ikang Ward;;Esuk Anansa Health Post;;;;;
Bakassi;Ikang Ward;;First Contact Clinic & Maternity;;;;;
Bakassi;Ikang Ward;;Ikang Primary Health Centre (Bakassi);;;;;
Bakassi;Ikang Ward;;Ikot Ebok Health Post;;;;;
Bakassi;Ikot Iwang Ward;;Ikot Iwang HC;;;;;
Bakassi;Ikot Iwang Ward;;Esuk Ukpa Health Post;;;;;
Bakassi;Ine Abasi Ward;;Ine Abasi Health Post;;;;;
Bakassi;Nsidung Ward;;Ikot Inyang Health Post;;;;;
Bakassi;Nsidung Ward;;Esit Ikot Nsa Ewa Health Post;;;;;
Bakassi;Nsidung Ward;;Nsidung Primary Health Centre;;;;;
Bakassi;Nsidung Ward;;Akwa Obio Iwang Health Post;;;;;
Bakassi;Nsidung Ward;;Esit Ikot Ekeng Ewa Health Post;;;;;
Bekwarra;Beten Ward;;Utugbor Health Post;;;;;
Bekwarra;Beten Ward;;Akpakpa Health Post;;;;;
Bekwarra;Nyanya Ward;;Ichogopo Health Post;;;;;
Bekwarra;Otukpuru Ward;;Ayange Health Post;;;;;
Bekwarra;Otukpuru Ward;;Otukpuru-Afaa Health Post;;;;;
Bekwarra;Otukpuru Ward;;Bewo Health Post;;;;;
Bekwarra;Otukpuru Ward;;Utukpuru (Abuagbo-Ukum) Primary Health Centre;;;;;
Bekwarra;Otukpuru Ward;;Achibang Health Post;;;;;
Bekwarra;Otukpuru Ward;;Ikaparikobo Ishane  Health Post;;;;;
Bekwarra;Ukpah Ward;;Ukpah Primary Health Centre;;;;;
Biase;Abayong Ward;;Ijom-Abayong Community Health Centre;;;;;
Biase;Abayong Ward;;Abredang Health Post;;;;;
Biase;Abayong Ward;;Abapia Health Post;;;;;
Biase;Abayong Ward;;Abaribara Health Centre;;;;;
Biase;Abayong Ward;;Abrijang Health Centre;;;;;
Biase;Adim Ward;;Adim Primary Health Centre (Biase);;;;;
Biase;Adim Ward;;Ijiman Health Post;;;;;
Biase;Agwagune/Okureke Ward;;Agwagune Primary Health Centre;;;;;
Biase;Agwagune/Okureke Ward;;Okurike PrimaryHealth Centre;;;;;
Biase;Agwagune/Okureke Ward;;Itu-Agwagune Health Centre;;;;;
Biase;Akpet Abini Ward;;Abini Primary Health Centre;;;;;
Biase;Akpet Abini Ward;;Akpet 1 Primary Health Centre;;;;;
Biase;Akpet Abini Ward;;Akpet Central Health Post;;;;;
Biase;Akpet Abini Ward;;Akparavuni Health Centre;;;;;
Biase;Akpet Abini Ward;;Aya Medical Centre;;;;;
Biase;Akpet Abini Ward;;Akpet Central Cottage Hospital;;;;;
Biase;Akpet Abini Ward;;Ibogo Health Centre;;;;;
Biase;Akpet Abini Ward;;Ukwupeyere Health Post;;;;;
Biase;Akpet Abini Ward;;Umai Health Post;;;;;
Biase;Biakpan Ward;;Biakpan Primary Health Centre;;;;;
Biase;Biakpan Ward;;Imieyo Health Post;;;;;
Biase;Biakpan Ward;;Biakpan Estate Health Post;;;;;
Biase;Ehom Ward;;Ekpri-iko Health Centre;;;;;
Biase;Ehom Ward;;Ehom Central Health Centre;;;;;
Biase;Ehom Ward;;Ehom Village Health Centre;;;;;
Biase;Ehom Ward;;Iwuru Primary Health Centre;;;;;
Biase;Ehom Ward;;Idoma Health Centre;;;;;
Biase;Ehom Ward;;Orida Health Post;;;;;
Biase;Erie North Ward;;Umuolor Health Post;;;;;
Biase;Erie North Ward;;Obum Health Post;;;;;
Biase;Erie North Ward;;Ipene Health Centre;;;;;
Biase;Erie North Ward;;Egbor Health Post;;;;;
Biase;Erie North Ward;;Etana Health Post;;;;;
Biase;Erie South Ward;;Ibini Health Centre;;;;;
Biase;Erie South Ward;;Afono Health Centre;;;;;
Biase;Erie South Ward;;Abanwan Health Centre;;;;;
Biase;Erie South Ward;;Edu Health Post;;;;;
Biase;Erie South Ward;;Urugbam Health Centre;;;;;
Biase;Ikun/Eteno Ward;;Ikun Health Centre;;;;;
Biase;Ikun/Eteno Ward;;Etono Primary Health Centre;;;;;
Biase;Ikun/Eteno Ward;;Etono 2 Health Post;;;;;
Biase;Umon North Ward;;Ikot Okpora Primary Health Centre;;;;;
Biase;Umon North Ward;;Ugbem Health Centre;;;;;
Biase;Umon North Ward;;Ikot Anakaniyom Health Centre;;;;;
Biase;Umon North Ward;;Bechei Health Post;;;;;
Biase;Umon North Ward;;Ikot Ewo Health Post;;;;;
Biase;Umon North Ward;;Akpassip Health Centre;;;;;
Biase;Umon North Ward;;Ikot Obo Isamo Health Post;;;;;
Biase;Umon North Ward;;Ikot Ene Umo Health Post;;;;;
Biase;Umon South Ward;;Amarurang Health Centre;;;;;
Biase;Umon South Ward;;Bagani Health Post;;;;;
Biase;Umon South Ward;;Utuma Health Centre;;;;;
Biase;Umon South Ward;;Umon Island Health Centre;;;;;
Boki;Abo Ward;;Orimekpang Health Centre;;;;;
Boki;Abo Ward;;Abo Mkpang Health Post;;;;;
Boki;Abo Ward;;Biajua Health Centre;;;;;
Boki;Abo Ward;;Abo-Ogbagante Health Centre;;;;;
Boki;Abo Ward;;Abo Obisu Health Centre;;;;;
Boki;Abo Ward;;Bashu Health Centre;;;;;
Boki;Abo Ward;;Orimekpang Inland Health Post;;;;;
Boki;Abo Ward;;Abo-Ebam Primary Health Centre;;;;;
Boki;Abo Ward;;Abo Emeh Health Post;;;;;
Boki;Abo Ward;;Danare 1Health Centre;;;;;
Boki;Abo Ward;;Orimekpang Emeh Health Post;;;;;
Boki;Abo Ward;;Abo Buanabe Health Post;;;;;
Boki;Abo Ward;;Danare 2 Health Post;;;;;
Boki;Abo Ward;;Biakpan Health Post;;;;;
Boki;Alanku Ward;;Okwabang Health Centre;;;;;
Boki;Alanku Ward;;Bateriko Comprehensive Health Centre;;;;;
Boki;Alanku Ward;;Butatung Health Centre;;;;;
Boki;Alanku Ward;;Bakum Health Post;;;;;
Boki;Alanku Ward;;Ashishe Health Post;;;;;
Boki;Beebo-Bumaji Ward;;Owambe Health Centre;;;;;
Boki;Beebo-Bumaji Ward;;Abijia Beebo Health Centre;;;;;
Boki;Beebo-Bumaji Ward;;Kakwe-Beebo Health Centre;;;;;
Boki;Beebo-Bumaji Ward;;Oguefor  Health Post;;;;;
Boki;Beebo-Bumaji Ward;;Buabre Health Post;;;;;
Boki;Beebo-Bumaji Ward;;Bajiki-Bumaji Primary Health Centre;;;;;
Boki;Beebo-Bumaji Ward;;Baggo  Health Post;;;;;
Boki;Boje Ward;;Katabang Health Centre;;;;;
Boki;Boje Ward;;Buanchor Health Centre;;;;;
Boki;Boje Ward;;Iso-bendeghe Health Centre;;;;;
Boki;Boje Ward;;Kachie Health Centre;;;;;
Boki;Boje Ward;;Ebok FSP Health Post;;;;;
Boki;Boje Ward;;Enyi-Boje Primary Health Centre;;;;;
Boki;Boje Ward;;Arangha Health Post;;;;;
Boki;Boje Ward;;Agbekim Farm Health Post;;;;;
Boki;Boje Ward;;Nsadop Primary Health Centre;;;;;
Boki;Buda Ward;;Beni / Kakwagom Irruan  Health Post;;;;;
Boki;Buda Ward;;Katchuan 2 Health Post;;;;;
Boki;Buda Ward;;Bitiah Health Centre;;;;;
Boki;Buda Ward;;Kakubok Iruan Health Centre;;;;;
Boki;Buda Ward;;Nkanyia Irruan  Health Post;;;;;
Boki;Buda Ward;;Kakwagon Iruan Health Centre;;;;;
Boki;Buda Ward;;Koniya Health Post;;;;;
Boki;Buda Ward;;Katchuan Iruan Primary Health Centre;;;;;
Boki;Buentsebe Ward;;Olum Government Health Post;;;;;
Boki;Buentsebe Ward;;Bokalum Primary Health Centre;;;;;
Boki;Buentsebe Ward;;Mbaeshuo Health Post;;;;;
Boki;Buentsebe Ward;;Kanyang Health Centre;;;;;
Boki;Buentsebe Ward;;Wula Primary Health Centre;;;;;
Boki;Buentsebe Ward;;Ubong Health Post;;;;;
Boki;Buentsebe Ward;;Bamba Primary Health Centre;;;;;
Boki;Bunyia/Okubachi Ward;;Esekwe Irruan Health Centre;;;;;
Boki;Bunyia/Okubachi Ward;;Bunyia Primary Health Centre;;;;;
Boki;Bunyia/Okubachi Ward;;Kabishu Health Post;;;;;
Boki;Bunyia/Okubachi Ward;;Okubuchi Health Post;;;;;
Boki;Bunyia/Okubachi Ward;;Bankpor Iruan Health Post;;;;;
Boki;Ekpashi Ward;;Nkim Health Post (Ekpashi);;;;;
Boki;Ekpashi Ward;;Agba-Osokom Government Health Centre;;;;;
Boki;Ekpashi Ward;;Agba 2 Health Post;;;;;
Boki;Ekpashi Ward;;Ntamante Primary Health Centre;;;;;
Boki;Kakwagom/Bawop Ward;;Panya Health Centre;;;;;
Boki;Kakwagom/Bawop Ward;;Obomutang Health Post;;;;;
Boki;Kakwagom/Bawop Ward;;Effiayong Health Post;;;;;
Boki;Kakwagom/Bawop Ward;;Kakwagom Primary Health Centre;;;;;
Boki;Kakwagom/Bawop Ward;;Effigbo Health Post;;;;;
Boki;Kakwagom/Bawop Ward;;Orunghe Bawop Health Centre;;;;;
Boki;Ogeposokum Ward;;Okundi Comprehensive Health Centre;;;;;
Boki;Ogeposokum Ward;;Bafin-Osokom Health Post;;;;;
Boki;Ogeposokum Ward;;Obubra Bansan-Osokom Health Post;;;;;
Boki;Ogeposokum Ward;;Omega Clinic and Maternity;;;;;
Boki;Ogeposokum Ward;;Etimtim-Osokom Health Post;;;;;
Boki;Ogeposokum Ward;;Bansan Health Centre;;;;;
Boki;Ogeposokum Ward;;Ogeposokum Health Centre;;;;;
Boki;Oku-Borum-Njua Ward;;Njua-Bano Health Centre;;;;;
Boki;Oku-Borum-Njua Ward;;Ebam Health Centre;;;;;
Boki;Oku-Borum-Njua Ward;;Njua-Kaku Health Post;;;;;
Boki;Oku-Borum-Njua Ward;;Oku-Aro Health Post;;;;;
Boki;Oku-Borum-Njua Ward;;Okubuanankong Health Post;;;;;
Boki;Oku-Borum-Njua Ward;;Okubushuyu Primary Health Centre;;;;;
Boki;Oku-Borum-Njua Ward;;Borum Government Health Centre;;;;;
Calabar Municipal;Akim Ward;;Seven Day Adventist Health Post;;;;;
Calabar Municipal;Akim Ward;;University of Calabar Medical Centre;;;;;
Calabar Municipal;Akim Ward;; Akim Barrack Clinic;;;;;
Calabar Municipal;Akim Ward;;Calabar General Hospital;;;;;
Calabar Municipal;Akim Ward;;Peoples Clinic;;;;;
Calabar Municipal;Akim Ward;;Calabar Police Clinic;;;;;
Calabar Municipal;Akim Ward;;College of health Tech. Clinic;;;;;
Calabar Municipal;Akim Ward;;Dominion Clinic;;;;;
Calabar Municipal;Akim Ward;;Akim Primary Health Centre;;;;;
Calabar Municipal;Big Qua Ward;;Big Qua Health Centre;;;;;
Calabar Municipal;Big Qua Ward;;Atekong Health Post;;;;;
Calabar Municipal;Big Qua Ward;;Calabar Naval Hospital;;;;;
Calabar Municipal;Big Qua Ward;;Progress Clinic;;;;;
Calabar Municipal;Big Qua Ward;;Diamond Hill Health Centre;;;;;
Calabar Municipal;Big Qua Ward;;Canaan Medical Centre;;;;;
Calabar Municipal;Big Qua Ward;;Faith Foundation;;;;;
Calabar Municipal;Diamond Ward;;Mary Mother of Mercy specialist Hospital;;;;;
Calabar Municipal;Diamond Ward;;Mobile Clinic Primary Health Centre;;;;;
Calabar Municipal;Diamond Ward;;Ekorinim Health Post;;;;;
Calabar Municipal;Diamond Ward;;Luciama Memorial Specialist Hospital;;;;;
Calabar Municipal;Diamond Ward;;Nyahesang Health Post;;;;;
Calabar Municipal;Ediba Ward;;Calabar Municipal Health Post;;;;;
Calabar Municipal;Ediba Ward;;Victoria Diagnostic Clinic;;;;;
Calabar Municipal;Ediba Ward;;City Clinic;;;;;
Calabar Municipal;Ediba Ward;;MAPS Clinic;;;;;
Calabar Municipal;Ediba Ward;;Victoria Itam Medical Centre;;;;;
Calabar Municipal;Ediba Ward;;BAKOR Medical Centre;;;;;
Calabar Municipal;Ediba Ward;;Ediba Primary Health Centre;;;;;
Calabar Municipal;Edim Otop Ward;;Testimony Medical Resource;;;;;
Calabar Municipal;Edim Otop Ward;;Edim-Otop Health Post;;;;;
Calabar Municipal;Edim Otop Ward;;Biocee Zion Clinic;;;;;
Calabar Municipal;Edim Otop Ward;;Atimbo Health Post;;;;;
Calabar Municipal;Edim Otop Ward;;Borrow Pit Health Centre;;;;;
Calabar Municipal;Edim Otop Ward;;Mission Hill Clinic;;;;;
Calabar Municipal;Edim Otop Ward;;Abong Aseng Health Post;;;;;
Calabar Municipal;Ikot Ansa Ward;;Royal Vine Children Clinic;;;;;
Calabar Municipal;Ikot Ansa Ward;;Prudence Clinic;;;;;
Calabar Municipal;Ikot Ansa Ward;;Ikot Ansa Primary Health Centre;;;;;
Calabar Municipal;Ikot Effanga Ward;;Davis Medical Centre;;;;;
Calabar Municipal;Ikot Effanga Ward;;Eburutu Brigade Medical Centre;;;;;
Calabar Municipal;Ikot Effanga Ward;;Lemna Health Post;;;;;
Calabar Municipal;Ikot Effanga Ward;;Ikot Nkebre Health Post;;;;;
Calabar Municipal;Ikot Effanga Ward;;Immanuel Infirmary;;;;;
Calabar Municipal;Ikot Effanga Ward;;Ikot Effanga Mkpa Health Centre;;;;;
Calabar Municipal;Ikot Effanga Ward;;Women and Child Clinic;;;;;
Calabar Municipal;Ikot Ishie Ward;;Ishie Health Post;;;;;
Calabar Municipal;Ikot Ishie Ward;;Amazing Grace Specialist Clinic;;;;;
Calabar Municipal;Ikot Ishie Ward;;Peace Clinic;;;;;
Calabar Municipal;Ikot Ishie Ward;;Ikot Nwatim 1 Health Post;;;;;
Calabar Municipal;Ikot Omin Ward;;Abenyo Health Post;;;;;
Calabar Municipal;Ikot Omin Ward;;Nasarawa Health Post;;;;;
Calabar Municipal;Ikot Omin Ward;;Ikot Omin Primary Health Centre (Poly Clinic);;;;;
Calabar Municipal;Ikot Omin Ward;;Bacoco Health Post;;;;;
Calabar Municipal;Ikot Omin Ward;;Ikot Ekpo Health Post (Ward 10);;;;;
Calabar Municipal;Ikot Omin Ward;;Esuk Utan Health Post;;;;;
Calabar Municipal;Ikot Omin Ward;;Enima Omin Health Post;;;;;
Calabar Municipal;Ikot Omin Ward;;Eto Mkpe Health Post;;;;;
Calabar Municipal;Ikot Omin Ward;;Ikot Enebong Health Post;;;;;
Calabar Municipal;Kasuk Ward;;Akai Efa Health Post;;;;;
Calabar Municipal;Kasuk Ward;;Federal Housing Health Post;;;;;
Calabar Municipal;Kasuk Ward;;Kasuk Health Centre;;;;;
Calabar Municipal;Kasuk Ward;;Nwatim Health Post;;;;;
Calabar Municipal;Kasuk Ward;;Ward 8 Family Support Programme Clinic;;;;;
Calabar South;Calabar South Ward 1;;Bogobri Health Post;;;;;
Calabar South;Calabar South Ward 1;;Goldie Street Health Post;;;;;
Calabar South;Calabar South Ward 10;;Evangel Clinic;;;;;
Calabar South;Calabar South Ward 10;;Murray Health Post;;;;;
Calabar South;Calabar South Ward 10;;Nelson Mandela Primary Health Centre;;;;;
Calabar South;Calabar South Ward 11;;Effioanwan Health Post;;;;;
Calabar South;Calabar South Ward 11;;Anantigha Primary Health Centre;;;;;
Calabar South;Calabar South Ward 11;;Ebuka Ebuka Health Post;;;;;
Calabar South;Calabar South Ward 11;;Essien Health Post;;;;;
Calabar South;Calabar South Ward 11;;Jebs Health Post;;;;;
Calabar South;Calabar South Ward 11;;Idang Health Post;;;;;
Calabar South;Calabar South Ward 11;;Inyang Abasi Health Post;;;;;
Calabar South;Calabar South Ward 11;;Ideal Clinic;;;;;
Calabar South;Calabar South Ward 11;;Akani Esuk Health Centre;;;;;
Calabar South;Calabar South Ward 12;;Ayatmo Health Post;;;;;
Calabar South;Calabar South Ward 12;;Mount Zion Clinic;;;;;
Calabar South;Calabar South Ward 12;;Oyo Efam Health Post;;;;;
Calabar South;Calabar South Ward 12;;Ekpo Abasi Health Centre;;;;;
Calabar South;Calabar South Ward 12;;Musaha Health Post;;;;;
Calabar South;Calabar South Ward 12;;crGoldie Clinic;;;;;
Calabar South;Calabar South Ward 12;;Uwanse Health Centre;;;;;
Calabar South;Calabar South Ward 12;;Mambo Clinic;;;;;
Calabar South;Calabar South Ward 12;;Atakpa Health Post;;;;;
Calabar South;Calabar South Ward 12;;Crutech Medical Centre;;;;;
Calabar South;Calabar South Ward 2;;Eyamba Health Post;;;;;
Calabar South;Calabar South Ward 3;;Eyo Lane Health Post;;;;;
Calabar South;Calabar South Ward 3;;Calabar South Family Health Centre;;;;;
Calabar South;Calabar South Ward 3;;Family Planning Coordination Unit Clinic;;;;;
Calabar South;Calabar South Ward 4;;Peace Medical Centre;;;;;
Calabar South;Calabar South Ward 4;;Becroft Health Post;;;;;
Calabar South;Calabar South Ward 4;;Anderson Primary Health Centre;;;;;
Calabar South;Calabar South Ward 5;;Henshaw Town Primary Health Centre;;;;;
Calabar South;Calabar South Ward 6;;Mary Magdalene Health Post;;;;;
Calabar South;Calabar South Ward 7;;Edgerly Health Post;;;;;
Calabar South;Calabar South Ward 8;;Esierebom Primary Health Centre;;;;;
Calabar South;Calabar South Ward 8;;Edibe Edibe Health Post;;;;;
Calabar South;Calabar South Ward 9;;NYSC Community Health Centre;;;;;
Etung;Abia Ward;;Etek Okaghara  Health Post;;;;;
Etung;Abia Ward;;Abia Primary Health Centre;;;;;
Etung;Abia Ward;;Bijah Health Post;;;;;
Etung;Abijang Ward;;Ekuribum Health Post;;;;;
Etung;Abijang Ward;;Etara Health Centre;;;;;
Etung;Abijang Ward;;Abijang Primary Health Centre;;;;;
Etung;Agbokim Ward;;Ekugatai Health Centre;;;;;
Etung;Agbokim Ward;;Agbokim Primary Health Centre;;;;;
Etung;Agbokim Ward;;Caraboat Health Post;;;;;
Etung;Ajassor Ward;;Bikpare Health Post;;;;;
Etung;Ajassor Ward;;Ajassor Primary Health Centre;;;;;
Etung;Bendeghe Etiem Ward;;Ekimkae Health Post;;;;;
Etung;Bendeghe Etiem Ward;;Bendeghe Etiem Comprehensive Health Centre;;;;;
Etung;Bendeghe Etiem Ward;;Titor Health Post;;;;;
Etung;Ekim Ward;;Etek Etti  Health Post;;;;;
Etung;Ekim Ward;;Ekimaya Health Post;;;;;
Etung;Ekim Ward;;Effraya Model Primary Health Centre;;;;;
Etung;Ekim Ward;;Ekim Primary School Health Post;;;;;
Etung;Etomi Ward;;Etomi Primary Health Centre;;;;;
Etung;Etomi Ward;;Ete Enyang Health Post;;;;;
Etung;Etomi Ward;;Camp 3 Health Post;;;;;
Etung;Itaka Ward;;Itaka Primary Health Centre;;;;;
Etung;Itaka Ward;;Areh Health Post;;;;;
Etung;Mkpot Ward;;Akarim Health Post;;;;;
Etung;Mkpot Ward;;Mkpot Primary Health Centre;;;;;
Etung;Nsofang Ward;;Och-Ayip Health Post;;;;;
Etung;Nsofang Ward;;Nsofang Primary Health Centre;;;;;
Ikom;Abanyom Ward;;Nkim Health Post;;;;;
Ikom;Abanyom Ward;;Nkarasi 1 Health Post;;;;;
Ikom;Abanyom Ward;;Ekonde Health Post;;;;;
Ikom;Abanyom Ward;;Etikpe Health Post;;;;;
Ikom;Abanyom Ward;;Edor Primary Health Centre;;;;;
Ikom;Abanyom Ward;;Abankong Health Post;;;;;
Ikom;Abanyom Ward;;Abinti 2 Health Post;;;;;
Ikom;Abanyom Ward;;Bornima Health Post;;;;;
Ikom;Abanyom Ward;;Edor Health Post;;;;;
Ikom;Abanyom Ward;;Osibi-Etikpe Health Post;;;;;
Ikom;Abanyom Ward;;Nkonfab Health Centre;;;;;
Ikom;Abanyom Ward;;Abinti 1 Health Post;;;;;
Ikom;Abanyom Ward;;Nkarasi Primary Health Centre;;;;;
Ikom;Akparabong Ward;;Bendeghe Afi Health Centre;;;;;
Ikom;Akparabong Ward;;Balelopu Health Centre;;;;;
Ikom;Akparabong Ward;;Akparabong Primary Health Centre;;;;;
Ikom;Akparabong Ward;;Opu Health Post;;;;;
Ikom;Akparabong Ward;;Bendeghe Afi Health Post;;;;;
Ikom;Ikom 1 Ward;;Assenasen Health Post;;;;;
Ikom;Ikom 1 Ward;;Ikom Comprehensive Health Centre;;;;;
Ikom;Ikom 1 Ward;;Obim Clinic;;;;;
Ikom;Ikom 1 Ward;;Holy Family Catholic Hospital;;;;;
Ikom;Ikom 1 Ward;;Benson Clinic;;;;;
Ikom;Ikom 1 Ward;;Isabang Health Post;;;;;
Ikom;Ikom 1 Ward;;Kusaki Clinic (Delta Clinic);;;;;
Ikom;Ikom 1 Ward;;Goshen Maternity;;;;;
Ikom;Ikom 2 Ward;;Integrity Hospital;;;;;
Ikom;Ikom 2 Ward;;Citizen Clinic;;;;;
Ikom;Ikom 2 Ward;;County Specialist Hospital;;;;;
Ikom;Ikom 2 Ward;;Adjinkpor Health Centre;;;;;
Ikom;Ikom 2 Ward;;Mankono Health Post (Favour SHT);;;;;
Ikom;Ikom 2 Ward;;First Foundation;;;;;
Ikom;Ikom 2 Ward;;Okundi Health Post;;;;;
Ikom;Ikom 2 Ward;;Otere Health Post;;;;;
Ikom;Ikom 2 Ward;;Melrose Clinic;;;;;
Ikom;Nde Ward;;Ayughasa Health Post;;;;;
Ikom;Nde Ward;;Ejirawor Health Post;;;;;
Ikom;Nde Ward;;Egunokor Health Post;;;;;
Ikom;Nde Ward;;Nde Afi Health Centre;;;;;
Ikom;Nde Ward;;Eganga Health Post;;;;;
Ikom;Nde Ward;;Mgbaka Mkpiri Health Post;;;;;
Ikom;Nde Ward;;Esaja Health Post;;;;;
Ikom;Nde Ward;;Nde Primary Health Centre;;;;;
Ikom;Nde Ward;;BAKOR Hospital;;;;;
Ikom;Nde Ward;;Nkoande Health Post;;;;;
Ikom;Nnam Ward;;Akorofono Health Post;;;;;
Ikom;Nnam Ward;;Ogomogom Health Post;;;;;
Ikom;Nnam Ward;;Nkeleta Health Post;;;;;
Ikom;Nnam Ward;;Emangabe Primary Health Centre;;;;;
Ikom;Nta-Nselle Ward;;Ekpatala Health Post;;;;;
Ikom;Nta-Nselle Ward;;Oyenghe Health Post;;;;;
Ikom;Nta-Nselle Ward;;Odor-Nta Health Post;;;;;
Ikom;Nta-Nselle Ward;;Njemetop Health Post;;;;;
Ikom;Nta-Nselle Ward;;Lebenjok Health Post;;;;;
Ikom;Nta-Nselle Ward;;Ofun-Nta Health Centre;;;;;
Ikom;Nta-Nselle Ward;;Nnaburokpa Health Post;;;;;
Ikom;Nta-Nselle Ward;;Nto-Abinti Health Post ;;;;;
Ikom;Nta-Nselle Ward;;Abinti Nto Health Post;;;;;
Ikom;Ofutop 1 Ward;;Omindom Primary Health Centre;;;;;
Ikom;Ofutop 1 Ward;;Nkpura Primary Health Centre;;;;;
Ikom;Ofutop 1 Ward;;Okangha Nkpansi Health Post;;;;;
Ikom;Ofutop 1 Ward;;Ndam Health Post;;;;;
Ikom;Ofutop 1 Ward;;Ekpokpa Health Centre;;;;;
Ikom;Ofutop 2 Ward;;Okosora Health Post;;;;;
Ikom;Ofutop 2 Ward;;Ekukunela 2 Health Post;;;;;
Ikom;Ofutop 2 Ward;;Ekukunela 1 Health Post;;;;;
Ikom;Ofutop 2 Ward;;Mbamba Health Post;;;;;
Ikom;Ofutop 2 Ward;;Agbaragba Primary Health Centre;;;;;
Ikom;Ofutop 2 Ward;;Alesi Health Post;;;;;
Ikom;Ofutop 2 Ward;;Mbak Health Post;;;;;
Ikom;Olulumo Ward;;Akam Health Post;;;;;
Ikom;Olulumo Ward;;Okuni (Olulomu) Primary Health Centre;;;;;
Ikom;Yala Nkum Ward;;Yala Primary Health Centre;;;;;
Ikom;Yala Nkum Ward;;Owom Health Post;;;;;
Obanliku;Bassang Ward;;Bayanu Health Post;;;;;
Obanliku;Bassang Ward;;Bayalele  Health Post;;;;;
Obanliku;Bassang Ward;;Bayama Health Centre;;;;;
Obanliku;Bassang Ward;;Kabun Health Post;;;;;
Obanliku;Bebi Ward;;Bimah Health Post;;;;;
Obanliku;Bebi Ward;;Beegbong Bebi Health Centre;;;;;
Obanliku;Bebi Ward;;Bayuluga Bebi Health Post;;;;;
Obanliku;Bebi Ward;;Blukonu Bebi Health Centre;;;;;
Obanliku;Becheve Ward;;Behinge Health Centre;;;;;
Obanliku;Becheve Ward;;Bottom Hill Health Post;;;;;
Obanliku;Becheve Ward;;Ranch Health Centre;;;;;
Obanliku;Becheve Ward;;Amana 1 Health Centre;;;;;
Obanliku;Becheve Ward;;Ranch Medical Centre;;;;;
Obanliku;Bendi 1 Ward;;Akorshi Model Primary Health Centre;;;;;
Obanliku;Bendi 1 Ward;;Begiatte Health Centre;;;;;
Obanliku;Bendi 1 Ward;;Ketting Health Post;;;;;
Obanliku;Bendi 2 Ward;;Lishikwel Health Centre;;;;;
Obanliku;Bendi 2 Ward;;Bendi Health Centre;;;;;
Obanliku;Bishiri North Ward;;Kakwe Health Post;;;;;
Obanliku;Bishiri North Ward;;Lishiche Health Post;;;;;
Obanliku;Bishiri North Ward;;Shikpeche Health Centre;;;;;
Obanliku;Bishiri South Ward;;Buya Health Post;;;;;
Obanliku;Bisu Ward;;Busanfong Health Post;;;;;
Obanliku;Bisu Ward;;Bayaga Health Centre;;;;;
Obanliku;Bisu Ward;;Bukemanya Health Post;;;;;
Obanliku;Bisu Ward;;Bebuekayang Health Post;;;;;
Obanliku;Bisu Ward;;Bayayam Health Centre;;;;;
Obanliku;Busi Ward;;Busi 2  Health Post;;;;;
Obanliku;Busi Ward;;Busi 5 Health Post;;;;;
Obanliku;Busi Ward;;Busi 6 Health Post;;;;;
Obanliku;Busi Ward;;Busi 1 Health Post;;;;;
Obanliku;Busi Ward;;Busi 3 Health Centre;;;;;
Obanliku;Utanga Ward;;Bessenge 2 Health Post;;;;;
Obanliku;Utanga Ward;;Madonna Maternity Clinic;;;;;
Obanliku;Utanga Ward;;Adadang Health Post;;;;;
Obanliku;Utanga Ward;;Bagga 2 Health Post;;;;;
Obanliku;Utanga Ward;;Utanga Primary Health Centre;;;;;
Obubra;Ababene Ward;;Obubra (Ababene) Model Primary Health Centre;;;;;
Obubra;Ababene Ward;;Akpantre Health Post;;;;;
Obubra;Apiapum Ward;;Eyabom Health Post;;;;;
Obubra;Apiapum Ward;;Imabana Itamtet Health Post;;;;;
Obubra;Apiapum Ward;;Obubra Junction Health Post;;;;;
Obubra;Apiapum Ward;;Iyamoyongha Health Post;;;;;
Obubra;Apiapum Ward;;Apiapum Health Centre;;;;;
Obubra;Iyami Ward;;Ohana Yami Health Post;;;;;
Obubra;Iyami Ward;;Iyamoyong Health Centre;;;;;
Obubra;Iyami Ward;;Okumuruktet Ijam Health Post;;;;;
Obubra;Iyami Ward;;Iyamitet Health Centre;;;;;
Obubra;Ochon Ward;;Ochon Health Centre;;;;;
Obubra;Ochon Ward;;Okokori Health Post;;;;;
Obubra;Ochon Ward;;Isabang Health Centre;;;;;
Obubra;Ochon Ward;;Onyen-Okpon Health Post;;;;;
Obubra;Ochon Ward;;Edodon Health Centre;;;;;
Obubra;Ofat Ward;;Ovukwa Health Post;;;;;
Obubra;Ofat Ward;;Oderegha Health Post;;;;;
Obubra;Ofat Ward;;Ofat Poly Clinic;;;;;
Obubra;Ofat Ward;;Onyadama Health Centre;;;;;
Obubra;Ofodua Ward;;Ijoda Health Post;;;;;
Obubra;Ofodua Ward;;Ofodua Water-side Health Post;;;;;
Obubra;Ofodua Ward;;Ofodua Health Centre;;;;;
Obubra;Ofodua Ward;;Mmughe Health Post;;;;;
Obubra;Ofunbongha Yala Ward;;Ofumbongha IV Health Centre;;;;;
Obubra;Ofunbongha Yala Ward;;Araragha Health Post;;;;;
Obubra;Ofunbongha Yala Ward;;Nkum Yala Health Centre;;;;;
Obubra;Ofunbongha Yala Ward;;Ofumbongha Health Centre;;;;;
Obubra;Osopong 1 Ward;;Ogurude Health Centre;;;;;
Obubra;Osopong 1 Ward;;Ogamana Osopong Health Post;;;;;
Obubra;Osopong 1 Ward;;Okpechi Health Post;;;;;
Obubra;Osopong 2 Ward;;Echara Health Post;;;;;
Obubra;Ovonum Ward;;Obubem Health Post;;;;;
Obubra;Ovonum Ward;;Ofatura Primary Health Centre;;;;;
Obubra;Ovonum Ward;;Ahana Health Post;;;;;
Obubra;Urban 1 Ward;;Dr. Eyaba Memorial Hospital;;;;;
Obubra;Urban 1 Ward;;Obubra Urban Maternal/Child Health Centre;;;;;
Obubra;Urban 1 Ward;;Ogada Health Post;;;;;
Obubra;Urban 1 Ward;;Owakande 1 Health Post;;;;;
Obubra;Urban 1 Ward;;Owakande 2 Health Post;;;;;
Obubra;Urban 1 Ward;;Obubra Village Health Post;;;;;
Obudu;Alege/Ubang Ward;;Okweriseng - Inormation Centre Health Post;;;;;
Obudu;Alege/Ubang Ward;;Okweriseng Health Post;;;;;
Obudu;Alege/Ubang Ward;;Amukwong Health Post;;;;;
Obudu;Alege/Ubang Ward;;Biwhue Health Post;;;;;
Obudu;Alege/Ubang Ward;;Okodem Health Post;;;;;
Obudu;Alege/Ubang Ward;;Ngorkpu Health Post;;;;;
Obudu;Alege/Ubang Ward;;Alege Primary Health Centre;;;;;
Obudu;Alege/Ubang Ward;;Ebuasu Health Post;;;;;
Obudu;Alege/Ubang Ward;;Ofambe Health Post;;;;;
Obudu;Alege/Ubang Ward;;Okiro Health Post;;;;;
Obudu;Alege/Ubang Ward;;Araru Health Post;;;;;
Obudu;Angiaba/Beg-Ika Ward;;Andor-Inim Health Post;;;;;
Obudu;Angiaba/Beg-Ika Ward;;Unim-Ukwayi Health Post;;;;;
Obudu;Angiaba/Beg-Ika Ward;;Kubong Bette Health Centre;;;;;
Obudu;Angiaba/Beg-Ika Ward;;Ibong Health Centre;;;;;
Obudu;Angiaba/Beg-Ika Ward;;Okorshie Health Post;;;;;
Obudu;Angiaba/Beg-Ika Ward;;Bedia Health Post;;;;;
Obudu;Begiading Ward;;Betukwel Health Centre;;;;;
Obudu;Begiading Ward;;Uwhong-Bikpam Health Post;;;;;
Obudu;Begiading Ward;;Igwo Health Centre;;;;;
Obudu;Begiading Ward;;Itikib Health Post;;;;;
Obudu;Begiading Ward;;Kutiang 2 Health Post;;;;;
Obudu;Begiading Ward;;Ohong PrimarymHealth Centre;;;;;
Obudu;Begiading Ward;;Kutia Health Post;;;;;
Obudu;Begiading Ward;;Kutiang 1 Health Post;;;;;
Obudu;Ipong Ward;;Bebuatsuan Health Post;;;;;
Obudu;Ipong Ward;;Kukem/Kuyia Health Post;;;;;
Obudu;Ipong Ward;;Kukukah Health Post;;;;;
Obudu;Ipong Ward;;Bebuabie Primary Health Centre;;;;;
Obudu;Ipong Ward;;Bebua-Agba Bette Health Post;;;;;
Obudu;Ipong Ward;;Kagbong Health Post;;;;;
Obudu;Obudu Urban 1 Ward;;Hausa Quarters Health Post;;;;;
Obudu;Obudu Urban 1 Ward;;Atiepke Health Post;;;;;
Obudu;Obudu Urban 1 Ward;;Federal College Of Education Medical Centre;;;;;
Obudu;Obudu Urban 1 Ward;;Obudu General Hospital;;;;;
Obudu;Obudu Urban 1 Ward;;Obudu Primary Health Centre;;;;;
Obudu;Obudu Urban 1 Ward;;Bebuawhan Health Post;;;;;
Obudu;Obudu Urban 1 Ward;;Ranch Road Health Post;;;;;
Obudu;Obudu Urban 1 Ward;;Obudu Sacred Heart Hospital;;;;;
Obudu;Obudu Urban 1 Ward;;Obudu Clinic;;;;;
Obudu;Obudu Urban 1 Ward;;Fountain Clinic;;;;;
Obudu;Ukpe Ward;;Ashikpe Health Centre;;;;;
Obudu;Ukpe Ward;;Owong Health Post;;;;;
Obudu;Ukpe Ward;;Bayobri Health Post;;;;;
Obudu;Ukpe Ward;;Kagbang Health Post;;;;;
Obudu;Ukpe Ward;;Ukpe Health Centre;;;;;
Obudu;Ukpe Ward;;Bayatung Health Post;;;;;
Obudu;Ukpe Ward;;Karu Health Post;;;;;
Obudu;Ukpe Ward;;Kikung Health Post;;;;;
Obudu;Ukpe Ward;;Okawhube Bayobri Health Post;;;;;
Obudu;Urban 2 Ward;;Agasham Health Post;;;;;
Obudu;Urban 2 Ward;;Okambi Health Post;;;;;
Obudu;Urban 2 Ward;;Okwel-obudu Health Post;;;;;
Obudu;Urban 2 Ward;;Dam Road Health Post;;;;;
Obudu;Urban 2 Ward;;Ikwomikwu Health Post;;;;;
Obudu;Utugwang Central Ward;;Ukperinyi-Abuja Health Post;;;;;
Obudu;Utugwang Central Ward;;Utugwang Comprehensive Health Centre;;;;;
Obudu;Utugwang Central Ward;;Irikwen Health Post;;;;;
Obudu;Utugwang Central Ward;;Ukpriyi Health Post;;;;;
Obudu;Utugwang North Ward;;Okworotung Health Post;;;;;
Obudu;Utugwang North Ward;;Mgbenege Heath Post;;;;;
Obudu;Utugwang North Ward;;Ukwutia Model Prmary Health Centre;;;;;
Obudu;Utugwang North Ward;;Ejundu Health Post;;;;;
Obudu;Utugwang South Ward;;Ukpada Along Ogoja Rd Health Post;;;;;
Obudu;Utugwang South Ward;;Ukpada Health Post;;;;;
Obudu;Utugwang South Ward;;Okworogung Health Centre;;;;;
Obudu;Utugwang South Ward;;Erimpang Health Post;;;;;
Odukpani;Adiabo-efut Ward;;Ibonda Health Post;;;;;
Odukpani;Adiabo-efut Ward;;Mkpara Otop Health Post;;;;;
Odukpani;Adiabo-efut Ward;;Adiabo Okurikang Health Centre;;;;;
Odukpani;Akamkpa Ward;;Uba-Mbat Health Post;;;;;
Odukpani;Akamkpa Ward;;Akpap Okoyong Primary Health Centre;;;;;
Odukpani;Akamkpa Ward;;Oboroko Health Post;;;;;
Odukpani;Creek Town 1 Ward;;Creek Town Primary Health Centre;;;;;
Odukpani;Creek Town 1 Ward;;Eseku Health Post;;;;;
Odukpani;Creek Town 1 Ward;;Ikot Obong Health Centre;;;;;
Odukpani;Creek Town 2 Ward;;Ikot Effiok Health Post;;;;;
Odukpani;Creek Town 2 Ward;;Ikot Okon Abasi Health Post;;;;;
Odukpani;Creek Town 2 Ward;;Ikot Aye Eyo Health Post;;;;;
Odukpani;Creek Town 2 Ward;;Ukem Urua Uyo Health Centre;;;;;
Odukpani;Creek Town 2 Ward;;Obot Eyo Health Post;;;;;
Odukpani;Creek Town 2 Ward;;Ikot Eyo Okon Health Post;;;;;
Odukpani;Eki Ward;;Obio-Nno Health Post;;;;;
Odukpani;Eki Ward;;Idim Ndom Health Post;;;;;
Odukpani;Eki Ward;;Atan Eki Health Centre;;;;;
Odukpani;Eki Ward;;Ekpene Eki Health Post;;;;;
Odukpani;Ekori-Anaku Ward;;Ifako Health Post;;;;;
Odukpani;Ekori-Anaku Ward;;Okurikang Health Centre;;;;;
Odukpani;Ekori-Anaku Ward;;Inua Akpa Health Post;;;;;
Odukpani;Eniong Ward;;Obio Usiere Health Centre;;;;;
Odukpani;Eniong Ward;;Asang Eniong Health Centre;;;;;
Odukpani;Eniong Ward;;Atan-Onoyom Primary Health Centre;;;;;
Odukpani;Ito-Idere-Ukwa Ward;;Idere Health Centre;;;;;
Odukpani;Ito-Idere-Ukwa Ward;;Ito Central Health Centre;;;;;
Odukpani;Mbiabo Obomitiat Ward;;Etehentem Health Post;;;;;
Odukpani;Mbiabo Obomitiat Ward;;Obom Itiat Government Health Centre;;;;;
Odukpani;Mbiabo Obomitiat Ward;;Otong Ediong Health Post;;;;;
Odukpani;Odot Ward;;Usung Esuk Primary Health Centre;;;;;
Odukpani;Odot Ward;;Odot Uyi Health Post;;;;;
Odukpani;Odot Ward;;Ndong Nwong Health Centre;;;;;
Odukpani;Odukpani Central Ward;;Odukpani Primary Health Centre;;;;;
Odukpani;Odukpani Central Ward;;PAMOL Clinic;;;;;
Odukpani;Odukpani Central Ward;;Oduyama Health Post;;;;;
Odukpani;Odukpani Central Ward;;Adiabo Ikot-Otu Ibuot Health Centre;;;;;
Odukpani;Odukpani Central Ward;;Akim Akim Health Post;;;;;
Odukpani;Onimankiong Ward;;Atan Mbakara Health Post;;;;;
Odukpani;Onimankiong Ward;;Ikot Nyong Health Post;;;;;
Odukpani;Onimankiong Ward;;Okoyongusang-Abasi Health Centre;;;;;
Ogoja;Ekajuk 1 Ward;;Ntara 2 Health Centre;;;;;
Ogoja;Ekajuk 1 Ward;;Bansara Primary Health Centre;;;;;
Ogoja;Ekajuk 1 Ward;;Mfom 2 Health Centre;;;;;
Ogoja;Ekajuk 1 Ward;;Emmandack 2 Health Post (Ekajuk 1);;;;;
Ogoja;Ekajuk 1 Ward;;Mfom 1 Health Centre;;;;;
Ogoja;Ekajuk 1 Ward;;Egbung Health Centre;;;;;
Ogoja;Ekajuk 1 Ward;;Winnimba Health Post;;;;;
Ogoja;Ekajuk 1 Ward;;Egul Ekajuk Health Centre;;;;;
Ogoja;Ekajuk 1 Ward;;Ekuaro Health Centre;;;;;
Ogoja;Ekajuk 2 Ward;;Esham Health Centre;;;;;
Ogoja;Ekajuk 2 Ward;;Emmandack 1 Health Post;;;;;
Ogoja;Ekajuk 2 Ward;;Nwang Primary Health Centre;;;;;
Ogoja;Ekajuk 2 Ward;;Egul Health Post;;;;;
Ogoja;Ekajuk 2 Ward;;Mbarukul Health Centre;;;;;
Ogoja;Ekajuk 2 Ward;;Ekpugrinya Health Post;;;;;
Ogoja;Ekajuk 2 Ward;;Egoja Health Post;;;;;
Ogoja;Mbube East 1 Ward;;Nkem Health Centre (Mbube East 1);;;;;
Ogoja;Mbube East 1 Ward;;Ojerim  Primary Health Centre;;;;;
Ogoja;Mbube East 1 Ward;;Ogberia-Ogang Health Centre;;;;;
Ogoja;Mbube East 1 Ward;;Ogberia-Ochoro Health Centre;;;;;
Ogoja;Mbube East 2 Ward;;Oboso Health Centre;;;;;
Ogoja;Mbube East 2 Ward;;Aragbam Primary Health Centre;;;;;
Ogoja;Mbube East 2 Ward;;Benkpe Health Centre;;;;;
Ogoja;Mbube East 2 Ward;;Egbe Health Centre;;;;;
Ogoja;Mbube West 1 Ward;;Abirruan Health Post;;;;;
Ogoja;Mbube West 1 Ward;;Idum Health Centre;;;;;
Ogoja;Mbube West 1 Ward;;Ekumtak Primary Health Centre;;;;;
Ogoja;Mbube West 2 Ward;;Edide Health Centre;;;;;
Ogoja;Mbube West 2 Ward;;Bansan Primary Health Centre;;;;;
Ogoja;Mbube West 2 Ward;;Odajie Health Centre;;;;;
Ogoja;Nkum Ibor Ward;;M/St H.H.C.J.Clinic Igodon;;;;;
Ogoja;Nkum Ibor Ward;;Ikandagha Health Centre;;;;;
Ogoja;Nkum Ibor Ward;;Mbagidi Health Post;;;;;
Ogoja;Nkum Ibor Ward;;Alladim Health Centre;;;;;
Ogoja;Nkum Ibor Ward;;Ukpe Primary Health Centre;;;;;
Ogoja;Nkum Ibor Ward;;Ukpagada Health Post;;;;;
Ogoja;Nkum Ibor Ward;;Igodor Primary Health Centre;;;;;
Ogoja;Nkum-Irede Ward;;Irede-Ibil Health Post;;;;;
Ogoja;Nkum-Irede Ward;;Ibil Primary Health Centre;;;;;
Ogoja;Nkum-Irede Ward;;Ishindede Health Post;;;;;
Ogoja;Ogoja Urban 1;;Agiga Health Post;;;;;
Ogoja;Ogoja Urban 1;;Luksana Foundation Clinic;;;;;
Ogoja;Ogoja Urban 1;;Ogoja Maternal and Child Health Clinic;;;;;
Ogoja;Ogoja Urban 1;;Mercy Clinic;;;;;
Ogoja;Ogoja Urban 1;;Mayor Clinic;;;;;
Ogoja;Ogoja Urban 1;;Ogoja General Hospital;;;;;
Ogoja;Ogoja Urban 1;;Moniaya Catholic Maternity & Hospital;;;;;
Ogoja;Ogoja Urban 1;;Ishibori Health Post;;;;;
Ogoja;Ogoja Urban 2 Ward;;Rapha Medical Centre;;;;;
Ogoja;Ogoja Urban 2 Ward;;Santa-Maria Clinic;;;;;
Ogoja;Ogoja Urban 2 Ward;;Ogboja Primary  Health Centre;;;;;
Ogoja;Ogoja Urban 2 Ward;;Ndok Health Centre;;;;;
Ogoja;Ogoja Urban 2 Ward;;Adagom Health Centre;;;;;
Yakurr;Abanankpai Nko Ward;;Okomasi Primary Health Centre;;;;;
Yakurr;Ajere Ward;;Ajere Primary Health Centre;;;;;
Yakurr;Ajere Ward;;Ajere Health Post;;;;;
Yakurr;Ajere Ward;;Ajere Akugo Health Post;;;;;
Yakurr;Assiga Ward;;Assiga Beach Health Post;;;;;
Yakurr;Assiga Ward;;Patapata Health Post;;;;;
Yakurr;Assiga Ward;;Assiga (Old Town) Health Post;;;;;
Yakurr;Assiga Ward;;Assiga Primary Health Centre;;;;;
Yakurr;Biko Biko Ward;;Biko Biko Health Post;;;;;
Yakurr;Biko Biko Ward;;Ugep Primary Health Centre;;;;;
Yakurr;Biko Biko Ward;;Lebolkom Health Post;;;;;
Yakurr;Epenti Ward;;Ekori-Beach Health Post;;;;;
Yakurr;Epenti Ward;;Epenti Primary Health Centre;;;;;
Yakurr;Epenti Ward;;Afrekpe Health Post;;;;;
Yakurr;Epenti Ward;;Epenti Health Post;;;;;
Yakurr;Idomi Ward;;Okem Health Post;;;;;
Yakurr;Idomi Ward;;Idomi Primary Health Centre;;;;;
Yakurr;Ijiman Ward;;Ijiman PHC;;;;;
Yakurr;Ijiman Ward;;Danex Medical Centre;;;;;
Yakurr;Ijiman Ward;;Ijiman Health Post;;;;;
Yakurr;Ijom Ward;;Kekomkolo Health Post;;;;;
Yakurr;Ijom Ward;;Ketabebe Health Post;;;;;
Yakurr;Ijom Ward;;Usene Health Post;;;;;
Yakurr;Inyimba/Ekpeti Ward;;Ekpeti Health Post;;;;;
Yakurr;Inyimba/Ekpeti Ward;;Inyima Primary Health Centre;;;;;
Yakurr;Mkpani/Agoi Ward;;Ekom-Agoi Health Post;;;;;
Yakurr;Mkpani/Agoi Ward;;Mkpani Primary Health Centre;;;;;
Yakurr;Mkpani/Agoi Ward;;Ayoayoa Health Post;;;;;
Yakurr;Mkpani/Agoi Ward;;Mkpani Health Post;;;;;
Yakurr;Mkpani/Agoi Ward;;Akarukpat Health Post;;;;;
Yakurr;Mkpolo-Ukpawen Ward;;Nko Primary Health Centre;;;;;
Yakurr;Ntan Ward;;Ntan PHC;;;;;
Yakurr;Ntan Ward;;Ekori Primary Health Centre;;;;;
Yala;Echumofana Ward;;Imaje Health Centre;;;;;
Yala;Echumofana Ward;;Ekprinyi Health Centre;;;;;
Yala;Echumofana Ward;;Akreha Health Centre;;;;;
Yala;Echumofana Ward;;Echumofana Primary Health Centre;;;;;
Yala;Echumofana Ward;;Echumoga Health Centre;;;;;
Yala;Gabu Ward;;Wuda Health Post;;;;;
Yala;Gabu Ward;;Gabu Primary Health Centre;;;;;
Yala;Gabu Ward;;Utrukpo Health Post;;;;;
Yala;Gabu Ward;;Ugaga Health Centre;;;;;
Yala;Gabu Ward;;Igbekurikor Health Post;;;;;
Yala;Gabu Ward;;Utukpo Health Centre;;;;;
Yala;Gabu Ward;;Ijiegu Health Centre;;;;;
Yala;Igide Ward;;Igede 1 Health Centre;;;;;
Yala;Igide Ward;;Ezekwe Health Centre;;;;;
Yala;Igide Ward;;Operiku Health Centre;;;;;
Yala;Igide Ward;;Okpodon Health Centre;;;;;
Yala;Ijiraga Ward;;Ijiraga Health Centre;;;;;
Yala;Ijiraga Ward;;Bituol Health Post;;;;;
Yala;Ijiraga Ward;;Wanudu Health Post;;;;;
Yala;Ijiraga Ward;;Ijiraga  Primary Health Centre;;;;;
Yala;Mfuma/Ntrigom Ward;;Ijibolo Health Post;;;;;
Yala;Mfuma/Ntrigom Ward;;Ijegbeji Health Post;;;;;
Yala;Mfuma/Ntrigom Ward;;Ogba Health Centre;;;;;
Yala;Mfuma/Ntrigom Ward;;Njamaya Health Post;;;;;
Yala;Mfuma/Ntrigom Ward;;Benekaba Health Post;;;;;
Yala;Mfuma/Ntrigom Ward;;Ujama Health Post;;;;;
Yala;Mfuma/Ntrigom Ward;;Bitutum Health Post;;;;;
Yala;Okpoma Ward;;Akraba Health Post;;;;;
Yala;Okpoma Ward;;Anyika-Itekpa Health Post;;;;;
Yala;Okpoma Ward;;Okpoma General Hospital;;;;;
Yala;Okpoma Ward;;Olachor Primary Health Centre;;;;;
Yala;Okuku Ward;;Ayoko Health Post;;;;;
Yala;Okuku Ward;;Abachor Health Post;;;;;
Yala;Okuku Ward;;Itate Health Post;;;;;
Yala;O'oh Ward;;Itega Okpame Health Post;;;;;
Yala;O'oh Ward;;Adeni Health Post;;;;;
Yala;O'oh Ward;;Udenyuma Health Post;;;;;
Yala;O'oh Ward;;Woleche Utuko Health Post;;;;;
Yala;O'oh Ward;;Ijama Health Post;;;;;
Yala;O'oh Ward;;Ogojah Health Post;;;;;
Yala;O'oh Ward;;Okrike Health Post;;;;;
Yala;O'oh Ward;;Abachor Health Post;;;;;
Yala;O'oh Ward;;Okpoma Comprehensive Health Centre;;;;;
Yala;Ugaga Ward;;Orie-Ijiega-Yala Health Post;;;;;
Yala;Ugaga Ward;;Yabu Health Post;;;;;
Yala;Wanihem Ward;;Allu Health Centre;;;;;
Yala;Wanihem Ward;;Lema Health Post;;;;;
Yala;Wanihem Ward;;Ezakobe Health Post;;;;;
Yala;Wanihem Ward;;Omachi Health Centre;;;;;
Yala;Wanihem Ward;;Okakala Health Post;;;;;
Yala;Wanihem Ward;;Liku Health Post;;;;;
Yala;Wanihem Ward;;Wanihem Health Centre;;;;;
Yala;Wanihem Ward;;Liokom Health Centre;;;;;
Yala;Wanikade Ward;;Elahem Lutheran Clinic;;;;;
Yala;Wanikade Ward;;Uzenyor Health Post;;;;;
Yala;Wanikade Ward;;Bitol Health Post;;;;;
Yala;Wanikade Ward;;Iyiango Health Post;;;;;
Yala;Wanikade Ward;;Lema-Wanogana Health Post;;;;;
Yala;Wanikade Ward;;Wanogana Health Post;;;;;
Yala;Wanikade Ward;;Ihuma Health Post;;;;;
Yala;Wanikade Ward;;Uchenyim Health Centre;;;;;
Yala;Wanikade Ward;;Lemowanogona Health Post;;;;;
Yala;Wanikade Ward;;Ngbege Health Post;;;;;
Yala;Wanokom Ward;;Wanagona Health Post;;;;;
Yala;Wanokom Ward;;Wanekpong Health Post;;;;;
Yala;Wanokom Ward;;Adum Health Centre;;;;;
Yala;Wanokom Ward;;Wanadan Health Post;;;;;
Yala;Wanokom Ward;;Ichajil Lekkot Health Post;;;;;
Yala;Wanokom Ward;;Igbobia Health Post;;;;;
Yala;Wanokom Ward;;Okpaka Health Post;;;;;
Yala;Wanokom Ward;;Nanekpe Community Health Centre;;;;;
Yala;Wanokom Ward;;Wanokom Health Centre;;;;;
Yala;Yache Ward;;Ogarere Health Post;;;;;
Yala;Yache Ward;;Ijiegu Yache Health Post;;;;;
Yala;Yache Ward;;Uchu Health Post;;;;;
Yala;Yache Ward;;Mbuo Health Post;;;;;
Yala;Yache Ward;;Osina Health Post;;;;;
Yala;Yache Ward;;Border Health Post;;;;;
Yala;Yache Ward;;Endichwi Health Post;;;;;
Yala;Yache Ward;;Egbeja Health Post;;;;;
Yala;Yache Ward;;Wonye Primary Health Centre;;;;;
Yala;Yahe/Ebo Ward;;Ipuole Ebo Health Centre;;;;;
Yala;Yahe/Ebo Ward;;Yahe 2 Health Centre;;;;;
Yala;Yahe/Ebo Ward;;Ebo Woleche Health Centre;;;;;
Yala;Yahe/Ebo Ward;;Yala Lutheran Hospital;;;;;
Yala;Yahe/Ebo Ward;;Okpeneche Health Post;;;;;
Yala;Yahe/Ebo Ward;;Utupla Health Post;;;;;
Yala;Yahe/Ebo Ward;;Ochumode Health Post;;;;;
