LGA;Ward;Settlement;Facility;Type;Ownership;Address;Longitude;Latitude
Aniocha North;Ezi Ward;;St Michael's Clinic;;;;;
Aniocha North;Ezi Ward;;Ezi Primary Health Centre;;;;;
Aniocha North;Ezi Ward;;Ogordo Primary Health Centre;;;;;
Aniocha North;Idumuje Ward;;Aniofu Health Post;;;;;
Aniocha North;Idumuje Ward;;Idumuje Unor Primary Health Centre;;;;;
Aniocha North;Idumuje Ward;;Idumuje-Ugboko Primary Health Centre;;;;;
Aniocha North;Issele-Nkpitime Ward;;Issele-Nkpitime Primary Health Centre;;;;;
Aniocha North;Issele-Nkpitime Ward;;Issele-Azagba Primary Health Care Centre;;;;;
Aniocha North;Issele-Uku 1 Ward;;Glory To God Medical Clinic;;;;;
Aniocha North;Issele-Uku 1 Ward;;St Theresa's Clinic and Maternity (Aniocha North);;;;;
Aniocha North;Issele-Uku 1 Ward;;Issele-Uku General Hospital;;;;;
Aniocha North;Issele-Uku 2 Ward;;Issele-Uku Goodnews Clinic;;;;;
Aniocha North;Issele-Uku 2 Ward;;Issele-Uku Primary Health Centre;;;;;
Aniocha North;Obior/Onicha-Uku Ward;;Onicha-Uku General Hospital;;;;;
Aniocha North;Obior/Onicha-Uku Ward;;"de Obior Primary Health Centre	";;;;;
Aniocha North;Obior/Onicha-Uku Ward;;Onicha-Uku Primary Health Centre;;;;;
Aniocha North;Obomka Ward;;Idumuogo Primary Health Care Centre;;;;;
Aniocha North;Obomka Ward;;Obomkpa Primary Health Centre;;;;;
Aniocha North;Obomka Ward;;Ugboba Health Post;;;;;
Aniocha North;Onicha-Olone Ward;;Onicha-Olona Primary Health Centre;;;;;
Aniocha North;Onicha-Olone Ward;;Onicha Olone General Hospital;;;;;
Aniocha North;Onicha-Ugbo Ward;;Onicha-Ugbo Primary Health Centre;;;;;
Aniocha North;Ugbodu Ward;;Ugbodu Primary Health Centre;;;;;
Aniocha North;Ugbodu Ward;;Ubulubu Primary Health Centre;;;;;
Aniocha North;Ugbodu Ward;;Ukwuzu Primary Health Centre;;;;;
Aniocha North;Ugbodu Ward;;Ubulubu Maternity Home;;;;;
Aniocha South;Adonte Ward;;Ukwuoba Primary Health Centre;;;;;
Aniocha South;Adonte Ward;;Umute Primary Health Centre;;;;;
Aniocha South;Adonte Ward;;Adonte Primary Health Centre;;;;;
Aniocha South;Agidiase Ward;;Nova Specialist Hospital;;;;;
Aniocha South;Agidiase Ward;;Ogwashi-Uku Primary Health Centre;;;;;
Aniocha South;Agidiase Ward;;Ogwashi-Uku General Hospital;;;;;
Aniocha South;Aniocha South Unknown Ward;;Njideka Maternity Home;;;;;
Aniocha South;Ejeme/Igbudu Ward;;Cipio Maternity Home;;;;;
Aniocha South;Ejeme/Igbudu Ward;;Ejeme Aniogor Victory Maternity;;;;;
Aniocha South;Ejeme/Igbudu Ward;;Egbudu-Akah Primary Health Centre;;;;;
Aniocha South;Ejeme/Igbudu Ward;;Ejeme-Aniogor Primary Health Centre;;;;;
Aniocha South;Ejeme/Igbudu Ward;;Ejeme-Unor Primary Health Centre;;;;;
Aniocha South;Ewulu/Ishagu Ward;;Isheagu Government Hospital;;;;;
Aniocha South;Ewulu/Ishagu Ward;;Ewulu Primary Health Centre;;;;;
Aniocha South;Ewulu/Ishagu Ward;;"de Olloh Primary Health Centre	";;;;;
Aniocha South;Ewulu/Ishagu Ward;;Abah-Unor Primary Health Centre;;;;;
Aniocha South;Ewulu/Ishagu Ward;;Isheagu Primary Health Centre;;;;;
Aniocha South;Ewulu/Ishagu Ward;;Olodu Primary Health Centre;;;;;
Aniocha South;Nsukwa Ward;;Nsukwa Primary Health Centre;;;;;
Aniocha South;Otulu Ward;;Azagba Primary Health Centre (Aniocha South);;;;;
Aniocha South;Otulu Ward;;Mother of Mercy Hospital;;;;;
Aniocha South;Ubulu-Okiti Ward;;Ubulu-Okiti Primary Health Centre;;;;;
Aniocha South;Ubulu-Uku 1 Ward;;Ubulu_Uku General Hospital;;;;;
Aniocha South;Ubulu-Uku 1 Ward;;St Anthony Maternity Home;;;;;
Aniocha South;Ubulu-Uku 2 Ward;;Ubulu-Uku Primary Health Centre;;;;;
Aniocha South;Ubulu-Uku 2 Ward;;Anglican Maternity Home;;;;;
Aniocha South;Ubulu-Unor Ward;;Ubulu-Unor Primary Health Centre;;;;;
Aniocha South;Ubulu-Unor Ward;;Ashama Primary Health Centre;;;;;
Aniocha South;Umudei Ward;;Ijeoma Maternity Home;;;;;
Bomadi;Akugbene 1 Ward;;Mercy Memorial Clinic;;;;;
Bomadi;Akugbene 1 Ward;;Akugbene Primary Health Centre;;;;;
Bomadi;Akugbene 1 Ward;;Our Lady of The Water Clinic;;;;;
Bomadi;Akugbene 2 Ward;;Kiagbodo Government Hospital;;;;;
Bomadi;Bomadi Unknown Ward;;Our Saviour's Clinic and Maternity;;;;;
Bomadi;Bomadi Ward;;Amazing Grace Clinic;;;;;
Bomadi;Bomadi Ward;;Bomadi Primary Health Centre;;;;;
Bomadi;Ekaametagbene/Kalafio Ward;;Kalafiogbene Primary Health Centre;;;;;
Bomadi;Ekaametagbene/Kalafio Ward;;Ekametagbene Primary Health Centre;;;;;
Bomadi;Esanma Ward;;Esanma Primary Health Centre;;;;;
Bomadi;Esanma Ward;;Hervia Clinic;;;;;
Bomadi;Kpakiama Ward;;Kpakiama Primary Health Centre;;;;;
Bomadi;Ogo/Eze Ward;;Ogodobiri/Ezebir Primary Health Centre;;;;;
Bomadi;Ogo/Eze Ward;;Ezebiri Primary Health Centre;;;;;
Bomadi;Ogriagbene Ward;;Ogriagbene Cottage Hospital;;;;;
Bomadi;Ogriagbene Ward;;Ogriagbene Health Centre;;;;;
Bomadi;Ugbeinma/Okoloba Ward;;Ogbeinma Primary Health Centre;;;;;
Bomadi;Ugbeinma/Okoloba Ward;;Okoloba Primary Health Centre;;;;;
Burutu;Bolou Ndoro  Ward;;Burutu General Hospital;;;;;
Burutu;Bolou Ndoro  Ward;;Tebegbe Primary Health Centre;;;;;
Burutu;Bolou Ndoro  Ward;;Bulou-Ndoro Primary Health Centre;;;;;
Burutu;Egodor Ward;;Gbekebor Primary Health Centre;;;;;
Burutu;Egodor Ward;;Egodor Primary Health Centre;;;;;
Burutu;Egodor Ward;;Enekorogha Primary Health Centre;;;;;
Burutu;Egodor Ward;;Ayakoromo Primary Health Centre;;;;;
Burutu;Egodor Ward;;Okarika Primary Health Centre;;;;;
Burutu;Egodor Ward;;Sokebolou Primary Health Centre;;;;;
Burutu;Eseinbiri Ward;;Oboro Primary Health Centre;;;;;
Burutu;Eseinbiri Ward;;Okpokunou Primary Health Centre;;;;;
Burutu;Kiagbodo Ward;;Kiagbodo Primary Health Centre;;;;;
Burutu;Kiagbodo Ward;;Kiagbodo General Hospital;;;;;
Burutu;Kiagbodo Ward;;Bikorogha Primary Health Centre;;;;;
Burutu;Obetebe Ward;;Ekogbene Primary Health Centre;;;;;
Burutu;Obetebe Ward;;Obotebe Primary Health Centre;;;;;
Burutu;Ogulagha Ward;;Odimodi Primary Health Centre;;;;;
Burutu;Ogulagha Ward;;Torugbene Primary Health Centre;;;;;
Burutu;Ogulagha Ward;;Ogulagba Cottage Hospital;;;;;
Burutu;Ojobo Ward;;Forcados Government Hospital;;;;;
Burutu;Ojobo Ward;;Ojobo Primary Health Centre;;;;;
Burutu;Ojobo Ward;;Ojobo Government Hospital;;;;;
Burutu;Ojobo Ward;;Burutu Primary Health Centre;;;;;
Burutu;Tamigbe Ward;;Tamigbe Primary Health Centre;;;;;
Burutu;Tuomo Ward;;Tuomo Primary Health Centre;;;;;
Burutu;Tuomo Ward;;Ogbobagbene Primary Health Centre;;;;;
Ethiope East;Abraka Ward;;Wima Clinic;;;;;
Ethiope East;Abraka Ward;;Abraka Po Primary Health Centre;;;;;
Ethiope East;Abraka Ward;;Abraka Government Hospital;;;;;
Ethiope East;Abraka Ward;;Delsu Clinic;;;;;
Ethiope East;Egbo Kokori Ward;;Eroike Cottage Hospital;;;;;
Ethiope East;Egbo Kokori Ward;;Oshevire Mem Nursing and Maternity Home;;;;;
Ethiope East;Egbo Kokori Ward;;Kokori Inland Primary Health Centre;;;;;
Ethiope East;Egbo Kokori Ward;;Samagidi Primary Health Centre;;;;;
Ethiope East;Eku Ward;;Eku Tuberculosis and Leprosy Control Unit;;;;;
Ethiope East;Eku Ward;;Emonefe Hospital;;;;;
Ethiope East;Eku Ward;;Eku Baptist Hospital;;;;;
Ethiope East;Eku Ward;;Eku Health Post;;;;;
Ethiope East;Ethiope East Unknown Ward;;Majoroh Clinic;;;;;
Ethiope East;Igun Ward;;Igun Primary Health Centre;;;;;
Ethiope East;Isiokolo Ward;;Isiokolo General Hospital;;;;;
Ethiope East;Isiokolo Ward;;Isiokolo Primary Health Centre;;;;;
Ethiope East;Okpara Ward;;Okurekpo Primary Health Centre;;;;;
Ethiope East;Okpara Ward;;Okoredafe Health Post;;;;;
Ethiope East;Okpara Ward;;Okpara-Inland Primary Health Centre;;;;;
Ethiope East;Okpara Ward;;St Francis Catholic Hospital (Ethiope East);;;;;
Ethiope East;Orhroakpo Ward;;Orhoakpo Health Centre;;;;;
Ethiope East;Oria Ward;;Oria-Abraka Primary Health Centre;;;;;
Ethiope East;Ovu Ward;;Ovorie Primary Health Centre;;;;;
Ethiope East;Ovu Ward;;Orhrokpor Primary Health Centre;;;;;
Ethiope East;Ovu Ward;;Ovu Primary Health Centre;;;;;
Ethiope East;Ovu Ward;;Urhuokpe Health Centre;;;;;
Ethiope East;Urhuvie Ward;;Urhuovie Primary Health Centre;;;;;
Ethiope West;Jesse 1 Ward;;Jesse Town Primary Health Centre;;;;;
Ethiope West;Jesse 2 Ward;;Irhodo Town Primary Health Centre;;;;;
Ethiope West;Jesse 2 Ward;;Ekroda Primary Health Centre;;;;;
Ethiope West;Jesse 3 Ward;;Ejenesa Town Primary Health Centre;;;;;
Ethiope West;Jesse 4 Ward;;Onyobru Primary Health Centre;;;;;
Ethiope West;Jesse 4 Ward;;Boboroku Primary Health Centre;;;;;
Ethiope West;Mosogar 1 Ward;;Mosogar Town Primary Health Centre;;;;;
Ethiope West;Mosogar 2 Ward;;Mosogar Cottage Hospital;;;;;
Ethiope West;Ogharefe 1 Ward;;Oghara Town Primary Health Centre;;;;;
Ethiope West;Ogharefe 1 Ward;;Otefe Primary Health Centre;;;;;
Ethiope West;Ogharefe 1 Ward;;Ijomi Town Primary Health Centre;;;;;
Ethiope West;Ogharefe 1 Ward;;Delta State University Teaching Hospital;;;;;
Ethiope West;Ogharefe 2 Ward;;Oghara General Hospital;;;;;
Ethiope West;Ogharefe 2 Ward;;Ogharefe Primary Health Centre;;;;;
Ethiope West;Ogharefe 3 Ward;;Ovade Primary Health Centre;;;;;
Ethiope West;Ogharefe 3 Ward;;Ugbenu Primary Health Centre;;;;;
Ethiope West;Oghareki 2 Ward;;Peace Maternity Home;;;;;
Ethiope West;Oghareki 2 Ward;;Okunigho Town Primary Health Centre;;;;;
Ethiope West;Oghareki 2 Ward;;Ajabodudu Clinic;;;;;
Ethiope West;Oghareki 2 Ward;;Ajagbodudu Primary Health Centre (Ethiope West);;;;;
Ika North East;Akumazi Ward;;Ekwuoma Primary Health Centre;;;;;
Ika North East;Akumazi Ward;;Igbodo Primary Health Centre;;;;;
Ika North East;Akumazi Ward;;Owerre-Olubor Primary Health Centre;;;;;
Ika North East;Akumazi Ward;;Akwumazi Primary Health Centre;;;;;
Ika North East;Boji-Boji 1 Ward;;Concept Clinic;;;;;
Ika North East;Boji-Boji 1 Ward;;Anioma Hospital;;;;;
Ika North East;Boji-Boji 1 Ward;;Victory Maternity Home (Ika North East);;;;;
Ika North East;Boji-Boji 1 Ward;;All Saints Maternity Home (Ika North East);;;;;
Ika North East;Boji-Boji 1 Ward;;Dayspring Maternity Home;;;;;
Ika North East;Boji-Boji 1 Ward;;Ray Clinic;;;;;
Ika North East;Boji-Boji 1 Ward;;Ehuikeh Maternity Home;;;;;
Ika North East;Boji-Boji 1 Ward;;Blessed Maternity Home;;;;;
Ika North East;Boji-Boji 1 Ward;;Shalom Clinic;;;;;
Ika North East;Idumuesah Ward;;Idumesah Primary Health Centre;;;;;
Ika North East;Igbodo Ward;;Mbiri Primary Health Centre;;;;;
Ika North East;Ika North Unknown Ward;;Kifa Clinic and Maternity;;;;;
Ika North East;Ika North Unknown Ward;;Ute Eremu Primary Health Centre;;;;;
Ika North East;Ika North Unknown Ward;;All Grace Maternity Home;;;;;
Ika North East;Ika North Unknown Ward;;St John Catholic Maternity Home;;;;;
Ika North East;Mbiri Ward;;Owa-Alidimma Primary Health Centre;;;;;
Ika North East;Mbiri Ward;;Ute-Okpu Primary Health Centre;;;;;
Ika North East;Otolokpo Ward;;Otolokpo Primary Health Centre;;;;;
Ika North East;Owa-Alero Ward;;Sam-Seri Clinic;;;;;
Ika North East;Owa-Alero Ward;;Alero Government Hospital;;;;;
Ika North East;Owa-Alero Ward;;Owa-Alero Primary Health Centre;;;;;
Ika North East;Owa-Alizomor Ward;;Owa-Alizomor Primary Health Centre;;;;;
Ika North East;Owanta Ward;;Owanta Primary Health Centre;;;;;
Ika North East;Owa-Oyibu Ward;;Boji-Boji Owa Primary Health Centre;;;;;
Ika North East;Owa-Oyibu Ward;;Owa-Oyibu Primary Health Centre;;;;;
Ika North East;Owa-Oyibu Ward;;Owa-Oyibo General Hospital;;;;;
Ika North East;Umunede Ward;;Errand Clinic;;;;;
Ika North East;Umunede Ward;;Umunede Government Hospital;;;;;
Ika North East;Umunede Ward;;St. Elizabeth Clinic and Maternity;;;;;
Ika North East;Umunede Ward;;Umunede Primary Health Centre;;;;;
Ika North East;Ute-Okpu Ward;;Ute-Ogbeje Primary Health Centre;;;;;
Ika South;Agbor Obi Ward;;Agbor-Obi Primary Health Centre;;;;;
Ika South;Alihagwu Ward ;;Alihame Primary Health Centre;;;;;
Ika South;Alihagwu Ward ;;Alihagwu Primary Health Centre;;;;;
Ika South;Boji-Boji 2 Agbor Ward;;Agbor Model Primary Health Centre;;;;;
Ika South;Oyoko Ward;;Oyoko Primary Health Centre;;;;;
Isoko North;Ellu Ward;;Ovrode Primary Health Centre;;;;;
Isoko North;Ellu Ward;;Ellu Primary Health Centre;;;;;
Isoko North;Ellu Ward;;"de Aradhe Primary Health Centre	";;;;;
Isoko North;Emevor Ward;;Emevor Primary Health Centre;;;;;
Isoko North;Emevor Ward;;Isi Emevor Primary Health Centre;;;;;
Isoko North;Iyede 1 Ward ;;Uvie Clinic and Maternity;;;;;
Isoko North;Iyede 1 Ward ;;Otor-Iyede Primary Health Centre;;;;;
Isoko North;Iyede 1 Ward ;;Iwride-Iyede Primary Health Centre;;;;;
Isoko North;"de Iyede 2 Ward	";;"de Ekiugbo Iyede Primary Health Centre	";;;;;
Isoko North;Ofagbe Ward;;Ofagbe Government Hospital;;;;;
Isoko North;Ofagbe Ward;;Ofagbe Primary Health Centre;;;;;
Isoko North;Okpe_Isoko Ward;;Okpe Isoko Primary Health Centre;;;;;
Isoko North;Owhe 1 Ward ;;Owhe Logbo Primary Health Centre;;;;;
Isoko North;Owhe 1 Ward ;;Iluelogbo Government Hospital;;;;;
Isoko North;Owhe 2 Ward ;;"de Otor Owhe Primary Health Centre	";;;;;
Isoko North;Owhe 2 Ward ;;"de Akiewhe Primary Health Centre	";;;;;
Isoko North;Owhe 3 Ward ;;"de Otibio Primary Health Centre	";;;;;
Isoko North;Oyede Ward;;Oyede Primary Health Centre;;;;;
Isoko North;Oyede Ward;;Bethel Primary Health Centre;;;;;
Isoko North;Ozoro 1 Ward ;;"de St. Mary Catholic Maternity	";;;;;
Isoko North;Ozoro 1 Ward ;;"de Victory Clinic	";;;;;
Isoko North;Ozoro 2 Ward ;;"de Erovie Primary Health Centre	";;;;;
Isoko North;Ozoro 2 Ward ;;St Mary Catholic Maternity Home;;;;;
Isoko North;Ozoro 3 Ward;;Ozoro Primary Health Centre;;;;;
Isoko North;Ozoro 3 Ward;;Ozoro General Hospital;;;;;
Isoko South;Aviara Ward;;Aviara General Hopital;;;;;
Isoko South;Emede Ward;;"de Araya Primary Health Centre	";;;;;
Isoko South;Emede Ward;;"de Emede Primary Health Centre	";;;;;
Isoko South;Enwhe Ward;;Enhwe Primary Health Centre;;;;;
Isoko South;Igbide Ward;;Igbide Primary Health Centre;;;;;
Isoko South;Igbide Ward;;Egbo-Igbide Primary Health Centre;;;;;
Isoko South;Igbide Ward;;Ikpide Primary Health Centre;;;;;
Isoko South;"de Irri Ward	";;Ivori Primary Health Centre;;;;;
Isoko South;"de Irri Ward	";;Irri Primary Health Centre;;;;;
Isoko South;Oleh 1 Ward ;;Oleh General Hospital;;;;;
Isoko South;Oleh 1 Ward ;;Oleh Primary Health Centre;;;;;
Isoko South;Olomoro Ward;;"de Olomoro General Hospital	";;;;;
Isoko South;Uzere Ward;;Ivrogbo Primary Health Centre;;;;;
Isoko South;Uzere Ward;;"de Uzere General Hospital	";;;;;
Isoko South;Uzere Ward;;Uzere Primary Health Centre;;;;;
Ndokwa East;Aboh/Akarai Ward;;Akarrai-Etiti Health Clinic;;;;;
Ndokwa East;Afor/Obikwele Ward;;Ogbedigbo Primary Health Centre;;;;;
Ndokwa East;Afor/Obikwele Ward;;Obetim Primary Health Centre;;;;;
Ndokwa East;Afor/Obikwele Ward;;Iselegu Primary Health Centre;;;;;
Ndokwa East;Ase Ward;;Ase Primary Health Centre;;;;;
Ndokwa East;Ashaka/Ushie Ward ;;Ashaka Primary Health Centre;;;;;
Ndokwa East;Ashaka/Ushie Ward ;;"de Ushie Primary Health Centre	";;;;;
Ndokwa East;Azagba/Ibedeni Ward;;Ibedeni Primary Health Centre;;;;;
Ndokwa East;Beneku/Utchi/Okpai Ward;;Utchi Oboma Primary Health Centre;;;;;
Ndokwa East;Beneku/Utchi/Okpai Ward;;Okpai Oluchi Health Clinic;;;;;
Ndokwa East;Beneku/Utchi/Okpai Ward;;Beneku Health Centre;;;;;
Ndokwa East;Ibrede/Igbuku Ward;;"de Igbuku Primary Health Centre	";;;;;
Ndokwa East;Ibrede/Igbuku Ward;;Ibrede Primary Health Centre;;;;;
Ndokwa East;Onuaboh/Inyi/Aballa Ward;;Aballa-Obodo Health Clinic;;;;;
Ndokwa East;Onuaboh/Inyi/Aballa Ward;;"de Aballa-Uno Primary Health Centre	";;;;;
Ndokwa East;Onyah/Umuolu Ward;;Onya Comprehensive Health Centre;;;;;
Ndokwa East;Ossissa Ward ;;"de Umuoshimili Primary Health Centre	";;;;;
Ndokwa East;Ossissa Ward ;;"de Oloa Ossissa Primary Health Centre	";;;;;
Ndokwa West;Abbi 1 Ward;;Abbi Primary Health Centre;;;;;
Ndokwa West;Emu Ward;;"de Ebendo Primary Health Centre	";;;;;
Ndokwa West;Emu Ward;;Emu Uno Primary Health Centre;;;;;
Ndokwa West;Etua Ward;;"de Etua Primary Health Centre	";;;;;
Ndokwa West;Kwale Ward;;Kwale General Hospital;;;;;
Ndokwa West;Kwale Ward;;"de Ogbe-Ani Primary Health Centre	";;;;;
Ndokwa West;Kwale Ward;;"de FSP Primary Health Centre	";;;;;
Ndokwa West;Kwale Ward;;"de Umusam Primary Health Centre	";;;;;
Ndokwa West;Kwale Ward;;Donalc Hospital;;;;;
Ndokwa West;Ndemili Ward ;;Ulogwe Isumpe Primary Health Centre;;;;;
Ndokwa West;Ndemili Ward ;;"de Farm Settlement Health Post	";;;;;
Ndokwa West;Ndemili Ward ;;Ndemili Primary Health Centre;;;;;
Ndokwa West;Ogume 1 Ward;;Ogume Primary Health Centre;;;;;
Ndokwa West;Ogume 1 Ward;;"de Utue Ogume Primary Health Centre	";;;;;
Ndokwa West;Ogume 2 Ward;;Ogbole Primary Health Centre;;;;;
Ndokwa West;Onicha Okwuani Ward;;Onicha Ukwani Primary Health Centre;;;;;
Ndokwa West;Utagba-Uno Ward;;Utagba Uno Primary Health Centre (Ward 6);;;;;
Okpe;Adagbrassa Ward;;Aragba Okpe Primary Health Centre;;;;;
Okpe;Adagbrassa Ward;;Adagbrassa Primary Health Centre (Okpe);;;;;
Okpe;Adeje Ward;;Imo Nursing and Maternity Home;;;;;
Okpe;Adeje Ward;;Adeje Primary Health Centre;;;;;
Okpe;Aghalokpe Ward;;Aghalopke Primary Health Centre;;;;;
Okpe;Egborode Ward;;Okukoko Primary Health Centre ;;;;;
Okpe;Evwrigen Ward;;Evwriyen Primary Health Centre;;;;;
Okpe;Evwrigen Ward;;Amoukpokpo Primary Health Centre;;;;;
Okpe;Jeddo Ward;;Jeddo Primary Health Centre;;;;;
Okpe;Jeddo Ward;;Ugbokodo Primary Health  Centre ;;;;;
Okpe;Jeddo Ward;;Ughoton Primary Health Centre;;;;;
Okpe;"de Oha	Ward";;Osubi Primary Health Centre;;;;;
Okpe;"de Oha	Ward";;Oha Primary Health Centre;;;;;
Okpe;Okwabude Ward;;Ekwabude Primary Health Centre;;;;;
Okpe;Okwabude Ward;;Mereje Cottage Hospital;;;;;
Okpe;Okwabude Ward;;Mereje Primary Health Centre;;;;;
Okpe;Orerokpe Ward;;Arienghaue Medical Foundation Clinic;;;;;
Okpe;Orerokpe Ward;;Orerokpe Primary Health Centre;;;;;
Okpe;Orerokpe Ward;;Orerokpe General Hospital;;;;;
Okpe;Orerokpe Ward;;Ijakpa-Mereje Primary Health Centre ;;;;;
Okpe;Oviri Okpe Ward;;Oviri Okpe Primary Health Centre;;;;;
Oshimili North;Achala/Ezukwu/Ogboli Ward;;Achala Ibusa Primary Health Centre;;;;;
Oshimili North;Achala/Ezukwu/Ogboli Ward;;Ogboli Comprehensive Health Centre;;;;;
Oshimili North;Akwukwu/Atuma Ward;;Akwukwu-Igbo Primary Health Centre;;;;;
Oshimili North;Akwukwu/Atuma Ward;;Akwukwu-Igbo Government Hospital;;;;;
Oshimili North;Akwukwu/Atuma Ward;;Atuma Primary Health Centre;;;;;
Oshimili North;Ebu Ward;;Ebu Government Hospital;;;;;
Oshimili North;Ebu Ward;;Ebu Primary Health Centre;;;;;
Oshimili North;Illah Ward;;Illah Primary Health Centre;;;;;
Oshimili North;Ogbeowele Ward;;Holy Cross Clinic and Maternity;;;;;
Oshimili North;Ogbeowele Ward;;St Ann Nursing and Maternity Home;;;;;
Oshimili North;Ogbeowele Ward;;Ibusa Government Hospital;;;;;
Oshimili North;Ogbeowele Ward;;St Christopher's Clinic (Oshimili North);;;;;
Oshimili North;Okpanam/Ugbolu Ward;;Okpanam Primary Health Centre;;;;;
Oshimili North;Okpanam/Ugbolu Ward;;Okpanam Comprehensive Health Centre;;;;;
Oshimili North;Okpanam/Ugbolu Ward;;Ugbolu Primary Health Centre;;;;;
Oshimili North;Ukala/Aninwalo Ward;;Ukalla Okpunor Primary Health Centre;;;;;
Oshimili North;Umuodafe Ward;;Ibusa Primary Health Centre;;;;;
Oshimili South;"de Akuebulu Ward	";;Akwuebulu Primary Health Centre;;;;;
Oshimili South;"de Cable Point ward	";;St Rebecca's Clinic;;;;;
Oshimili South;"de Cable Point ward	";;Cable Point Asaba Primary Health Centre;;;;;
Oshimili South;"de Oko Ogbele Ward	";;Oko-Ogbele Primary Health Centre;;;;;
Oshimili South;Oko-Amakom Ward;;Oko-Anala Primary Health Centre;;;;;
Oshimili South;Okwe Ward;;Okwe Primary Health Centre;;;;;
Oshimili South;Okwe Ward;;St Michael Nursing and Maternity;;;;;
Oshimili South;"de Umuagu Ward	";;Nwakaego Madumezia Memorial Medical Centre;;;;;
Oshimili South;"de Umuagu Ward	";;Fidmed Medical Laboratory;;;;;
Oshimili South;"de Umuagu Ward	";;Icon Clinic;;;;;
Oshimili South;"de Umuagu Ward	";;Umuagu Asaba Primary Health Centre;;;;;
Oshimili South;Umuezei Ward;;St Theresa Maternity Home (Oshimili South);;;;;
Oshimili South;Umuezei Ward;;Caify Nursing and Maternity Clinic;;;;;
Oshimili South;Umuezei Ward;;May Flower Clinic;;;;;
Oshimili South;"de Umuonaje Ward	";;Mother and Child Maternity Home;;;;;
Oshimili South;"de Umuonaje Ward	";;Midland Clinic;;;;;
Oshimili South;West End Ward;;Asaba Federal Medical Centre;;;;;
Oshimili South;West End Ward;;Comfort Consult Clinic;;;;;
Oshimili South;West End Ward;;"de Model Primary Health Centre	";;;;;
Oshimili South;West End Ward;;Anwai Primary Health Centre;;;;;
Patani;Abari Ward;;Abare Primary Health Centre;;;;;
Patani;Bulu Angiama Ward;;Bulu-Apelebiri Primary Health Centre;;;;;
Patani;Patani 2 Ward;;Patani Primary Health Centre;;;;;
Patani;Ture Apelebiri Ward;;Toru Apelebiri Primary Health Centre;;;;;
Patani;Turu Angiama Ward;;Bulu-Angiama Primary Health Centre;;;;;
Sapele;Amuogodo Ward;;Obule Clinic;;;;;
Sapele;Elume Ward;;Edegbode Primary Health Centre;;;;;
Sapele;Hausa Ward;;St. Elizabeth Clinic;;;;;
Sapele;Okpe Ward;;Divine Care Clinic;;;;;
Sapele;Okpe Ward;;God's Will Clinic;;;;;
Sapele;Okpe Ward;;Nene Hospital;;;;;
Sapele;Okpe Ward;;St Francis Catholic Hospital (Sapele);;;;;
Sapele;Okpe Ward;;Gwede Maternity Home;;;;;
Sapele;Okpe Ward;;Okwovwori-Amukpe Comprehensive Health Centre;;;;;
Sapele;Okpe Ward;;Omodibo Nursing and Maternity Home;;;;;
Sapele;Okpe Ward;;Life Flour Mill Clinic and Maternity;;;;;
Sapele;Okpe Ward;;St Thomas Clinic (Sapele);;;;;
Sapele;Okpe Ward;;Sapele Clinic;;;;;
Sapele;Okpe Ward;;Okparavero Memorial Hospital;;;;;
Sapele;Okpe Ward;;Sea Board Clinic;;;;;
Sapele;Okpe Ward;;Odeghe Clinic;;;;;
Sapele;Okpe Ward;;Naval Base Clinic;;;;;
Sapele;Okpe Ward;;Patoner Hospital;;;;;
Sapele;Okpe Ward;;Samaritan Clinic;;;;;
Sapele;Okpe Ward;;Eternit Clinic;;;;;
Sapele;Okpe Ward;;Mary Mercy Maternity Home;;;;;
Sapele;Okpe Ward;;Faith Nursing and Maternity Home (Sapele);;;;;
Sapele;Okpe Ward;;Sapele Primary Health Centre;;;;;
Sapele;Okpe Ward;;Sapele Hope Clinic;;;;;
Sapele;Ugborhen Ward;;Okuo-Ovu Primary Health Centre;;;;;
Sapele;Ugborhen Ward;;Ugborhen Primary Health Centre;;;;;
Udu;"de Aladja Ward	";;Lonia Clinic;;;;;
Udu;"de Aladja Ward	";;Aladja Primary Health Centre;;;;;
Udu;"de Egini Ward	";;Egini Primary Health Centre;;;;;
Udu;"de Egini Ward	";;Ujevwu Primary Health Centre;;;;;
Udu;"de Ekete Ward	";;Ekete Primary Health Centrre;;;;;
Udu;"de Emadadja Ward	";;Emadadja Primary Health Centre;;;;;
Udu;"de Emadadja Ward	";;Ubogo Primary Health Centre;;;;;
Udu;"de Ogbe Udu Ward	";;Ogbe-Udu Primary Health Centre;;;;;
Udu;"de Opete Ward	";;Opete Primary Health Centre;;;;;
Udu;"de Orhuruworun Ward	";;Caleb Nur /Maternity Home;;;;;
Udu;"de Orhuruworun Ward	";;DSC Hospital;;;;;
Udu;"de Orhuruworun Ward	";;Orhuwhorun Primary Health Centre;;;;;
Ughelli North;Afiesere Ward;;Ododegho Primary Health Centre;;;;;
Ughelli North;Afiesere Ward;;Ufuoma Primary Health Centre 2;;;;;
Ughelli North;Afiesere Ward;;Afiesere Primary Health Centre;;;;;
Ughelli North;Afiesere Ward;;Odovie Primary Health Centre;;;;;
Ughelli North;Afiesere Ward;;Eruemukohwarien Primary Health Centre;;;;;
Ughelli North;Agbarha Ward;;Omovwodorirhibo Primary Health Centre;;;;;
Ughelli North;Agbarha Ward;;Agbarha-Otor Primary Health Centre;;;;;
Ughelli North;Agbarha Ward;;Owevwe Primary Health Centre;;;;;
Ughelli North;Agbarha Ward;;St Nicolas Clinic;;;;;
Ughelli North;Agbarho 1 Ward ;;Eloho Clinic;;;;;
Ughelli North;Agbarho 1 Ward ;;Agbarho  Primary Health Centre;;;;;
Ughelli North;Agbarho 1 Ward ;;Arhoano Nursing and Maternity Home;;;;;
Ughelli North;Agbarho2 Ward ;;Ekrerhawe Primary Health Centre;;;;;
Ughelli North;Agbarho2 Ward ;;Uvwiama Primary Health Centre;;;;;
Ughelli North;Agbarho2 Ward ;;Agbarho Government Hospital;;;;;
Ughelli North;Evwreni Ward;;Unenurhie Primary Health Centre;;;;;
Ughelli North;Evwreni Ward;;Evwreni Primary Health Centre;;;;;
Ughelli North;Evwreni Ward;;Eni Evwreni Hospital;;;;;
Ughelli North;Orogun Ward;;Erhovbaro Primary Health Centre;;;;;
Ughelli North;Orogun Ward;;Ovara-Unukpo Primary Health Centre;;;;;
Ughelli North;Orogun Ward;;Orogun Government Hospital;;;;;
Ughelli North;Orogun Ward;;Emonu Orogun Primary Health Centre;;;;;
Ughelli North;Orogun Ward;;Ugono Orogun Primary Health Centre;;;;;
Ughelli North;Orogun Ward;;Orogun Primary Health Centre;;;;;
Ughelli North;Otor-Ogo Ward;;Otor-Ogor Primary Health Centre;;;;;
Ughelli North;Otor-Ogo Ward;;Edjekote Primary Health Centre;;;;;
Ughelli North;Ughelli Urban 1 Ward;;Celian Clinic;;;;;
Ughelli North;Ughelli Urban 1 Ward;;Iwhrenene Primary Health Centre;;;;;
Ughelli North;Ughelli Urban 1 Ward;;Shekinah Medical Centre;;;;;
Ughelli North;Ughelli Urban 1 Ward;;Faith and Family Clinic and Maternity;;;;;
Ughelli North;Ughelli Urban 1 Ward;;Ufor Hospital;;;;;
Ughelli North;Ughelli Urban 1 Ward;;Otovwodo Primary Health Centre;;;;;
Ughelli North;Ughelli Urban 1 Ward;;Grace and Mercy Clinic;;;;;
Ughelli North;Ughelli Urban 1 Ward;;Ekiugbo Primary Health Centre;;;;;
Ughelli North;Ughelli Urban 2 Ward;;Ughelli Central Hospital;;;;;
Ughelli North;Ughelli Urban 2 Ward;;Calvery Clinic;;;;;
Ughelli North;Ughelli Urban 2 Ward;;Our Saviour Maternity Home;;;;;
Ughelli North;Ughelli Urban 2 Ward;;Kowa Clinic;;;;;
Ughelli North;Ughelli Urban 2 Ward;;Mount Zion Nursing and Maternity Home;;;;;
Ughelli North;Ughelli Urban 2 Ward;;Urban Primary Health Centre;;;;;
Ughelli North;Ughelli Urban 2 Ward;;Agori-Iwe Memorial Clinic;;;;;
Ughelli North;Uwheru Ward;;Owarowon-Agadama Primary Health Centre;;;;;
Ughelli North;Uwheru Ward;;Uwheru Primary Health Centre;;;;;
Ughelli South;Ekakpamre Ward ;;Egbo Uhurie Primary Health Centre;;;;;
Ughelli South;Ekakpamre Ward ;;"de Otokutu Primary Health Centre	";;;;;
Ughelli South;Ekakpamre Ward ;;Edjophe Primary Health Centre;;;;;
Ughelli South;Ekakpamre Ward ;;Ekrokpe Primary Health Centre;;;;;
Ughelli South;Ekakpamre Ward ;;Usiefru Primary Health Centre;;;;;
Ughelli South;Ekakpamre Ward ;;Ekakpame Primary Health Centre;;;;;
Ughelli South;Ewu 1 Ward;;Ewu Government Hospital ;;;;;
Ughelli South;Ewu 1 Ward;;Okparabe Primary Health Centre;;;;;
Ughelli South;Ewu 1 Ward;;Ewu Primary Health Centre;;;;;
Ughelli South;Ewu 1 Ward;;Arhavwarien Primary Health Centre;;;;;
Ughelli South;Ewu 2 Ward;;Orere Health Post;;;;;
Ughelli South;Ewu 2 Ward;;Olota Health Post;;;;;
Ughelli South;Ewu 2 Ward;;Gbaregolor Primary Health Centre;;;;;
Ughelli South;Ewu 2 Ward;;"de Frukama Health Post	";;;;;
Ughelli South;Jeremi 1 Ward;;Ughevwughe Primary Health Centre;;;;;
Ughelli South;Jeremi 2 Ward;;Ophorigbala Health Post;;;;;
Ughelli South;Jeremi 2 Ward;;Eyara Primary Health Centre;;;;;
Ughelli South;Jeremi 2 Ward;;Otu-Jeremi Primary Health Centre;;;;;
Ughelli South;Jeremi 2 Ward;;"de Otu Jeremi General Hospital	";;;;;
Ughelli South;Jeremi 2 Ward;;Oginibo Primary Health Centre;;;;;
Ughelli South;Jeremi 2 Ward;;Owawha Primary Health Centre;;;;;
Ughelli South;Jeremi 2 Ward;;Okwagbe Baptist Clinic;;;;;
Ughelli South;Jeremi 2 Ward;;Egbo-Ideh Health Post;;;;;
Ughelli South;Jeremi 3 Ward;;Exceeding Grace Okwagbe;;;;;
Ughelli South;Jeremi 3 Ward;;Okwagbe God's Favour Clinic;;;;;
Ughelli South;Jeremi 3 Ward;;Our Lady's Catholic Okwagbe;;;;;
Ughelli South;Jeremi 3 Ward;;Okwagbe Primary Health Centre;;;;;
Ughelli South;Jeremi 4 Ward;;Obi Ayagha Health Post;;;;;
Ughelli South;Jeremi 4 Ward;;Esaba Health Post;;;;;
Ughelli South;Jeremi 4 Ward;;Omasuomo Health Post;;;;;
Ughelli South;Olumo 1Ward;;Otorere-Olomu Primary Health Centre;;;;;
Ughelli South;Olumo 2 Ward;;Okpare Primary Health Centre;;;;;
Ughelli South;Olumo 2 Ward;;Oviri-Oiomu Primary Health Centre;;;;;
Ughelli South;Olumo 2 Ward;;Ovwodokpokpo Primary Health Centre;;;;;
Ughelli South;Olumo 2 Ward;;"de Umolo Health Post	";;;;;
Ukwuani;Akoku Ward;;Umuaja Primary Health Centre;;;;;
Ukwuani;Akoku Ward;;Obi-Obete Primary Health Centre;;;;;
Ukwuani;Amai Ward;;Amai Primary Health Centre;;;;;
Ukwuani;Ebedei Ward;;Ebedei-Uno Primary Health Centre;;;;;
Ukwuani;Eziokpor Ward;;Eziokpor Primary Health Centre;;;;;
Ukwuani;Ezionum Ward;;Ezionum Primary Health Centre;;;;;
Ukwuani;Ogbe Obiaruku Ward;;Trinity Hospital;;;;;
Ukwuani;Ogbe Obiaruku Ward;;Veeray Clinic;;;;;
Ukwuani;Ogbe Obiaruku Ward;;Dominion Care Medical Centre ;;;;;
Ukwuani;Ogbe Obiaruku Ward;;Obiaruku Primary Health Centre;;;;;
Ukwuani;Ogbe Obiaruku Ward;;AG Medical Centre ;;;;;
Ukwuani;Ogbe Obiaruku Ward;;Lady Tonia Nursing and Maternity Home;;;;;
Ukwuani;Okuzu Ward;;Kem Nursing and Maternity Home;;;;;
Ukwuani;Okuzu Ward;;"de Okuzu Primary Health Centre	";;;;;
Ukwuani;Okuzu Ward;;Jesus The Saviour Hospital;;;;;
Ukwuani;Umuebu Ward;;Umuebu Primary Health Centre;;;;;
Ukwuani;Umukwata Ward;;Owa-Abbi Primary Health Centre;;;;;
Ukwuani;Umukwata Ward;;Umukwata Primary Health Centre;;;;;
Ukwuani;Umutu Ward;;Umutu Primary Health Centre;;;;;
Ukwuani;Umutu Ward;;Bik Nursing and Maternity Home;;;;;
Uvwie;Alaka Ward;;Pinnacle Clinic;;;;;
Uvwie;Alaka Ward;;Alaka Primary Health Centre;;;;;
Uvwie;Alaka Ward;;Petroleum Training Institute Clinic;;;;;
Uvwie;Ekpan 1 Ward;;Ekpan 1 Primary Health Centre;;;;;
Uvwie;Ekpan 1 Ward;;Uvwie Secretariat Clinic;;;;;
Uvwie;Ekpan 1 Ward;;Ekpan General Hospital;;;;;
Uvwie;Ekpan 2 Ward;;Ekpan 2 Primary Health Centre;;;;;
Uvwie;Enerhen 1 Ward;;Enerhen 1 Primary Health Centre;;;;;
Uvwie;Enerhen 2 Ward;;Winrose Hospital;;;;;
Uvwie;Enerhen 2 Ward;;Enerhen 2 Primary Health Centre;;;;;
Uvwie;Ohorhe Ward;;Ohorhe Primary Health Centre;;;;;
Uvwie;Ohorhe Ward;;Navy Hospital;;;;;
Uvwie;Ugbomro Ward;;3 - H Clinic;;;;;
Uvwie;Ugbomro Ward;;Ugbomro Primary Health Centre;;;;;
Uvwie;Ugbomro Ward;;Ebrumede Primary Health Centre;;;;;
Uvwie;Ugbomro Ward;;Ugbolokposu Primary Health Centre;;;;;
Uvwie;Ugboreke Ward;;Capeland Clinic;;;;;
Uvwie;Ugboreke Ward;;Ugboroke Primary Health Centre;;;;;
Uvwie;Ugborikoko Ward;;Group Medicals;;;;;
Uvwie;Ugborikoko Ward;;Day Spring Clinic;;;;;
Uvwie;Ugborikoko Ward;;Westend Hospital;;;;;
Uvwie;Ugborikoko Ward;;Ugborikoko Primary Health Centre;;;;;
Uvwie;Ugborikoko Ward;;B U Clinic;;;;;
Uvwie;Ugborikoko Ward;;Effurun Primary Health Centre;;;;;
Uvwie;Urhumarho Ward;;Orhumarho Primary Health Centre;;;;;
Uvwie;Uvwie Unknown Ward;;Uvwie Army Barracks Clinic;;;;;
Uvwie;Uvwie Unknown Ward;;Ogbe Specialist Clinic;;;;;
Uvwie;Uvwie Unknown Ward;;Winners Clinic (Uvwie);;;;;
Uvwie;Uvwie Unknown Ward;;Holy Cross Clinic;;;;;
Uvwie;Uvwie Unknown Ward;;St Francis of Assisi Clinic;;;;;
Uvwie;Uvwie Unknown Ward;;St Mary's Hospital (Uvwie);;;;;
Uvwie;Uvwie Unknown Ward;;Pearl Clinic;;;;;
Uvwie;Uvwie Unknown Ward;;Faith Clinic and Maternity;;;;;
Uvwie;Uvwie Unknown Ward;;Abieyuwa Clinic and Maternity;;;;;
Uvwie;Uvwie Unknown Ward;;Apex Clinic;;;;;
Uvwie;Uvwie Unknown Ward;;Rapha Hospital;;;;;
Uvwie;Uvwie Unknown Ward;;Salvation Clinic and Maternity;;;;;
Uvwie;Uvwie Unknown Ward;;St Gregory's Specialist Clinic;;;;;
Uvwie;Uvwie Unknown Ward;;Uvwie Nigerian National Petroleum Corporation Clinic;;;;;
Warri North;Abigborode;;Abeugborodo Primary Health Centre;;;;;
Warri North;Eghoro;;Itisun Primary Health Centre;;;;;
Warri North;Gbokoda;;Jakpa Primary Health Centre;;;;;
Warri North;Koko;;"de Beach Primary Health Centre	";;;;;
Warri North;Koko;;Koko Primary Health Centre;;;;;
Warri North;Koko;;Koko General Hospital;;;;;
Warri North;Ogbinbiri;;Ogbonbiri Primary Health Centre;;;;;
Warri North;Ogheye;;Ogheye Primary Health Centre;;;;;
Warri North;"de Opuama	";;Opuama Primary Health Centre;;;;;
Warri South;Ekurede Ward;;Ugbuwangwe Primary Health Centre;;;;;
Warri South;Ekurede Ward;;Ekurede Urhobo Primary Health Centre;;;;;
Warri South;Ekurede Ward;;Ogunu Primary Health Centre;;;;;
Warri South;Ekurede Ward;;Ajamogha Primary Health Centre;;;;;
Warri South;Esisi Ward;;Warri Central Hospital;;;;;
Warri South;Igbudu Ward ;;Igbudu Primary Health Centre;;;;;
Warri South;Obodo Ward;;ifie Primary Health Centre;;;;;
Warri South;Ode-Itsekiri Ward;;Ode-Itsekiri Primary Health Centre;;;;;
Warri South;Ode-Itsekiri Ward;;Orugbo Primary Health Centre;;;;;
Warri South;Okere ward;;Warri South Subsecretariat Primary Health Centre;;;;;
Warri South;Okere ward;;Eboh Primary Health Centre;;;;;
Warri South;Pessu Ward;;Pessu Primary Health Centre;;;;;
Warri South;Ubeji Ward;;Ubeji Primary Health  Centre;;;;;
Warri South;Warri Unknown Ward;;Salem Clinic and Maternity;;;;;
Warri South;Warri Unknown Ward;;E Salvation Maternity Home;;;;;
Warri South;Warri Unknown Ward;;Ruky Nursing and Maternity Home;;;;;
Warri South;Warri Unknown Ward;;Shell Clinic;;;;;
Warri South;Warri Unknown Ward;;Viva Clinic (Warri );;;;;
Warri South;Warri Unknown Ward;;New Era Clinic;;;;;
Warri South;Warri Unknown Ward;;Victory Clinic;;;;;
Warri South;Warri Unknown Ward;;Redemas Nursing and Maternity Home;;;;;
Warri South;Warri Unknown Ward;;Kantu Primary Health Centre;;;;;
Warri South;Warri Unknown Ward;;Vetimon Medical Centre;;;;;
Warri South;Warri Unknown Ward;;Good News Clinic;;;;;
Warri South West;"de Madangho Ward	";;Madagho Primary Health Centre;;;;;
Warri South West;"de Ogbe-Ijoh Ward	";;Sandfill Primary Health Centre;;;;;
Warri South West;"de Ogbe-Ijoh Ward	";;Ogbe-Ijoh Primary Health Centre;;;;;
Warri South West;"de Ogidingbe Ward	";;Ogidigben Primary Health Centre;;;;;
Warri South West;"de Okererenkoko Ward	";;Okerenkoko Primary Health Centre;;;;;
Warri South West;"de Oporaza Ward	";;Opuraza Health Centre;;;;;
Warri South West;"de Oporaza Ward	";;"de Benikrukru Primary Health Centre	";;;;;
Warri South West;"de Ugborodo Ward	";;Bateren Primary Health Centre;;;;;
Warri South West;"de Ugborodo Ward	";;Gbaramatu Primary Health Centre;;;;;
