LGA;Ward;Settlement;Facility;Type;Ownership;Address;Longitude;Latitude
Aboh-Mbaise;Ahiato Ward;;Ahiato Health Centre;;;;;
Aboh-Mbaise;Ahiato Ward;;Umuannuma Health Centre;;;;;
Aboh-Mbaise;Ahiato Ward;;Umueze Health Centre;;;;;
Aboh-Mbaise;Amuzu Nwe-Nkwo Ward;;Amuzu Nwenkwo Health Centre;;;;;
Aboh-Mbaise;Amuzu Ward;;Amuze Health  Center;;;;;
Aboh-Mbaise;Egbelu-Umuhu Ward;;Egbelu Umuhu Health Centre;;;;;
Aboh-Mbaise;Enyiogugu Ward;;Enyiogugu Health Center;;;;;
Aboh-Mbaise;Ibeku Ward;;Geovanna Clinic Ibeku (Mission);;;;;
Aboh-Mbaise;Lagwa Ward;;Obo-Lagwa Health Center;;;;;
Aboh-Mbaise;Lorji Ward;;Lorji Health Center;;;;;
Aboh-Mbaise;Mbutu 1 Ward;;Mbutu Health Centre;;;;;
Aboh-Mbaise;Nguru Nwankwo Ward;;Nkwogwu Health Centre;;;;;
Aboh-Mbaise;Nguru Nweke Ward;;IWC Aboh Clinic;;;;;
Aboh-Mbaise;Nguru Nweke Ward;;Aboh Mbaise General Hospital;;;;;
Aboh-Mbaise;Umuhu Ward;;Umuhu Health Center;;;;;
Aboh-Mbaise;Umuneato Ward;;Ngurunweke Health Center;;;;;
Aboh-Mbaise;Uvuru 1 Ward;;Uvuru Basic Health Centre;;;;;
Ahiazu-Mbaise;Amuzi Ward;;Amuzi Health Clinic;;;;;
Ahiazu-Mbaise;Eziama Ward;;Eziama Model Health Centre;;;;;
Ahiazu-Mbaise;Isiala/Oparanadim Ward;;Oparanadim Primary Health Centre;;;;;
Ahiazu-Mbaise;Isiala/Oparanadim Ward;;Precious Blood Clinic Umumbiri;;;;;
Ahiazu-Mbaise;Mpam Ward;;Mpam Health Center;;;;;
Ahiazu-Mbaise;Nnarambia Ward;;Nnarambia Health Centre;;;;;
Ahiazu-Mbaise;Obodo Ahiara/Ihenworie Ward;;Obodo Ahiara Health Center;;;;;
Ahiazu-Mbaise;Obodo Ahiara/Ihenworie Ward;;Ihenworie Health Centre;;;;;
Ahiazu-Mbaise;Obohia/Ekwerezu Town Ward;;Ekwereazu Town Health Center;;;;;
Ahiazu-Mbaise;Obohia/Ekwerezu Town Ward;;Elekenowasi Health Post;;;;;
Ahiazu-Mbaise;Obohia/Ekwerezu Town Ward;;Obohia Health center;;;;;
Ahiazu-Mbaise;Ogbe Ward 1;;Ogbe Primary Health Centre;;;;;
Ahiazu-Mbaise;Ogbenneisi Ward;;Ogbenneisii Health Center;;;;;
Ahiazu-Mbaise;Ogbo/Umeze Ward;;Ogbor Health Centre MDG;;;;;
Ahiazu-Mbaise;Ogbo/Umeze Ward;;Ihitteaforukwu Health Center;;;;;
Ahiazu-Mbaise;Okrikanweke 2 Ward;;Okrikanweke Health Centre;;;;;
Ahiazu-Mbaise;Okrikanwenkwo Ward;;Immaculate Heart Maternity Home;;;;;
Ahiazu-Mbaise;Okrikanwenkwo Ward;;Umuokirika Health Centre;;;;;
Ahiazu-Mbaise;Oru/Lude Ward;;Afor Oru Health Office Clinic;;;;;
Ahiazu-Mbaise;Oru/Lude Ward;;Lude Health Center;;;;;
Ahiazu-Mbaise;Otulu/Aguneze Ward;;Otulu Primary Health Centre;;;;;
Ahiazu-Mbaise;Umunumo/Umuchieze Ward;;Umuchieze Health Center;;;;;
Ehime-Mbano;Agbaja Ward (Ehime-Mbano);;Mgbam Health post;;;;;
Ehime-Mbano;Agbaja Ward (Ehime-Mbano);;Agbaja Health Centre;;;;;
Ehime-Mbano;Agbaja Ward (Ehime-Mbano);;Nneano MDG;;;;;
Ehime-Mbano;Agbaja Ward (Ehime-Mbano);;Obioma Hospital & Maternity;;;;;
Ehime-Mbano;Nsu A Ward;;Umuezeala Nsu Health Centre;;;;;
Ehime-Mbano;Nsu B Ward;;Umuduru Umuopara Nsu Health Centre;;;;;
Ehime-Mbano;Nsu B Ward;;Emmanuel Hospital and Maternity;;;;;
Ehime-Mbano;Nzerem Ward;;Nzerem/Ikpem Health Centre;;;;;
Ehime-Mbano;Nzerem Ward;;Nzerem Primary Health Centre;;;;;
Ehime-Mbano;Umuakabia Ward;;Umukabia Health Post (Ehime Mbano);;;;;
Ehime-Mbano;Umuakabia Ward;;Osuru Health Centre;;;;;
Ehime-Mbano;Umuakagu Ward;;Umuakagu Health Centre;;;;;
Ehime-Mbano;Umualumaku/Umuihim Ward;;Umualumaku Umuihim Health Post;;;;;
Ehime-Mbano;Umueleke Ward;;Umueleke Health Post;;;;;
Ehime-Mbano;Umueze 1 Ward;;Umeze Joint Hospital and Maternity;;;;;
Ehime-Mbano;Umueze 1 Ward;;Umueze 1 umuihim Health Post;;;;;
Ehime-Mbano;Umueze 1 Ward;;Umueze 1 Health Centre;;;;;
Ehime-Mbano;Umueze 2 Ward;;Umueze 2 Primary Health Centre;;;;;
Ehime-Mbano;Umueze 2 Ward;;Umudurueguelle Health Centre;;;;;
Ehime-Mbano;Umuezeala Ama 1 Ward;;Isi Ehime Health Post;;;;;
Ehime-Mbano;Umuezeala Ama 1 Ward;;Umuezeala Ogwara Health Post;;;;;
Ehime-Mbano;Umuezeala Ama 1 Ward;;C Six Hospital and Maternity;;;;;
Ehime-Mbano;Umuezeala/Owerre Ward;;Umuezeala Owerri Primary Health Centre;;;;;
Ehime-Mbano;Umunakanu Ward;;Umugolo Health Centre;;;;;
Ehime-Mbano;Umunakanu Ward;;Umunakam Primary Health Centre;;;;;
Ehime-Mbano;Umunumo Ibenkwo Ward;;Umunumo Ibenkow Basic Health Centre;;;;;
Ehime-Mbano;Umununo Ibeafor Ward;;Umunumo Ibeator Health Centre;;;;;
Ezinihitte-Mbaise;Ezinihitte-Mbaise Ward 1;;Amumara Primary Health Centre;;;;;
Ezinihitte-Mbaise;Ezinihitte-Mbaise Ward 1;;Okpanku Primary Health Centre;;;;;
Ezinihitte-Mbaise;Ezinihitte-Mbaise Ward 11;;Omokwu Primary Health Centre;;;;;
Ezinihitte-Mbaise;Ezinihitte-Mbaise Ward 13;;Ihitte Primary Health Centre;;;;;
Ezinihitte-Mbaise;Ezinihitte-Mbaise Ward 13;;Ezeagbogu Primary Health Centre;;;;;
Ezinihitte-Mbaise;Ezinihitte-Mbaise Ward 15;;Onicha Health Centre (Ezinihitte);;;;;
Ezinihitte-Mbaise;Ezinihitte-Mbaise Ward 15;;Nwakaego Maternity;;;;;
Ezinihitte-Mbaise;Ezinihitte-Mbaise Ward 15;;Ife/Owotu Primary Health Centre;;;;;
Ezinihitte-Mbaise;Ezinihitte-Mbaise Ward 2;;Itu Health Centre;;;;;
Ezinihitte-Mbaise;Ezinihitte-Mbaise Ward 2;;Oboama Primary Health Centre;;;;;
Ezinihitte-Mbaise;Ezinihitte-Mbaise Ward 2;;Umunama Primary Health Centre;;;;;
Ezinihitte-Mbaise;Ezinihitte-Mbaise Ward 2;;Akpodim Primary Health Centre;;;;;
Ezinihitte-Mbaise;Ezinihitte-Mbaise Ward 2;;Chokoneze Primary Health Centre;;;;;
Ezinihitte-Mbaise;Ezinihitte-Mbaise Ward 3;;Okpofa Health Centre;;;;;
Ezinihitte-Mbaise;Ezinihitte-Mbaise Ward 6;;Obizi Health Centre;;;;;
Ezinihitte-Mbaise;Ezinihitte-Mbaise Ward 6;;Obokwu Primary Health Centre;;;;;
Ezinihitte-Mbaise;Ezinihitte-Mbaise Ward 6;;Udo Primary Health Centre;;;;;
Ezinihitte-Mbaise;Ezinihitte-Mbaise Ward 9;;Eziudo Health Centre;;;;;
Ezinihitte-Mbaise;Ezinihitte-Mbaise Ward 9;;Umuoriee Health Centre;;;;;
Ideato North;Akpulu Ward;;Akpulu Health Centre;;;;;
Ideato North;Ezemazu Ward;;Eluama Health Centre;;;;;
Ideato North;Iheme 1 Ward;;Ndianicheuno Health Centre;;;;;
Ideato North;Iheme 1 Ward;;Obinetiti Health Centre;;;;;
Ideato North;Iheme 2 Ward;;Ohiauchu Primary Health Centre;;;;;
Ideato North;Isiokpo Ward;;Isiokpo Health Centre;;;;;
Ideato North;Izuogu 1 Ward;;Ndiadimoha Health Centre;;;;;
Ideato North;Izuogu 1 Ward;;Ndiuche Health Centre;;;;;
Ideato North;Izuogu 1 Ward;;Ndiawa Health Centre;;;;;
Ideato North;Izuogu 2 Ward;;Model Primary Health Centre;;;;;
Ideato North;Izuogu 2 Ward;;Ndiejezie Health Centre;;;;;
Ideato North;Ndimoko Ward;;Ndimoko Health Centre;;;;;
Ideato North;Obodoukwu 1 Ward;;Obodoukwu Health Centre;;;;;
Ideato North;Osina 1 Ward;;Osina Community Hospital;;;;;
Ideato North;Osina 2 Ward;;Osina Health Centre;;;;;
Ideato North;Owerre/Akwu Ward;;Akwu Health Centre;;;;;
Ideato North;Owerre/Akwu Ward;;Owerre Akokwa Health Centre;;;;;
Ideato North;Ozuakoli Ward;;MCH Urualla;;;;;
Ideato North;Ozuakoli Ward;;Immaculate Heart Hospital Urualla;;;;;
Ideato North;Ozuomee Ward;;Ozuomee Health Centre;;;;;
Ideato North;Umuezeaga Ward;;Umuezeaga Health Centre;;;;;
Ideato North;Umuezeaga Ward;;Ekene Irichukwu Hospital Umuezeaga;;;;;
Ideato North;Umukegwe/Umuopia Ward;;Divine Intervention Hospital Umukegwe/Umuopia;;;;;
Ideato North;Uzii/Umualoma Ward;;Umualaoma Health Centre;;;;;
Ideato North;Uzii/Umualoma Ward;;Uzzii Primary Health Centre;;;;;
Ideato South;Amanato Ward;;Amanator Health Centre;;;;;
Ideato South;Dikenefai 1 Ward;;Dikenafai Maternal Child Health Centre;;;;;
Ideato South;Isiekenesi 1 Ward;;Umuaghobe Health Centre;;;;;
Ideato South;Isiekenesi 2 Ward;;Nwabosi Health Centre;;;;;
Ideato South;Isiekenesi 2 Ward;;Chibugo Hospital and Maternity;;;;;
Ideato South;Ntueke Ward;;Ntueke Primary Health Centre;;;;;
Ideato South;Ogboko 1 Ward;;Ogboko Primary Health Centre;;;;;
Ideato South;Ogboko 2 Ward;;Ogechukwu Maternity Home;;;;;
Ideato South;Ugbelle Ward;;Ugbelle Health Centre;;;;;
Ideato South;Umuakam Ward;;Umuakam Health Centre;;;;;
Ideato South;Umuelewe Ward;;Umulewe Primary Health Centre;;;;;
Ideato South;Umueshi Ward;;Umueshi Primary Health Centre;;;;;
Ideato South;Umumaisiaku 1 Ward;;Umuma Isiaku Health Centre;;;;;
Ideato South;Umuobom 1 Ward;;Duruahurunwa Primary Health Centre;;;;;
Ideato South;Umuobom 1 Ward;;Gabriel Hospital and Maternity;;;;;
Ideato South;Umuobom/Umucheke Ward;;Umucheke MDG Health Centre;;;;;
Ideato South;Umuobom/Umucheke Ward;;Umuelebe Primary Health Centre;;;;;
Ideato South;Umuobom/Umucheke Ward;;CSDP Health Centre;;;;;
Ihitte/Uboma;Abueke Ward;;Eluama Abueke Health Centre;;;;;
Ihitte/Uboma;Abueke Ward;;Abueke Health Centre;;;;;
Ihitte/Uboma;Amaiyi 2 Ward;;Umunehihe Primary Health Centre;;;;;
Ihitte/Uboma;Amaiyi Ward;;Amaiyi Our Saviour Maternity Home;;;;;
Ihitte/Uboma;Amaiyi Ward;;Amaiyi Health Centre;;;;;
Ihitte/Uboma;Amakohia 1 Ward;;St Mary's Medical Centre;;;;;
Ihitte/Uboma;Amakohia 1 Ward;;Amakohia Primary Health Centre;;;;;
Ihitte/Uboma;Amakohia 2 Ward;;Madonna Austria Hospital (Amakohia 2);;;;;
Ihitte/Uboma;Atonerim Ward;;Umudetim Primary Health Centre;;;;;
Ihitte/Uboma;Atonerim Ward;;Elugwu Umuchienta Health Centre;;;;;
Ihitte/Uboma;Ezimba Ward;;Ezimba Health Centre;;;;;
Ihitte/Uboma;Ikperejere Ward;;Ihitte Uboma General Hospital;;;;;
Ihitte/Uboma;Ikperejere Ward;;Umuoma Health Centre;;;;;
Ihitte/Uboma;Ikperejere Ward;;Ikperejere Health Centre;;;;;
Ihitte/Uboma;Okata Ward;;Okata Primary Health Centre;;;;;
Ihitte/Uboma;Umuawuchi/Nomo Ward;;Umunomo Health Centre;;;;;
Ihitte/Uboma;Umuawuchi/Nomo Ward;;Umuawuchi Health Centre ;;;;;
Ihitte/Uboma;Umuezegwa 1 Ward;;Umuezeagwu Health Centre;;;;;
Ihitte/Uboma;Umuihi Ward;;Umuihi Primary Health Centre;;;;;
Ihitte/Uboma;Uzinomi Ward;;Uzinomi Health Centre;;;;;
Ikeduru;Akabo Ward;;Akabo Health Centre;;;;;
Ikeduru;Amaimo  Ward;;Amaimo Health Centre;;;;;
Ikeduru;Amaimo  Ward;;Umueze Amaimo Health Centre;;;;;
Ikeduru;Amaimo  Ward;;Umuofor Health Centre (MDG);;;;;
Ikeduru;Amaimo  Ward;;St Theresa's Hospital (Ikeduru);;;;;
Ikeduru;Amatta  Ward;;Amatta Health Centre;;;;;
Ikeduru;Atta  Ward 1;;Atta 1 Health Centre ;;;;;
Ikeduru;Atta Ward 2;;Ogada Health Centre (Atta 2);;;;;
Ikeduru;Avuvu Ward;;Avuvu Health Centre;;;;;
Ikeduru;Ebikoro Ward;;Ebikoro Health Centre;;;;;
Ikeduru;Eziama Ward;;Eziama Health Centre;;;;;
Ikeduru;Iho Ward;;Iho Basic Health Centre;;;;;
Ikeduru;Iho Ward;;IWC Iwo Health Office;;;;;
Ikeduru;Inyishi Ward;;Inyishi Health Centre;;;;;
Ikeduru;Ngugo/Ikembara Ward;;Ikembara Health Centre;;;;;
Ikeduru;Ngugo/Ikembara Ward;;Ngugo Health Centre;;;;;
Ikeduru;Okwu/Ugirike Ward;;Immaculate Heart Maternity Home (Okwu);;;;;
Ikeduru;Okwu/Ugirike Ward;;Okwu Family Support Programme Health Clinic;;;;;
Ikeduru;Okwu/Ugirike Ward;;Ugirike Health Centre;;;;;
Ikeduru;Owu Amakohia Ward;;St. Andrews Hospital and Maternity;;;;;
Ikeduru;Owu Amakohia Ward;;Owubinubi Health Centre (Amakohia);;;;;
Ikeduru;Umudim Ward;;Umonyeukwu Primary Health Centre;;;;;
Ikeduru;Umudim Ward;;Umudim Primary Health Centre (Ikeduru);;;;;
Ikeduru;Umuri Ward;;Umuri Health Centre;;;;;
Ikeduru;Uzoagba Ward;;Ezenaomi Health Centre;;;;;
Ikeduru;Uzoagba Ward;;Umuehihie Health Centre;;;;;
Isiala Mbano;Amaraku 1 Ward;;Amaraku Primary Health Centre;;;;;
Isiala Mbano;Amaraku 1 Ward;;Amaraku Health Post ;;;;;
Isiala Mbano;Amuzari Ward;;Amauzari Health Post ;;;;;
Isiala Mbano;Anara Ward;;Anara Health Centre;;;;;
Isiala Mbano;Anara Ward;;Imo State University Teaching Hospital;;;;;
Isiala Mbano;Ekwedim Ward;;Ekwedim Health Post ;;;;;
Isiala Mbano;Ibeme Ward;;Ibeme Health Centre;;;;;
Isiala Mbano;Nneato Ward;;Obiohuru Health Center;;;;;
Isiala Mbano;Nneato Ward;;Ezike Health Centre;;;;;
Isiala Mbano;Nneato Ward;;Umuohiri Health Centre;;;;;
Isiala Mbano;Obollo Ward;;Obollo Health Centre;;;;;
Isiala Mbano;Ogbor Ward;;Ogbor Health Centre;;;;;
Isiala Mbano;Ogbor Ward;;MDG Ogbor Health Centre;;;;;
Isiala Mbano;Oka Ward;;Oka Health Post ;;;;;
Isiala Mbano;Osu Owerre 1 Ward;;Okohia Model Health Centre;;;;;
Isiala Mbano;Osu Owerre 1 Ward;;Mbeke Health Centre;;;;;
Isiala Mbano;Osu Owerre 1 Ward;;Osu Primary Health Centre;;;;;
Isiala Mbano;Osu Owerre 1 Ward;;Ibezim Hospital;;;;;
Isiala Mbano;Osu Owerre 1 Ward;;Umukaku Primary Health Centre;;;;;
Isiala Mbano;Osu Owerre 2 Ward;;Umuchi Primary Health Centre;;;;;
Isiala Mbano;Osu Owerre 2 Ward;;Umuaro II Health Centre;;;;;
Isiala Mbano;Osu Owerre 2 Ward;;Dikenaofeiyi Health Post;;;;;
Isiala Mbano;Osuachara Ward;;Umuegbe Health Centre;;;;;
Isiala Mbano;Osuachara Ward;;Umuluwe Ajirija Health Centre;;;;;
Isiala Mbano;Osuachara Ward;;Umuduru Health Post ;;;;;
Isiala Mbano;Osuachara Ward;;Umuduru Health Centre;;;;;
Isiala Mbano;Osuama Ward ;;Ikwuano MDG Health Centre;;;;;
Isiala Mbano;Osuama Ward ;;St. Mary Hospital;;;;;
Isiala Mbano;Osuama Ward ;;Eziama Health Post Osuama;;;;;
Isiala Mbano;Umuneke/Uguri Ward;;Ugirinna Health Post;;;;;
Isiala Mbano;Umuneke/Uguri Ward;;Ugiri Development Health Post;;;;;
Isiala Mbano;Umuneke/Uguri Ward;;Umuneke Primary Health Centre(PHC);;;;;
Isiala Mbano;Umunkwo Ward;;Umunkwo Health Centre;;;;;
Isiala Mbano;Umuozu Ward;;Umuozu Primary Health Centre;;;;;
Isu;Amandugba 1 Ward;;Amandugba Health Centre;;;;;
Isu;Amandugba 2 Ward;;Im Umuduru Health Centre;;;;;
Isu;Amurie Omeize Ward;;Amurie Omanze Maternity and Child Health Clinic;;;;;
Isu;Ebenato Ward;;Ebenator Health Centre;;;;;
Isu;Ekwe 1 Ward;;Im Umudibi Health Centre;;;;;
Isu;Ekwe 2 Ward;;Ekwe Health Centre;;;;;
Isu;Ezi-Isu Ward;;Ezisu Health Centre;;;;;
Isu;Isu Njaba Ward;;Isu-Njaba Health Centre;;;;;
Isu;Isu Njaba Ward;;Isu Njaba Model Primary Health Centre;;;;;
Isu;Isuobishi Ward;;Isuobishi Health Post ;;;;;
Isu;Isuokporo Ward;;IsuOkporo Health Post ;;;;;
Isu;Oboro Amurie Ward;;Oboro Amurie Health Post;;;;;
Isu;Uburuekwe 1 Ward;;Uburu Ekwe Model Primary Health Care;;;;;
Isu;Umundugba Ward;;Im Nnerim Health Center;;;;;
Isu;Umundugba Ward;;Umuokwara Health Post;;;;;
Isu;Umundugba Ward;; MCH Health Post ;;;;;
Isu;in Uloano Ward ;;Uloano Health Centre;;;;;
Isu;in Uloano Ward ;;St Marys Ulaono Health Post;;;;;
Mbatoli;Afara/Eziama Ward;;Afara Health Centre;;;;;
Mbatoli;Afara/Eziama Ward;;Eziama Obiato Primary Health Centre;;;;;
Mbatoli;Amaike Ward;;Umuomumu Umueze Primary Health Centre;;;;;
Mbatoli;Amaike Ward;;Amaike Amakuta Primary Health Centre;;;;;
Mbatoli;Awo Ward;;Awo Primary Health Centre;;;;;
Mbatoli;Egbeada Ward;;Egbeada Primary Health Post;;;;;
Mbatoli;Ezi  Ward;;Ngozi Maternity Obilubi (Mbaitoli);;;;;
Mbatoli;Ezi  Ward;;Achi Mbieri Primary Health Centre;;;;;
Mbatoli;Ezi  Ward;;Mbieri General Hospital;;;;;
Mbatoli;Ezi  Ward;;Orie Mbieri Dispensary;;;;;
Mbatoli;Ifakala Ward;;Nwaorieubi Comprehensive Primary Health Centre;;;;;
Mbatoli;Ifakala Ward;;Nkalu Primary Health Centre;;;;;
Mbatoli;Ihitte Ward;;Ihitte Mbieri Model Primary Health Centre;;;;;
Mbatoli;Ihitte Ward;;Rima Clinic;;;;;
Mbatoli;Ogbaku Ward;;Imo State University Teaching Hospital Annex;;;;;
Mbatoli;Ogbaku Ward;;Ogbaku Health Centre;;;;;
Mbatoli;Ogwa 1 Ward;;Idume Primary Health Centre;;;;;
Mbatoli;Ogwa 1 Ward;;Immaculate Heart Clinic;;;;;
Mbatoli;Ogwa 1 Ward;;Ogwa Umunneator Health Centre;;;;;
Mbatoli;Ogwa 2 Ward;;Ogwa General Hospital;;;;;
Mbatoli;Ogwa 2 Ward;;Ogwa Dispensary;;;;;
Mbatoli;Ogwa 3 Ward;;Health centre Ochi;;;;;
Mbatoli;Orodo A Ward;;Amaukwu Orodo Primary Health Centre;;;;;
Mbatoli;Orodo A Ward;;Isiorodo Primary Health Centre;;;;;
Mbatoli;Orodo B Ward;;Obi-Orodo Primary Health Centre;;;;;
Mbatoli;Orodo C Ward;;Eliza Maternity;;;;;
Mbatoli;Ubomiri Ward;;Ubomiri Model Primary Health Centre;;;;;
Mbatoli;Ubomiri Ward;;Chinedu Maternity Home Ohuba;;;;;
Mbatoli;Umueboha Ward;;Ohohia Primary Health Centre;;;;;
Mbatoli;Umunoha/ Azara Ward;;Umunoha Health Centre;;;;;
Mbatoli;Umunoha/ Azara Ward;;Azara Health Centre;;;;;
Mbatoli;Umunoha/ Azara Ward;;Obinnoha Primary Health Centre;;;;;
Ngor-Okpala;Alulu  Ward;;Alulu Primary Health Centre;;;;;
Ngor-Okpala;Alulu  Ward;;Oburu Primary Health Centre ;;;;;
Ngor-Okpala;Amala/Ntu Ward;;Amapu Amala Health Centre;;;;;
Ngor-Okpala;Amala/Ntu Ward;;Umuneche Ntu  Health Post;;;;;
Ngor-Okpala;Amala/Ntu Ward;;Umuodagu Health Centre;;;;;
Ngor-Okpala;Elelem Ward;;Elelem Primary Health Centre;;;;;
Ngor-Okpala;Eziama Ward;;Eziama Primary Health Centre;;;;;
Ngor-Okpala;Ihitte/Umukabia Ward;;Ihitte Health Post;;;;;
Ngor-Okpala;Ihitte/Umukabia Ward;;Umukabia Health Centre;;;;;
Ngor-Okpala;Imerienwe Ward;;Umunakara Primary Health Centre;;;;;
Ngor-Okpala;Imerienwe Ward;;Umuoye Primary Health Centre;;;;;
Ngor-Okpala;Imerienwe Ward;;Amafor Primary Health Centre;;;;;
Ngor-Okpala;Imerienwe Ward;;Umunam Primary Health Centre;;;;;
Ngor-Okpala;Ngor Ward;;Umuneke Primary Health Centre;;;;;
Ngor-Okpala;Ngor Ward;;Staff Clinic;;;;;
Ngor-Okpala;Ngor Ward;;Umuneke Ngor Dispensary;;;;;
Ngor-Okpala;Ngor Ward;;Ngor Okpala General Hospital;;;;;
Ngor-Okpala;Nguru/Umuowa Ward;;Nguru/Umuowa Primary Health Centre;;;;;
Ngor-Okpala;Obiangwu Ward;;Obiangwu Primary Health Centre;;;;;
Ngor-Okpala;Obike Ward;;Obike Primary Health Centre;;;;;
Ngor-Okpala;Ohekelem Nnorie Ward;;Nnorie Primary Health Centre;;;;;
Ngor-Okpala;Okpala Ward;;Okpala Health Centre;;;;;
Ngor-Okpala;Okpala Ward;;Cottage Hospital;;;;;
Ngor-Okpala;Ozuzu Ward;;Orishieze Primary Health Centre;;;;;
Ngor-Okpala;Ozuzu Ward;;Obokwe Ozuzu Health Post;;;;;
Ngor-Okpala;Ozuzu Ward;;Umuikoro Opehi Primary Health Centre;;;;;
Ngor-Okpala;Umuhu Ward;;Holy Rosary Maternity Mbutu Okohia;;;;;
Ngor-Okpala;Umukwunne Ward;;Umukwunne Primary Health Centre;;;;;
Ngor-Okpala;Umuohiagu Logara Ward;;Logara Primary Health Centre;;;;;
Ngor-Okpala;Umuohiagu Logara Ward;;Umuohiagu Primary Health Centre;;;;;
Njaba;Achara Ward;;Achara Health Post;;;;;
Njaba;Amakor Ward;;Amakor Health Post;;;;;
Njaba;Amazano Ward;;Ogechi Hospital;;;;;
Njaba;Amazano Ward;;Victoria Hospital (Amazano);;;;;
Njaba;Amazano Ward;;Amazano Health Centre;;;;;
Njaba;Amucha Ward;;Amucha Primary Health Centre;;;;;
Njaba;Atta 1 Ward;;Ndukwu Hospital Atta 1;;;;;
Njaba;Atta 2 Ward;;New Hope Hospital;;;;;
Njaba;Atta 2 Ward;;Attah Health Centre;;;;;
Njaba;Ebeise Ward;;Ezenwa Maternity Ebeise;;;;;
Njaba;Egwedu Ward;;Egwedu Health Centre;;;;;
Njaba;Egwedu Ward;;Hope Rising Hospital;;;;;
Njaba;Im Ihebinowere Ward;;Im Umuokwara Health Centre;;;;;
Njaba;Im Obinator ward;;Im Okponakuma MDG Health Centre;;;;;
Njaba;Im Obinator ward;;Bethsaida Hospital Obinator;;;;;
Njaba;Im Obinator ward;;Nkume Health Centre;;;;;
Njaba;Okwudor Ward;;Umuelem Okwudor Health Centre;;;;;
Njaba;Okwudor Ward;;Mrs Nwaka Maternity Home;;;;;
Njaba;Umuaka 1 Ward;;Nwamma Maternity;;;;;
Njaba;Umuaka 1 Ward;;Umuaka Comprehensive Health Centre;;;;;
Njaba;Umuaka 1 Ward;;Saviour Hospital Umuaka 1;;;;;
Njaba;Umuaka 2 Ward;;Isiozi Health Centre;;;;;
Njaba;Umuaka 3 Ward;;Umuaka Community Hospital;;;;;
Njaba;Umuaka 3 Ward;;Ibele Primary Health Centre;;;;;
Njaba;Umueze Ward (Njaba);;Nnenasa Health Centre;;;;;
Nkwerre;Amokpara Ward;;Amaokpara Health Centre;;;;;
Nkwerre;Eziama/Obaire Ward;;Umuezeanoruo Community Health Centre;;;;;
Nkwerre;Eziama/Obaire Ward;;Eziama Obaire Comprehensive Health Centre;;;;;
Nkwerre;Nkwerre Ward 7;;Nkwerre Maternal and Child Health Clinic;;;;;
Nkwerre;Nnanano Ward;;Umunyem Primary Health Centre;;;;;
Nkwerre;Nnanano Ward;;Umukabia Primary Health Centre;;;;;
Nkwerre;Nnanano Ward;;Umueze Health Post ;;;;;
Nkwerre;Onusatu 2 Ward;;Nkwerre Millenuim Development Goals Clinic;;;;;
Nkwerre;Owerre Nkworji 1 Ward;;Owerre Nkworji Comprehensive Health Centre;;;;;
Nkwerre;Umudi Ward;;Ishiala Umudi Health Centre;;;;;
Nkwerre;Umudi Ward;;New Hope Maternity;;;;;
Nkwerre;Umudi Ward;;Umudi Primary Health Centre;;;;;
Nkwerre;Umunachi Ward;;Umunachi Primary Health Centre;;;;;
Nkwerre;Umunubo Ward;;Obinaocha Health Centre;;;;;
Nkwerre;Umunubo Ward;;Umugara Health Centre;;;;;
Nkwerre;Umunubo Ward;;Amangwu World-wide Maternity Home;;;;;
Nkwerre;Umuwala Ward;;Umuwala Comprehensive Health Centre;;;;;
Nwangele;Abajah 1 Ward;;Agbaja Health Centre (Nwangele);;;;;
Nwangele;Abba 1 Ward;;Abba Health Centre;;;;;
Nwangele;Abba Ward 2;;Ogwuaga Primary Health Center;;;;;
Nwangele;Amaigbo 1 Ward;;St Mary's Joint Hospital;;;;;
Nwangele;Amaigbo 4 Ward;;Umuchoke Health Center;;;;;
Nwangele;Amaigbo 4 Ward;;Umuagwoke Health Center;;;;;
Nwangele;Amaigbo 7 Ward;;Ofeahia Primary Health Center;;;;;
Nwangele;Amaigbo 7 Ward;;Umukabia Model Primary Health Centre;;;;;
Nwangele;Amaigbo Ward 5;;Umuanya Health Center ;;;;;
Nwangele;Amaigbo Ward 6;;Obodo Primary Health Center ;;;;;
Nwangele;Dim Na Nume Ward;;Dim Na Nume Primary Health Center ;;;;;
Nwangele;Isu Ward;;Umunakara Primary Health Center;;;;;
Nwangele;Isu Ward;;Isu Health Center;;;;;
Nwangele;Umuozu Ward (Nwangele);;Umuozu Comprehensive Health Centre;;;;;
Obowo;Achara Ward;;Achara Primary Health Centre;;;;;
Obowo;Alike Ward;;Ohumala Primary Health Centre;;;;;
Obowo;Alike Ward;;Afor Ugiri Primary Health Centre;;;;;
Obowo;Alike Ward;;NYSC Achingali Primary Health Centre ;;;;;
Obowo;Amanze Ward;;Im Amanze Health Centre;;;;;
Obowo;Amuzi Ward (Obowo);;Ogbotoukwu Health Center;;;;;
Obowo;Amuzi Ward (Obowo);;Umulowu Health Centre;;;;;
Obowo;Amuzi Ward (Obowo);;Okwunezigwe Health Centre;;;;;
Obowo;Amuzi Ward (Obowo);;Moses and Janet Maternity Home;;;;;
Obowo;Avutu Ward;;Avutu Basic Health Centre;;;;;
Obowo;Avutu Ward;;Umuifem Health Centre;;;;;
Obowo;Ehume Ward;;Ehume Health Clinic;;;;;
Obowo;Odenkume Ward;;Odenkume Health Centre;;;;;
Obowo;Okwuohia Ward;;Okwuohia Primary Health Centre;;;;;
Obowo;Umuariam Ward;;Nnebinasonye Model Health Centre (MDG);;;;;
Obowo;Umuariam Ward;;Otoko Health Clinic;;;;;
Obowo;Umuariam Ward;;Umuariam Primary Health Centre;;;;;
Obowo;Umulogho/Umagu Ward;;Our Lady of Mercy Hospital;;;;;
Obowo;Umulogho/Umagu Ward;;St Angela Maternity Umuagu;;;;;
Obowo;Umulogho/Umagu Ward;;Umuagu Primary Health Centre;;;;;
Obowo;Umulogho/Umagu Ward;;Umulogho Primary Health Centre;;;;;
Obowo;Umunachi Ward;;Umunachi Primary Health Center;;;;;
Obowo;Umungwa Ward;;Umungwa Primary Health Centre;;;;;
Obowo;Umuokeh Ward;;Umuokeh Primary Health Centre;;;;;
Obowo;Umuosochie Ward;;Umuosochie Primary Health Centre;;;;;
Oguta;Awa/Abiaziem Ward;;Awa Primary Health Centre;;;;;
Oguta;Awa/Abiaziem Ward;;Abiaziem Health Post;;;;;
Oguta;Egwe/Egbuoma Ward;;Egbuoma Primary Health Centre;;;;;
Oguta;Egwe/Egbuoma Ward;;MDG Egbuoma Health Centre;;;;;
Oguta;Ejemekwuru/Akabor Ward;;Ejemekwuru Health Post;;;;;
Oguta;Ejemekwuru/Akabor Ward;;Umuofor Health Centre;;;;;
Oguta;Ejemekwuru/Akabor Ward;;Akabo Primary Health Centre;;;;;
Oguta;Izombe Ward;;Izombe Comprehensive Health Centre;;;;;
Oguta;Mbano Ward;;Mbano Agwa Health Centre;;;;;
Oguta;Mgbala/Ubah Ward;;Mgbala Agwa Primary Health Centre;;;;;
Oguta;Ndiulukwu Ward;;Ndiulukwu Health post;;;;;
Oguta;Obudi/Aro Ward;;Obudi/Aro Health Centre Agwa;;;;;
Oguta;Oguta A Ward;;Infant Welfare Clinic (IWC);;;;;
Oguta;Oguta B Ward;;Oguta General Hospital;;;;;
Oguta;Oguta C Ward;;Sacred Heart Hospital;;;;;
Oguta;Oru A Ward;;Nkwesi Health Post;;;;;
Oguta;Oru A Ward;;Nnebukwu Health Post;;;;;
Oguta;Oru A Ward;;Orsu-Obodo Primary Health Centre;;;;;
Oguta;Oru B Ward;;Eziorsu Primary Health Centre;;;;;
Oguta;Osemoto/Enuigbo Ward;;Enuigbo Health Centre;;;;;
Oguta;Osemoto/Enuigbo Ward;;Osemotor Health Centre;;;;;
Oguta;Uwaorie Ward;;Uworie Health Centre;;;;;
Ohaji/Egbema;Assa Ward;;Assa Health Centre;;;;;
Ohaji/Egbema;Awara Ikwerede Ward;;Ikwerede Health Centre;;;;;
Ohaji/Egbema;Awara Ikwerede Ward;;Awara Health Centre;;;;;
Ohaji/Egbema;Egbema A Ward;;Egbema Health Clinic;;;;;
Ohaji/Egbema;Egbema C Ward;;Mgbara Health Centre;;;;;
Ohaji/Egbema;Egbema D Ward;;Opuoma Health Centre;;;;;
Ohaji/Egbema;Egbema F Ward;;Abacheke Health Centre;;;;;
Ohaji/Egbema;Ekwuato Ward;;Umuokanne Health Centre;;;;;
Ohaji/Egbema;Ekwuato Ward;;Mgbirichi Primary Health Centre;;;;;
Ohaji/Egbema;Obitti/Mgbuisii Ward;;Obitti Health Centre;;;;;
Ohaji/Egbema;Obitti/Mgbuisii Ward;;Mgbuisii Health Centre;;;;;
Ohaji/Egbema;Ohuba/Ogbosima Ward;;Obosima Health Centre;;;;;
Ohaji/Egbema;Ohuba/Ogbosima Ward;;Ohuba Health Centre;;;;;
Ohaji/Egbema;Umuagwo Ward;;Umuagwo Health Centre;;;;;
Ohaji/Egbema;Umuagwo Ward;;Poly Umuagwo Clinic;;;;;
Ohaji/Egbema;Umuapu Ward;;Umuapu Health Centre;;;;;
Ohaji/Egbema;Umukene/Etioha Ward;;Etioha Health Centre;;;;;
Ohaji/Egbema;Umunwaku Ward;;Umunwaku Health Centre;;;;;
Okigwe;Agbobu Ward;;St. Mary's Hospital Agbodu;;;;;
Okigwe;Aku Ward;;Aku Health Centre;;;;;
Okigwe;Amuro Ward;;Ndianiche Primary Health Centre;;;;;
Okigwe;Amuro Ward;;Ndiogubonyema Health Centre;;;;;
Okigwe;Amuro Ward;;Amuro Primary Health Centre;;;;;
Okigwe;Ezinachi 1 Ward;;Amano Ezinachi Primary Health Centre;;;;;
Okigwe;Ezinachi 2 Ward;;Ezinachi Health Centre MDG;;;;;
Okigwe;Ihube 1 Ward;;NNF Ihube Health Centre;;;;;
Okigwe;Ihube 2 Ward;;Ihube Primary Health Centre;;;;;
Okigwe;Ofoacharano Ward;;Ofor Acharano Primary Health Centre;;;;;
Okigwe;Ogii Ward;;Clarit Hospital;;;;;
Okigwe;Ogii Ward;;Agnes Memorial Hospital;;;;;
Okigwe;Ogii Ward;;Ogii Health Centre;;;;;
Okigwe;Umualumoke Ward;;Umualumoke Primary Health Centre;;;;;
Okigwe;Umualumoke Ward;;Isiokwe Health Centre;;;;;
Okigwe;Umualumoke Ward;;Ugwuaku Primary Health Centre;;;;;
Okigwe;Umuduka/Ndinjuka Ward;;Ndinjuka Primary Health Centre;;;;;
Okigwe;Umulolo Ward;;Ndindubuisi Health Centre;;;;;
Okigwe;Umulolo Ward;;Umuduka Primary Health Centre;;;;;
Okigwe;Umulolo Ward;;Amosu Health Centre;;;;;
Okigwe;Umuowa Ibu Ward;;Okannachi Health Centre;;;;;
Okigwe;Umuowa Ibu Ward;;Umuowa Ibu 1 Primary Health Centre;;;;;
Okigwe;Umuowa Ibu Ward;;Umuowa Ibu Community Primary Health Centre;;;;;
Okigwe;Umuowa Ibu Ward;;Ndiokoroji Health Centre;;;;;
Okigwe;Urban 1 Ward;;Divine Maternity Okigwe;;;;;
Okigwe;Urban 1 Ward;;Gaskiya Hospital;;;;;
Okigwe;Urban 1 Ward;;Aro-Okigwe Primary Health Centre;;;;;
Okigwe;Urban 1 Ward;;Agnes Dike Memorial Hospital;;;;;
Okigwe;Urban 2 Ward;;Chukwudi Medical Clinic (Okigwe);;;;;
Okigwe;Urban 2 Ward;;Okigwe General Hospital;;;;;
Okigwe;Urban 2 Ward;;Ivory Clinic;;;;;
Okigwe;Urban 3 Ward;;Okigwe Maternal and Child Health Clinic;;;;;
Onuimo;Eziama Ward (Onuimo};;Okwe Primary Health Centre;;;;;
Onuimo;Ofeahia Ward;;Umuduru Egbeaguru Primary Health Centre;;;;;
Onuimo;Okohia Ward;;Okohia Health Centre;;;;;
Onuimo;Okwelle 1 Ward;;Okwelle Health Centre;;;;;
Onuimo;Okwelle 1 Ward;;Okwelle Dispensary;;;;;
Onuimo;Okwelle 2 Ward;;Umoko Health Centre;;;;;
Onuimo;Owerri-Okwe Ward;;Okwe Maternal and Child Health Clininc;;;;;
Onuimo;Ozoimo Ward;;Ndianiche Uwakonye Primary Health Centre;;;;;
Onuimo;Uhi/Diakuma Ward;;Umuna Health Centre (Onuimo);;;;;
Onuimo;Uhi/Diakuma Ward;;Diakuma Primary Health Centre;;;;;
Orlu;Amaifeke Ezioha Ward;;Amaifeke Ezioha Health Centre;;;;;
Orlu;Amaifeke Ofeahia Ward;;Amaifeke Ofeahia Model Health Center;;;;;
Orlu;Amaifeke Ofeahia Ward;;Maternal Child Primary Health Center;;;;;
Orlu;Amanator/Obinugwu Ward;;Amanator Primary Health Center;;;;;
Orlu;Amanator/Obinugwu Ward;;Obinugwu Model Health Center;;;;;
Orlu;Amike/Eziachi Ward;;Eziachi Health Center;;;;;
Orlu;Amike/Eziachi Ward;;Amike Health Center;;;;;
Orlu;Ihitte-Owerre Ward;;Ihitte Owerri Health Centre;;;;;
Orlu;Mgbee/Umuokwara Ward;;Mgbee  Health Centre;;;;;
Orlu;Obibiochasi/Ogberuru Ward;;Acharaba Health Center ;;;;;
Orlu;Ohaeke Okporo Ward;;Ezioha Okporo Health Post;;;;;
Orlu;Ohaeke Okporo Ward;;Ohaeke Okporo Primary Health Center;;;;;
Orlu;Ohafor Okporo Ward;;St Damian Hospital;;;;;
Orlu;Ohafor Okporo Ward;;Ohafor Okporo Primary Health Center;;;;;
Orlu;Okwuabala Ward;;Okwuabala Health Centre;;;;;
Orlu;Orlu Town Ward;;Im Ndiowerri Model Primary Health Centre;;;;;
Orlu;Owerre-Ebeiri Ward;;Owerri Ebirri Primary Health Center;;;;;
Orlu;Umudioka Ward;;Umudioka Health Centre;;;;;
Orlu;Umuna Ward (Orlu);;Umuna Government Maternity Health Center;;;;;
Orlu;Umuowa 1 Ward;;Umuowa Health Centre;;;;;
Orlu;Umutanze Ward;;Umutanze Health Centre;;;;;
Orlu;Umuzike Ward;;Umuzike Primary Health Center;;;;;
Orsu;Amannachi Ward;;St Kelvin's Hospital;;;;;
Orsu;Amannachi Ward;;Amanachi Health Post;;;;;
Orsu;Amannachi Ward;;Amanachi Model Primary Health Centre;;;;;
Orsu;Amaruru Ward;;Amaruru Health Centre;;;;;
Orsu;Assah-Ubirielem Ward;;Umuoka Model Primary Health Centre;;;;;
Orsu;Assah-Ubirielem Ward;;Assah Ubilerem Health Post;;;;;
Orsu;Ebenator Ward;;Amazu Health Post;;;;;
Orsu;Ebenator Ward;;Ebenator Health Centre;;;;;
Orsu;Eziawa Ward;;Im Eziawa Health Post;;;;;
Orsu;Eziawa Ward;;Eziawa Health Centre;;;;;
Orsu;Ihitenansa 1 Ward;;Nansa Health Post;;;;;
Orsu;Ihitenansa 1 Ward;;Ihitenansa Health Centre;;;;;
Orsu;Ihitenansa 2 Ward;;Akwaorji Health Post;;;;;
Orsu;Ihitenansa 2 Ward;;Amanaogu Health Centre;;;;;
Orsu;Ihitenansa 2 Ward;;Amadiaba Health Post;;;;;
Orsu;Okwuamaraihe Ward 1;;Maduagwu Hospital and Maternity;;;;;
Orsu;Okwuamaraihe Ward 2;;Uzoigwe Maternity;;;;;
Orsu;Okwuamaraihe Ward 2;;Chukwuemeka Maternity;;;;;
Orsu;Okwuetiti Ward;;Nonyem Maternity;;;;;
Orsu;Okwuetiti Ward;;Victoria Clinic;;;;;
Orsu;Okwufuruaku Ward;;Awo Idemili Maternal and Child Health Clinic;;;;;
Orsu;Okwufuruaku Ward;;Ubahaesedeke Health Centre;;;;;
Orsu;Orsu-Ihite-Ukwa 1 Ward;;Etiti Orsu Health Centre;;;;;
Orsu;Orsu-Ihite-Ukwa 2 Ward;;Orsu Ihitte Ukwa Model Primary Health Centre;;;;;
Orsu;Orsu-Ihite-Ukwa 2 Ward;;Elugwu - Okabia Model Primary Health Centre;;;;;
Orsu;Uhualaofeahia Ward;;Marcillina Maternity;;;;;
Orsu;Umuhu-Okabia Ward;;Nwanyinma Health Clinic;;;;;
Oru East;Akatta 1 Ward;;Akatta 1 Health Centre;;;;;
Oru East;Akatta 2 Ward;;Akatta 2 Health Centre;;;;;
Oru East;Akuma 2 Ward;;Akuma 2 Health Centre;;;;;
Oru East;Amagu Ward;;Amagu Health Centre;;;;;
Oru East;Amiri 1 Ward;;Amiri Health Center;;;;;
Oru East;Amiri 2 Ward;;Amiri Health Center II;;;;;
Oru East;Awo Omamma 1 Ward;;Isieke Health Centre;;;;;
Oru East;Awo Omamma 2 Ward;;Awo Omamma General Hospital;;;;;
Oru East;Awo Omamma 2 Ward;;Amaji Health Centre;;;;;
Oru East;Awo Omamma 2 Ward;;Chinwendu Hospital (Awo 2);;;;;
Oru East;Awo Omamma 3 Ward;;Umuokwe Primary Health Centre;;;;;
Oru East;Awo Omamma 4 Ward;;Ubogwu Health Centre;;;;;
Oru East;Awo Omamma 5 Ward;;Umuezukwe Health Centre;;;;;
Oru East;Awo Omamma 6 Ward;;Umueme Health Centre;;;;;
Oru East;Awo Omamma 6 Ward;;Umuezuike Health Centre;;;;;
Oru East;Etiti/Abia Ward;;People's Clinic;;;;;
Oru East;Etiti/Abia Ward;;Omuma Health Centre;;;;;
Oru East;Ozuh/Umuhu Ward;;Omuma Abaia Health Center;;;;;
Oru East;Ozuh/Umuhu Ward;;Ozuh Model Health Center;;;;;
Oru West;Mgbidi 4  Ward ;;Mgbidi Maternity;;;;;
Oru West;Aji Ward;;Aji Model Primary Health Centre;;;;;
Oru West;Amaofuo Ward;;Amaofuo Primary Health Centre;;;;;
Oru West;Elechi Ward;;Eleh Health Post;;;;;
Oru West;Ibiasogbe Ward;;Ibiasoegbe Primary Health Centre and Dispensary;;;;;
Oru West;Mgbidi 1 Ward;;Uzinumu Health Centre;;;;;
Oru West;Mgbidi 2 Ward;;White Rose Hospital;;;;;
Oru West;Mgbidi 3 Ward;;Mgbidi Primary Health Centre (MCH);;;;;
Oru West;Mgbidi 3 Ward;;Mgbidi Dispensary;;;;;
Oru West;Mgbidi 3 Ward;;Mgbidi Health Clinic;;;;;
Oru West;Nempi Ward;;Nempi Primary Health Centre;;;;;
Oru West;Nempi Ward;;Ihitte Oha Health Post;;;;;
Oru West;Ohakpu Ward;;Ohakpu Primary Health Centre;;;;;
Oru West;Otulu Ward;;Otulu  Primary Health Centre;;;;;
Oru West;Otulu Ward;;Ijeoma Maternity Home (Ubahara);;;;;
Oru West;Ozara Ward;;Ozara Health Centre;;;;;
Oru West;Ubulu 1 Ward;;Amorie Health Centre;;;;;
Oru West;Ubulu 1 Ward;;Ubulu Primary Health Cenre ;;;;;
Oru West;Ubulu 2 Ward;;Ubulu Health Post;;;;;
Owerri Municipal;Aladinma 2 Ward;;Jesus Own Hospital & Maternity;;;;;
Owerri Municipal;Aladinma Ward 1;;Aladimma Hospital;;;;;
Owerri Municipal;Azuzii 1 Ward;;Chinwe Maternity Home;;;;;
Owerri Municipal;Azuzii 1 Ward;;St Luke Referral Centre Uzii;;;;;
Owerri Municipal;Azuzii 1 Ward;;Omata Health Post;;;;;
Owerri Municipal;Azuzii 3 Ward;;Waterside Health Post;;;;;
Owerri Municipal;Azuzii 4 Ward;;Umuodu Primary Health Centre;;;;;
Owerri Municipal;Government Residential Area Ward;;St Elizabeth Hospital;;;;;
Owerri Municipal;Government Residential Area Ward;;Alvan Ikoku College of Education Medical Centre;;;;;
Owerri Municipal;Government Residential Area Ward;;Amanda Hospital;;;;;
Owerri Municipal;Government Residential Area Ward;;Government House Clinic;;;;;
Owerri Municipal;Government Residential Area Ward;;Police Clinic;;;;;
Owerri Municipal;Government Residential Area Ward;;Federal Medical Centre (FMC) ;;;;;
Owerri Municipal;Ikenegbu 2 Ward;;International Christian Community Hospital;;;;;
Owerri Municipal;Ikenegbu 2 Ward;;Life Spring Hospital;;;;;
Owerri Municipal;Ikenegbu 2 Ward;;Chapel Group Hospital and Maternity;;;;;
Owerri Municipal;Ikenegbu 2 Ward;;St David's Hospital;;;;;
Owerri Municipal;Ikenegbu 2 Ward;;First Concept Hospital;;;;;
Owerri Municipal;Ikenegbu 2 Ward;;Nigeria Prisons AST;;;;;
Owerri Municipal;Ikenegbu 2 Ward;;Nigerian Prisons Health Facility 2;;;;;
Owerri Municipal;Ikenegbu 2 Ward;;Holy Family Hospital and Maternity;;;;;
Owerri Municipal;Ikenegbu 3 Ward;;Owerri Municipal Staff Clinic;;;;;
Owerri Municipal;Ikenegbu 3 Ward;;Umuzurike Hospital;;;;;
Owerri Municipal;New Owerri 1 Ward;;Area M  Comprehensive Health Centre;;;;;
Owerri Municipal;New Owerri 1 Ward;;Imo House of Assembly Clinic;;;;;
Owerri Municipal;New Owerri 1 Ward;;Area L Health Centre;;;;;
Owerri Municipal;New Owerri 2 Ward;;Vaden Specialist Hospital and Maternity;;;;;
Owerri North;Agbala/Ulakwo Ward;;Nwachinemere Maternity;;;;;
Owerri North;Agbala/Ulakwo Ward;;Ulakwo Health Centre;;;;;
Owerri North;Agbala/Ulakwo Ward;;Belmont Specialist Hospital;;;;;
Owerri North;Agbala/Ulakwo Ward;;Graceland Hospital;;;;;
Owerri North;Akwakuma Ward;;Pamella Hospital;;;;;
Owerri North;Akwakuma Ward;;Akwakuma Health Center;;;;;
Owerri North;Akwakuma Ward;;Six C Specialist Clinic;;;;;
Owerri North;Awaka/Ihitte Ogada Ward;;Edozie Clinic;;;;;
Owerri North;Awaka/Ihitte Ogada Ward;;Awaka Health Centre;;;;;
Owerri North;Awaka/Ihitte Ogada Ward;;Ihitte Ogada Health Centre;;;;;
Owerri North;Egbu 1 Ward;;God's Gift Maternity;;;;;
Owerri North;Egbu 1 Ward;;Egbu Health Centre;;;;;
Owerri North;Egbu 2 Ward;;Christiana Specialist Hospital;;;;;
Owerri North;Emekukwu 1 Ward;;Holy Rosery Hospital;;;;;
Owerri North;Emekukwu 1 Ward;;St Charles Hospital (Owerri North);;;;;
Owerri North;Emekukwu 1 Ward;;Okwuemeke Health Center;;;;;
Owerri North;Emekukwu 2 Ward;;Uboegbeli Health Centre;;;;;
Owerri North;Emii 1 Ward;;Oge Zion Maternity;;;;;
Owerri North;Emii 1 Ward;;Juliet Obi Memorial Hospital;;;;;
Owerri North;Emii 1 Ward;;Emii Primary Health Care;;;;;
Owerri North;Emii 2 Ward;;Chijioke Maternity Home;;;;;
Owerri North;Emii 2 Ward;;Mgbahiri Health Post;;;;;
Owerri North;Naze Ward;;Naze Primary Health Care;;;;;
Owerri North;Obibi 1 Ward;;Umuoba Health Centre;;;;;
Owerri North;Obibi 1 Ward;;Anoma Maternity (Owerri North);;;;;
Owerri North;Obibi 1 Ward;;Umuorii Health Center;;;;;
Owerri North;Obibi 1 Ward;;Akarugo Medical Clinic;;;;;
Owerri North;Obibi 1 Ward;;Okwu Uratta Health Centre;;;;;
Owerri North;Obibi 1 Ward;;Mater Dei Clinic (Obibi Uratta);;;;;
Owerri North;Obibi 2 Ward;;Charity Hospital;;;;;
Owerri North;Obibi 2 Ward;;Owaelu  Health Center;;;;;
Owerri North;Obibi 2 Ward;;Ekeobi Health Center;;;;;
Owerri North;Obibi Ezena Ward;;Chisom Maternity;;;;;
Owerri North;Obube Ward;;Ngwoma Primary Health Centre;;;;;
Owerri North;Obube Ward;;Egbelu Obube Dispensary;;;;;
Owerri North;Orji 1 Ward;;Alpha Clinic;;;;;
Owerri North;Orji 1 Ward;;New Creation Maternity;;;;;
Owerri North;Orji 1 Ward;;Chinonyerem Maternity Home;;;;;
Owerri North;Orji 2 Ward;;Uchechi Maternity;;;;;
Owerri North;Orji 2 Ward;;Redeem Christian Hospital;;;;;
Owerri North;Orji 2 Ward;;Marloy Clinic;;;;;
Owerri North;Orji 2 Ward;;Oguchialu Maternity;;;;;
Owerri West;Amakohia/Ndegwu Ward;;Amakohia Primary Health Centre;;;;;
Owerri West;Amakohia/Ndegwu Ward;;Ndegwu Primary Health Centre;;;;;
Owerri West;Avu Ward;;Avu Primary Health Centre;;;;;
Owerri West;Emeabiam Ward;;Im Emeabiam Primary Health Centre;;;;;
Owerri West;Eziobodo Ward;;Eziobodo Primary Health Centre;;;;;
Owerri West;Ihiagwa Ward;;Iheagwa Primary Health Centre;;;;;
Owerri West;Ihiagwa Ward;;Dindin Health Centre;;;;;
Owerri West;Irette Ward;;Im Irette Primary Health Centre;;;;;
Owerri West;Nekede 1 Ward;;Umudiba Health Centre;;;;;
Owerri West;Nekede 1 Ward;;Rosana Medical Centre;;;;;
Owerri West;Nekede 1 Ward;;Nekede-1 Primary Health Centre;;;;;
Owerri West;Nekede 2 Ward;;Im Nekede-2 Primary health Centre;;;;;
Owerri West;Nekede 2 Ward;;City Hospital;;;;;
Owerri West;Nekede 2 Ward;;Chigozie Hospital;;;;;
Owerri West;Obinze Ward;;Obinze Health Centre;;;;;
Owerri West;Obinze Ward;;Umuanunu Health Centre;;;;;
Owerri West;Obinze Ward;;Barracks Health Centre;;;;;
Owerri West;Oforola Ward;;Olaukwu Health Centre;;;;;
Owerri West;Oforola Ward;;Oforola Health Centre;;;;;
Owerri West;Okolochi Ward;;Im Okolochi Health Centre;;;;;
Owerri West;Okuku Ward;;Okuku Health Centre;;;;;
Owerri West;Orogwe/Ohii Ward;;Orogwe Health Centre;;;;;
Owerri West;Orogwe/Ohii Ward;;Ohii Health Centre;;;;;
Owerri West;Umuguma Ward;;Im Umuguma Primary Health Centre;;;;;
