LGA;Ward;Settlement;Facility;Type;Ownership;Address;Longitude;Latitude
Birnin Gwari;Damari Ward;;Takama Health Clinic;;;;;
Birnin Gwari;Damari Ward;;Gwanda Health Clinic;;;;;
Birnin Gwari;Damari Ward;;Damari Health Clinic (Birnin Gwari);;;;;
Birnin Gwari;Damari Ward;;Ingade Health Clinic;;;;;
Birnin Gwari;Dogon Dawa Ward;;Funtuwan Badadi Health Clinic;;;;;
Birnin Gwari;Dogon Dawa Ward;;Dogon Dawa Priamry Health Clinic;;;;;
Birnin Gwari;Dogon Dawa Ward;;Unguwar Danko Health Clinic;;;;;
Birnin Gwari;Gayam Ward;;Palwaya Health Clinic;;;;;
Birnin Gwari;Gayam Ward;;Rumana Health Clinic;;;;;
Birnin Gwari;Gayam Ward;;Gayam Health Clinic;;;;;
Birnin Gwari;Gayam Ward;;Kwaga Health Clinic;;;;;
Birnin Gwari;Gayam Ward;;Mando Health Clinic;;;;;
Birnin Gwari;Gayam Ward;;Kamfanin Doka Health Clinic;;;;;
Birnin Gwari;Gayam Ward;;Layin Maigwari Health Clinic;;;;;
Birnin Gwari;Gayam Ward;;Labi Health Clinic;;;;;
Birnin Gwari;Kakangi Ward (Birnin Gwari);;Kakangi Health Clinic (Birnin Gwari);;;;;
Birnin Gwari;Kakangi Ward (Birnin Gwari);;Katakaki Health Clinic;;;;;
Birnin Gwari;Kakangi Ward (Birnin Gwari);;Unguwar Zakara Health Clinic;;;;;
Birnin Gwari;Kakangi Ward (Birnin Gwari);;Gagumi Health Clinic;;;;;
Birnin Gwari;Kakangi Ward (Birnin Gwari);;Tashar Keji Health Clinic;;;;;
Birnin Gwari;Kakangi Ward (Birnin Gwari);;Sabon Layi Health Clinic;;;;;
Birnin Gwari;Kakangi Ward (Birnin Gwari);;Unguwar Bagudu Health Clinic;;;;;
Birnin Gwari;Kutemeshi Ward;;Kutemeshe Health Clinic;;;;;
Birnin Gwari;Kutemeshi Ward;;Unguwar Gajere Health Clinic;;;;;
Birnin Gwari;Kuyello Ward;;Shado Health Clinic;;;;;
Birnin Gwari;Kuyello Ward;;Kuyello Priamry Health Clinic;;;;;
Birnin Gwari;Kuyello Ward;;Old Kuyello Health Clinic;;;;;
Birnin Gwari;Kuyello Ward;;Kwasa Kwasa Health Clinic;;;;;
Birnin Gwari;Kuyello Ward;;Dinya Health Centre;;;;;
Birnin Gwari;Magajin Gari 1 Ward;;Birnin Gwari Maternal and Child Health Clinic;;;;;
Birnin Gwari;Magajin Gari 1 Ward;;Anguwar Shitu Health Clinic;;;;;
Birnin Gwari;Magajin Gari 1 Ward;;Kagi Health Clinic;;;;;
Birnin Gwari;Magajin Gari 2 Ward;;Bugai Health Clinic;;;;;
Birnin Gwari;Magajin Gari 2 Ward;;Awaro Health Clinic;;;;;
Birnin Gwari;Magajin Gari 2 Ward;;Anguwar Haladu Priamry Health Centre;;;;;
Birnin Gwari;Magajin Gari 2 Ward;;Jibrin Maigwari General Hospital;;;;;
Birnin Gwari;Magajin Gari 3 Ward;;Saulawa Health Clinic;;;;;
Birnin Gwari;Magajin Gari 3 Ward;;Unguwar Nachibi Health Clinic;;;;;
Birnin Gwari;Magajin Gari 3 Ward;;Maganda Health Clinic;;;;;
Birnin Gwari;Magajin Gari 3 Ward;;Gwaska Health Clinic;;;;;
Birnin Gwari;Randagi Ward;;Dawakin Bassa Health Clinic;;;;;
Birnin Gwari;Randagi Ward;;Nassarawa Health Clinic (Birnin Gwari);;;;;
Birnin Gwari;Randagi Ward;;Ijinga Health Clinic;;;;;
Birnin Gwari;Randagi Ward;;Shirya Health Clinic;;;;;
Birnin Gwari;Randagi Ward;;Kungi Health Clinic;;;;;
Birnin Gwari;Randagi Ward;;Kuki Health Clinic;;;;;
Birnin Gwari;Randagi Ward;;Randagi Health Clinic;;;;;
Birnin Gwari;Randagi Ward;;Kimbi Health Clinic;;;;;
Birnin Gwari;Randagi Ward;;Ukuga Health Clinic;;;;;
Birnin Gwari;Tabanni Ward;;Tabanni Primary Health Clinic;;;;;
Birnin Gwari;Tabanni Ward;;Layin Lassan Health Clinic;;;;;
Birnin Gwari;Tabanni Ward;;Old Tabanni Health Clinic;;;;;
Chikun;Chikun Unknown Ward;;Mio Prince Clinical;;;;;
Chikun;Chikun Unknown Ward;;Top Clinic and Maternity;;;;;
Chikun;Chikun Ward;;Katarma Health Clinic;;;;;
Chikun;Chikun Ward;;Gadan Health Centre;;;;;
Chikun;Chikun Ward;;Chikun Health Clinic;;;;;
Chikun;Chikun Ward;;Dakunu Health Centre;;;;;
Chikun;Gwagwada Ward;;Gwagwada Health Clinic;;;;;
Chikun;Gwagwada Ward;;Ungwan Turai Primary Health Centre;;;;;
Chikun;Gwagwada Ward;;Bakin Kasuwa Health Clinic;;;;;
Chikun;Gwagwada Ward;;Dutse Health Clinic;;;;;
Chikun;Kakau Ward;;Anguwar Ayaba Health Clinic;;;;;
Chikun;Kakau Ward;;Kakau Health Clinic;;;;;
Chikun;Kakau Ward;;Ligari Health Clinic;;;;;
Chikun;Kakau Ward;;Kakau Daji Health Centre;;;;;
Chikun;Kakau Ward;;Gonin Gora Health Centre;;;;;
Chikun;Kakau Ward;;Buwaya Health Centre;;;;;
Chikun;Kakau Ward;;Sabon Gaya Health Clinic;;;;;
Chikun;Kujama Ward;;Kujama Rural Hospital;;;;;
Chikun;Kujama Ward;;Salama Health Centre;;;;;
Chikun;Kujama Ward;;Kujama Gari Health Clinic;;;;;
Chikun;Kujama Ward;;Tudun Wada Kujama Health Clinic;;;;;
Chikun;Kunai Ward;;Kasaya Health Clinic;;;;;
Chikun;Kunai Ward;;Barinje Health Clinic;;;;;
Chikun;Kunai Ward;;Udawa Health Clinic;;;;;
Chikun;Kunai Ward;;Rimi Health Centre;;;;;
Chikun;Kunai Ward;;Forestry Health Clinic;;;;;
Chikun;Kunai Ward;;Dende Health Centre;;;;;
Chikun;Kunai Ward;;Huwa Clinic and Maternity;;;;;
Chikun;Kunai Ward;;Buruku Health Clinic;;;;;
Chikun;Kunai Ward;;Dan Buruku Nursing Home;;;;;
Chikun;Kuriga Ward;;Manini Health Clinic;;;;;
Chikun;Narayi Ward;;TBL Health Centre;;;;;
Chikun;Narayi Ward;;Narayi Health Clinic;;;;;
Chikun;Narayi Ward;;Wilbasun Hospital and Maternity;;;;;
Chikun;Nassarawa Ward;;Kadi Health Centre;;;;;
Chikun;Nassarawa Ward;;Nassarawa Health Clinic (Chikun);;;;;
Chikun;Rido Ward;;Dangiwa Memorial Hospital;;;;;
Chikun;Rido Ward;;Babban Saura Health Clinic;;;;;
Chikun;Rido Ward;;Danhonu Health Clinic;;;;;
Chikun;Rido Ward;;Bagado Health Clinic;;;;;
Chikun;Rido Ward;;Mararraban Rido Health Clinic;;;;;
Chikun;Rido Ward;;Bmazhi Nursing and Convalescent Home;;;;;
Chikun;Rido Ward;;Rido Health Clinic;;;;;
Chikun;Rido Ward;;Hope for The Village Child Clinic;;;;;
Chikun;Rido Ward;;Doka Maijama'a PHC;;;;;
Chikun;Rido Ward;;Kamazo Health Centre;;;;;
Chikun;Sabon Gari Ward (Nassarawa);;Kudandan Health Centre;;;;;
Chikun;Sabon Gari Ward (Nassarawa);;Sabon Gari Health Clinic;;;;;
Chikun;Sabon Tasha Ward;;Sabon Tasha Doctors Clinic;;;;;
Chikun;Sabon Tasha Ward;;Sabon Tasha Health Clinic;;;;;
Chikun;Yelwa Ward;;Yelwa Health Clinic;;;;;
Chikun;Yelwa Ward;;Romi Health Clinic;;;;;
Giwa;Danmahawayi Ward;;Maje Health Clinic;;;;;
Giwa;Danmahawayi Ward;;Damahawayi Primary Health Centre;;;;;
Giwa;Danmahawayi Ward;;Madobi Health Clinic;;;;;
Giwa;Galadimawa Ward;;Tumburku Health Clinic;;;;;
Giwa;Galadimawa Ward;;Makera Health Clinic (Galadimawa);;;;;
Giwa;Galadimawa Ward;;Galadimawa Primary Health Centre;;;;;
Giwa;Gangara Ward;;Madara Health Clinic;;;;;
Giwa;Gangara Ward;;Dundubus Health Clinic;;;;;
Giwa;Gangara Ward;;Bomawa Health Clinic;;;;;
Giwa;Gangara Ward;;Mahuta Health Clinic;;;;;
Giwa;Gangara Ward;;Makaurata Health Clinic (Giwa);;;;;
Giwa;Gangara Ward;;Gangara Primary Health Centre (Giwa);;;;;
Giwa;Gangara Ward;;Tsaftawa Health Clinic;;;;;
Giwa;Giwa Ward;;Mujedawa Health Clinic;;;;;
Giwa;Giwa Ward;;Janbaba Health Clinic;;;;;
Giwa;Giwa Ward;;Giwa Primary Health Centre;;;;;
Giwa;Giwa Ward;;Wardanga Health Clinic;;;;;
Giwa;Giwa Ward;;Giwa General Hospital;;;;;
Giwa;Giwa Ward;;Tsohuwar Giwa Model Health Centre;;;;;
Giwa;Giwa Ward;;HMC Giwa;;;;;
Giwa;Idasu Ward;;Kaya Primary Health Centre;;;;;
Giwa;Idasu Ward;;Fatika Health Clinic;;;;;
Giwa;Idasu Ward;;Yalwan Nuhu Health Clinic;;;;;
Giwa;Idasu Ward;;Dako Health Clinic;;;;;
Giwa;Kakangi Ward (Giwa);;Kuramaka Health Clinic;;;;;
Giwa;Kakangi Ward (Giwa);;Sabon Birni Health Clinic (Giwa);;;;;
Giwa;Kakangi Ward (Giwa);;Dokan D Magaji Health Clinic;;;;;
Giwa;Kakangi Ward (Giwa);;Kakangi Primary Health Centre (Giwa);;;;;
Giwa;Kidandan Ward;;Sabon Gida Health Clinic;;;;;
Giwa;Kidandan Ward;;MRS Steven Clinic;;;;;
Giwa;Kidandan Ward;;Maidaro Health Clinic;;;;;
Giwa;Kidandan Ward;;Kidandan Primary Health Centre;;;;;
Giwa;Kidandan Ward;;Iyatawa Health Clinic;;;;;
Giwa;Panhauya Ward;;Panhauya Primary Health Centre;;;;;
Giwa;Panhauya Ward;;Biye Health Clinic;;;;;
Giwa;Panhauya Ward;;Bijimi Health Clinic;;;;;
Giwa;Shika Ward;;Mararaban Guga Health Clinic;;;;;
Giwa;Shika Ward;;Tawatsu Health Clinic;;;;;
Giwa;Shika Ward;;Shika Primary Health Centre;;;;;
Giwa;Shika Ward;;Tsibiri Health Clinic;;;;;
Giwa;Shika Ward;;Kurku Health Clinic;;;;;
Giwa;Wazata Ward;;Kadage Health Clinic (Giwa);;;;;
Giwa;Wazata Ward;;Detu Health Clinic;;;;;
Giwa;Wazata Ward;;Kundu Health Clinic;;;;;
Giwa;Wazata Ward;;Rafin Yashi Health Clinic;;;;;
Giwa;Wazata Ward;;Wazata Primary Health Centre;;;;;
Giwa;Wazata Ward;;Karaukarau Health Clinic;;;;;
Giwa;Wazata Ward;;Danza Fulani Health Clinic;;;;;
Giwa;Wazata Ward;;Murai Health Clinic;;;;;
Giwa;Yakawada Ward;;Dokan Waziri Health Centre;;;;;
Giwa;Yakawada Ward;;Gadagau Health Clinic;;;;;
Giwa;Yakawada Ward;;Yakawada Health Clinic;;;;;
Giwa;Yakawada Ward;;Anguwar Gaga Health Clinic;;;;;
Giwa;Yakawada Ward;;Gidan Sarki Yahaya Health Clinic;;;;;
Giwa;Yakawada Ward;;Bare Bari Health Centre;;;;;
Giwa;Yakawada Ward;;Comprehensive Health Centre;;;;;
Giwa;Yakawada Ward;;Tasha Shari Health Clinic;;;;;
Igabi;Afaka Ward;;Ifira Primary Health Centre;;;;;
Igabi;Afaka Ward;;Kutungare Health Clinic;;;;;
Igabi;Afaka Ward;;Afaka Primary Health Centre;;;;;
Igabi;Afaka Ward;;Mando Primary Health Centre (Igaba);;;;;
Igabi;Birnin Yero Ward;;Albashir Nursing Home Jaji;;;;;
Igabi;Birnin Yero Ward;;Birnin Yero Tshowa Health Clinic;;;;;
Igabi;Birnin Yero Ward;;Labar Primary Health Centre;;;;;
Igabi;Birnin Yero Ward;;Jaji Comprehensive Health Centre;;;;;
Igabi;Fanshanu Ward;;Amana Primary Health Centre;;;;;
Igabi;Fanshanu Ward;;Fanturawa Health Clinic;;;;;
Igabi;Fanshanu Ward;;Gadan Gayan Primary Health Centre;;;;;
Igabi;Gwaraji Ward;;Gwaraji Primary Health Centre;;;;;
Igabi;Gwaraji Ward;;Barkono Health Clinic;;;;;
Igabi;Gwaraji Ward;;Kaban Primary Health Centre;;;;;
Igabi;Igabi Ward;;Ashehu Primary Health Centre;;;;;
Igabi;Igabi Ward;;Igabi Primary Health Centre;;;;;
Igabi;Igabi Ward;;Sheka Health Clinic;;;;;
Igabi;Kerawa Ward;;Tumbau Health Clinic;;;;;
Igabi;Kerawa Ward;;Tudun Wadan Danmama Health Clinic;;;;;
Igabi;Kerawa Ward;;Gwada Health Clinic;;;;;
Igabi;Kerawa Ward;;Bina Health Clinic;;;;;
Igabi;Kerawa Ward;;Kerawa Primary Health Centre;;;;;
Igabi;Kerawa Ward;;Sabon Birnin Dosa Primary Health Centre;;;;;
Igabi;Kerawa Ward;;Dinki Health Clinic;;;;;
Igabi;Kwarau Ward;;Kangimi Health Clinic;;;;;
Igabi;Kwarau Ward;;Kwarau Gari Health Clinic;;;;;
Igabi;Kwarau Ward;;Ruhogi Health Clinic;;;;;
Igabi;Kwarau Ward;;Kwarau Tasha Health Clinic;;;;;
Igabi;Kwarau Ward;;Maraban Jos Hope Clinic;;;;;
Igabi;Kwarau Ward;;Al-Amin Clinic;;;;;
Igabi;Kwarau Ward;;Dankande Health Clinic - (Igabi);;;;;
Igabi;Kwarau Ward;;Mararaban Jos Health Clinic;;;;;
Igabi;Rigachikun Ward;;Kurmin Kaduna Health Clinic;;;;;
Igabi;Rigachikun Ward;;Khalipha BIN Umar Hospital/Maternity;;;;;
Igabi;Rigachikun Ward;;Nigerian Diary Company (NDC) Health Clinic;;;;;
Igabi;Rigachikun Ward;;Barakallahu Primary Health Centre;;;;;
Igabi;Rigachikun Ward;;Lokora Health Clinic;;;;;
Igabi;Rigachikun Ward;;Zaure Health Clinic;;;;;
Igabi;Rigachikun Ward;;Rigachikun Primary Health Centre;;;;;
Igabi;Rigasa Ward;;Rigasa (Miyatti Allah) Primary Health Centre;;;;;
Igabi;Rigasa Ward;;Hayin Danmani Health Clinic;;;;;
Igabi;Rigasa Ward;;Nasiha Hospital and Maternity;;;;;
Igabi;Rigasa Ward;;Rigasa General Hospital;;;;;
Igabi;Rigasa Ward;;Aisha Atansariya Health Clinic;;;;;
Igabi;Rigasa Ward;;Kd Mahuta Health Clinic;;;;;
Igabi;Rigasa Ward;;Nariya Health Clinic;;;;;
Igabi;Rigasa Ward;;Karshen/Kwalta (Last Bus Stop) Health Clinic;;;;;
Igabi;Rigasa Ward;;Tarotaro Health Clinic;;;;;
Igabi;Sabon Birni Daji Ward;;Tami Health Clinic;;;;;
Igabi;Sabon Birni Daji Ward;;Wusono Health Clinic;;;;;
Igabi;Sabon Birni Daji Ward;;Sabon Birni Daji Primary Health Centre;;;;;
Igabi;Turunku Ward;;Turunku Primary Health Centre;;;;;
Igabi;Turunku Ward;;Kwanan Farakwai Health Centre;;;;;
Igabi;Turunku Ward;;Bargu Health Clinic;;;;;
Igabi;Turunku Ward;;Turunku Rural Hospital;;;;;
Igabi;Turunku Ward;;Kankurmi Health Centre;;;;;
Igabi;Zangon Aya Ward;;Lanban Zango Health Centre;;;;;
Igabi;Zangon Aya Ward;;Audi Health Clinic;;;;;
Igabi;Zangon Aya Ward;;Kigo Health Centre;;;;;
Igabi;Zangon Aya Ward;;Mangi Health Clinic;;;;;
Igabi;Zangon Aya Ward;;Kafani Zango Health Clinic;;;;;
Igabi;Zangon Aya Ward;;Tundu Wada Mangi Health Clinic;;;;;
Igabi;Zangon Aya Ward;;Iruga Health Clinic;;;;;
Igabi;Zangon Aya Ward;;Zango Aya (NHIS) Primary Health Centre;;;;;
Igabi;Zangon Aya Ward;;Lawal Clinic;;;;;
Ikara;Auchan Ward;;Auchan Health Clinic;;;;;
Ikara;Auchan Ward;;Kwakwa Health Clinic;;;;;
Ikara;Auchan Ward;;Allah Gaba Health Clinic;;;;;
Ikara;Auchan Ward;;Yargora Health Clinic;;;;;
Ikara;Auchan Ward;;Kd Sabon Garin Auchan Health Clinic;;;;;
Ikara;Ikara Ward;;Auchanawa Health Clinic;;;;;
Ikara;Ikara Ward;;Kd Anguwan Amadu Dogo Health Clinic;;;;;
Ikara;Ikara Ward;;Yargora Maternity Clinic;;;;;
Ikara;Ikara Ward;;Unguwar Liman Health Clinic;;;;;
Ikara;Ikara Ward;;Ikara Primary Health Center;;;;;
Ikara;Ikara Ward;;Ikara Clinic and Maternity;;;;;
Ikara;Ikara Ward;;Zage Zagi Health Clinic;;;;;
Ikara;Ikara Ward;;Ikara Government Health Office Clinic;;;;;
Ikara;Ikara Ward;;Kankanki Health Clinic;;;;;
Ikara;Jamfalam Ward;;Jibis Health Clinic;;;;;
Ikara;Jamfalam Ward;;Rahama Clinic;;;;;
Ikara;Jamfalam Ward;;Kd Anguwan Kartau Health Clinic;;;;;
Ikara;Jamfalam Ward;;General Hospital Ikara;;;;;
Ikara;Jamfalam Ward;;Gimbawa Health Clinic;;;;;
Ikara;Jamfalam Ward;;Malinkanci Health Clinic;;;;;
Ikara;Jamfalam Ward;;Jampalan Nursing and Maternity Home;;;;;
Ikara;Jamfalam Ward;;Bakula Health Clinic;;;;;
Ikara;Kurmin Kogi Ward;;Kurmin Kogi Health Clinic;;;;;
Ikara;Kurmin Kogi Ward;;Nassarawa Health Clinic (Ikara);;;;;
Ikara;Kurmin Kogi Ward;;Dan Lawal Health Clinic;;;;;
Ikara;Kurmin Kogi Ward;;Furana Health Clinic;;;;;
Ikara;Kurmin Kogi Ward;;Kurmin Kogi Baptist Primary Health Centre;;;;;
Ikara;Kurmin Kogi Ward;;Kd Mahangi Health Clinic;;;;;
Ikara;Kurmin Kogi Ward;;Angwar Barau Health Clinic;;;;;
Ikara;Kuya Ward;;Bamuyayi Health Clinic;;;;;
Ikara;Kuya Ward;;Gangarida Health Clinic ;;;;;
Ikara;Kuya Ward;;Kd Tashan Ango Health Clinic;;;;;
Ikara;Kuya Ward;;Kaza Health Clinic;;;;;
Ikara;Kuya Ward;;Kd Tashan Nabai Health Clinic;;;;;
Ikara;Kuya Ward;;Kuya Health Clinic;;;;;
Ikara;Paki Ward;;Paki Primary Health Centre;;;;;
Ikara;Paki Ward;;Yelwan Daji Health Clinic;;;;;
Ikara;Pala Ward;;Pala Health Clinic;;;;;
Ikara;Pala Ward;;Tashan-Dogo Health Centre;;;;;
Ikara;Rumi Ward;;Wambai Health Clinic;;;;;
Ikara;Rumi Ward;;Rafin-Rogo Health Clinic;;;;;
Ikara;Rumi Ward;;Gidan Dahiru Ja Health Clinic;;;;;
Ikara;Rumi Ward;;PHC Rumi;;;;;
Ikara;Rumi Ward;;Yauran Health Clinic;;;;;
Ikara;Rumi Ward;;Kd Kunkumi Health Clinic;;;;;
Ikara;Rumi Ward;;Runji Health Clinic (Ikara);;;;;
Ikara;Saulawa Ward;;Saulawa Primary Health Centre;;;;;
Ikara;Saulawa Ward;;Kwari Health Clinic;;;;;
Ikara;Saulawa Ward;;Fadamar Kale Health Clinic;;;;;
Ikara;Saulawa Ward;;Pampaida Health Clinic;;;;;
Ikara;Saya-Saya Ward;;Bunsura Health Clinic;;;;;
Ikara;Saya-Saya Ward;;Kurmin Jau Health Clinic;;;;;
Ikara;Saya-Saya Ward;;Bareda Health Clinic;;;;;
Ikara;Saya-Saya Ward;;Kargo Health Centre;;;;;
Ikara;Saya-Saya Ward;;Saya Saya Health Clinic;;;;;
Jaba;Chori Ward;;Buruwaye Health Clinic;;;;;
Jaba;Chori Ward;;Chori Fadek Health Clinic;;;;;
Jaba;Chori Ward;;Chori Baraki Health Clinic;;;;;
Jaba;Chori Ward;;Chori Makama Health Clinic;;;;;
Jaba;Chori Ward;;Arzuka Health Clinic;;;;;
Jaba;Chori Ward;;Sabon Gari Chori Health Clinic;;;;;
Jaba;Daddu Ward;;Madachi Health Clinic;;;;;
Jaba;Daddu Ward;;Kajuru Health Clinic (Jaba);;;;;
Jaba;Daddu Ward;;Gidan Sani Health Clinic;;;;;
Jaba;Daddu Ward;;Karshe Health Clinic;;;;;
Jaba;Daddu Ward;;Kyari Health Clinic;;;;;
Jaba;Daddu Ward;;Daddu Health Clinic;;;;;
Jaba;Daddu Ward;;Kurmin Zomo Health Clinic;;;;;
Jaba;Dura Bitaro Ward;;Bitaro Health Clinic;;;;;
Jaba;Dura Bitaro Ward;;Dura Health Clinic;;;;;
Jaba;Dura Bitaro Ward;;Gidan Kundi Health Clinic;;;;;
Jaba;Dura Bitaro Ward;;Unguwar Rana Health Clinic;;;;;
Jaba;Fada Ward (Jaba);;Ngarshang Health Clinic;;;;;
Jaba;Fada Ward (Jaba);;Fogyei Health Clinic;;;;;
Jaba;Fada Ward (Jaba);;Nganduro Health Clinic;;;;;
Jaba;Fai Ward;;Anguwar Gauji Health Clinic;;;;;
Jaba;Fai Ward;;Tudun Wada Kurmin Jatau Health Centre;;;;;
Jaba;Fai Ward;;Kurmin Jatau Health Centre;;;;;
Jaba;Fai Ward;;Anguwar Isah Health Clinic;;;;;
Jaba;Fai Ward;;Unguwar Fari Health Clinic;;;;;
Jaba;Fai Ward;;Anguwar Galadima Health Clinic;;;;;
Jaba;Nduya Ward;;Taime Health Clinic;;;;;
Jaba;Nduya Ward;;Indofa Health Clinic;;;;;
Jaba;Nduya Ward;;Unguwar Kurah Health Clinic;;;;;
Jaba;Nduya Ward;;Ankung B Health Clinic;;;;;
Jaba;Nduya Ward;;Ramindop A Health Clinic;;;;;
Jaba;Nduya Ward;;Ankung A Health Clinic;;;;;
Jaba;Nduya Ward;;Idar Health Clinic;;;;;
Jaba;Nduya Ward;;Ankung C Health Clinic;;;;;
Jaba;Nduya Ward;;Gora Health Clinic;;;;;
Jaba;Nok Ward;;Ngari Nok Health Clinic;;;;;
Jaba;Nok Ward;;Nok Health Clinic;;;;;
Jaba;Nok Ward;;Tunga Nok Health Clinic;;;;;
Jaba;Nok Ward;;Tunga Zee Health Clinic;;;;;
Jaba;Sab Chem Ward;;Nomdow Clinic;;;;;
Jaba;Sab Chem Ward;;Sabon Gari Kwoi Health Clinic;;;;;
Jaba;Sab Chem Ward;;Kwoi Child Welfare Clinic;;;;;
Jaba;Sab Zuro Ward;;Kwoi General Hospital;;;;;
Jaba;Sab Zuro Ward;;Sab-Zuro Health Clinic;;;;;
Jaba;Samban Ward;;Samban Loko Health Clinic;;;;;
Jaba;Samban Ward;;Angwar Health Clinic;;;;;
Jaba;Samban Ward;;Unguwar Zuma Health Clinic;;;;;
Jaba;Samban Ward;;Samban Daji Health Clinic;;;;;
Jaba;Samban Ward;;Samban Gida Health Clinic;;;;;
Jema'a;Asso Ward;;Kussum Health Centre;;;;;
Jema'a;Asso Ward;;Wazo Health Centre;;;;;
Jema'a;Asso Ward;;Asso Primary Health Centre;;;;;
Jema'a;Asso Ward;;Kwagiri Health Centre;;;;;
Jema'a;Atuku Ward;;Tajak Health Clinic;;;;;
Jema'a;Atuku Ward;;Atuku Health Clinic;;;;;
Jema'a;Barde Ward;;Godiya Clinic (Barde);;;;;
Jema'a;Barde Ward;;Keyya Health Centre;;;;;
Jema'a;Barde Ward;;Barde Primary Health Centre;;;;;
Jema'a;Barde Ward;;Gauta Health Clinic;;;;;
Jema'a;Barde Ward;;Gabi Health Clinic;;;;;
Jema'a;Gidan Waya Ward;;Fajayi Maternity;;;;;
Jema'a;Gidan Waya Ward;;Kanufi Health Centre;;;;;
Jema'a;Gidan Waya Ward;;Gidan Waya Health Clinic;;;;;
Jema'a;Gidan Waya Ward;;Rhilama Health Clinic;;;;;
Jema'a;Gidan Waya Ward;;Mailafiya Health Clinic;;;;;
Jema'a;Gidan Waya Ward;;Nimbia Health Clinic;;;;;
Jema'a;Gidan Waya Ward;;Godiya Clinic (Mailafiya);;;;;
Jema'a;Gidan Waya Ward;;Salama Medical Centre;;;;;
Jema'a;Gidan Waya Ward;;Nisama Health Clinic;;;;;
Jema'a;Gidan Waya Ward;;Mainasara H.Clinic;;;;;
Jema'a;Godo Godo Ward;;kowa medical and maternity;;;;;
Jema'a;Godo Godo Ward;;Zakan Health Clinic;;;;;
Jema'a;Godo Godo Ward;;Godo-Godo Evangelical Church of West Africa (ECWA) Clinic and Maternity;;;;;
Jema'a;Godo Godo Ward;;Ninte Health Centre;;;;;
Jema'a;Godo Godo Ward;;Alheri clinic;;;;;
Jema'a;Godo Godo Ward;;Godogodo Health Centre;;;;;
Jema'a;Jagindi Tasha Ward;;kowa medical centre Jagindi;;;;;
Jema'a;Jagindi Tasha Ward;;Jagindi Gari Health Clinic;;;;;
Jema'a;Jagindi Tasha Ward;;Sauki Clinic and Maternity (Jagindi Tasha);;;;;
Jema'a;Jagindi Tasha Ward;;Kogum River Health Clinic;;;;;
Jema'a;Jagindi Tasha Ward;;Alaheri Clinic and Maternity;;;;;
Jema'a;Jagindi Tasha Ward;;Bethesda Comprehensive Health Centre;;;;;
Jema'a;Jagindi Tasha Ward;;Jagindi Tasha Health Clinic;;;;;
Jema'a;Kafanchan A Ward;;Kd Radiance clinic;;;;;
Jema'a;Kafanchan A Ward;;Jama'a clinic;;;;;
Jema'a;Kafanchan A Ward;;Kafanchan Family Health Unit;;;;;
Jema'a;Kafanchan A Ward;;Kowa Maternity;;;;;
Jema'a;Kafanchan B Ward;;Salem Hospital Kafanchan B;;;;;
Jema'a;Kafanchan B Ward;;New Era Medical & Maternity Hospital;;;;;
Jema'a;Kafanchan B Ward;;Baptist Health Clinic;;;;;
Jema'a;Kafanchan B Ward;;Kafanchan General Hospital;;;;;
Jema'a;Kafanchan B Ward;;Aluma Medical Clinic;;;;;
Jema'a;Kafanchan B Ward;;Rahama Hospital;;;;;
Jema'a;Kafanchan B Ward;;Kafanchan Prison Health Centre;;;;;
Jema'a;Kafanchan B Ward;;Kowa Hospital and Maternity;;;;;
Jema'a;Kafanchan B Ward;;Bethel Hospital and Maternity;;;;;
Jema'a;Kagoma Ward;;Fadan Kagoma Rural Hospital;;;;;
Jema'a;Kagoma Ward;;Kagoma Primary Health Centre;;;;;
Jema'a;Kagoma Ward;;Fido Health Clinic;;;;;
Jema'a;Kagoma Ward;;Paki Health Centre;;;;;
Jema'a;Kagoma Ward;;Sauki Maternity clinic;;;;;
Jema'a;Kagoma Ward;;Fori Health Clinic;;;;;
Jema'a;Kaninkon Ward;;Dangoma Health Centre;;;;;
Jema'a;Kaninkon Ward;;Goska Health Clinic;;;;;
Jema'a;Kaninkon Ward;;Faith Alive Health Clinic;;;;;
Jema'a;Kaninkon Ward;;Alfari Primary Health Centre;;;;;
Jema'a;Kaninkon Ward;;Bakin Kogi Health Clinic (Jema'a);;;;;
Jema'a;Maigizo Ward;;Angwan Masara Health Centre;;;;;
Jema'a;Maigizo Ward;;Jema'a LGA Staff Clinic;;;;;
Jema'a;Maigizo Ward;;Aduan Health Clinic;;;;;
Jema'a;Maigizo Ward;;Maigizo Primary Health Centre;;;;;
Jema'a;Maigizo Ward;;Bethany Clinic Maternity;;;;;
Jema'a;Maigizo Ward;;Faustuwan Foundation;;;;;
Jema'a;Maigizo Ward;;Calvary clinic;;;;;
Jema'a;Takau Ward;;Takau Health Clinic;;;;;
Jema'a;Takau Ward;;Anguwar Yashi Health Clinic;;;;;
Kachia;Agunu Dutse Ward;;Agunu Dutse Health Clinic;;;;;
Kachia;Agunu Dutse Ward;;Crossing Health Clinic;;;;;
Kachia;Agunu Dutse Ward;;Kutura Health Clinic;;;;;
Kachia;Agunu Dutse Ward;;Sakwai Health Clinic;;;;;
Kachia;Ankwa Ward;;HC Yaji;;;;;
Kachia;Ankwa Ward;;Ankwa Health Clinic;;;;;
Kachia;Ankwa Ward;;Unguwar Bawa HC;;;;;
Kachia;Ankwa Ward;;Pachi Health Clinic;;;;;
Kachia;Awon Ward;;Tsakiya HC;;;;;
Kachia;Awon Ward;;Impi Kuturmi Health Clinic;;;;;
Kachia;Awon Ward;;Kgora Health Post;;;;;
Kachia;Awon Ward;;Kintaro Health Clinic;;;;;
Kachia;Awon Ward;;Kigwali Health Clinic;;;;;
Kachia;Awon Ward;;Koron Tsoho Health Clinic;;;;;
Kachia;Awon Ward;;Akwando Health Clinic;;;;;
Kachia;Awon Ward;;Unguwar Toka Health Clinic;;;;;
Kachia;Awon Ward;;Aburon;;;;;
Kachia;Awon Ward;;Anturu Health Clinic;;;;;
Kachia;Awon Ward;;Awon Health Clinic;;;;;
Kachia;Awon Ward;;Katon Kasa Health Clinic;;;;;
Kachia;Awon Ward;;Barga Health Clinic;;;;;
Kachia;Bishini Ward;;Bishini Health Clinic;;;;;
Kachia;Bishini Ward;;Iddo Health Clinic;;;;;
Kachia;Bishini Ward;;HC Azara;;;;;
Kachia;Doka Ward (Kachia);;Rijana Health Clinic;;;;;
Kachia;Doka Ward (Kachia);;Doka Health Clinic (Kachia);;;;;
Kachia;Doka Ward (Kachia);;Doka Rural Hospital;;;;;
Kachia;Doka Ward (Kachia);;Inlowo Health Clinic;;;;;
Kachia;Doka Ward (Kachia);;Akilibu Health Clinic;;;;;
Kachia;Gidan Tagwai Ward;;Dandan1;;;;;
Kachia;Gidan Tagwai Ward;;Gidan Tagwai Health Clinic;;;;;
Kachia;Gidan Tagwai Ward;;Walijo Health Clinic;;;;;
Kachia;Gidan Tagwai Ward;;Kufai Gidan Tagwai Health Clinic;;;;;
Kachia;Gumel Ward;;Kachia General Hospital;;;;;
Kachia;Gumel Ward;;Nakowa Clinic & Matrenity;;;;;
Kachia;Gumel Ward;;Kurmin Mazuga Health Clinic;;;;;
Kachia;Gumel Ward;;Kurmin Baba Health Clinic (Kachia);;;;;
Kachia;Gumel Ward;;HC Gumel;;;;;
Kachia;Kachia Ward;;Kachia Family Health Unit;;;;;
Kachia;Kachia Ward;;Ung Mission HC;;;;;
Kachia;Kateri Ward;;Badoko Health Clinic;;;;;
Kachia;Kateri Ward;;Kateri Health Clinic;;;;;
Kachia;Kwaturu Ward;;Kwataru Health Clinic;;;;;
Kachia;Kwaturu Ward;;Tsauni Health Clinic;;;;;
Kachia;Sabon Sarki Ward;;HC Dangyolmi;;;;;
Kachia;Sabon Sarki Ward;;Gidan Mana Health Clinic;;;;;
Kachia;Sabon Sarki Ward;;Jaban Kogo Health Clinic;;;;;
Kachia;Sabon Sarki Ward;;Sabon Sarki Health Clinic;;;;;
Kaduna North;Badarawa/Malali Ward;;Badarawa Health Clinic;;;;;
Kaduna North;Badarawa/Malali Ward;;FOMWAN Hospital;;;;;
Kaduna North;Badarawa/Malali Ward;;Spring Time Hospital;;;;;
Kaduna North;Badarawa/Malali Ward;;Mohammed Bello Tukur Health Clinic;;;;;
Kaduna North;Badarawa/Malali Ward;;Badarawa Hospital;;;;;
Kaduna North;Badarawa/Malali Ward;;Kd T.B.L Clinic;;;;;
Kaduna North;Badarawa/Malali Ward;;Al-Mansur;;;;;
Kaduna North;Dadi Riba Ward;;Rakiya Hospital;;;;;
Kaduna North;Dadi Riba Ward;;PHC Magajin Gari;;;;;
Kaduna North;Dadi Riba Ward;;Doka (Zakari Isah) Health Clinic;;;;;
Kaduna North;Hayin Banki Ward;;Nigerian Defence Academy Medical Centre;;;;;
Kaduna North;Hayin Banki Ward;;Hayin Banki Health Clinic;;;;;
Kaduna North;Kabala Ward;;Nasara Hospital;;;;;
Kaduna North;Kabala Ward;;Kabala Doki Health Clinic;;;;;
Kaduna North;Kabala Ward;;Sabil Clinic Kabala;;;;;
Kaduna North;Kabala Ward;;Samar Clinic;;;;;
Kaduna North;Kabala Ward;;Pisces Clinic;;;;;
Kaduna North;Kabala Ward;;Police  Medical Clinic PTS Barrack;;;;;
Kaduna North;Kawo Ward;;Rafin Guza Health Clinic;;;;;
Kaduna North;Kawo Ward;;Kawo General Hospital;;;;;
Kaduna North;Kawo Ward;;Ungwar Gwari Primary Health Centre;;;;;
Kaduna North;Sardauna Ward;;Covenant Clinic;;;;;
Kaduna North;Sardauna Ward;;Restoration Hospital;;;;;
Kaduna North;Sardauna Ward;;Junction Road Health Clinic;;;;;
Kaduna North;Kd Shaba;;Nasir Nursing Home;;;;;
Kaduna North;Kd Shaba;;PHC Clinic Jos Road;;;;;
Kaduna North;Ung Dosa Ward;;Unguwar Dosa Health Clinic;;;;;
Kaduna North;Ung Dosa Ward;;Imam Hospital;;;;;
Kaduna North;Ung Dosa Ward;;Almadinat Hospital;;;;;
Kaduna North;Unguwar Rimi Ward;;Mends Specialist Hospital;;;;;
Kaduna North;Unguwar Rimi Ward;;Barau Dikko Specialist Hospital;;;;;
Kaduna North;Unguwar Rimi Ward;;KASU Clinic;;;;;
Kaduna North;Unguwar Rimi Ward;;Unguwar Rimi Health Clinic (Kaduna North);;;;;
Kaduna North;Unguwar Rimi Ward;;Barau Dikko Paediatric Hospital;;;;;
Kaduna North;Unguwar Sarki Ward;;Garkuwa Specialist Hospital;;;;;
Kaduna North;Unguwar Sarki Ward;;Garden City Specialist Hospital;;;;;
Kaduna North;Unguwar Sarki Ward;;Unguwar Sarki Health Clinic;;;;;
Kaduna North;Unguwar Shanu Ward;;Unguwar Shanu Health Clinic;;;;;
Kaduna North;Unguwar Shanu Ward;;Abakpa Health Clinic;;;;;
Kaduna South;Badiko Ward;;Badikko Primary Health Centre;;;;;
Kaduna South;Badiko Ward;;Kurmin Mashi Primary Health Centre;;;;;
Kaduna South;Barnawa Ward;;-Amina Hospital;;;;;
Kaduna South;Barnawa Ward;;Geelt Aris Hospital;;;;;
Kaduna South;Barnawa Ward;;Barnawa (Hajiya Asamau) Health Clinic;;;;;
Kaduna South;Barnawa Ward;;Harmomy Hospital;;;;;
Kaduna South;Kakuri Gwari Ward;;Kurmin Gwari Tuberculosis and Leprosy Control Unit;;;;;
Kaduna South;Kakuri Gwari Ward;;Kurmin Gwari Health Clinic;;;;;
Kaduna South;Kakuri Gwari Ward;;Unguwar Makama Health Clinic;;;;;
Kaduna South;Kakuri Hausa Ward;;Kakuri Hausa Maternal and Child Health Clinic;;;;;
Kaduna South;Makera Ward;;Down Quarter PHC;;;;;
Kaduna South;Makera Ward;;Oxford Hospital;;;;;
Kaduna South;Makera Ward;;Dr Gwamna Awan General Hospital;;;;;
Kaduna South;Makera Ward;;Makera Health Clinic;;;;;
Kaduna South;Sabon Gari North Ward;;Salamat Hospital and Maternity;;;;;
Kaduna South;Sabon Gari North Ward;;Kagoro Road Health Clinic;;;;;
Kaduna South;Sabon Gari South Ward;;Kubau Road Health Clinic;;;;;
Kaduna South;Sabon Gari South Ward;;Biba Hospital;;;;;
Kaduna South;Sabon Gari West Ward;;Unguwar Muazu Primary Health Centre;;;;;
Kaduna South;Sabon Gari West Ward;;Kabala West Primary Health Centre;;;;;
Kaduna South;Television Ward;;Comphensive Health Centre  Maichibi;;;;;
Kaduna South;Television Ward;;Television Health Clinic;;;;;
Kaduna South;Tudun Nupawa Ward;;Yusuf Dantsoho General Hospital;;;;;
Kaduna South;Tudun Wada South Ward;;Zango Road Health Clinic;;;;;
Kaduna South;Tudun Wada South Ward;;Kinkinau Health Clinic;;;;;
Kaduna South;Tudun Wada South Ward;;Lawal Garba Health Clinic;;;;;
Kaduna South;Unguwar Sanusi Ward;;Kadpoly clinic;;;;;
Kaduna South;Unguwar Sanusi Ward;;Unguwar Sanusi Health Clinic;;;;;
Kaduna South;Unguwar Sanusi Ward;;Askolaye Hospital;;;;;
Kagarko;Aribi Ward;;Kutaho Health Clinic;;;;;
Kagarko;Aribi Ward;;Kuratam Health Clinic;;;;;
Kagarko;Aribi Ward;;Aribi Health Clinic;;;;;
Kagarko;Aribi Ward;;Kasaru Health Clinic;;;;;
Kagarko;Aribi Ward;;Ruzai Health Clinic;;;;;
Kagarko;Aribi Ward;;Dogon Daji 2 Health Clinic;;;;;
Kagarko;Aribi Ward;;Bediye Health Clinic;;;;;
Kagarko;Aribi Ward;;Kahir Health Clinic;;;;;
Kagarko;Aribi Ward;;Kenyi Health Clinic;;;;;
Kagarko;Aribi Ward;;Kurmin Dangana Health Clinic;;;;;
Kagarko;Aribi Ward;;Kabara Health Clinic;;;;;
Kagarko;Iddah Ward;;Iddah Primary Health Centre;;;;;
Kagarko;Iddah Ward;;Allah Magani Clinic;;;;;
Kagarko;Iddah Ward;;Taffa Health Clinic;;;;;
Kagarko;Iddah Ward;;Npape Health Centre;;;;;
Kagarko;Iddah Ward;;Kpechi Health Clinic;;;;;
Kagarko;Iddah Ward;;Chakwama Health Clinic;;;;;
Kagarko;Jere North Ward;;Jere Primary Health Centre;;;;;
Kagarko;Jere North Ward;;Gujeni Health Clinic;;;;;
Kagarko;Jere North Ward;;Chinka Health Clinic;;;;;
Kagarko;Jere South Ward;;Dumale Health Clinic;;;;;
Kagarko;Jere South Ward;;Kwasare Health Centre;;;;;
Kagarko;Jere South Ward;;Latiko Health Clinic;;;;;
Kagarko;Kagarko North Ward;;Ung Waje Kagarko Health Clinic;;;;;
Kagarko;Kagarko North Ward;;Pahbaki Health Clinic;;;;;
Kagarko;Kagarko North Ward;;Akoti Primary Health Centre;;;;;
Kagarko;Kagarko South Ward;;Kudiri Health Clinic;;;;;
Kagarko;Kagarko South Ward;;Sabo Iche Health Clinic;;;;;
Kagarko;Kagarko South Ward;;Dogon Daji Health Centre;;;;;
Kagarko;Kagarko South Ward;;Kagarko General Hospital;;;;;
Kagarko;Kagarko South Ward;;Kuse Health Centre;;;;;
Kagarko;Kagarko South Ward;;Janjala Health Clinic;;;;;
Kagarko;Kagarko South Ward;;Kagarko Primary Health Centre;;;;;
Kagarko;Katugal Ward;;Katugal Health Centre;;;;;
Kagarko;Katugal Ward;;Nkojo Health Clinic;;;;;
Kagarko;Katugal Ward;;Katugal Cikin Gari Health Clinic;;;;;
Kagarko;Katugal Ward;;Kushamfa Health Clinic;;;;;
Kagarko;Katugal Ward;;Kubacha Health Centre;;;;;
Kagarko;Kukui Ward;;Kukui Health Clinic;;;;;
Kagarko;Kukui Ward;;Iche Kasa Health Clinic;;;;;
Kagarko;Kukui Ward;;Kosoh Health Clinic;;;;;
Kagarko;Kukui Ward;;Kusam Health Clinic;;;;;
Kagarko;Kurmin Jibrin Ward;;Chigwa Health Clinic;;;;;
Kagarko;Kurmin Jibrin Ward;;Memdor Sabon Gida Health Centre (Kagarko);;;;;
Kagarko;Kurmin Jibrin Ward;;Shada Lafiya Health Clinic;;;;;
Kagarko;Kurmin Jibrin Ward;;Kurmin Jibrin Health Clinic;;;;;
Kagarko;Kushe Ward;;Kushe Fada Health Clinic;;;;;
Kagarko;Kushe Ward;;Rafin Kimba Health Clinic;;;;;
Kagarko;Kushe Ward;;Chila Health Clinic;;;;;
Kagarko;Kushe Ward;;Kushe Makaranta Health Clinic;;;;;
Kagarko;Kushe Ward;;Pan Kore Health Clinic;;;;;
Kagarko;Kushe Ward;;Dogon Kurmi Health Clinic;;;;;
Kagarko;Kushe Ward;;Kafarma Health Clinic;;;;;
Kagarko;Kushe Ward;;Kasabere Health Clinic;;;;;
Kajuru;Afogo Ward;;Afogo Health Clinic;;;;;
Kajuru;Afogo Ward;;Iburu Health Clinic;;;;;
Kajuru;Afogo Ward;;Sauki Maraba Afogo Clinic;;;;;
Kajuru;Afogo Ward;;Danbagudu Health Clinic;;;;;
Kajuru;Afogo Ward;;Ibirah Health Clinic;;;;;
Kajuru;Afogo Ward;;Sabon Gari Afogo Health Clinic;;;;;
Kajuru;Afogo Ward;;Kurmin Idon Health Post;;;;;
Kajuru;Buda Ward;;Buda Health Clinic;;;;;
Kajuru;Buda Ward;;Janwuriya Health Centre;;;;;
Kajuru;Idon Ward;;Iri Station Health Clinic;;;;;
Kajuru;Idon Ward;;Idon Hanya Health Clinic;;;;;
Kajuru;Idon Ward;;Doka Health Clinic (Kajuru);;;;;
Kajuru;Idon Ward;;Iri Gari Health Clinic;;;;;
Kajuru;Idon Ward;;Idon Gida Health Clinic;;;;;
Kajuru;Idon Ward;;Angwan Pada Health Centre;;;;;
Kajuru;Idon Ward;;Idon Rural Hospital;;;;;
Kajuru;Kajuru Ward;;Kyamara Health Clinic;;;;;
Kajuru;Kajuru Ward;;Kajuru Health Clinic (Kajuru);;;;;
Kajuru;Kajuru Ward;;Kajuru Government Technical College Health Clinic;;;;;
Kajuru;Kajuru Ward;;Gyengere Health Clinic;;;;;
Kajuru;Kallah Ward;;Gefe Health Clinic;;;;;
Kajuru;Kallah Ward;;Libere Health Clinic;;;;;
Kajuru;Kallah Ward;;Kallah Health Clinic;;;;;
Kajuru;Kallah Ward;;Idu Health Clinic;;;;;
Kajuru;Kasuwan Magani Ward;;Kasuwan Magani Health Clinic;;;;;
Kajuru;Kasuwan Magani Ward;;Tausayi Kasuwan Magani Clinic;;;;;
Kajuru;Kasuwan Magani Ward;;Dutsen Gaiya Health Clinic;;;;;
Kajuru;Kufana Ward;;Kufana Maternal and Child Health Clinic;;;;;
Kajuru;Kufana Ward;;Rubu Health Post;;;;;
Kajuru;Kufana Ward;;Sabon Gari Kufana Health Centre;;;;;
Kajuru;Kufana Ward;;Rafin Kunu Health Clinic;;;;;
Kajuru;Kufana Ward;;Angwar Aku Health Clinic;;;;;
Kajuru;Kufana Ward;;Dankponi Maraban Kajuru Clinic;;;;;
Kajuru;Kufana Ward;;Mararaban Kajuru Maternal and Child Health Clinic;;;;;
Kajuru;Kufana Ward;;Anguwan Day Health Clinic;;;;;
Kajuru;Maro Ward;;Dogon Noma Health Post;;;;;
Kajuru;Maro Ward;;Karamai Health Clinic;;;;;
Kajuru;Maro Ward;;Bakira Health Clinic;;;;;
Kajuru;Maro Ward;;Angwar Gamo Health Clinic;;;;;
Kajuru;Maro Ward;;Bauda Health Clinic;;;;;
Kajuru;Maro Ward;;PHC Gidan Gajere;;;;;
Kajuru;Maro Ward;;Ugakala Health Post;;;;;
Kajuru;Maro Ward;;Chibiya Health Clinic;;;;;
Kajuru;Maro Ward;;Maro Health Clinic;;;;;
Kajuru;Maro Ward;;Angwar Barde Health Clinic;;;;;
Kajuru;Rimau Ward;;Issabe Health Centre;;;;;
Kajuru;Rimau Ward;;Rimau Health Clinic;;;;;
Kajuru;Rimau Ward;;Ekuzeh Health Clinic;;;;;
Kajuru;Tantatu Ward;;Tantatu Health Clinic;;;;;
Kajuru;Tantatu Ward;;Kutura Station Health Clinic;;;;;
Kaura;Agban Ward;;Agban Health Clinic;;;;;
Kaura;Agban Ward;;Tsonje Health Clinic;;;;;
Kaura;Agban Ward;;Garaje Model Primary Health Centre;;;;;
Kaura;Bondong Ward;;Unguwar Kaya Health Clinic;;;;;
Kaura;Bondong Ward;;Unguwar Gata Health Clinic;;;;;
Kaura;Bondong Ward;;Biriki Health Centre;;;;;
Kaura;Bondong Ward;;Matuak Primary Health Centre;;;;;
Kaura;Bondong Ward;;Bondong Maternal and Child Health Clinic;;;;;
Kaura;Fada Ward (Kaura);;Fada Daji Health Clinic;;;;;
Kaura;Fada Ward (Kaura);;Dutsen Kagoro Health Clinic;;;;;
Kaura;Fada Ward (Kaura);;Kagoro Evangelical Church of West Africa (ECWA) Comprehensive Health Centre;;;;;
Kaura;Fada Ward (Kaura);;Fada Maternal and Child Health Clinic;;;;;
Kaura;Kadarko Ward;;Tachira Maternal and Child Health Clinic;;;;;
Kaura;Kadarko Ward;;Laruth Maternity Home;;;;;
Kaura;Kadarko Ward;;Kadarko Primary Health Centre;;;;;
Kaura;Kadarko Ward;;Dusai Health Centre;;;;;
Kaura;Kaura Ward (Kaura);;Kaura Maternal and Child Health Clinic;;;;;
Kaura;Kaura Ward (Kaura);;Anturung Health Centre;;;;;
Kaura;Kpak Ward;;Madamai Health Clinic;;;;;
Kaura;Kpak Ward;;Turaki Buga Memorial Hospital;;;;;
Kaura;Kukum Ward;;Kukum Gida Health Clinic;;;;;
Kaura;Kukum Ward;;Kukum Daji Health Clinic;;;;;
Kaura;Kukum Ward;;Zakwa Health Clinic;;;;;
Kaura;Kukum Ward;;Kukum Dutse Maternal and Child Health Clinic;;;;;
Kaura;Mallagum Ward;;Mallagum 1 Health Clinic;;;;;
Kaura;Mallagum Ward;;Tum Model Health Centre;;;;;
Kaura;Mallagum Ward;;Mallagum 2 Maternal and Child Health Clinic;;;;;
Kaura;Manchok Ward;;Manchok Primary  Health Clinic;;;;;
Kaura;Zankan Ward;;Sabon Gari Maternal and Child Health Clinic;;;;;
Kaura;Zankan Ward;;Zangang Health Clinic;;;;;
Kaura;Zankan Ward;;St.Lous Health Clinic;;;;;
Kaura;Zankan Ward;;Zankan Health Clinic;;;;;
Kaura;Zankan Ward;;Fada Attakar Health Clinic;;;;;
Kauru;Badurum Ward;;Kurmin Ruwa Health Clinic;;;;;
Kauru;Badurum Ward;;Bakin Kogi Primary Health Centre (Kauru);;;;;
Kauru;Badurum Ward;;Badurum Kasa Primary Health Centre;;;;;
Kauru;Bital Ward;;Kusheka Health Clinic;;;;;
Kauru;Bital Ward;;Kaibi Health Clinic;;;;;
Kauru;Bital Ward;;Kiwallo Health Clinic;;;;;
Kauru;Bital Ward;;Kinugu Health Clinic;;;;;
Kauru;Bital Ward;;Kidugu Model Health Centre;;;;;
Kauru;Damakasuwa Ward;;Fadan Chawai Health Clinic;;;;;
Kauru;Damakasuwa Ward;;Damakasuwa Primary Health Centre;;;;;
Kauru;Damakasuwa Ward;;Ribang Health Clinic;;;;;
Kauru;Dawaki Ward;;Dokan Yahaya Health Clinic;;;;;
Kauru;Dawaki Ward;;Dokan Karji Health Clinic;;;;;
Kauru;Dawaki Ward;;Majidadi Health Clinic;;;;;
Kauru;Dawaki Ward;;Kadage Health Clinic (Kauru);;;;;
Kauru;Geshere Ward;;Binawa Health Clinic;;;;;
Kauru;Geshere Ward;;Kabene Health Clinic;;;;;
Kauru;Geshere Ward;;Dingi Health Clinic;;;;;
Kauru;Geshere Ward;;PHC Geshere;;;;;
Kauru;Geshere Ward;;Kono Primary Health Centre;;;;;
Kauru;Kamaru Ward;;Kikirin Health Clinic;;;;;
Kauru;Kamaru Ward;;Kamarun Chawai Health Clinic;;;;;
Kauru;Kauru East Ward;;Kagadama Health Clinic;;;;;
Kauru;Kauru East Ward;;Ibada Health Clinic;;;;;
Kauru;Kauru East Ward;;Kahuta Health Clinic;;;;;
Kauru;Kauru West Ward;;Kauru Primary Health Centre;;;;;
Kauru;Kauru West Ward;;Kauru Rural Hospital;;;;;
Kauru;Kauru West Ward;;Alkhairi Health clinic;;;;;
Kauru;Kwassam Ward;;Kuyan Bana Health Clinic;;;;;
Kauru;Kwassam Ward;;Garmadi Health Clinic;;;;;
Kauru;Kwassam Ward;;Galadimawa Health Clinic (Kauru);;;;;
Kauru;Kwassam Ward;;Fagen Rawa Health Clinic;;;;;
Kauru;Kwassam Ward;;Kwassam Primary Health Centre;;;;;
Kauru;Makami Ward;;Dandaura Primary Health Centre;;;;;
Kauru;Makami Ward;;Makami Health Clinic;;;;;
Kauru;Makami Ward;;Ungoma HC;;;;;
Kauru;Makami Ward;;Barwa Health Clinic;;;;;
Kauru;Pari Ward;;Chori Health Clinic;;;;;
Kauru;Pari Ward;;Kifin Primary Health Centre;;;;;
Kauru;Pari Ward;;Rahma health clinic;;;;;
Kauru;Pari Ward;;Kizachi Health Clinic;;;;;
Kubau;Anchau Ward;;Anchau Primary Health Clinic;;;;;
Kubau;Anchau Ward;;Anchau Gari Health Clinic;;;;;
Kubau;Anchau Ward;;Mai Yashi Health Clinic;;;;;
Kubau;Anchau Ward;;Gidan Mai Auduga Health Clinic;;;;;
Kubau;Anchau Ward;;Gidan Gata Health Clinic;;;;;
Kubau;Anchau Ward;;Barkin Ruwa Health Clinic;;;;;
Kubau;Anchau Ward;;Jenau Health Clinic;;;;;
Kubau;Damau Ward;;Danhauya Health Clinic;;;;;
Kubau;Damau Ward;;Damau Health Clinic;;;;;
Kubau;Damau Ward;;Jangaba Health Clinic;;;;;
Kubau;Damau Ward;;Wagaho Health Clinic;;;;;
Kubau;Damau Ward;;Banki Health Clinic;;;;;
Kubau;Dutsen Wai Ward;;Dutsen Wai Health Clinic;;;;;
Kubau;Dutsen Wai Ward;;Kuli Health Clinic;;;;;
Kubau;Haskiya Ward;;Yardoka Health Clinic;;;;;
Kubau;Haskiya Ward;;Haskiya Health Clinic;;;;;
Kubau;Haskiya Ward;;Kagadama Health Centre;;;;;
Kubau;Haskiya Ward;;Bugau Health Centre;;;;;
Kubau;Haskiya Ward;;Kudumi Health Clinic;;;;;
Kubau;Haskiya Ward;;Kanwa Health Centre;;;;;
Kubau;Kareh Ward;;Matangi Health Clinic;;;;;
Kubau;Kareh Ward;;Karreh Health Clinic;;;;;
Kubau;Kareh Ward;;Jiddah Health Clinic;;;;;
Kubau;Kareh Ward;;GT Clinic;;;;;
Kubau;Kareh Ward;;Kwadaro Health Clinic;;;;;
Kubau;Kareh Ward;;Hayin Gada Nasaru Health Clinic;;;;;
Kubau;Kargi Ward;;Gadas Health Clinic;;;;;
Kubau;Kargi Ward;;Gedege Health Clinic;;;;;
Kubau;Kargi Ward;;Kargi Health Clinic;;;;;
Kubau;Kubau Ward;;Kubau Health Clinic;;;;;
Kubau;Kubau Ward;;Coccin Clinic & Maternity;;;;;
Kubau;Kubau Ward;;Kafi Health Clinic;;;;;
Kubau;Mah Ward;;Dokan Tagwai Health Clinic;;;;;
Kubau;Mah Ward;;Karaba Health Clinic;;;;;
Kubau;Mah Ward;;Rikoci Health Clinic;;;;;
Kubau;Mah Ward;;Dokan Toro Health Clinic;;;;;
Kubau;Mah Ward;;Mah Health Clinic;;;;;
Kubau;Mah Ward;;Kuraye Health Clinic;;;;;
Kubau;Pambeguwa Ward;;Pambegua Health Centre;;;;;
Kubau;Pambeguwa Ward;;Pambegua Rural Hospital;;;;;
Kubau;Pambeguwa Ward;;Sabon Layi Pambegua Health Clinic;;;;;
Kubau;Pambeguwa Ward;;Danmaliki Health Clinic;;;;;
Kubau;Zabi Ward (Kubau);;Angwar Mamuda Health Clinic;;;;;
Kubau;Zabi Ward (Kubau);;Kamfanin Maude Health Clinic;;;;;
Kubau;Zabi Ward (Kubau);;Ungwan Dogo Health Clinic;;;;;
Kubau;Zuntu Ward;;Zuntu Model Primary Health Centre;;;;;
Kubau;Zuntu Ward;;Dankande Health Clinic;;;;;
Kubau;Zuntu Ward;;Wazabi Health Clinic;;;;;
Kudan;Doka Ward;;Kyadi Health Centre;;;;;
Kudan;Doka Ward;;Doka Primary Health Centre;;;;;
Kudan;Doka Ward;;Mazara Health Centre;;;;;
Kudan;Doka Ward;;Guibi Health Centre;;;;;
Kudan;Garu Ward;;Dandaso Primary Health Centre;;;;;
Kudan;Garu Ward;;Lafiya Health Clinic;;;;;
Kudan;Garu Ward;;Garu Primary Health Centre;;;;;
Kudan;Hunkuyi Ward;;Hunkuyi General Hospital;;;;;
Kudan;Kauran Wali North Ward;;Kauran Wali Model Primary Health Centre;;;;;
Kudan;Kauran Wali South Ward;;Dangashi Primary Health Centre;;;;;
Kudan;Kudan Ward;;Nakowa Clinic (Kudan);;;;;
Kudan;Kudan Ward;;Amaji Health Clinic;;;;;
Kudan;Kudan Ward;;Rahama Clinic (Kudan);;;;;
Kudan;Kudan Ward;;Nassarawa Health Clinic (Kudan);;;;;
Kudan;Kudan Ward;;Damaski Health Clinic;;;;;
Kudan;Kudan Ward;;Matarawa Health Clinic;;;;;
Kudan;Kudan Ward;;Kudan Primary Health Centre;;;;;
Kudan;Likoro Ward;;Kushigi Health Clinic;;;;;
Kudan;Likoro Ward;;Likoro Primary Health Centre;;;;;
Kudan;Sabon Gari Ward (Kudan);;Dufa Dufa Health Clinic;;;;;
Kudan;Sabon Gari Ward (Kudan);;Sabon Gari Primary Health Centre;;;;;
Kudan;Sabon Gari Ward (Kudan);;Jaja Health Clinic;;;;;
Kudan;Sabon Gari Ward (Kudan);;Musawa Health Clinic;;;;;
Kudan;Sabon Gari Ward (Kudan);;Kyaudai Health Clinic;;;;;
Kudan;Sabon Gari Ward (Kudan);;Dumuga Health Clinic;;;;;
Kudan;Sabon Gari Ward (Kudan);;Danmakwarwa Health Clinic;;;;;
Kudan;Sabon Gari Ward (Kudan);;Danbami Health Clinic;;;;;
Kudan;Taba Ward;;Dankala Health Clinic;;;;;
Kudan;Taba Ward;;Mahuta Health Clinic;;;;;
Kudan;Taba Ward;;Kada-Kada Health Clinic;;;;;
Kudan;Taba Ward;;HC Dantaro;;;;;
Kudan;Taba Ward;;Bagaddi Health Clinic;;;;;
Kudan;Taba Ward;;Taba Primary Health Clinic (Kudan);;;;;
Kudan;Taba Ward;;Tashan Jirgi Health Centre;;;;;
Kudan;Taba Ward;;HC Hawamaimashi;;;;;
Kudan;Zabi Ward (Kudan);;Dandako Health Clinic;;;;;
Kudan;Zabi Ward (Kudan);;Zabi Health Clinic (Kudan);;;;;
Kudan;Zabi Ward (Kudan);;Tashan Kade Health Clinic;;;;;
Lere;Abadawa Ward;;Domawa Health Clinic;;;;;
Lere;Abadawa Ward;;Federe Health Clinic;;;;;
Lere;Abadawa Ward;;Abadawa MCH;;;;;
Lere;Abadawa Ward;;Sheni Health Clinic;;;;;
Lere;Abadawa Ward;;Domawa B PHC;;;;;
Lere;Dan-Alhaji Ward;;Juran Kurama Health Clinic;;;;;
Lere;Dan-Alhaji Ward;;Dan-Alhaji 1 PHC;;;;;
Lere;Dan-Alhaji Ward;;Tabo Tabo HC;;;;;
Lere;Dan-Alhaji Ward;;Doka Dan Bala;;;;;
Lere;Dan-Alhaji Ward;;Agaji Health Clinic;;;;;
Lere;Dan-Alhaji Ward;;Mahanga Health Clinic;;;;;
Lere;Dan-Alhaji Ward;;Wawan Rafi Health Clinic;;;;;
Lere;Dan-Alhaji Ward;;Bijimai Health Clinic;;;;;
Lere;Garu/Mariri Ward;;Kurmin Dodo Health Clinic;;;;;
Lere;Garu/Mariri Ward;;Mariri Health Clinic;;;;;
Lere;Garu/Mariri Ward;;Piti Warsa Health Clinic;;;;;
Lere;Gure/Kahugu Ward;;Kaki Dare Health Clinic;;;;;
Lere;Gure/Kahugu Ward;;Gure Primary Health Centre;;;;;
Lere;Gure/Kahugu Ward;;Budun Kahugu Health Clinic;;;;;
Lere;Gure/Kahugu Ward;;Fadan Kahugu Health Clinic;;;;;
Lere;Gure/Kahugu Ward;;Udammi Health Clinic;;;;;
Lere;Gure/Kahugu Ward;;Kawere HC;;;;;
Lere;Gure/Kahugu Ward;;Kitimi Health Clinic;;;;;
Lere;Kayarda Ward;;Wuruko Health Clinic;;;;;
Lere;Kayarda Ward;;Kayarda Primary Health Centre;;;;;
Lere;Kayarda Ward;;Unguwar Kimba Health Clinic;;;;;
Lere;Kayarda Ward;;Kaku Sama;;;;;
Lere;Kayarda Ward;;Goron Dutse Health Clinic;;;;;
Lere;Kayarda Ward;;Kaku Kurama Health Clinic;;;;;
Lere;Kayarda Ward;;Manunfashi Health Clinic;;;;;
Lere;Kudaru Ward;;Maigamo Health Clinic;;;;;
Lere;Kudaru Ward;;Yarkasuwa Primary Health Centre;;;;;
Lere;Kudaru Ward;;Tsurutawa Health Clinic;;;;;
Lere;Kudaru Ward;;MPHC Hayatu;;;;;
Lere;Kudaru Ward;;Ukissa Primary Health Centre;;;;;
Lere;Kudaru Ward;;Kudaru Health Clinic;;;;;
Lere;Lazaru/Tuddai Ward;;Doka Health Clinic (Lere);;;;;
Lere;Lazaru/Tuddai Ward;;Krosha Health Clinic;;;;;
Lere;Lazaru/Tuddai Ward;;Gidan Duste HC;;;;;
Lere;Lazaru/Tuddai Ward;;Tudai Primary Health Centre;;;;;
Lere;Lazaru/Tuddai Ward;;Durmi HC;;;;;
Lere;Lazaru/Tuddai Ward;;Lazuru Health Clinic;;;;;
Lere;Lere Ward;;Jurawa HC;;;;;
Lere;Lere Ward;;Sigau Primary Health Centre;;;;;
Lere;Lere Ward;;Dan-Alhaji 2 Health Clinic;;;;;
Lere;Lere Ward;;Gamagira HC;;;;;
Lere;Lere Ward;;Lere Primary Health Centre;;;;;
Lere;Ramin-Kura Ward;;Ramin Kura Model Primary Health Centre;;;;;
Lere;Ramin-Kura Ward;;Jingir Health Clinic;;;;;
Lere;Ramin-Kura Ward;;Dogon Daji Health Clinic (Lere);;;;;
Lere;Sabon Birnin Ward;;Sabo Birnin Health clinic;;;;;
Lere;Sabon Birnin Ward;;Unguwar Kura Health Clinic;;;;;
Lere;Sabon Birnin Ward;;Unguwar Bawa Health centre;;;;;
Lere;Saminaka Ward;;Saminaka Government Health Office;;;;;
Lere;Saminaka Ward;;Saminaka General Hospital;;;;;
Lere;Saminaka Ward;;Saminaka Comprehensive Health Centre;;;;;
Makarfi;Dandamisa Ward;;Marke Health Clinic (Makarfi);;;;;
Makarfi;Dandamisa Ward;;Angwan Makera Health Clinic;;;;;
Makarfi;Dandamisa Ward;;Dandamisa Health Clinic;;;;;
Makarfi;Dandamisa Ward;;Sabon Gari Daji Health Clinic;;;;;
Makarfi;Danguzuri Ward;;Bargi Health Clinic;;;;;
Makarfi;Danguzuri Ward;;Tashan Yari Primary Health Centre;;;;;
Makarfi;Danguzuri Ward;;Danguziri Health Clinic;;;;;
Makarfi;Danguzuri Ward;;Danayamaka Health Clinic;;;;;
Makarfi;Danguzuri Ward;;Tashan Tsamiya Health Centre;;;;;
Makarfi;Gazara Ward;;Giwaye Health Clinic;;;;;
Makarfi;Gazara Ward;;Sabon Garin Gazara Health Clinic;;;;;
Makarfi;Gazara Ward;;Gazara Health Clinic;;;;;
Makarfi;Gazara Ward;;Mahangi Health Clinic (Makarfi);;;;;
Makarfi;Gazara Ward;;Makaurata Health Clinic;;;;;
Makarfi;Gazara Ward;;Gangara Health Clinic (Makarfi);;;;;
Makarfi;Gimi Ward;;Gimi Gari Health Clinic;;;;;
Makarfi;Gimi Ward;;Soko Health Clinic;;;;;
Makarfi;Gimi Ward;;Gimi Tasha Health Clinic;;;;;
Makarfi;Gimi Ward;;Rahama Health Clinic (Makarfi);;;;;
Makarfi;Gubuchi Ward;;Tudun Wada Gubuchi Health Clinic;;;;;
Makarfi;Gubuchi Ward;;Gubuchi Primary Health Centre;;;;;
Makarfi;Gwanki Ward;;Ungwan Jaji Health Clinic;;;;;
Makarfi;Gwanki Ward;;Kunkumi Health Clinic;;;;;
Makarfi;Gwanki Ward;;Gwanki Health Clinic;;;;;
Makarfi;Gwanki Ward;;Tafida Health Clinic;;;;;
Makarfi;Gwanki Ward;;Dorayi Health Clinic;;;;;
Makarfi;Gwanki Ward;;Bakutaje Health Clinic;;;;;
Makarfi;Makarfi Ward;;Community Health Insurance;;;;;
Makarfi;Makarfi Ward;;Makarfi Health Clinic;;;;;
Makarfi;Makarfi Ward;;Anguwar Geri Health Clinic;;;;;
Makarfi;Mayere Ward;;Kuruntumawa Health Clinic;;;;;
Makarfi;Mayere Ward;;Anguwar Kolo Health Clinic;;;;;
Makarfi;Mayere Ward;;Durum Health Clinic;;;;;
Makarfi;Mayere Ward;;Dankwaire Health Clinic;;;;;
Makarfi;Mayere Ward;;Mayere Primary Health Centre;;;;;
Makarfi;Nasarawa Doya Ward;;Kwata Kware Health Clinic;;;;;
Makarfi;Nasarawa Doya Ward;;Godiye Maternity Home;;;;;
Makarfi;Nasarawa Doya Ward;;Nasarawa Doya Primary Health Centre;;;;;
Makarfi;Tudun Wada Ward (Makarfi);;Dadin Kowa Health Clinic;;;;;
Makarfi;Tudun Wada Ward (Makarfi);;Makarfi General Hospital;;;;;
Makarfi;Tudun Wada Ward (Makarfi);;Al-Nasiha Clinic and Maternity (Makarfi);;;;;
Makarfi;Tudun Wada Ward (Makarfi);;Tudun Wada Maternal and Child Health Clinic;;;;;
Makarfi;Tudun Wada Ward (Makarfi);;Tudun Wada Makarfi (Kasuwan-Mata) Health Clinic;;;;;
Makarfi;Tudun Wada Ward (Makarfi);;Habiba Clinic and Maternity;;;;;
Makarfi;Tudun Wada Ward (Makarfi);;Adi Maternity Home;;;;;
Sabon Gari;Anguwan Gagas Ward;;Ladiya Hospital;;;;;
Sabon Gari;Anguwan Gagas Ward;;Anguwar Jaba Family Health Unit;;;;;
Sabon Gari;Basawa Ward;;Palladan Health Clinic;;;;;
Sabon Gari;Basawa Ward;;Anguwar Rimi Health Clinic (Sabon Gari);;;;;
Sabon Gari;Basawa Ward;;Basawa Primary Health Centre;;;;;
Sabon Gari;Bomo Ward;;Hayin Dogo Health Clinic;;;;;
Sabon Gari;Bomo Ward;;Bomo Health Clinic;;;;;
Sabon Gari;Bomo Ward;;Kwakwaraman Manu Health Post;;;;;
Sabon Gari;Chikaji Ward;;Chikaji Family Health Unit;;;;;
Sabon Gari;Dogarawa Ward;;Gwanda Health Post;;;;;
Sabon Gari;Dogarawa Ward;;Sakadadi Model Primary Health Centre;;;;;
Sabon Gari;Dogarawa Ward;;Dogarawa Health Post;;;;;
Sabon Gari;Dogarawa Ward;;Zango Danborno Health Post;;;;;
Sabon Gari;Hanwa Ward;;Sabon Gari Government Health Office GRA;;;;;
Sabon Gari;Hanwa Ward;;Hanwa Family Health Unit;;;;;
Sabon Gari;Jama'a Ward;;Jama'a Family Health Unit;;;;;
Sabon Gari;Jushi Ward;;Angwar Kudu Health Clinic;;;;;
Sabon Gari;Jushi Ward;;Abdukwari Family Health Unit;;;;;
Sabon Gari;Muchia Ward;;Muchia Family Health Unit;;;;;
Sabon Gari;Muchia Ward;;Kwata Family Health Unit;;;;;
Sabon Gari;Samaru Ward;;Samaru Family Health Unit;;;;;
Sabon Gari;Samaru Ward;;Jama'a Hospital (Samaru);;;;;
Sabon Gari;Zabi Ward (Sabon Gari);;Zabi Health Clinic (Sabon Gari);;;;;
Sabon Gari;Zabi Ward (Sabon Gari);;Hayim Ojo Health Clinic;;;;;
Sabon Gari;Zabi Ward (Sabon Gari);;Shika Dam Health Clinic;;;;;
Sanga;Aboro Ward;;Kutal Health Clinic;;;;;
Sanga;Aboro Ward;;Ajangwai Health Clinic;;;;;
Sanga;Aboro Ward;;Kubal Health Clinic;;;;;
Sanga;Aboro Ward;;Aboro Health Clinic;;;;;
Sanga;Aboro Ward;;Antor Health Clinic;;;;;
Sanga;Arak Ward;;Unguwar Yaro Nimbe Health Clinic;;;;;
Sanga;Arak Ward;;Aban Health Clinic;;;;;
Sanga;Arak Ward;;Ankwa Arak Health Clinic;;;;;
Sanga;Arak Ward;;Langa Health Clinic;;;;;
Sanga;Arak Ward;;Ambe Sarki Health Clinic;;;;;
Sanga;Ayu Ward;;Amben Health Clinic;;;;;
Sanga;Ayu Ward;;Mayir Health Clinic;;;;;
Sanga;Ayu Ward;;Tari Health Clinic;;;;;
Sanga;Bokana Ward;;Masamari Health Clinic;;;;;
Sanga;Bokana Ward;;Fadan Ayu Health Clinic;;;;;
Sanga;Bokana Ward;;Angwar Nungu Health Clinic;;;;;
Sanga;Gwantu Ward;;Gwantu Primary Health Centre;;;;;
Sanga;Gwantu Ward;;Combila Health Clinic;;;;;
Sanga;Gwantu Ward;;Amacas Health Clinic Gwantu;;;;;
Sanga;Gwantu Ward;;ERCC Clinic Gwantu;;;;;
Sanga;Gwantu Ward;;Gwantu General Hospital;;;;;
Sanga;Gwantu Ward;;Sanga Medical Centre;;;;;
Sanga;Gwantu Ward;;Bukata Health Clinic;;;;;
Sanga;Karshi Ward;;Sabon Gida Health Clinic (Sanga);;;;;
Sanga;Karshi Ward;;Bom Clinic;;;;;
Sanga;Karshi Ward;;Health Clinic Kurmin Goro;;;;;
Sanga;Karshi Ward;;Danaru Health Clinic;;;;;
Sanga;Karshi Ward;;Unity Health Clinic;;;;;
Sanga;Karshi Ward;;ERCC Clinic Ung Ibrahim;;;;;
Sanga;Karshi Ward;;Fadan Karshi Health Clinic;;;;;
Sanga;Karshi Ward;;Confidence Health Clinic;;;;;
Sanga;Namdu Ward;;Ankara Health Clinic;;;;;
Sanga;Namdu Ward;;Numbu Bashayi Health Clinic;;;;;
Sanga;Namdu Ward;;Ankpon Health Clinic;;;;;
Sanga;Namdu Ward;;Gani Sarki Health Clinic;;;;;
Sanga;Namdu Ward;;Agom Health Clinic;;;;;
Sanga;Namdu Ward;; Akwankwan Health Clinic;;;;;
Sanga;Ninzo North Ward;;Kwassu Health Clinic;;;;;
Sanga;Ninzo North Ward;;Sambe Health Clinic;;;;;
Sanga;Ninzo North Ward;;Fadan Nimzo Health Centre;;;;;
Sanga;Ninzo South Ward;;Abu Health Clinic;;;;;
Sanga;Ninzo South Ward;;Kontagora Health Clinic;;;;;
Sanga;Ninzo West Ward;;Zanbur Health Clinic;;;;;
Sanga;Ninzo West Ward;;Ancha Makaranta Primary Health Centre;;;;;
Sanga;Ninzo West Ward;;Gbuila Health Centre;;;;;
Sanga;Ninzo West Ward;;Landa Health Clinic;;;;;
Sanga;Ninzo West Ward;;Tattaura;;;;;
Sanga;Ninzo West Ward;;Randa Primary Health Centre;;;;;
Sanga;Ninzo West Ward;;Anzere Health Clinic;;;;;
Sanga;Wasa Ward;;Abuju Mada Health Clinic;;;;;
Sanga;Wasa Ward;;PHC WASA;;;;;
Sanga;Wasa Ward;;Unguwar Musulmi Health Clinic;;;;;
Soba;Danwata Ward;;Sobawa Health Clinic;;;;;
Soba;Danwata Ward;;Maizare Health Clinic;;;;;
Soba;Danwata Ward;;Takalafiya Health Clinic;;;;;
Soba;Danwata Ward;;Lungu Dankande Health Clinic;;;;;
Soba;Danwata Ward;;Dan Wata Health Clinic;;;;;
Soba;Danwata Ward;;Sabon Gida Health Clinic;;;;;
Soba;Gamagira Ward;;Tama Health Clinic;;;;;
Soba;Gamagira Ward;;Gamagira Health Clinic;;;;;
Soba;Gamagira Ward;;Liman Ibada Health Clinic;;;;;
Soba;Gamagira Ward;;Danjaba Health Clinic;;;;;
Soba;Gamagira Ward;;Gurbabiya Health Clinic;;;;;
Soba;Garun Gwanki Ward;;Garun Gwanki Health Clinic;;;;;
Soba;Garun Gwanki Ward;;Sharifai Health Clinic;;;;;
Soba;Garun Gwanki Ward;;Angwar Galadima Health Clinic;;;;;
Soba;Garun Gwanki Ward;;Garu II Health Clinic;;;;;
Soba;Garun Gwanki Ward;;Bele Health Clinic;;;;;
Soba;Garun Gwanki Ward;;Bakura Health Clinic;;;;;
Soba;Gimba Ward;;Awai Health Clinic;;;;;
Soba;Gimba Ward;;Gimba Health Clinic;;;;;
Soba;Gimba Ward;;Anguwar fulani HC;;;;;
Soba;Gimba Ward;;Magada Health Clinic;;;;;
Soba;Gimba Ward;;Wanka Health Clinic;;;;;
Soba;Gimba Ward;;Anguwar Nahayi HC;;;;;
Soba;Gimba Ward;;Bagaldi Health Clinic;;;;;
Soba;Kinkiba Ward;;KD FAGACHI HEALTH CLINIC;;;;;
Soba;Kinkiba Ward;;Marwa Health Clinic;;;;;
Soba;Kinkiba Ward;;Damari Health Clinic (Soba);;;;;
Soba;Kinkiba Ward;;Tamba Health Clinic;;;;;
Soba;Kinkiba Ward;;Kinkiba Health Clinic;;;;;
Soba;Kwasalo Ward;;San Birni Health Clinic;;;;;
Soba;Kwasalo Ward;;Taba Health Clinic (Soba);;;;;
Soba;Kwasalo Ward;;HC Kurungufi II;;;;;
Soba;Kwasalo Ward;;Dinya Health Clinic;;;;;
Soba;Kwasalo Ward;;Suddu Health Clinic;;;;;
Soba;Kwasalo Ward;;Kwasallo Health Clinic;;;;;
Soba;Maigana Ward;;Gora HC;;;;;
Soba;Maigana Ward;;Tudun Saibu Health Clinic;;;;;
Soba;Maigana Ward;;Yakasai Primary Health Centre;;;;;
Soba;Maigana Ward;;HC Kwadaro;;;;;
Soba;Maigana Ward;;Anguwar Rimi Health Clinic (Soba);;;;;
Soba;Maigana Ward;;Maigana Rural Hospital;;;;;
Soba;Maigana Ward;;Matari Health Clinic;;;;;
Soba;Rahama Ward;;Sabon Kudi Health Clinic;;;;;
Soba;Rahama Ward;;Rahama Health Clinic (Soba);;;;;
Soba;Rahama Ward;;Angwar Madaki Health Clinic;;;;;
Soba;Rahama Ward;;KD MARMARA HEALTH CLINIC;;;;;
Soba;Richifa Ward;;Magadda Health Clinic;;;;;
Soba;Richifa Ward;;Farin Kasa Health Clinic;;;;;
Soba;Richifa Ward;;Richifa Health Clinic;;;;;
Soba;Soba Ward;;Soba Comprehensive Health Centre;;;;;
Soba;Soba Ward;;Shalabari Health Clinic;;;;;
Soba;Soba Ward;;Ang Malam Dogo Health Clinic;;;;;
Soba;Soba Ward;;Kuyamutsa Health Clinic;;;;;
Soba;Soba Ward;;Yelwa Makaranta Health Clinic;;;;;
Soba;Soba Ward;;Lafiya Clinic (Soba);;;;;
Soba;Soba Ward;; Dan Isa Health Clinic;;;;;
Soba;Soba Ward;;Kaware Health Clinic;;;;;
Soba;Soba Ward;;Yelwa Bene Health Clinic;;;;;
Soba;Turawa Ward;;Madarzai Health Clinic;;;;;
Soba;Turawa Ward;;Turawa Health Clinic;;;;;
Soba;Turawa Ward;;Kurungufi Health Clinic;;;;;
Zangon Kataf;Gidan Jatau Ward;;Kurdan Health Clinic;;;;;
Zangon Kataf;Gidan Jatau Ward;;Saknack Health Centre;;;;;
Zangon Kataf;Gidan Jatau Ward;;Zuturung Kariyi Health Clinic;;;;;
Zangon Kataf;Gidan Jatau Ward;;Abet Health Clinic;;;;;
Zangon Kataf;Gidan Jatau Ward;;Farman Primary Health Centre;;;;;
Zangon Kataf;Gidan Jatau Ward;;Kamarun Gidan Health Clinic;;;;;
Zangon Kataf;Gora Ward;;Warkan Health Clinic;;;;;
Zangon Kataf;Gora Ward;;Gora Gan Health Clinic;;;;;
Zangon Kataf;Gora Ward;;Takanai Health Clinic;;;;;
Zangon Kataf;Gora Ward;;Goran Gida Health Clinic;;;;;
Zangon Kataf;Gora Ward;;Kwaku Health Centre;;;;;
Zangon Kataf;Gora Ward;;Gora Bafai Primary Health Centre;;;;;
Zangon Kataf;Gora Ward;;Sagwaza Health Clinic;;;;;
Zangon Kataf;Ikulu Ward;;K/Dutse Health Centre;;;;;
Zangon Kataf;Ikulu Ward;;Anchuna Health Clinic;;;;;
Zangon Kataf;Ikulu Ward;;Gidan Ali Health Centre;;;;;
Zangon Kataf;Ikulu Ward;;Rafin Jumai Health Clinic;;;;;
Zangon Kataf;Ikulu Ward;;Fancil Health Clinic;;;;;
Zangon Kataf;Ikulu Ward;;Lisuru Health Centre;;;;;
Zangon Kataf;Ikulu Ward;;Gidan Bako Health Clinic;;;;;
Zangon Kataf;Ikulu Ward;;Dutsen Bako Health Clinic;;;;;
Zangon Kataf;Ikulu Ward;;Kamuru Primary Health Centre;;;;;
Zangon Kataf;Kamantan Ward;;Kalbam Health Centre;;;;;
Zangon Kataf;Kamantan Ward;;Kungun Health Centre;;;;;
Zangon Kataf;Kamantan Ward;;Fadia Tudun Wada Health Centre;;;;;
Zangon Kataf;Kamantan Ward;;Kagal Health Clinic;;;;;
Zangon Kataf;Kamantan Ward;;F/Kamantan Priamry Health Centre;;;;;
Zangon Kataf;Kamantan Ward;;Zuturung Mago Health Clinic;;;;;
Zangon Kataf;Kamantan Ward;;Kazir Health Clinic;;;;;
Zangon Kataf;Kamantan Ward;;Balle Health Clinic;;;;;
Zangon Kataf;Madakiya Ward;;Tsorizang Health Clinic;;;;;
Zangon Kataf;Madakiya Ward;;Bvonkpan Health Clinic;;;;;
Zangon Kataf;Madakiya Ward;;Maniya Health Clinic;;;;;
Zangon Kataf;Madakiya Ward;;Aduwan Health Centre;;;;;
Zangon Kataf;Madakiya Ward;;Farman Dutse Health Clinic;;;;;
Zangon Kataf;Madakiya Ward;;Madakiya Primary Health Centre;;;;;
Zangon Kataf;Madakiya Ward;;Ziti Health Clinic;;;;;
Zangon Kataf;Unguwar Gaiya Ward;;Anguwar Jaba Health Clinic;;;;;
Zangon Kataf;Unguwar Gaiya Ward;;Anguwar Juju Health Clinic;;;;;
Zangon Kataf;Unguwar Gaiya Ward;;Jankasa Health Clinic;;;;;
Zangon Kataf;Unguwar Gaiya Ward;;Noekashi Health Centre;;;;;
Zangon Kataf;Unguwar Gaiya Ward;;Mabushi Primary Health Centre;;;;;
Zangon Kataf;Ungwar Rimi Ward;;Rikawan Health Clinic;;;;;
Zangon Kataf;Ungwar Rimi Ward;;Afana Health Clinic;;;;;
Zangon Kataf;Ungwar Rimi Ward;;Agwan Rimi Primary Health Centre;;;;;
Zangon Kataf;Ungwar Rimi Ward;;Katsit Daji Health Clinic;;;;;
Zangon Kataf;Ungwar Rimi Ward;;Marsa Health Clinic;;;;;
Zangon Kataf;Ungwar Rimi Ward;;Katsit Kafanchan Health Centre;;;;;
Zangon Kataf;Zaman Dabo Ward;;Kurmin Masara Primary Health Centre;;;;;
Zangon Kataf;Zaman Dabo Ward;;Zama Awan Health Clinic;;;;;
Zangon Kataf;Zango Urban Ward;;Zango Urban Primary Health Centre;;;;;
Zangon Kataf;Zango Urban Ward;;Zangon Kataf General Hospital;;;;;
Zangon Kataf;Zonkwa Ward;;Fadia Gida Health Clinic;;;;;
Zangon Kataf;Zonkwa Ward;;Zuturug pama Health Clinic;;;;;
Zangon Kataf;Zonkwa Ward;;Fadan Kaje Health Clinic;;;;;
Zangon Kataf;Zonkwa Ward;;Zonkwa Primary Health Centre;;;;;
Zangon Kataf;Zonkwa Ward;;Zonkwa Medical Centre;;;;;
Zangon Kataf;Zonkwa Ward;;Fadiya Mago Health Clinic;;;;;
Zangon Kataf;Zonkwa Ward;;Madauchi Health Clinic;;;;;
Zangon Kataf;Zonkwa Ward;;Zonkwa General Hospital;;;;;
Zangon Kataf;Zonkwa Ward;;MDG Health Clinic Fadan Kaje;;;;;
Zangon Kataf;Zonkwa Ward;;Kurmin B1 Health Clinic;;;;;
Zangon Kataf;Zonkwa Ward;;Jama'a Clinic;;;;;
Zangon Kataf;Zonkwa Ward;;Yarbuna Health Clinic;;;;;
Zangon Kataf;Zonzon Ward;;Kigudu Health Clinic;;;;;
Zangon Kataf;Zonzon Ward;;Mabuhu Health Clinic;;;;;
Zangon Kataf;Zonzon Ward;;Anguwar Ruhogu Health Clinic;;;;;
Zangon Kataf;Zonzon Ward;;Agwan Zaki Health Centre;;;;;
Zangon Kataf;Zonzon Ward;;Sako Health Clinic;;;;;
Zangon Kataf;Zonzon Ward;;Magamiya Primary Health Centre;;;;;
Zaria;Anguwar Juma Ward;;Durumi Primary Health Centre;;;;;
Zaria;Anguwar Juma Ward;;Kofar Kuyanbana Health Clinic;;;;;
Zaria;Anguwar Juma Ward;;Alfadarai Health Centre;;;;;
Zaria;Anguwar Juma Ward;;Danjinjiri Health Clinic;;;;;
Zaria;Angwar Fatika Ward;;Aminci Hospital,Kauran Juli,Zaria;;;;;
Zaria;Angwar Fatika Ward;;Angwar Fatika Primary Health Centre;;;;;
Zaria;Angwar Fatika Ward;;Kofar Kibo Clinic;;;;;
Zaria;Dambo Ward;;Kakeyi Health Clinic;;;;;
Zaria;Dambo Ward;;Dakace Health Centre;;;;;
Zaria;Dambo Ward;;Dambo Health Centre;;;;;
Zaria;Dutsen Abba Ward;;Anguwar Malamai Health Clinic;;;;;
Zaria;Dutsen Abba Ward;;Kasuwan Dutsen Health Clinic;;;;;
Zaria;Dutsen Abba Ward;;Kafin Mardani Health clinic;;;;;
Zaria;Dutsen Abba Ward;;Dutsen Abba Health Clinic;;;;;
Zaria;Dutsen Abba Ward;;Kako Health Clinic;;;;;
Zaria;Dutsen Abba Ward;;Dorayi Health Centre;;;;;
Zaria;Dutsen Abba Ward;;Fanmadina Health Clinic;;;;;
Zaria;Dutsen Abba Ward;;Tankarau Health Clinic;;;;;
Zaria;Dutsen Abba Ward;;Kwaba Health Clinic;;;;;
Zaria;Gyellesu Ward;;Gyellesu Health Centre;;;;;
Zaria;Gyellesu Ward;; Primary Health Centre Kaku;;;;;
Zaria;Gyellesu Ward;;Gambo Sawaba General Hospital;;;;;
Zaria;Kaura Ward (Zaria);;Rimin Doko Primary Health Centre;;;;;
Zaria;Kaura Ward (Zaria);; Angwar Bishar Model Primary Health Centre;;;;;
Zaria;Kufena Ward;;Kake Health Clinic;;;;;
Zaria;Kufena Ward;;Rafin Magaji Health Clinic;;;;;
Zaria;Kufena Ward;;St lukes Angilican Hospital;;;;;
Zaria;Kufena Ward;;Angwar Dankali Primary Health Centre;;;;;
Zaria;Kufena Ward;;Kauran Juli Health Clinic;;;;;
Zaria;Kufena Ward;;Rahamaniya Health Clinic;;;;;
Zaria;Kufena Ward;;Gabari Health Clinic;;;;;
Zaria;Kwarbai A Ward;;Amaru Health Clinic;;;;;
Zaria;Kwarbai A Ward;;Iyal Memorial Health Clinic;;;;;
Zaria;Kwarbai A Ward;;Jushi Health Clinic;;;;;
Zaria;Kwarbai A Ward;;Himma City Clinic Kofar Doka;;;;;
Zaria;Kwarbai A Ward;;Kofan Galadim Health Clinic;;;;;
Zaria;Kwarbai A Ward;;Magajiya Health clinic;;;;;
Zaria;Kwarbai B Ward;;Jamawa Health Clinic;;;;;
Zaria;Kwarbai B Ward;;Jamaatu clinic;;;;;
Zaria;Kwarbai B Ward;;Ang Liman Health Clinic;;;;;
Zaria;Kwarbai B Ward;;Anguwar Alkali Health Clinic;;;;;
Zaria;Kwarbai B Ward;;Kakaki Community Health Clinic;;;;;
Zaria;Kwarbai B Ward;;Taimako Nursing and Maternity Home Kwarbai;;;;;
Zaria;Limancin Kona Ward;;Jakara Health Centre;;;;;
Zaria;Limancin Kona Ward;;Babban Dodo Health Clinic;;;;;
Zaria;Limancin Kona Ward;;Salmaduna Health Clinic;;;;;
Zaria;Tudun Wada Ward (Zaria);;Tudun Wada Primary Health Centre;;;;;
Zaria;Tudun Wada Ward (Zaria);;Zaria Clinic Tudun Wada;;;;;
Zaria;Tudun Wada Ward (Zaria);;Dandutse Health Centre;;;;;
Zaria;Tukur Tukur Ward;;Tudun Jukun Health Clinic;;;;;
Zaria;Tukur Tukur Ward;;Tukur Tukur Health Clinic;;;;;
Zaria;Tukur Tukur Ward;;Dan Magaji Muslim Specialist Hospital;;;;;
Zaria;Wuciciri Ward;;Wuciciri Health Centre;;;;;
Zaria;Wuciciri Ward;;Rubuci Health Clinic;;;;;
Zaria;Wuciciri Ward;;Aba Health Clinic;;;;;
