LGA;Ward;Settlement;Facility;Type;Ownership;Address;Longitude;Latitude
Ajingi;Ajingi Ward;;Ajingi Primary Health Centre;;;;;
Ajingi;Ajingi Ward;;Sakalawa Health Post;;;;;
Ajingi;Balare Ward;;Balare Model Primary Health Care;;;;;
Ajingi;Balare Ward;;Fulatan Health Post;;;;;
Ajingi;Balare Ward;;Tsabarawa Health Post;;;;;
Ajingi;Chula Ward;;Chula Health Clinic;;;;;
Ajingi;Chula Ward;;Kawari Health Post;;;;;
Ajingi;Dabi Ward;;Dabi Health Post;;;;;
Ajingi;Dabi Ward;;Fagawa Health Post;;;;;
Ajingi;Dabi Ward;;Marita Health Post;;;;;
Ajingi;Dundun Ward;;Maigana Health Post;;;;;
Ajingi;Dundun Ward;;Dundun Health Post;;;;;
Ajingi;Gafasa Ward;;Jiyayya Health Post;;;;;
Ajingi;Gafasa Ward;;Gafasa Health Post;;;;;
Ajingi;Gafasa Ward;;Danmalam Health Post;;;;;
Ajingi;Gurduba Ward;;Kullumi Health Post;;;;;
Ajingi;Gurduba Ward;;Zangon Gulya Health Post;;;;;
Ajingi;Gurduba Ward;;Gurduba Health Post;;;;;
Ajingi;Kunkurawa Ward;;Kiroro Health Post;;;;;
Ajingi;Kunkurawa Ward;;Kunkurawa Health Post;;;;;
Ajingi;Kunkurawa Ward;;Makarya Primary Health Center;;;;;
Ajingi;Kunkurawa Ward;;Kara Makama Health Post;;;;;
Ajingi;Toranke Ward;;Biyamusu Health Post;;;;;
Ajingi;Toranke Ward;;Toranke Health Clinic;;;;;
Ajingi;Toranke Ward;;Kawoni Health Post;;;;;
Ajingi;Toranke Ward;;Karadagaji Health Center;;;;;
Ajingi;Unguwar Bai Ward;;Kadiri Health Clinic;;;;;
Ajingi;Unguwar Bai Ward;;Gagarawa Health Post;;;;;
Ajingi;Unguwar Bai Ward;;Unguwar Bai Health Centre;;;;;
Albasu;Albasu Ward;;Albasu Cottage Hospital;;;;;
Albasu;Albasu Ward;;Albasu GGASS Clinic;;;;;
Albasu;Albasu Ward;;Jigar Health Post;;;;;
Albasu;Bataiya Ward;;Mangari Health Post;;;;;
Albasu;Bataiya Ward;;Bataiya Primary Health Centre;;;;;
Albasu;Bataiya Ward;;Baleke Health Post;;;;;
Albasu;Daho Ward;;Biskin Health Post;;;;;
Albasu;Daho Ward;;Farantama Health Post;;;;;
Albasu;Daho Ward;;Daho Health Post;;;;;
Albasu;Daho Ward;;Zuwan Hawa Health Post;;;;;
Albasu;Duja Ward;;Chamarana Health Post;;;;;
Albasu;Duja Ward;;Duja Health Post;;;;;
Albasu;Faragai Ward;;Sabon Garin Naira Health Post;;;;;
Albasu;Faragai Ward;;Faragai Health Post;;;;;
Albasu;Faragai Ward;;Gwangwarandan Health Post;;;;;
Albasu;Gagarami Ward;;Jirago Health Post;;;;;
Albasu;Gagarami Ward;;Gagarami Health Post;;;;;
Albasu;Gagarami Ward;;Makera Health Post;;;;;
Albasu;Hungu Ward;;Yaura Health Post;;;;;
Albasu;Hungu Ward;;Sittika Health Post;;;;;
Albasu;Hungu Ward;;Hungu Primary Health Centre;;;;;
Albasu;Panda Ward;;Hamdullahi Health Post;;;;;
Albasu;Panda Ward;;Panda Primary Health Center;;;;;
Albasu;Panda Ward;;Umbara Health Post;;;;;
Albasu;Saya Saya Ward;;Kala-Haddi Health Post;;;;;
Albasu;Saya Saya Ward;;Burburwa Health Post;;;;;
Albasu;Tsangaya Ward;;Tsangaya Primary Health Centre;;;;;
Albasu;Tsangaya Ward;;Yawurma Health Post;;;;;
Bagwai;Bagwai Ward;;Daddauda Health Post;;;;;
Bagwai;Bagwai Ward;;Abbas Primary Health Centre;;;;;
Bagwai;Dangada Ward;;Kafin Maiko Health Post;;;;;
Bagwai;Dangada Ward;;Dangada Model Primary Health Centre;;;;;
Bagwai;Dangada Ward;;Kariya M/Kanbo Health Post;;;;;
Bagwai;Gadanya Ward;;Jauben Yamma Health Post;;;;;
Bagwai;Gadanya Ward;;Gadanya Basic Health Centre;;;;;
Bagwai;Gadanya Ward;;Tudara Health Post;;;;;
Bagwai;Gogori Ward;;Gogori Primary Health Centre;;;;;
Bagwai;Kiyawa Ward;;Kauyen Adam Health Post;;;;;
Bagwai;Kiyawa Ward;;Kiyawa Health Centre;;;;;
Bagwai;Kwajale Ward;;Tuga Health Post;;;;;
Bagwai;Kwajale Ward;;Kwajale Primary Health Centre;;;;;
Bagwai;Kwajale Ward;;Rimin Bai Health Post (BGW);;;;;
Bagwai;Rimin Dako Ward;;Rimin Dako Health Post;;;;;
Bagwai;Rimin Dako Ward;;Baure Health Post;;;;;
Bagwai;Rimin Dako Ward;;Badodo Health Post;;;;;
Bagwai;Romo Ward;;Yar Tofa Health Post (BGW);;;;;
Bagwai;Romo Ward;;Jarumawa Health Post;;;;;
Bagwai;Romo Ward;;Romo Primary Health Centre;;;;;
Bagwai;Sare-Sare Ward;;Surfan Health Post;;;;;
Bagwai;Sare-Sare Ward;;Sare-Sare Model Primary Health Centre;;;;;
Bagwai;Sare-Sare Ward;;Alajawa Health Post;;;;;
Bagwai;Wuro-Bagga Ward;;Badau Health Post;;;;;
Bagwai;Wuro-Bagga Ward;;Wuro-Bagga Model Primary Health Centre;;;;;
Bagwai;Wuro-Bagga Ward;;Kn Ginzo Health Post;;;;;
Bebeji;Anadariya Ward;;Anadariya Health Post;;;;;
Bebeji;Baguda Ward;;Baguda Health Post;;;;;
Bebeji;Bebeji Ward;;Al-Yusra Nursing & Maternity Home;;;;;
Bebeji;Bebeji Ward;;Jibga Health Post (BBJ);;;;;
Bebeji;Bebeji Ward;;Bebeji  General Hospital;;;;;
Bebeji;Damau Ward;;Damau Health Post;;;;;
Bebeji;Durmawa Ward;;Dawakin Dogo Health Post;;;;;
Bebeji;Durmawa Ward;;Danbubu Health Post;;;;;
Bebeji;Durmawa Ward;;Durmawa Health Post;;;;;
Bebeji;Gargai Ward;;Gargai Health Post;;;;;
Bebeji;Gwarmai Ward (Bebeji);;Hayin Gwarmai Health Post;;;;;
Bebeji;Gwarmai Ward (Bebeji);;Taimako Hospital;;;;;
Bebeji;Gwarmai Ward (Bebeji);;Gwarmai Primary Health Centre (BBJ);;;;;
Bebeji;Gwarmai Ward (Bebeji);;Tiga General Hospital;;;;;
Bebeji;Gwarmai Ward (Bebeji);;Unguwar Labl Health Post;;;;;
Bebeji;Kofa Ward;;Kofa Health Clinic;;;;;
Bebeji;Kuki  Ward;;Nassarawar Kuki Health Post;;;;;
Bebeji;Kuki  Ward;;Kuki Health Post;;;;;
Bebeji;Rahama Ward;;Cutar Biki Health Post;;;;;
Bebeji;Rahama Ward;;Rahama Health Post;;;;;
Bebeji;Ranka Ward;;Ranka Health Post;;;;;
Bebeji;Rantan Ward;;Rantan Health Post;;;;;
Bebeji;Tariwa  Ward;;Dutsen Garma Health Post;;;;;
Bebeji;Tariwa  Ward;;Tariwa Health Post;;;;;
Bebeji;Wak Ward;;Bege Nursing Home;;;;;
Bebeji;Wak Ward;;Bagauda School Clinic;;;;;
Bebeji;Wak Ward;;Wak Health Post;;;;;
Bichi;Badume Ward;;Badume Model Primary Health Care;;;;;
Bichi;Badume Ward;;Sanakur Health Post;;;;;
Bichi;Badume Ward;;Yakasai Health Post;;;;;
Bichi;Badume Ward;;Tsaure Health Post;;;;;
Bichi;Badume Ward;;Kyauta Health Post;;;;;
Bichi;Badume Ward;;Yanbundu Health Clinic;;;;;
Bichi;Badume Ward;;Gulbi Health Post;;;;;
Bichi;Badume Ward;;Kawaji Health Post;;;;;
Bichi;Badume Ward;;Sabo Health Post;;;;;
Bichi;Badume Ward;;Yola Health Post (BCH);;;;;
Bichi;Bichi Ward;;Karari Health Post;;;;;
Bichi;Bichi Ward;;Dutsen Karya Health Post;;;;;
Bichi;Bichi Ward;;Bichi General Hospital;;;;;
Bichi;Bichi Ward;;Bichi Excellence Hospital & Maternity Service;;;;;
Bichi;Bichi Ward;;Bichi FCE Primary Health Centre;;;;;
Bichi;Danzabuwa Ward;;Malikawar Sarari Health Post;;;;;
Bichi;Danzabuwa Ward;;Malikawar Garu Model Primary Health Centre;;;;;
Bichi;Danzabuwa Ward;;Danzabuwa Model Primary Health Centre;;;;;
Bichi;Fagwalo Ward;;Kungu Health Post;;;;;
Bichi;Fagwalo Ward;;Gyauro Health Post;;;;;
Bichi;Fagwalo Ward;;Fagwalo Health Post;;;;;
Bichi;Fagwalo Ward;;Yatsi Health Post;;;;;
Bichi;Fagwalo Ward;;Tukuibi Health Post;;;;;
Bichi;Kau Kau Ward;;Kau Kau Health Post;;;;;
Bichi;Kau Kau Ward;;Damisa Health Post;;;;;
Bichi;Kau Kau Ward;;Muraye Health Post;;;;;
Bichi;Kau Kau Ward;;Rimayen Rake Health Post;;;;;
Bichi;Kau Kau Ward;;Yan Dutse Health Post;;;;;
Bichi;Kwamarawa Ward;;Tinki Health Post;;;;;
Bichi;Kwamarawa Ward;;Kwamarawa Health Post;;;;;
Bichi;Kwamarawa Ward;;Bankaura Health Post;;;;;
Bichi;Kwamarawa Ward;;Marga Health Post;;;;;
Bichi;Kyalli Ward;;Tsidau Health Post;;;;;
Bichi;Kyalli Ward;;Hagawa Health Post;;;;;
Bichi;Kyalli Ward;;Chiromawa Primary Health Centre;;;;;
Bichi;Kyalli Ward;;Lamba Health Post;;;;;
Bichi;Kyalli Ward;;Yan Gwarzo Health Post;;;;;
Bichi;Muntsira Ward;;Iyawa Health Post;;;;;
Bichi;Muntsira Ward;;Sani A/Awa Health Post;;;;;
Bichi;Muntsira Ward;;Madine Health Post;;;;;
Bichi;Muntsira Ward;;Muntsira Health Post;;;;;
Bichi;Saye Ward;;Garun Bature Health Post;;;;;
Bichi;Saye Ward;;Saye Primary Health Centre;;;;;
Bichi;Saye Ward;;Bum Bum Health Post;;;;;
Bichi;Waire Ward;;Dutsen Dorawa Health Post;;;;;
Bichi;Waire Ward;;Bali Health Post;;;;;
Bichi;Waire Ward;;Jinjimawa Health Post;;;;;
Bichi;Waire Ward;;Waire Health Post;;;;;
Bichi;Yallami Ward;;Yar Tasha Health Post;;;;;
Bichi;Yallami Ward;;Yan Lami Health Post;;;;;
Bichi;Yallami Ward;;Damargu Primary Health Centre;;;;;
Bunkure;Barkum Ward;;Barkum Health Post;;;;;
Bunkure;Bono Ward;;Bono Health Post;;;;;
Bunkure;Bono Ward;;Jaroji Health Clinic;;;;;
Bunkure;Bono Ward;;Dandagama Health Post;;;;;
Bunkure;Bunkure Ward;;Sabon Ruwa Health Clinic;;;;;
Bunkure;Bunkure Ward;;Bunkure Basic Health Clinic;;;;;
Bunkure;Bunkure Ward;;Sabon Garin Kuruma Health Clinic;;;;;
Bunkure;Chirin Ward;;Barnawa Health Post;;;;;
Bunkure;Chirin Ward;;Karofi Health Clinic BNK;;;;;
Bunkure;Gafon Ward;;Shiye Health Post;;;;;
Bunkure;Gafon Ward;;Makunturi Health Clinic;;;;;
Bunkure;Gafon Ward;;Danbala Health Clinic;;;;;
Bunkure;Gafon Ward;;Gafon Health Post;;;;;
Bunkure;Gwamma Ward;;Gwaneri Health Post;;;;;
Bunkure;Gwamma Ward;;Gwamma Health Post;;;;;
Bunkure;Kumurya Ward;;Dususu Health Post;;;;;
Bunkure;Sanda Ward;;Sanda Health Post;;;;;
Bunkure;Sanda Ward;;Torankawa Health Clinic;;;;;
Bunkure;Sanda Ward;;Dumari Health Clinic;;;;;
Bunkure;Sanda Ward;;Jarnawa Health Post;;;;;
Bunkure;Sanda Ward;;Dundu Health Post;;;;;
Dala;Adakawa Ward;;Daurawa Health Clinic (DAL);;;;;
Dala;Adakawa Ward;;Adakawa  (Karofi) Health Clinic;;;;;
Dala;Bakin Ruwa Ward;;Bakin Ruwa Health Centre;;;;;
Dala;Dala Ward;;Fuskar Arewa Health Clinic;;;;;
Dala;Dala Ward;;Mai Unguwa Garba Health Clinic;;;;;
Dala;Dala Ward;;Rijiya Biyu Community Health Clinic;;;;;
Dala;Dogon Nama Ward;;City Medical Clinic;;;;;
Dala;Dogon Nama Ward;;Goron Dutse Primary Health Centre (Dal);;;;;
Dala;Gobirawa Ward;;Hajia Umma Zaria Health Clinic;;;;;
Dala;Gobirawa Ward;;Kurna Primary Health Centre;;;;;
Dala;Gobirawa Ward;;Burhana Health Clinic;;;;;
Dala;Gobirawa Ward;;Gobirawa Health Post;;;;;
Dala;Gobirawa Ward;;Salamatu Clinic and Maternity;;;;;
Dala;Gwammaja Ward;;Gwammaja Maternity and Child Health Clinic;;;;;
Dala;Kabuwaya Ward;;Dala Maternal Health Centre;;;;;
Dala;Kantudu Ward;;Katundu Health Clinic;;;;;
Dala;Kofar Mazugal Ward;;Kofar Mazugal Health Post;;;;;
Dala;Kofar Mazugal Ward;;Zakirai Maternity Clinic;;;;;
Dala;Kofar Ruwa Ward;;National Orthopaedic Hospital (Kano);;;;;
Dala;Kofar Ruwa Ward;;Kofar Ruwa Health Clinic;;;;;
Dala;Kofar Ruwa Ward;;Dandinshe Model Primary Health Centre;;;;;
Dala;Kofar Ruwa Ward;;Kofar Ruwa Basic Health Clinic;;;;;
Dala;Madigawa Ward;;Madigawa Health Clinic;;;;;
Dala;Yalwa Dala Ward;;Yalwa Primary Health Centre (DAL);;;;;
Dala;Yalwa Dala Ward;;Mailafiya Health Clinic;;;;;
Danbatta;Ajumawa Ward;;Yammawa Ganji Health Post;;;;;
Danbatta;Ajumawa Ward;;Ajumawa Health Post;;;;;
Danbatta;Ajumawa Ward;;Masallachi Heath Post;;;;;
Danbatta;Ajumawa Ward;;Marken Danya Health Post;;;;;
Danbatta;Ajumawa Ward;;Yammawa Wanzamai Health Post;;;;;
Danbatta;Danbatta East Ward;;Top Care Hospital;;;;;
Danbatta;Danbatta East Ward;;Women Centre Health Post;;;;;
Danbatta;Danbatta West Ward;;Fagwalo Health Post;;;;;
Danbatta;Danbatta West Ward;;Maimunatu GGSS Clinic;;;;;
Danbatta;Danbatta West Ward;;Danbatta General Hospital;;;;;
Danbatta;Danbatta West Ward;;Danbatta GGASS Clinic;;;;;
Danbatta;Danbatta West Ward;;Police Medical Centre;;;;;
Danbatta;Danbatta West Ward;;Kauyen Mai Unguwa Health Post;;;;;
Danbatta;Fagwalawa Ward;;Fagwalawa Cottage Hospital;;;;;
Danbatta;Fagwalawa Ward;;Tona Health Post;;;;;
Danbatta;Fagwalawa Ward;;Katsarduwa Health Post;;;;;
Danbatta;Goron Maje Ward;;Goron Maje Basic Health Clinic;;;;;
Danbatta;Gwanda Ward;;Dukawa Health Post;;;;;
Danbatta;Gwanda Ward;;Diggol Health Post;;;;;
Danbatta;Gwanda Ward;;Gwanda Health Post (DAM);;;;;
Danbatta;Gwanda Ward;;Chesko Health Post;;;;;
Danbatta;Gwarabjawa Ward;;Tsaraka Health Post;;;;;
Danbatta;Gwarabjawa Ward;;Baushe Health Post;;;;;
Danbatta;Gwarabjawa Ward;;Shiddar Health Post;;;;;
Danbatta;Gwarabjawa Ward;;Gwarabjawa Health Post;;;;;
Danbatta;Gwarabjawa Ward;;Mai Ganji Health Post;;;;;
Danbatta;Gwarabjawa Ward;;Bolloda Health Post;;;;;
Danbatta;Gwarabjawa Ward;;Gulaida Health Post;;;;;
Danbatta;Kore Ward;;Kore Health Post;;;;;
Danbatta;Kore Ward;;Dumma Health Post;;;;;
Danbatta;Kore Ward;;Ruwantsa Health Post;;;;;
Danbatta;Kore Ward;;Larabar Takuya Health Post;;;;;
Danbatta;Saidawa Ward;;Takai Health Post;;;;;
Danbatta;Saidawa Ward;;Koya Health Post (DBT);;;;;
Danbatta;Saidawa Ward;;Dalal Health Clinic (Danba);;;;;
Danbatta;Saidawa Ward;;Marken Mahuta Health Post;;;;;
Danbatta;Saidawa Ward;;Saidawa Health Post;;;;;
Danbatta;Sansan Ward;;Dangurmi Health Post;;;;;
Danbatta;Sansan Ward;;Kwasauri Health Post;;;;;
Danbatta;Sansan Ward;;Sansan Health Post (DBT);;;;;
Dawakin Kudu;Daba Ward;;Daba Basic Health Clinic;;;;;
Dawakin Kudu;Daba Ward;;Fan'ido Health Post;;;;;
Dawakin Kudu;Danbabina Ward;;Runa Health Post;;;;;
Dawakin Kudu;Dawaki Ward;;Dawakin Kudu General Hospital;;;;;
Dawakin Kudu;Dawaki Ward;;Dawaki Nursing Home;;;;;
Dawakin Kudu;Dawakiji Ward;;Dawakiji Basic Health Clinic;;;;;
Dawakin Kudu;Dosan Ward;;Fanchin Health Post;;;;;
Dawakin Kudu;Dosan Ward;;Kamagate Health Post;;;;;
Dawakin Kudu;Dosan Ward;;Dosan Health Post;;;;;
Dawakin Kudu;Gano Ward;;Gano Basic Health Clinic;;;;;
Dawakin Kudu;Gano Ward;;Kun Kurawa Health Post;;;;;
Dawakin Kudu;Gurjiya Ward (DKD);;Gurjiya Clinic (DKD);;;;;
Dawakin Kudu;Jido Ward;;Jido Health Clinic;;;;;
Dawakin Kudu;Tamburawa Ward;;Matage Health Clinic;;;;;
Dawakin Kudu;Tamburawa Ward;;Tamburawa Health Post;;;;;
Dawakin Kudu;Tamburawa Ward;;Gada Health Post;;;;;
Dawakin Kudu;Tamburawa Ward;;North West Health Clinic;;;;;
Dawakin Kudu;Tsakuwa Ward (DKD);;Chakawa Health Post;;;;;
Dawakin Kudu;Tsakuwa Ward (DKD);;Tsakuwa Primary Health Centre;;;;;
Dawakin Kudu;Unguwar Duniya Ward;;Unguwar Duniya Health Post;;;;;
Dawakin Kudu;Yambarau Ward;;Sarai Health Post;;;;;
Dawakin Kudu;Yan Katsare Ward;;Unguwar Fawa Primary Health Center;;;;;
Dawakin Kudu;Yan Katsare Ward;;Yan Katsare Health Post;;;;;
Dawakin Kudu;Yar Gaya Ward;;Yar Gaya Hospital;;;;;
Dawakin Kudu;Zogarawa Ward;;Zogarawa Health Post;;;;;
Dawakin Tofa;Danguguwa Ward;;Kadawa Danguguwa Primary Health Center  (DTF);;;;;
Dawakin Tofa;Danguguwa Ward;;Sarauniya Health Post;;;;;
Dawakin Tofa;Danguguwa Ward;;Dan Guguwa Health Post;;;;;
Dawakin Tofa;Danguguwa Ward;;Gabari Health Post (DTF);;;;;
Dawakin Tofa;Dawakin East Ward;;Dawakin Science Secondary School Clinic;;;;;
Dawakin Tofa;Dawakin East Ward;;Dawakin Tofa General Hospital;;;;;
Dawakin Tofa;Dawakin East Ward;;Sarkakiya Health Post;;;;;
Dawakin Tofa;Dawakin West Ward;;Dambazau Health Post (DTF);;;;;
Dawakin Tofa;Dawakin West Ward;;Fagen Kawo Health Post;;;;;
Dawakin Tofa;Dawakin West Ward;;Joben Marke Health Post;;;;;
Dawakin Tofa;Dawanau Ward;;Dawanau Psychiatric Hospital;;;;;
Dawakin Tofa;Dawanau Ward;;Dawanau Primary Health Centre;;;;;
Dawakin Tofa;Dawanau Ward;;Nassarawa Health Post (DTF);;;;;
Dawakin Tofa;Dawanau Ward;;Zangon Dawanau Health Clinic;;;;;
Dawakin Tofa;Dawanau Ward;;Dungurawa Dispensary;;;;;
Dawakin Tofa;Dawanau Ward;;Bagadawa Health Post;;;;;
Dawakin Tofa;Dawanau Ward;;Chedi Mai Dala Health Post;;;;;
Dawakin Tofa;Ganduje Ward;;Jemomi Health Post;;;;;
Dawakin Tofa;Ganduje Ward;;Roba Health Post;;;;;
Dawakin Tofa;Ganduje Ward;;Damfamin Tofa Health Post;;;;;
Dawakin Tofa;Ganduje Ward;;Ganduje Primary Health Centre;;;;;
Dawakin Tofa;Gargari Ward;;Dogon Marke Health Post;;;;;
Dawakin Tofa;Gargari Ward;;Gwamai Health Post;;;;;
Dawakin Tofa;Gargari Ward;;Kunnawa Health Post;;;;;
Dawakin Tofa;Gargari Ward;;Gudau Health Post;;;;;
Dawakin Tofa;Gargari Ward;;Gargari Health Post;;;;;
Dawakin Tofa;Jalli Ward;;Jalli Health Post;;;;;
Dawakin Tofa;Jalli Ward;;Yumfawa Model Primary Health Center;;;;;
Dawakin Tofa;Jalli Ward;;Dan Itace Health Post;;;;;
Dawakin Tofa;Jalli Ward;;Kwaidawa Health post;;;;;
Dawakin Tofa;Jalli Ward;;Madachi Health Clinic;;;;;
Dawakin Tofa;Kwa Ward;;Romi Health Post;;;;;
Dawakin Tofa;Kwa Ward;;Chedi Babbar Ruga Health Post;;;;;
Dawakin Tofa;Kwa Ward;;Kwa GGSS School Clinic;;;;;
Dawakin Tofa;Kwa Ward;;Buruntumau Health Post;;;;;
Dawakin Tofa;Kwa Ward;;Kwa Health Post;;;;;
Dawakin Tofa;Marke Ward;;Marke Health Clinic;;;;;
Dawakin Tofa;Marke Ward;;Kaleku Health Post;;;;;
Dawakin Tofa;Marke Ward;;Yar Rutu Health Post;;;;;
Dawakin Tofa;Tattarawa Ward;;Fango Health Post;;;;;
Dawakin Tofa;Tattarawa Ward;;Zaura Health Post;;;;;
Dawakin Tofa;Tattarawa Ward;;Zangon Mata Health Post;;;;;
Dawakin Tofa;Tattarawa Ward;;Tattarawa Health Clinic;;;;;
Dawakin Tofa;Tumfafi Ward;;Tumfafi Adolescent Health Information Project Clinic;;;;;
Dawakin Tofa;Tumfafi Ward;;Dandalama Primary Health Center;;;;;
Dawakin Tofa;Tumfafi Ward;;Yakasai Health Post (DTF);;;;;
Doguwa;Dishere Ward;;Dariyar Shere Dispensary;;;;;
Doguwa;Dogon Kawo Ward;;Birji Basic Health Clinic;;;;;
Doguwa;Dogon Kawo Ward;;Dogon Kawo Dispensary;;;;;
Doguwa;Doguwa Ward;;Doguwa General Hospital;;;;;
Doguwa;Falgore Ward;;Gada Biyu Dispensary;;;;;
Doguwa;Falgore Ward;;Falgore Dispensary;;;;;
Doguwa;Falgore Ward;;Fanyaba Health Post;;;;;
Doguwa;Maraku Ward;;Yalwan Danmusa Health Clinic;;;;;
Doguwa;Maraku Ward;;Maraku Dispensary;;;;;
Doguwa;Ragada Ward;;Rufai Health Post;;;;;
Doguwa;Ragada Ward;;Dadin-Kowa Dispensary;;;;;
Doguwa;Riruwai Ward;;Riruwai Basic Health Clinic;;;;;
Doguwa;Tagwaye Ward;;Maikwandara Health Post;;;;;
Doguwa;Tagwaye Ward;;Tagwaye Dispensary;;;;;
Doguwa;Unguwar Natsohuwa Ward;;Asada Health Post;;;;;
Doguwa;Unguwar Natsohuwa Ward;;Unguwar Natsohuwa Health Clinic;;;;;
Doguwa;Zainabi Ward;;Karasa Dispensary;;;;;
Doguwa;Zainabi Ward;;Zainabi Dispensary;;;;;
Doguwa;Zainabi Ward;;Dokar Goma Health Post;;;;;
Fagge;Fagge A Ward;;Sabo Garba Primary Health Centre;;;;;
Fagge;Fagge B Ward;;Galadima Fagge Primary Health Centre;;;;;
Fagge;Fagge C Ward;;Kunya Hospital & Maternity;;;;;
Fagge;Fagge C Ward;;Khadijat Memorial Hospital (FGE);;;;;
Fagge;Fagge C Ward;;Abubakar Imam Urology Centre;;;;;
Fagge;Fagge C Ward;;International Clinic;;;;;
Fagge;Fagge C Ward;;Sheikh M Jidda General Hospital;;;;;
Fagge;Fagge C Ward;;Ideal Hospital;;;;;
Fagge;Fagge D 1 Ward;;Wapa Primary Health Centre;;;;;
Fagge;Kwachiri Ward;;Kwacire Primary Health Centre;;;;;
Fagge;Kwachiri Ward;;Tudun Bojuwa Health Post;;;;;
Fagge;Kwachiri Ward;;Dan Rimi Health Post;;;;;
Fagge;Sabon Gari East Ward;;Tunik Clinic;;;;;
Fagge;Sabon Gari East Ward;;Air Force Clinic;;;;;
Fagge;Sabon Gari West Ward;;3BDE Medical Centre;;;;;
Fagge;Sabon Gari West Ward;;Kano Infectious Diseases Hospital;;;;;
Fagge;Yammata Ward;;Yammata Health Post;;;;;
Gabasawa;Gabasawa Ward;;Dadin Duniya Health Post;;;;;
Gabasawa;Gabasawa Ward;;Gabasawa Model Primary Health Centre;;;;;
Gabasawa;Gabasawa Ward;;Kawo Dispensary;;;;;
Gabasawa;Gabasawa Ward;;Chikawa Health Post;;;;;
Gabasawa;Garun Danga Ward;;Garun Danga Model  Primary Health Centre;;;;;
Gabasawa;Garun Danga Ward;;Fangam Health Post;;;;;
Gabasawa;Garun Danga Ward;;Doga Health Post;;;;;
Gabasawa;Garun Danga Ward;;Gambawa Health Post;;;;;
Gabasawa;Joda Ward;;Wasarde Health Post;;;;;
Gabasawa;Joda Ward;;Joda Dispensary;;;;;
Gabasawa;Joda Ward;;Santsi Dispensary;;;;;
Gabasawa;Karmami Ward;;Gumawa Health Post;;;;;
Gabasawa;Karmami Ward;;Karmami Maternal and Child Health Clinic;;;;;
Gabasawa;Mekiya Ward;;Mazan Guda Health Post;;;;;
Gabasawa;Mekiya Ward;;Kumbo Health Post;;;;;
Gabasawa;Mekiya Ward;;Badawa Health Post;;;;;
Gabasawa;Mekiya Ward;;Mekiya Health Post;;;;;
Gabasawa;Tarauni Ward (GBSA);;Tarauni Health Post;;;;;
Gabasawa;Y/Arewa Ward;;Shana Health Post;;;;;
Gabasawa;Yautar Kudu Ward;;Yautar Kudu Model Primary Health Centre;;;;;
Gabasawa;Yautar Kudu Ward;;Guruma Health Post;;;;;
Gabasawa;Yautar Kudu Ward;;Kwadage Health Post;;;;;
Gabasawa;Yautar Kudu Ward;;Yar Zabaina Health Post;;;;;
Gabasawa;Yautar Kudu Ward;;Yaranchi Health Post;;;;;
Gabasawa;Yumbu Ward;;Yama Kanawa Health Post;;;;;
Gabasawa;Yumbu Ward;;Yumbu Dispensary;;;;;
Gabasawa;Zakirai Ward;;Zakirai Primary Health Centre;;;;;
Gabasawa;Zakirai Ward;;Tankarau Health Post;;;;;
Gabasawa;Zugachi Ward;;Zugachi Basic Health Clinic;;;;;
Garko;Dal Ward;;Kn Tsakuwar Dal Health Post;;;;;
Garko;Dal Ward;;Dal Primary Health Centre;;;;;
Garko;Garin-Ali Ward;;Garin-Ali Basic Health Clinic;;;;;
Garko;Garko Ward;;Garko Model Health Clinic;;;;;
Garko;Garko Ward;;Garko Primary Health Centre;;;;;
Garko;Gurjiya Ward (GAK);;Maida Health Post;;;;;
Garko;Gurjiya Ward (GAK);;Gurjiya Health Post (GAK);;;;;
Garko;Kafin Mallamai Ward;;Lamire Health Post;;;;;
Garko;Kafin Mallamai Ward;;Kafin Mallamai Health Post;;;;;
Garko;Katumari Ward;;Sanni Dispensary;;;;;
Garko;Kwas Ward;;Buda Health Post;;;;;
Garko;Kwas Ward;;Kwas Health Post;;;;;
Garko;Raba Ward;;Makadi Health Post;;;;;
Garko;Raba Ward;;Garwaji Health Post;;;;;
Garko;Raba Ward;;Kawo Health Post (GAK);;;;;
Garko;Sarina Ward;;Sarina Dispensary;;;;;
Garko;Zakarawa Ward;;Zakarawa Dispensary;;;;;
Garko;Zakarawa Ward;;Kafinchiri Primary Health Centre;;;;;
Garum Mallam;Chiromawa Ward;;Chiromawa Kwari Health Post;;;;;
Garum Mallam;Chiromawa Ward;;Shakura Health Post;;;;;
Garum Mallam;Dakasoye Ward;;Unguwar Kudu Health Post;;;;;
Garum Mallam;Dakasoye Ward;;Mudawa Health Post;;;;;
Garum Mallam;Dakasoye Ward;;Dakasoye Health Post;;;;;
Garum Mallam;Dakasoye Ward;;Dumaji Health Post;;;;;
Garum Mallam;Dorawar Sallau Ward;;Dorawar Sallau Health Post;;;;;
Garum Mallam;Fankurun Ward;;Yanaba Health Post;;;;;
Garum Mallam;Garun Babba Ward;;Garun Babba Primary Health Centre;;;;;
Garum Mallam;Garun Babba Ward;;Refawa Health Post;;;;;
Garum Mallam;Garun Mallam Ward;;Garun Malam Basic Health Centre;;;;;
Garum Mallam;Jobawa Ward;;Jobawa Health Post;;;;;
Garum Mallam;Jobawa Ward;;Sabon Garin Jobawa Health Post;;;;;
Garum Mallam;Kadawa Ward;;Kadawa Gate Basic Health Centre;;;;;
Garum Mallam;Kadawa Ward;;Yantomo Healh Post;;;;;
Garum Mallam;Kadawa Ward;;Kadawa Ciki Health Post;;;;;
Garum Mallam;Kadawa Ward;;Kadawa Quarters Health Post (GNM);;;;;
Garum Mallam;Makwaro Ward;;Samawa Health Post;;;;;
Garum Mallam;Makwaro Ward;;Kwarken Health Post;;;;;
Garum Mallam;Makwaro Ward;;Yantudu Health Post;;;;;
Garum Mallam;Makwaro Ward;;Agalawa Health Post;;;;;
Garum Mallam;Makwaro Ward;;Kwiwa Gabas Health Post;;;;;
Garum Mallam;Makwaro Ward;;Makwaro Health Post;;;;;
Garum Mallam;Yadakwari Ward;;Yadakwari Primary Health Centre;;;;;
Gaya;Balan Ward;;Balan Model Primary Health Centre;;;;;
Gaya;Balan Ward;;Jibawa Health Post;;;;;
Gaya;Gamarya Ward;;Gamarya Health Centre;;;;;
Gaya;Gamoji Ward;;Gamoji Health Post;;;;;
Gaya;Gaya North Ward;;Gaya General Hospital;;;;;
Gaya;Gaya North Ward;;Gachi Health Post;;;;;
Gaya;Gaya South Ward;;Gaya Health Clinic;;;;;
Gaya;Kademi Ward;;Yansoro Health Post;;;;;
Gaya;Kademi Ward;;Agundawa Health Post;;;;;
Gaya;Kademi Ward;;Kera Health Post;;;;;
Gaya;Kademi Ward;;Kademi Health Centre;;;;;
Gaya;Kazurawa Ward;;Yan Kau Health Centre;;;;;
Gaya;Kazurawa Ward;;Kalhaddi Health Post;;;;;
Gaya;Kazurawa Ward;;Kazurawa Health Post;;;;;
Gaya;Maimakawa Ward;;Gidan Sarkin Noma Model Primary Health Centre;;;;;
Gaya;Maimakawa Ward;;Maimakawa Health Centre;;;;;
Gaya;Maimakawa Ward;;Hausawa Health Post;;;;;
Gaya;Maimakawa Ward;;Fan'Idau Health Post;;;;;
Gaya;Shagogo Ward;;Yan Audu Health Post;;;;;
Gaya;Shagogo Ward;;Jobe Health Post;;;;;
Gaya;Shagogo Ward;;Fagachi Health Post;;;;;
Gaya;Shagogo Ward;;Zorama Health Post;;;;;
Gaya;Wudilawa Gaya Ward;;Kamfachi Health Post;;;;;
Gaya;Wudilawa Gaya Ward;;Amarawa Health Post;;;;;
Gaya;Wudilawa Gaya Ward;;Gungara Health Post;;;;;
Gaya;Wudilawa Gaya Ward;;Kurna Health Post;;;;;
Gaya;Wudilawa Gaya Ward;;Malamawa Health Post;;;;;
Gezawa;Babawa Ward;;Babawa Primary Health Centre;;;;;
Gezawa;Babawa Ward;;Gunduwawa Health Post;;;;;
Gezawa;Gawo Ward;;Tofa Health Post;;;;;
Gezawa;Gawo Ward;;Yafata Health Post;;;;;
Gezawa;Gezawa Ward;;Gezawa Health Clinic;;;;;
Gezawa;Jogana Ward;;Jogana Dispensary;;;;;
Gezawa;Ketawa Ward;;Gezawa General Hospital;;;;;
Gezawa;Mesar Tudu Ward;;Baita Health Post;;;;;
Gezawa;Mesar Tudu Ward;;Mesar Tudu Health Post;;;;;
Gezawa;Mesar Tudu Ward;;Mesar Burmi Health Post;;;;;
Gezawa;Tsamiyar Babba Ward;;Larabar Abasawa Health Post;;;;;
Gezawa;Tsamiyar Babba Ward;;Tsamiya Babba Dispensary;;;;;
Gezawa;Tumbau Ward;;Musku Health Post;;;;;
Gezawa;Tumbau Ward;;Tumbau Health Post;;;;;
Gezawa;Wangara Gezawa Ward;;Wangara Dispensary;;;;;
Gezawa;Zango Gezawa Ward;;Tsalle Dispensary;;;;;
Gezawa;Zango Gezawa Ward;;Zango Dispensary;;;;;
Gezawa;Zango Gezawa Ward;;Daradau Health Post;;;;;
Gwale;Diso Ward;;Diso Health Post;;;;;
Gwale;Dorayi Ward;;Janbulo  Health Centre;;;;;
Gwale;Dorayi Ward;;Ja'en Primary Health Centre;;;;;
Gwale;Dorayi Ward;;Dorayi Karama Health Clinic;;;;;
Gwale;Dorayi Ward;;Imamu Wali General Hospital;;;;;
Gwale;Dorayi Ward;;Uhg-Jakada;;;;;
Gwale;Galadanchi Ward;;Kofar Naisa Health Centre;;;;;
Gwale;Galadanchi Ward;;Fuskar Yamma Health Clinic;;;;;
Gwale;Gwaron Dutse Ward;;Dausayi Health Clinic;;;;;
Gwale;Gyaranya Ward;;Mangorori Health Post;;;;;
Gwale;Kabuga Ward;;Aisami Dispensary;;;;;
Gwale;Kabuga Ward;;Unguwar Dabai Health Post;;;;;
Gwale;Kabuga Ward;;Kabuga Primary Health Centre;;;;;
Gwale;Kabuga Ward;;Kofar Waika Health Post;;;;;
Gwale;Mandawari Ward;;Sabon Sara Health Post;;;;;
Gwarzo;Getso Ward;;Getso Maternal and Child Health Clinic;;;;;
Gwarzo;Gwarzo Ward;;Yar Kasuwa Dispensary;;;;;
Gwarzo;Jama'a Ward;;Badari Dispensary;;;;;
Gwarzo;Jama'a Ward;;Jama'a Primary Health Centre;;;;;
Gwarzo;Jama'a Ward;;Malamawa Dispensary;;;;;
Gwarzo;Kara Ward;;Sabon Lay Health Post;;;;;
Gwarzo;Kara Ward;;Dalangashi Health Post;;;;;
Gwarzo;Kara Ward;;Kara Dispensary;;;;;
Gwarzo;Kutama Ward;;Dakwara Health Post;;;;;
Gwarzo;Kutama Ward;;Kutama Dispensary;;;;;
Gwarzo;Lakwaya Ward;;Lakwaya Dispensary;;;;;
Gwarzo;Lakwaya Ward;;Rugoji Dispensary;;;;;
Gwarzo;Madadi Ward;;Madadi Primary Health Centre;;;;;
Gwarzo;Madadi Ward;;Marori Health Post;;;;;
Gwarzo;Mai-Nika Ward;;Dankyandi Health Post;;;;;
Gwarzo;Mai-Nika Ward;;Mainika Health Post;;;;;
Gwarzo;Sabon Birni Ward;;Tumfafi Health Post (GRZ);;;;;
Gwarzo;Sabon Birni Ward;;Sabon Birni Dispensary;;;;;
Gwarzo;Unguwar Tudu Ward;;Gwarzo General Hospital;;;;;
Gwarzo;Unguwar Tudu Ward;;Dan Nafada Dispensary;;;;;
Gwarzo;Unguwar Tudu Ward;;Dorogo Unguwar Health Post;;;;;
Kabo;Dugabau Ward;;Walawa Health Post;;;;;
Kabo;Dugabau Ward;;Unguwarturaki Health Post;;;;;
Kabo;Dugabau Ward;;Dugabau Dispensary;;;;;
Kabo;Durun Ward;;Shadau Health Post;;;;;
Kabo;Durun Ward;;Sharufai Health Post;;;;;
Kabo;Durun Ward;;Durun MCH;;;;;
Kabo;Durun Ward;;Gabasawa Health Post;;;;;
Kabo;Gammo Ward;;Dan Maliki Health Post;;;;;
Kabo;Gammo Ward;;Gammo Dispensary;;;;;
Kabo;Gammo Ward;;Fagore Health Post;;;;;
Kabo;Garo Ward;;Kanye Health Post;;;;;
Kabo;Garo Ward;;Garo Primary Health Centre;;;;;
Kabo;Garo Ward;;Sari Girin Health Post;;;;;
Kabo;Godiya Ward;;Wari Health Post;;;;;
Kabo;Godiya Ward;;Balan Dispensary;;;;;
Kabo;Godiya Ward;;Godiya Dispensary;;;;;
Kabo;Gude Ward;;Dan Amale Health Post;;;;;
Kabo;Gude Ward;;Husure Health Post;;;;;
Kabo;Gude Ward;;Gude Dispensary;;;;;
Kabo;Hawaden Galadima Ward;;Hayin Galadima Health Post;;;;;
Kabo;Kabo Ward;;Mallam Gajere Health Post;;;;;
Kabo;Kabo Ward;;Kabo Cottage Hospital;;;;;
Kabo;Kanwa Kabo Ward;;Kanwa Health Post (KBK);;;;;
Kabo;Kanwa Kabo Ward;;Baskore Health Post;;;;;
Kabo;Kanwa Kabo Ward;;Sabo Health Post (KBK);;;;;
Kabo;Masamawa Ward;;Masanawa Dispensary;;;;;
Kabo;Masamawa Ward;;Kazode Health Post;;;;;
Kano Municipal;Chedi Ward;;Chedi Health Post;;;;;
Kano Municipal;Dan Agundi Ward;;Dan Agundi Health Post;;;;;
Kano Municipal;Gandun Albasa Ward;;Tukuntawa Health Clinic;;;;;
Kano Municipal;Kankarofi Ward;;Unguwar Gini Primary Health Centre;;;;;
Kano Municipal;Shahuci Ward;;Fuskar Gabas Primary Health Centre;;;;;
Kano Municipal;Sharada Ward;;Sharada Primary Health Centre;;;;;
Kano Municipal;She-She Ward;;Marmara Maternal Child Health ;;;;;
Kano Municipal;She-She Ward;;Datti Wudilawa Clinic;;;;;
Kano Municipal;Yakasai Ward;;Zubairiyya Health Post;;;;;
Kano Municipal;Zaitawa Ward;;Mayanka Health Clinic;;;;;
Kano Municipal;Zaitawa Ward;;Yan Awaki Health Clinic (KMC);;;;;
Karaye;Daura Ward;;Daura Health Post;;;;;
Karaye;Daura Ward;;Unguwar Tofa Health Post;;;;;
Karaye;Kafin Dabga Ward;;Zungurau Health Post;;;;;
Karaye;Kafin Dabga Ward;;Husama Health Post;;;;;
Karaye;Kurugu Ward;;Dambazau Health Post (KRY);;;;;
Karaye;Kurugu Ward;;Dutsen Amare Health Post;;;;;
Karaye;Kurugu Ward;;Kurugu Health Post;;;;;
Karaye;Kurugu Ward;;Zangon Majema Health Post;;;;;
Karaye;Kwanyawa Ward;;Kwanyawa Model Primary Health Care;;;;;
Karaye;Tudun Kaya Ward;;Dangayaki Health Post;;;;;
Karaye;Tudun Kaya Ward;;Tudun Kaya Dispensary;;;;;
Karaye;Turawa Ward;;Turawa Dispensary;;;;;
Karaye;Turawa Ward;;Unguwar Mani Health Post;;;;;
Karaye;Yammedi Ward;;Sabon Fegi Health Post;;;;;
Karaye;Yammedi Ward;;Yammedi Primary Health Centre;;;;;
Karaye;Yammedi Ward;;Dederi Health Post;;;;;
Karaye;Yola Ward;;Yola Model Primary Health Care (KRY);;;;;
Karaye;Yola Ward;;Ma'a Health Post;;;;;
Kibiya;Durba Ward;;Durba Basic Health Centre;;;;;
Kibiya;Durba Ward;;Sarari Health Post;;;;;
Kibiya;Fammar Ward;;Fammar Health Post;;;;;
Kibiya;Fammar Ward;;Kure Basic Health Clinic;;;;;
Kibiya;Fassi Ward;;Kalambuh Health Post;;;;;
Kibiya;Fassi Ward;;Saya Saya Basic Health Clinic;;;;;
Kibiya;Kadigawa Ward;;Kadigawa Health Post;;;;;
Kibiya;Kadigawa Ward;;Kuluki Dispensary;;;;;
Kibiya;Kahu Ward;;Shike Health Post;;;;;
Kibiya;Kahu Ward;;Kahu Health Post;;;;;
Kibiya;Kibiya 1 Ward;;Kibiya Primary Health Centre;;;;;
Kibiya;Kibiya 2 Ward;;Kabiru Gaya Model Primary Health Centre;;;;;
Kibiya;Kibiya 2 Ward;;Gunda Health Post;;;;;
Kibiya;Nariya Ward;;Bacha Health Post;;;;;
Kibiya;Nariya Ward;;Nariya Health Post;;;;;
Kibiya;Nariya Ward;;Chaibo Health Post;;;;;
Kibiya;Tarai Ward;;Fancha Health Post;;;;;
Kibiya;Tarai Ward;;Faran Health Post;;;;;
Kibiya;Tarai Ward;;Tarai Basic Health Clinic;;;;;
Kibiya;Unguwar Gai Ward;;Unguwar Liman Health Post;;;;;
Kibiya;Unguwar Gai Ward;;Unguwar Gai Health Post;;;;;
Kibiya;Unguwar Gai Ward;;Dunkuran Durba Health Post;;;;;
Kiru;Ba'awa Ward;;Sakarma Health Post;;;;;
Kiru;Ba'awa Ward;;Ba'awa Basic Health Clinic;;;;;
Kiru;Ba'awa Ward;;Maska Dispensary;;;;;
Kiru;Badafi Ward;;Badafi Health Post;;;;;
Kiru;Badafi Ward;;Yarganji Health Post;;;;;
Kiru;Badafi Ward;;Gajale Health Post (KKU);;;;;
Kiru;Badafi Ward;;Bargi Health Post;;;;;
Kiru;Bargoni Ward;;Kailani Health Post;;;;;
Kiru;Bargoni Ward;;Acilafiya Health Post;;;;;
Kiru;Bargoni Ward;;Bargoni Dispensary;;;;;
Kiru;Bauda Ward;;Bauda Health Clinic;;;;;
Kiru;Dangora Ward;;Kyarana Health Post;;;;;
Kiru;Dangora Ward;;Dangora Basic Health Clinic;;;;;
Kiru;Dangora Ward;;Makatuwo Health Post;;;;;
Kiru;Dansoshiya Ward;;Gabari Health Post (KKU);;;;;
Kiru;Dansoshiya Ward;;Dansoshiya Dispensary;;;;;
Kiru;Dashi Ward;;Dashi Health Post;;;;;
Kiru;Galadimawa Ward;;Galadimawa Health Post (KKU);;;;;
Kiru;Kiru Ward;;Kiru Comprehensive Health Centre;;;;;
Kiru;Kiru Ward;;Gazan Health Post;;;;;
Kiru;Kiru Ward;;Alhazawa Health Post;;;;;
Kiru;Kogo Ward;;Kogo Model Primary Health Centre (KKU);;;;;
Kiru;Kogo Ward;;Daurawa Health Post;;;;;
Kiru;Maraku Kiru Ward;;Maraku Health Post;;;;;
Kiru;Tsaudawa Ward;;Tsaudawa Health Post;;;;;
Kiru;Yako Ward;;Yako Basic Health Clinic;;;;;
Kiru;Yalwa Kiru Ward;;Kafin Maiyaki Maternal and Child Health Clinic;;;;;
Kiru;Yalwa Kiru Ward;;Yalwa Health Post (KKU);;;;;
Kiru;Zuwo Ward;;Zuwo Dispensary;;;;;
Kumbotso;Chalawa Ward;;Rinkusawa Health Post;;;;;
Kumbotso;Chalawa Ward;;Chalawa Primary Health Centre;;;;;
Kumbotso;Chiranci Ward;;Chiranci Maternal Child Health;;;;;
Kumbotso;Dan Maliki Ward;;Danmaliki Health Post;;;;;
Kumbotso;Dan Maliki Ward;;Shekar Barde Primary Health Centre;;;;;
Kumbotso;Danbare Ward;;Gwazaye Health Post;;;;;
Kumbotso;Danbare Ward;;Danbare Health Post;;;;;
Kumbotso;Guringawa Ward;;Guringawa Dispensary;;;;;
Kumbotso;Guringawa Ward;;Ja'oji Health Post;;;;;
Kumbotso;Kumbotso Ward;;Riga Fada Health Post;;;;;
Kumbotso;Mariri Ward;;Mariri Basic Health Clinic;;;;;
Kumbotso;Mariri Ward;;Zara Health Post;;;;;
Kumbotso;Na'ibawa Ward;;Na'ibawa Health Post;;;;;
Kumbotso;Na'ibawa Ward;;Wailare Health Post;;;;;
Kumbotso;Na'ibawa Ward;;Maikalwa Dispensary;;;;;
Kumbotso;Panshekara Ward;;Panshekara Basic Health Clinic;;;;;
Kumbotso;Panshekara Ward;;Zawachiki Health Post;;;;;
Kumbotso;Unguwar Rimi Ward (KBT);;Limawa Health Post;;;;;
Kumbotso;Unguwar Rimi Ward (KBT);;Dangwaro Health Post;;;;;
Kumbotso;Unguwar Rimi Ward (KBT);;Unguwar Rimi Health Post;;;;;
Kunchi;Bumai Ward;;Bumai Health Post;;;;;
Kunchi;Bumai Ward;;Danjaka Health Post;;;;;
Kunchi;Bumai Ward;;Jangefe Health Post;;;;;
Kunchi;Bumai Ward;;Unguwar Gyartai Health Post;;;;;
Kunchi;Garin Sheme Ward;;Gidan NIsau Heath Post;;;;;
Kunchi;Garin Sheme Ward;;Rigana Health Post;;;;;
Kunchi;Gwarmai Ward;;Kargon Kunchi Health Post;;;;;
Kunchi;Gwarmai Ward;;Gwarmai Primary Health Centre (KNC);;;;;
Kunchi;Gwarmai Ward;;Kuku Health Post;;;;;
Kunchi;Kasuwar Kuka Ward;;Jodade Health Post;;;;;
Kunchi;Kasuwar Kuka Ward;;Tabanni Health Post;;;;;
Kunchi;Kasuwar Kuka Ward;;Kasuwar Kuka MPHC;;;;;
Kunchi;Kasuwar Kuka Ward;;Dan Kwai Health Post;;;;;
Kunchi;Kasuwar Kuka Ward;;Tofawa Health Post;;;;;
Kunchi;Kunchi Ward;;Kunchi Model Primary Health Centre;;;;;
Kunchi;Kunchi Ward;;Sodowa Health Post;;;;;
Kunchi;Matan Fada Ward;;Matan Fada Health Post;;;;;
Kunchi;Matan Fada Ward;;Falle Health Post;;;;;
Kunchi;Matan Fada Ward;;Kaya Health Post;;;;;
Kunchi;Matan Fada Ward;;Gadaba Health Post;;;;;
Kunchi;Ridawa Ward;;Ridawa Health Post;;;;;
Kunchi;Shamakawa Ward;;Baje Health Post;;;;;
Kunchi;Shamakawa Ward;;Shamakawa Health Post;;;;;
Kunchi;Shamakawa Ward;;Gwadama Primary Health Centre;;;;;
Kunchi;Shuwaki Ward (KNC);;Hugungumai Health Post;;;;;
Kunchi;Shuwaki Ward (KNC);;Dumbule Health Post;;;;;
Kunchi;Shuwaki Ward (KNC);;Shuwaki Model Primary Health Centre;;;;;
Kunchi;Shuwaki Ward (KNC);;Galadimawa Health Post (KNC);;;;;
Kunchi;Yan Dadi Ward;;Yan Dadi Dispensary;;;;;
Kunchi;Yan Dadi Ward;;Magawata Health Post;;;;;
Kunchi;Yan Dadi Ward;;Yan Kifi Health Post;;;;;
Kunchi;Yan Dadi Ward;;Karofawa Health Post;;;;;
Kura;Dalili Ward;;Azore Health Post;;;;;
Kura;Dalili Ward;;Hadeja Jama'are Health Post;;;;;
Kura;Dalili Ward;;Kura General Hospital;;;;;
Kura;Danhassan Ward;;Dan-Hassan Primary Health Centre;;;;;
Kura;Dukawa Ward;;Kunshama B Health Post;;;;;
Kura;Dukawa Ward;;Gamadan Health Post;;;;;
Kura;Dukawa Ward;;Kunshama A Health Post;;;;;
Kura;Dukawa Ward;;Dukawa Dispensary;;;;;
Kura;Gundutse Ward;;Gundutse Health Post;;;;;
Kura;Karfi Ward;;Karfi Dispensary;;;;;
Kura;Kosawa Ward;;Imawa Health Post;;;;;
Kura;Kosawa Ward;;Kadani Health Post;;;;;
Kura;Kosawa Ward;;Guraza Health Post;;;;;
Kura;Rugar Duka Ward;;Rimin Kwarya Health Post;;;;;
Kura;Rugar Duka Ward;;Kirya Health Post;;;;;
Kura;Rugar Duka Ward;;Godar Ali Health Post;;;;;
Kura;Sarkin Kura Ward;;Kn Alkalawa Health Post;;;;;
Madobi;Birji Maraya Ward;;Maraya Health Post;;;;;
Madobi;Birji Maraya Ward;;Birji Health Post;;;;;
Madobi;Chinkoso Ward;;Chinkoso Health Post;;;;;
Madobi;Galinja Ward;;Galinja Health Post;;;;;
Madobi;Gora Ward;;Dan Marina Health Post;;;;;
Madobi;Gora Ward;;Gora Primary Health Centre;;;;;
Madobi;Kanwa Ward;;Kanwa Primary Health Centre;;;;;
Madobi;Kanwa Ward;;Houseawa Health Post;;;;;
Madobi;Kauran Mata Ward;;Kauran Mata Primary Health Centre;;;;;
Madobi;Kubarachi Ward;;Kubarachi Community Health Centre;;;;;
Madobi;Kubarachi Ward;;Kundirin Health Post;;;;;
Madobi;Kwankwaso Ward;;Ningawa Health Post;;;;;
Madobi;Kwankwaso Ward;;Kwankwaso Cottage Hospital;;;;;
Madobi;Kwankwaso Ward;;Daburau Health Post;;;;;
Madobi;Madobi Ward;;Gara Health Post;;;;;
Madobi;Rikadawa Ward;;Jirgwai Health Post;;;;;
Madobi;Rikadawa Ward;;Rikadawa Health Post;;;;;
Madobi;Yakun Ward;;Yakun Health Post;;;;;
Makoda;Barbar Ruga Ward;;Shantake Health Post;;;;;
Makoda;Durma Ward;;Tasharbasa Health Post;;;;;
Makoda;Jibga Ward;;Bare Bari Dispensary;;;;;
Makoda;Jibga Ward;;Jibga Health Post (MKD);;;;;
Makoda;Kadandani Ward;;Jama'ar Hazo Health Post;;;;;
Makoda;Kadandani Ward;;Kan Tudu Dispensary;;;;;
Makoda;Kadandani Ward;;Kurna Health Post;;;;;
Makoda;Kadandani Ward;;Danmaidaki Health Post;;;;;
Makoda;Koguna Ward;;Koguna Primary Health Centre;;;;;
Makoda;Koguna Ward;;Sabon Ruwa Health Post;;;;;
Makoda;Kore Tabo Ward;;Koren Tabo Health Post;;;;;
Makoda;Kore Tabo Ward;;Dunawa Health Post;;;;;
Makoda;Mai-Tsidau Ward;;Mai-Tsidau Primary Health Centre;;;;;
Makoda;Makoda Ward;;Makoda Primary Health Centre;;;;;
Makoda;Makoda Ward;;Gamji Health Post;;;;;
Makoda;Satame Ward;;Yawlada Health Post;;;;;
Makoda;Satame Ward;;Dawan Kaya Health Post;;;;;
Makoda;Satame Ward;;Jigawar Satam Health Post;;;;;
Makoda;Tangaji Ward;;Tangaji Health Post;;;;;
Makoda;Tangaji Ward;;Tangajiyo Health Post;;;;;
Makoda;Tangaji Ward;;Bakarari Health Post;;;;;
Makoda;Wailare Ward;;Wailare Dispensary;;;;;
Minjibir;Azore Ward;;Sanbauna Primary Health Centre;;;;;
Minjibir;Azore Ward;;Koya Primary Health Centre;;;;;
Minjibir;Gandurwawa Ward;;Gadurwawa Primary Health Centre;;;;;
Minjibir;Kantama Ward;;Garke Health Post;;;;;
Minjibir;Kantama Ward;;Kantama Babba Health Post;;;;;
Minjibir;Kantama Ward;;Gyaranya Dispensary;;;;;
Minjibir;Kantama Ward;;Garji Health Post;;;;;
Minjibir;Kunya Ward;;Danbawa Health Post;;;;;
Minjibir;Kunya Ward;;Kunya Primary Health Centre;;;;;
Minjibir;Kuru Ward;;Geza Health Post;;;;;
Minjibir;Kuru Ward;;Zabainawar Dansudu Health Post;;;;;
Minjibir;Kuru Ward;;Jirgabana Health Post;;;;;
Minjibir;Kuru Ward;;Kuru Dispensary;;;;;
Minjibir;Kwarkiya Ward;;Kwarkiya Health Post;;;;;
Minjibir;Kwarkiya Ward;;Gasgainu Dispensary;;;;;
Minjibir;Minjibir Ward;;Minjibir General Hospital;;;;;
Minjibir;Sarbi Ward;;Zango Health Post (MJB);;;;;
Minjibir;Sarbi Ward;;Sarbi Health Post;;;;;
Minjibir;Sarbi Ward;;Gurjiya Health Clinic (MJB);;;;;
Minjibir;Tsakiya Ward;;Tsakiya Dispensary;;;;;
Minjibir;Tsakuwa Ward (MJB);;Kankarawa Dispensary;;;;;
Minjibir;Tsakuwa Ward (MJB);;Tunkunawa Health Post;;;;;
Minjibir;Wasai Ward;;Abudakaya Health Post;;;;;
Minjibir;Wasai Ward;;Wasai Health Post;;;;;
Nassarawa;Dakata Ward;;Dawakin Dakata  Primary Health Centre;;;;;
Nassarawa;Gama Ward;;Gama Health Clinic;;;;;
Nassarawa;Gawuna Ward;;Gwagwarwa Primary Health Centre;;;;;
Nassarawa;Giginyu Ward;;Giginyu Primary Health Centre;;;;;
Nassarawa;Giginyu Ward;;Badawa Health Clinic;;;;;
Nassarawa;Giginyu Ward;;Kawo Health Post (NSR);;;;;
Nassarawa;Hotoro North Ward;;Ladanai Health Post;;;;;
Nassarawa;Hotoro North Ward;;Haye Health Post;;;;;
Nassarawa;Hotoro North Ward;;Hotoro Arewa Primary Health Centre;;;;;
Nassarawa;Hotoro North Ward;;Sir Mohammed Sanusi General Hospital;;;;;
Nassarawa;Hotoro South Ward;;Al Asha Clinic;;;;;
Nassarawa;Hotoro South Ward;;Hotoro South Health Post;;;;;
Nassarawa;Kaura Goje Ward;;Kauran Goge Health Post;;;;;
Nassarawa;Kaura Goje Ward;;Kaura Goje  Primary Health Centre;;;;;
Nassarawa;Kawaji Ward;;Sauna Health Post;;;;;
Nassarawa;Kawaji Ward;;Tokarawa Health Post;;;;;
Nassarawa;Kawaji Ward;;Kawaji Health Clinic;;;;;
Nassarawa;Tudun Murtala  Ward;;Tudun Murtala Health Post;;;;;
Nassarawa;Tudun Wada (NSR) Ward;;Kano School of Health Technology Clinic;;;;;
Rano;Lausu Ward;;Lausu Health Post;;;;;
Rano;Madachi Ward;;Madachi Health Post;;;;;
Rano;Rano Tsohuwar Gari Ward;;Rano Health Post;;;;;
Rano;Rurum Sabon Gari Ward;;Rurum Dispensary;;;;;
Rano;Rurum Sabon Gari Ward;;Munture Health Clinic;;;;;
Rano;Rurum TSohun Gari Ward;;Sabuwar Kaura Health Post;;;;;
Rano;Sabon Gari Ward (RAN);;Rano General Hospital;;;;;
Rano;Saji Ward;;Saji Dispensary;;;;;
Rano;Saji Ward;;Yama Dispensary (RAN);;;;;
Rano;Yalwa Rano Ward;;Kazaurawa Health Post;;;;;
Rano;Yalwa Rano Ward;;Bul Health Post;;;;;
Rano;Yalwa Rano Ward;;Yalwa Health Post (RAN);;;;;
Rano;Zinyau Ward;;Taitai Health Post;;;;;
Rano;Zurgu Ward;;Tabobi Health Post;;;;;
Rimin Gado;Butu-Butu Ward;;Butu-Butu Model Primary Health Centre;;;;;
Rimin Gado;Butu-Butu Ward;;Dan Isa Health Clinic;;;;;
Rimin Gado;Dawakin Gulu Ward;;Dan Gulu Health Post;;;;;
Rimin Gado;Doka-Dawa Ward;;Kazardawa Health Post;;;;;
Rimin Gado;Doka-Dawa Ward;;Doka-Dawa Dispensary;;;;;
Rimin Gado;Doka-Dawa Ward;;Indabo Health Post;;;;;
Rimin Gado;Gulu Ward;;Gulu Model Primary Heath Centre;;;;;
Rimin Gado;Jili Ward;;Juji Health Post;;;;;
Rimin Gado;Jili Ward;;Jali Dispensary;;;;;
Rimin Gado;Karofin Yashi Ward;;Karofin Yashi Health Post;;;;;
Rimin Gado;Karofin Yashi Ward;;Danshayi Dispensary;;;;;
Rimin Gado;Rimin Gado Ward;;Rimin Gado Primary Health Centre;;;;;
Rimin Gado;Sakaratsa Ward;;Sakaratsa Dispensary;;;;;
Rimin Gado;Tamawa Ward;;Maigari Dispensary;;;;;
Rimin Gado;Tamawa Ward;;Magari Ingila Health Post;;;;;
Rimin Gado;Tamawa Ward;;Tamawa Health Post;;;;;
Rimin Gado;Yalwa Rimin Gado Ward;;Yalwa Model Primary Health Centre;;;;;
Rimin Gado;Zango Ward (RMG);;Zango 1 Health Post;;;;;
Rimin Gado;Zango Ward (RMG);;Yango Health Post;;;;;
Rimin Gado;Zango Ward (RMG);;Zango 2 Health Post;;;;;
Rogo;Beli Ward;;Beli Basic Health Clinic;;;;;
Rogo;Beli Ward;;Sabon Layin Hago Health Post;;;;;
Rogo;Falgore Rogo Ward;;Falgore Model Primary Health Centre;;;;;
Rogo;Falgore Rogo Ward;;Tsara Dispensary;;;;;
Rogo;Fulatan Ward;;Fulatan Basic Health Clinic;;;;;
Rogo;Fulatan Ward;;Yanoko Dispensary;;;;;
Rogo;Gwangwan Ward;;Bari Primary Health Centre;;;;;
Rogo;Gwangwan Ward;;Dayaso Health Post;;;;;
Rogo;Gwangwan Ward;;Gwangwan Health Clinic;;;;;
Rogo;Jajaye Ward;;Sagwandary Health Post;;;;;
Rogo;Jajaye Ward;;Jajaye Dispensary;;;;;
Rogo;Jajaye Ward;;Barbaji Health Post;;;;;
Rogo;Rogo Ruma Ward;;Rogo Tsohuwa Dispensary;;;;;
Rogo;Rogo Sabon Gari Ward;;Rogo General Hospital;;;;;
Rogo;Ruwan Bago Ward;;Unguwar Mallam Dispensary;;;;;
Rogo;Ruwan Bago Ward;;Ruwan Bago Health Post;;;;;
Rogo;Ruwan Bago Ward;;Sundu Dispensary;;;;;
Rogo;Ruwan Bago Ward;;Unguwar Liman Health Post (RGG);;;;;
Rogo;Zarewa Ward;;Zarewa Basic Health Clinic;;;;;
Rogo;Zoza Ward;;Karshi Health Post;;;;;
Rogo;Zoza Ward;;Kaleko Dispensary;;;;;
Shanono;Alajawa Ward (ShanonoLGA);;Alajawa Health Clinic;;;;;
Shanono;Alajawa Ward (ShanonoLGA);;Koya Dispensary;;;;;
Shanono;Danbakoshi Ward;;Dorogo Health Post;;;;;
Shanono;Danbakoshi Ward;;Dutsen Bakoshi Dispensary;;;;;
Shanono;Faruruwa Ward;;Faruruwa Primary Health Centre;;;;;
Shanono;Faruruwa Ward;;Yan Kwada Health Post;;;;;
Shanono;Goron Dutse Ward;;Kuraku Health Post;;;;;
Shanono;Goron Dutse Ward;;Bakaji Health Post;;;;;
Shanono;Goron Dutse Ward;;Goron Dutse Health Post (SNN);;;;;
Shanono;Kadamu Ward;;Kundila Health Post;;;;;
Shanono;Kadamu Ward;;Kadamu Model PHC;;;;;
Shanono;Kokiya Ward;;Gudan Tuwo Health Post;;;;;
Shanono;Kokiya Ward;;Kokiya Dispensary;;;;;
Shanono;Leni Ward;;Leni Primary Health Centre;;;;;
Shanono;Leni Ward;;Bakwami Health Post;;;;;
Shanono;Shakogi Ward;;Godarawa Dispensary;;;;;
Shanono;Shakogi Ward;;Shakogi Health Post;;;;;
Shanono;Shanono Ward;;Shanono Primary Health Centre;;;;;
Shanono;Tsaure Ward;;Tsaure Primary Health Centre;;;;;
Shanono;Tsaure Ward;;Yan Shadu Health Post;;;;;
Shanono;Tsaure Ward;;Janbirji Health Post;;;;;
Sumaila;Gala Ward;;Baji Health Post;;;;;
Sumaila;Gala Ward;;Gala Dispensary;;;;;
Sumaila;Gala Ward;;Bingi Dispensary;;;;;
Sumaila;Gani Ward;;Dambazau Yamma Health Post;;;;;
Sumaila;Gani Ward;;Bagagare Health Post;;;;;
Sumaila;Gani Ward;;Gani Health Post;;;;;
Sumaila;Garfa Ward;;Garfa Health Post;;;;;
Sumaila;Garfa Ward;;Alfindi Health Post;;;;;
Sumaila;Gediya Ward;;B/Lahadi Health Post;;;;;
Sumaila;Gediya Ward;;Dando Health Post;;;;;
Sumaila;Gediya Ward;;Kula Dispensary;;;;;
Sumaila;Gediya Ward;;Gediya Primary Health Centre;;;;;
Sumaila;Kanawa Ward;;Bango Dispensary;;;;;
Sumaila;Kanawa Ward;;Yan Bawa Health Post;;;;;
Sumaila;Kanawa Ward;;Dingamu Dispensary;;;;;
Sumaila;Kanawa Ward;;Kanawa Health Post;;;;;
Sumaila;Magami Ward;;Beta Health Post;;;;;
Sumaila;Magami Ward;;Kwasale Dispensary;;;;;
Sumaila;Magami Ward;;Magami Primary Health Centre;;;;;
Sumaila;Magami Ward;;Sansan Dispensary (SML);;;;;
Sumaila;Magami Ward;;Yakaduna Health Post;;;;;
Sumaila;Massu Ward;;Gajiki Health Post;;;;;
Sumaila;Massu Ward;;Dagora Dispensary;;;;;
Sumaila;Massu Ward;;Gwanda Health Post (SUM);;;;;
Sumaila;Massu Ward;;Gomo Primary Health Centre;;;;;
Sumaila;Massu Ward;;Masu Dispensary;;;;;
Sumaila;Massu Ward;;Mamiso Health Post;;;;;
Sumaila;Rimi Ward;;Farin Dutse Health Post;;;;;
Sumaila;Rimi Ward;;Dakumbal Dispensary;;;;;
Sumaila;Rimi Ward;;Tukuda Dispensary;;;;;
Sumaila;Rimi Ward;;Rimi Primary Health Centre;;;;;
Sumaila;Rumo Ward;;Rumo Health Clinic;;;;;
Sumaila;Sitti Ward;;Yu Health Post;;;;;
Sumaila;Sitti Ward;;Rayen Masaka Health Post;;;;;
Sumaila;Sitti Ward;;Matugwai Dispensary;;;;;
Sumaila;Sitti Ward;;Sitti Dispensary;;;;;
Sumaila;Sumaila Ward;;Kargo Health Post;;;;;
Sumaila;Sumaila Ward;;Sumaila General Hospital;;;;;
Sumaila;Sumaila Ward;;Karofi Health Clinic;;;;;
Takai;Bagwaro Ward;;Bango Health Post;;;;;
Takai;Bagwaro Ward;;Bagwaro Primary Health Centre;;;;;
Takai;Bagwaro Ward;;Kayadda Health Post;;;;;
Takai;Bagwaro Ward;;Birnin Bako Dispensary;;;;;
Takai;Durbunde Ward;;Durbunde Primary Health Centre;;;;;
Takai;Durbunde Ward;;Sakwaya Health Post;;;;;
Takai;Durbunde Ward;;Kafinlafiya Health Post;;;;;
Takai;Fajewa Ward;;Hantsai Health Post;;;;;
Takai;Fajewa Ward;;Fajewa Model Primary Health Centre;;;;;
Takai;Fajewa Ward;;Salmade Health Post;;;;;
Takai;Falali Ward;;Falali Dispensary;;;;;
Takai;Falali Ward;;Kyansha Health Post;;;;;
Takai;Farunruwa Ward;;Dambazau Health Post (TAK);;;;;
Takai;Farunruwa Ward;;Farunruwa Dispensary;;;;;
Takai;Farunruwa Ward;;Yada Health Post;;;;;
Takai;Farunruwa Ward;;Jigawa Health Post (TAK);;;;;
Takai;Kachako Ward;;Langwami Health Post;;;;;
Takai;Kachako Ward;;Huguma Model Primary Health Centre;;;;;
Takai;Kachako Ward;;Kachako Primary Health Centre;;;;;
Takai;Kachako Ward;;Auzara Health Post;;;;;
Takai;Karfi (Takai LGA) Ward;;Korido Health Post;;;;;
Takai;Karfi (Takai LGA) Ward;;Diribo Dispensary;;;;;
Takai;Karfi (Takai LGA) Ward;;Shawu Dispensary;;;;;
Takai;Karfi (Takai LGA) Ward;;Karfi Health Post;;;;;
Takai;Kuka Ward;;Kafinsidda Health Post;;;;;
Takai;Kuka Ward;;Gamawa Health Post;;;;;
Takai;Takai Ward;;Garandiya Health Post;;;;;
Takai;Takai Ward;;Kan Iyaka Health Post;;;;;
Takai;Zuga Ward;;Zuga Dispensary;;;;;
Takai;Zuga Ward;;Kogo Health Post;;;;;
Tarauni;Babban Giji Ward;;Hausawa Health Centre;;;;;
Tarauni;Babban Giji Ward;;Babban Giji Health Post;;;;;
Tarauni;Darmanawa Ward;;Aminu Kano Teaching Hospital;;;;;
Tarauni;Daurawa Ward;;Kundila Primary Health Post;;;;;
Tarauni;Gyadi-Gyadi Arewa Ward;;Ja'oji Primary Health Centre;;;;;
Tarauni;Gyadi-Gyadi Kudu Ward;;Gyadi-Gyadi Kudu Health Post;;;;;
Tarauni;Hotoro Ward;;Hotoro Health Post;;;;;
Tarauni;Kauyen Alu Ward;;Kawyen Alu Health Centre;;;;;
Tarauni;Tarauni Ward;;Tarauni Primary Health Centre;;;;;
Tarauni;Tarauni Ward;;Govt House Clinic;;;;;
Tarauni;Unguwa Uku Ward;;Unguwa Uku Primary Health Centre;;;;;
Tarauni;Unguwar Gano Ward;;Yar Akwa Health Post;;;;;
Tofa;Dindire Ward;;Dindire Health Post;;;;;
Tofa;Doka Ward;;Doka Dispensary;;;;;
Tofa;Gajida Ward;;Gajida Health Post;;;;;
Tofa;Ginsawa Ward;;Ginsawa Health Post;;;;;
Tofa;Janguza Ward;;Janguza Dispensary;;;;;
Tofa;Joben Kudu Ward;;Joben Kudu Dispensary;;;;;
Tofa;Kwami Ward;;Kwami Health Post;;;;;
Tofa;Lambu Ward;;Lambu Basic Health Clinic;;;;;
Tofa;Lambu Ward;;Dansudu Health Post;;;;;
Tofa;Lambu Ward;;Lambu Model Primary Health Clinic;;;;;
Tofa;Langel Ward;;Langel Health Post;;;;;
Tofa;Tofa Ward;;Tofa Primary Health Centre;;;;;
Tofa;Unguwar Rimi Ward (TFA);;Unguwar Rimi Dispensary;;;;;
Tofa;Wangara Tofa Ward;;Wangara Health Post;;;;;
Tofa;Yalwa Karama Ward;;Yalwa Karama Dispensary;;;;;
Tofa;Yanoko Ward;;Yanoko Health Post;;;;;
Tofa;Yanoko Ward;;Jagaja Health Post;;;;;
Tofa;Yarimawa Ward;;Yarimawa Health Post;;;;;
Tsanyawa;Daddarawa Ward;;Unguwar Barke Health Post;;;;;
Tsanyawa;Daddarawa Ward;;Daddarawa Primary Health Centre;;;;;
Tsanyawa;Daddarawa Ward;;Rage Primary Health Centre;;;;;
Tsanyawa;Daddarawa Ward;;Yammamman Health Post;;;;;
Tsanyawa;Dumbulum Ward;;Kokai Health Post;;;;;
Tsanyawa;Dumbulum Ward;;Dumbulum Health Centre;;;;;
Tsanyawa;Gozarki Ward;;Rafin Tsamiya Health Post;;;;;
Tsanyawa;Gozarki Ward;;Jigilawua Health Post;;;;;
Tsanyawa;Gozarki Ward;;Tafashiya Health Centre;;;;;
Tsanyawa;Gurun Ward;;Gurun Dispensary;;;;;
Tsanyawa;Gurun Ward;;Yan Awaki Health Post (TYW);;;;;
Tsanyawa;Gurun Ward;;Nassarawa Health Post (TYW);;;;;
Tsanyawa;Kabagiwa Ward;;Kabagiwa Health Post;;;;;
Tsanyawa;Kabagiwa Ward;;Harbau Dispensary;;;;;
Tsanyawa;Tatsan Ward;;Yan'Amar Health Post;;;;;
Tsanyawa;Tatsan Ward;;Yargwande Basic Health Clinic;;;;;
Tsanyawa;Tatsan Ward;;Tatsan Health Post;;;;;
Tsanyawa;Tatsan Ward;;Dorayi Health Post;;;;;
Tsanyawa;Tatsan Ward;;Farsa Health Post;;;;;
Tsanyawa;Tsanyawa Ward;;Tsanyawa Community Health Centre;;;;;
Tsanyawa;Tsanyawa Ward;;Tsanyawa Model Primary Health Centre;;;;;
Tsanyawa;Yan Kamaye Ward;;Yan Kamaye Basic Health Clinic;;;;;
Tsanyawa;Yan Kamaye Ward;;Zakawa Health Post;;;;;
Tsanyawa;Yan Kamaye Ward;;Gezawa Health Post;;;;;
Tsanyawa;Yan Kamaye Ward;;Yan Kamaye Health Post;;;;;
Tsanyawa;Yanganau Ward;;Yangana Health Centre;;;;;
Tsanyawa;Yanganau Ward;;Yanchibi Heath Post;;;;;
Tsanyawa;Zarogi Ward;;Zarogi Health Post;;;;;
Tsanyawa;Zarogi Ward;;Yakanawa Health Post;;;;;
Tudun Wada;Baburi Ward;;Rufan Health Post;;;;;
Tudun Wada;Baburi Ward;;Dariya Health Post;;;;;
Tudun Wada;Baburi Ward;;Tukuda Primary Health Centre;;;;;
Tudun Wada;Baburi Ward;;Baburi Primary Health Centre;;;;;
Tudun Wada;Burum Burum Ward;;Burum Burum Primary Health Centre;;;;;
Tudun Wada;Dalawa Ward;;Gazobi Health Post;;;;;
Tudun Wada;Dalawa Ward;;Dalawa Health Post;;;;;
Tudun Wada;Jan Dutse Ward;;F/Ma'aji Primary Health Centre;;;;;
Tudun Wada;Jan Dutse Ward;;Tudun Wada General Hospital;;;;;
Tudun Wada;Jan Dutse Ward;;Ruwan Tabo Primary Health Centre;;;;;
Tudun Wada;Jan Dutse Ward;;Jan Dutse Health Post;;;;;
Tudun Wada;Jita Ward;;Yar Fulani Health Post;;;;;
Tudun Wada;Jita Ward;;Kurkujawa Health Post;;;;;
Tudun Wada;Karefa Ward;;Karafe Health Post;;;;;
Tudun Wada;Karefa Ward;;Yalwa Primary Health Centre;;;;;
Tudun Wada;Na Ta'Ala Ward;;Wuna Primary Health Centre;;;;;
Tudun Wada;Na Ta'Ala Ward;;Na Ta'Ala Primary Health Centre;;;;;
Tudun Wada;Na Ta'Ala Ward;;Farin Ruwa Primary Health Centre;;;;;
Tudun Wada;Shuwaki Ward (TWD);;Fuskar Wambai Health Post;;;;;
Tudun Wada;Shuwaki Ward (TWD);;Rugu Rugu Primary Health Centre;;;;;
Tudun Wada;Tudun Wada B Ward;;Jan Maje Health Clinic;;;;;
Tudun Wada;Tudun Wada B Ward;;Tudun Wada Primary Health Centre;;;;;
Tudun Wada;Yaryasa Ward;;Yar Maraya Primary Health Centre;;;;;
Tudun Wada;Yaryasa Ward;;Shuwaki Health Clinic;;;;;
Tudun Wada;Yaryasa Ward;;Sumana Health Post;;;;;
Tudun Wada;Yaryasa Ward;;Jeli Primary Health Centre;;;;;
Tudun Wada;Yaryasa Ward;;Yaryasa Health Post;;;;;
Ungogo;Bachirawa Ward;;Katsinawa Health Post;;;;;
Ungogo;Bachirawa Ward;;Bachirawa Dispensary;;;;;
Ungogo;Bachirawa Ward;;Waziri Shehu Gidado General Hospital;;;;;
Ungogo;Fanisau Ward;;Sabon Garin Kera Health Post;;;;;
Ungogo;Fanisau Ward;;Fanisau Dispensary;;;;;
Ungogo;Fanisau Ward;;Gera Health Post;;;;;
Ungogo;Fanisau Ward;;Yola Health Post;;;;;
Ungogo;Gayawa Ungogo Ward;;Gayawa Dispensary;;;;;
Ungogo;Gayawa Ungogo Ward;;Dakunkuru Health Post;;;;;
Ungogo;Kadawa Ungogo Ward;;Dan Rimi Dispensary;;;;;
Ungogo;Kadawa Ungogo Ward;;Zangon Barebari Health Post;;;;;
Ungogo;Kadawa Ungogo Ward;;Kadawa Primary Health Centre;;;;;
Ungogo;Karo Ward;;Tsamiya Health Post;;;;;
Ungogo;Karo Ward;;Tarda Dispenary;;;;;
Ungogo;Karo Ward;;Bagujan Health Post;;;;;
Ungogo;Rangaza Ward;;Sabon Rangaza Health Post;;;;;
Ungogo;Rijiyar Zaki Ward;;Rijiyar Zaki Primary Health Centre;;;;;
Ungogo;Rijiyar Zaki Ward;;Dausayi Health Post;;;;;
Ungogo;Rijiyar Zaki Ward;;Getwell Hopital;;;;;
Ungogo;Rijiyar Zaki Ward;;Rimin Zakara Health Post;;;;;
Ungogo;Tudun Fulani Ward;;Tudun Fulani Basic Health Clinic;;;;;
Ungogo;Tudun Fulani Ward;;Gadan Dispensary;;;;;
Ungogo;Tudun Fulani Ward;;Jajira Health Clinic;;;;;
Ungogo;Ungogo Ward;;Alharini Health Post;;;;;
Ungogo;Ungogo Ward;;Ungogo Primary Health Centre;;;;;
Ungogo;Ungogo Ward;;Doka Health Post;;;;;
Ungogo;Ungogo Ward;;Sabon Garin Doka Health Post;;;;;
Ungogo;Yadakunya Ward;;Dausara Health Post;;;;;
Ungogo;Yadakunya Ward;;Inusawa Health Post;;;;;
Ungogo;Zango Ungogo Ward;;Rimin Kebe Dispensary;;;;;
Warawa;Amarawa Ward;;Amarawa Health Post (WRA);;;;;
Warawa;Danlasan Ward;;Danlasan Health Clinic;;;;;
Warawa;Garun Dau Ward;;Wambanto Health Post;;;;;
Warawa;Gogel Ward;;Gogel Basic Health Clinic;;;;;
Warawa;Imawa Ward;;Imawa Health Post (WRA);;;;;
Warawa;Jemagu Ward;;Jemagu Health Post;;;;;
Warawa;Jigawa Ward;;Jigawa Health Post (WRA);;;;;
Warawa;Jigawa Ward;;Token Health Post;;;;;
Warawa;Juma-Galadima Ward;;Jumar Galadima Health Post;;;;;
Warawa;Juma-Galadima Ward;;Yar Tofa Health Post (WRA);;;;;
Warawa;Katarkawa Ward;;Katarkawa Health Post;;;;;
Warawa;Madari Ward;;Madari Health Post;;;;;
Warawa;Madari Ward;;Ganakakun Health Post;;;;;
Warawa;Tamburawar Gabas Ward;;Tamburawa Yandadi Health Post;;;;;
Warawa;Tamburawar Gabas Ward;;Tamburawar Gabas Dispensary;;;;;
Warawa;Tanagar Ward;;Tanagar Dispensary;;;;;
Warawa;Tanagar Ward;;Danfari Dispensary;;;;;
Warawa;Warawa Ward;;Warawa Primary Health Centre;;;;;
Warawa;Yan Dalla Ward;;Yan Dalla Health Post;;;;;
Warawa;Yan Gizo Ward;;Alitini Dispensary;;;;;
Wudil;Achika Ward;;Achika Health Clinic;;;;;
Wudil;Dagumawa Ward;;Dagumana Health Clinic;;;;;
Wudil;Dagumawa Ward;;Juma Health Post;;;;;
Wudil;Dagumawa Ward;;Yallahadi Health Clinic;;;;;
Wudil;Dankaza Ward;;Tudun Gunsau Health Post;;;;;
Wudil;Dankaza Ward;;Makanwachi Wudil Basic Health Clinic;;;;;
Wudil;Darki Ward;;Jigaware Health Post;;;;;
Wudil;Darki Ward;;Darki Model Primary Health Centre;;;;;
Wudil;Indabo Ward;;Indabo Primary Health Clinic;;;;;
Wudil;Indabo Ward;;Katai_Fauda Health Clinic;;;;;
Wudil;Kausani Ward;;Tsibiri Health Post;;;;;
Wudil;Kausani Ward;;Fadisonka Health Post;;;;;
Wudil;Kausani Ward;;Gachi Kedi Dispensary;;;;;
Wudil;Kausani Ward;;Kausani Health Clinic;;;;;
Wudil;Lajawa Ward;;Lajawa primary Health Centre;;;;;
Wudil;Sabon Gari Ward (WDLl);;Wudil General Hospital;;;;;
Wudil;Utai Ward;;Utai Primary Health Centre;;;;;
Wudil;Wudil Ward;;Wudil Dispensary;;;;;
