LGA;Ward;Settlement;Facility;Type;Ownership;Address;Longitude;Latitude
Bakori;Bakori A Ward;;Afuwa Clinic;;;;;
Bakori;Bakori A Ward;;Maarrabar Danja Health Clinic;;;;;
Bakori;Bakori B Ward;;Bakori Mobile Clinic;;;;;
Bakori;Bakori B Ward;;Adako Health Clinic;;;;;
Bakori;Bakori B Ward;;Bakori Clinic;;;;;
Bakori;Bakori B Ward;;Bakori Comprehensive Health Centre;;;;;
Bakori;Bakori B Ward;;Bakori Family Support Clinic;;;;;
Bakori;Bakori B Ward;;Yanlabu Health Clinic;;;;;
Bakori;Barde;;Kwantakwaram Ward;;;;;
Bakori;Dawan Musa Ward;;Kadanyar Baushe Health Clinic;;;;;
Bakori;Dawan Musa Ward;;Kanawa Health Clinic;;;;;
Bakori;Dawan Musa Ward;;Tamarke Health Clinic;;;;;
Bakori;Dawan Musa Ward;;U Alheri Health Post;;;;;
Bakori;Dawan Musa Ward;;Unguwar Gabas Health Post;;;;;
Bakori;Dawan Musa Ward;;Yari Baso Health Clinic;;;;;
Bakori;Guga Ward;;Guga Primary Health Centre;;;;;
Bakori;Guga Ward;;Layin Nepu Health Clinic;;;;;
Bakori;Guga Ward;;Magoje Health Clinic;;;;;
Bakori;Guga Ward;;Unguwar Lamido Health Clinic;;;;;
Bakori;Guga Ward;;Yanshuni Health Clinic;;;;;
Bakori;Guga Ward;;Yar Tsakuwa Health Clinic (Bakori);;;;;
Bakori;Jar Gaba Ward;;Dangana Health Clinic;;;;;
Bakori;Jar Gaba Ward;;Jargaba Primary Health Centre;;;;;
Bakori;Jar Gaba Ward;;Shuwaki Dispensary;;;;;
Bakori;Jar Gaba Ward;;Unguwar Dogo Health Clinic;;;;;
Bakori;Kabomo Ward;;Ganjar Health Clinic;;;;;
Bakori;Kabomo Ward;;H Liman Health Clinic;;;;;
Bakori;Kabomo Ward;;K Doka Health Clinic;;;;;
Bakori;Kabomo Ward;;Kabomo Health Clinic;;;;;
Bakori;Kabomo Ward;;Layin Kuka Health Clinic;;;;;
Bakori;Kabomo Ward;;Unguwar Koshe Health Clinic;;;;;
Bakori;Kakumi Ward;;Danguza Health Clinic;;;;;
Bakori;Kakumi Ward;;Dotsa Health Clinic;;;;;
Bakori;Kakumi Ward;;Garan Gozai Health Clinic;;;;;
Bakori;Kakumi Ward;;Gidan Jaura Health Clinic;;;;;
Bakori;Kakumi Ward;;Kakumi Primary Health Centre;;;;;
Bakori;Kakumi Ward;;Layin Mukaddas Health Clinic;;;;;
Bakori;Kakumi Ward;;Macikaya Health Clinic;;;;;
Bakori;Kakumi Ward;;Tinjimawa Health Clinic;;;;;
Bakori;Kakumi Ward;;Unguwar Dandaudu Health Clinic;;;;;
Bakori;Kandarawa Ward;;Bawa Health Post;;;;;
Bakori;Kandarawa Ward;;Ala Bura Health Clinic;;;;;
Bakori;Kandarawa Ward;;Dan Baushe Health Post;;;;;
Bakori;Kandarawa Ward;;Gidan Kanawa Health Clinic;;;;;
Bakori;Kandarawa Ward;;Kandarawa Health Clinic;;;;;
Bakori;Kandarawa Ward;;Mai Yadiya Health Clinic;;;;;
Bakori;Kandarawa Ward;;Ruwan Kuri Health Clinic;;;;;
Bakori;Kandarawa Ward;;Unguwar Ardo Health Post;;;;;
Bakori;Kandarawa Ward;;Unguwar Shantali Health Clinic;;;;;
Bakori;Kurami ;; Yankwani Ward;;;;;
Bakori;Tsiga Ward;;Babban Kufai Health Clinic;;;;;
Bakori;Tsiga Ward;;Gidan Bakoshi Health Clinic;;;;;
Bakori;Tsiga Ward;;Gidan Magina Health Post;;;;;
Bakori;Tsiga Ward;;Makurdi Dispensary;;;;;
Bakori;Tsiga Ward;;Rashidawa Health Post;;;;;
Bakori;Tsiga Ward;;Tsiga Maternal and Child Health Clinic;;;;;
Bakori;Tsiga Ward;;Yar Rumfa Health Clinic;;;;;
Bakori;Kwantakwaram Ward;;Barde Dispensary;;;;;
Bakori;Kwantakwaram Ward;;Gidan Bakori Health Post;;;;;
Bakori;Kwantakwaram Ward;;Kwanta Kwaram Health Clinic;;;;;
Bakori;Kwantakwaram Ward;;Wada Health Clinic;;;;;
Bakori;Kwantakwaram Ward;;Unguwar Jalatu Health Clinic;;;;;
Bakori;Kwantakwaram Ward;;Unguwar Kawo Health Clinic;;;;;
Bakori;Kwantakwaram Ward;;Zangon Marke Health Clinic;;;;;
Bakori;Yankwani Ward;;Belen Gada Health Clinic;;;;;
Bakori;Yankwani Ward;;Dutse Reme Health Clinic;;;;;
Bakori;Yankwani Ward;;Kurami Health Clinic;;;;;
Bakori;Yankwani Ward;;Layin Rama Health Clinic;;;;;
Bakori;Yankwani Ward;;Mai-Kari Health Post;;;;;
Bakori;Yankwani Ward;;Makera Dispensary (Bakori);;;;;
Bakori;Yankwani Ward;;Rafin Kanya Health Clinic;;;;;
Bakori;Yankwani Ward;;S Baka Dispensary;;;;;
Bakori;Yankwani Ward;;Unguwar Nabukka Health Clinic;;;;;
Bakori;Yankwani Ward;;Yankwani Health Clinic;;;;;
Batagarawa;Ajiwa Ward;;Ajiwa Primary Child Health Clinic;;;;;
Batagarawa;Ajiwa Ward;;Barhim Health center;;;;;
Batagarawa;Ajiwa Ward;;Kurtufa Health center;;;;;
Batagarawa;Ajiwa Ward;;Majen Audu Health Center;;;;;
Batagarawa;Ajiwa Ward;;Shagumba Health Centre;;;;;
Batagarawa;Ajiwa Ward;;Shantali Health Center;;;;;
Batagarawa;Ajiwa Ward;;Yar raguma Health Clinic;;;;;
Batagarawa;Bakiyawa Ward;;Bakiyawa Maternal and Child Health Care;;;;;
Batagarawa;Bakiyawa Ward;;Bakiyawa Primary Health Centre;;;;;
Batagarawa;Bakiyawa Ward;;Dole Health Centre;;;;;
Batagarawa;Bakiyawa Ward;;Kaura Health Center;;;;;
Batagarawa;Bakiyawa Ward;;Kwaina  Health Centre;;;;;
Batagarawa;Bakiyawa Ward;;Sabon Gari Lallaba Health Centre;;;;;
Batagarawa;Bakiyawa Ward;;Yangemu Health Centre;;;;;
Batagarawa;Barawa Ward;;Barawa M C H C;;;;;
Batagarawa;Barawa Ward;;Gyarken Gabas Health Center;;;;;
Batagarawa;Barawa Ward;;Gyarken Yamma Health Centre;;;;;
Batagarawa;Barawa Ward;;Malam Musa Health Centre;;;;;
Batagarawa;Barawa Ward;;Salihawa Health Centre;;;;;
Batagarawa;Barawa Ward;;Shifdawa Health Center ;;;;;
Batagarawa;Barawa Ward;;Shikar Gabi Health Clinic;;;;;
Batagarawa;Barawa Ward;;Yargigo Health Center;;;;;
Batagarawa;Batagarawa Ward;;Autame Health Clinic;;;;;
Batagarawa;Batagarawa Ward;;Baban Gawo  Health Center;;;;;
Batagarawa;Batagarawa Ward;;Baganzamawa Health Centre;;;;;
Batagarawa;Batagarawa Ward;;Batagarawa Comprehensive Health Centre;;;;;
Batagarawa;Batagarawa Ward;;Batagarawa Family Support Programme Clinic;;;;;
Batagarawa;Batagarawa Ward;;Batagarawa Mobile Clinic;;;;;
Batagarawa;Batagarawa Ward;;Burar Gundura Health Clinic;;;;;
Batagarawa;Batagarawa Ward;;Busau Health Centre;;;;;
Batagarawa;Batagarawa Ward;;Dugazawa Heaith Center;;;;;
Batagarawa;Batagarawa Ward;;Federal College of Education Katsina Health Clinic;;;;;
Batagarawa;Batagarawa Ward;;Hassan Usman Katsina Polytechnic Health Clinic;;;;;
Batagarawa;Batagarawa Ward;;Kawo  Health Center;;;;;
Batagarawa;Dabaibayawa Ward;;Bado Health Center;;;;;
Batagarawa;Dabaibayawa Ward;;Dabaibayawa Maternal Child Health Center;;;;;
Batagarawa;Dabaibayawa Ward;;Gwammatawa Health Center;;;;;
Batagarawa;Dabaibayawa Ward;;Jilawa Health Centre;;;;;
Batagarawa;Dabaibayawa Ward;;Kamfani Health Centre;;;;;
Batagarawa;Dabaibayawa Ward;;Kamfatau Health Centre;;;;;
Batagarawa;Dabaibayawa Ward;;Kauyam Yamma Health Center;;;;;
Batagarawa;Dabaibayawa Ward;;Makada Health Centre;;;;;
Batagarawa;Dan Dagoro Ward;;Dandagoro Maternal Child Health Clinic;;;;;
Batagarawa;Dan Dagoro Ward;;Kaukai Health Center;;;;;
Batagarawa;Dan Dagoro Ward;;Kudawa Health Center;;;;;
Batagarawa;Dan Dagoro Ward;;Kwai Dawa Health Center;;;;;
Batagarawa;Dan Dagoro Ward;;Rigar Dila Health Center;;;;;
Batagarawa;Dan Dagoro Ward;;S Gida  Health Clenter;;;;;
Batagarawa;Dan Dagoro Ward;;Tigirmis Health Center;;;;;
Batagarawa;Dan Dagoro Ward;;Yar naira Health Center;;;;;
Batagarawa;Jino Ward;;Bambami Health Center;;;;;
Batagarawa;Jino Ward;;Inwala  Health Center;;;;;
Batagarawa;Jino Ward;;Jino Maternal and Child Health Care;;;;;
Batagarawa;Jino Ward;;National Obstetric Fistula Center Babbar Ruga;;;;;
Batagarawa;Jino Ward;;Yar Shanya Health Cinic;;;;;
Batagarawa;Kayauki Ward;;Bardar Murtale Health Center;;;;;
Batagarawa;Kayauki Ward;;Dan Iyau Health Center;;;;;
Batagarawa;Kayauki Ward;;Karage Health Center;;;;;
Batagarawa;Kayauki Ward;;Kayauki Maternal Child Health Center;;;;;
Batagarawa;Kayauki Ward;;Kurhundu Health Centre;;;;;
Batagarawa;Kayauki Ward;;Kutubi Health Center;;;;;
Batagarawa;Tsanni Ward;;Alale Health Centre;;;;;
Batagarawa;Tsanni Ward;;Mai lalle Health Center;;;;;
Batagarawa;Tsanni Ward;;Makatinawa Health Center;;;;;
Batagarawa;Tsanni Ward;;Rahaje Health Centre;;;;;
Batagarawa;Tsanni Ward;;Tsanni Maternal Child Health Centre;;;;;
Batagarawa;Tsanni Ward;;Yan Kwakwai Health Centre;;;;;
Batagarawa;Tsanni Ward;;Yarbarza Health Centre;;;;;
Batagarawa;Yargamji Ward;;Almun Jama'a Health Center;;;;;
Batagarawa;Yargamji Ward;;Tafkin Almu Health Clinic;;;;;
Batagarawa;Yargamji Ward;;Tarno Health Center;;;;;
Batagarawa;Yargamji Ward;;Yan Butu Health Centre;;;;;
Batagarawa;Yargamji Ward;;Yar Gamji Maternal and Child Health Clinic;;;;;
Batagarawa;Yargamji Ward;;Zangamdo Health Center;;;;;
Batsari;Kagara Ward;;Abadau Health Clinic;;;;;
Batsari;Kagara Ward;;Akata Health Centre;;;;;
Batsari;Kagara Ward;;Baran Kada Health Clinic;;;;;
Batsari;Kagara Ward;;Dadin Kowa Health Centre;;;;;
Batsari;Kagara Ward;;Sawanawa Health Post;;;;;
Batsari;Kagara Ward;;Shirgi Health Centre;;;;;
Batsari;Kagara Ward;;Tadeta Health Clinic;;;;;
Batsari;Kagara Ward;;Tsabawa Maternal and Child Health Clinic;;;;;
Batsari;Kagara Ward;;Zamfarawa Health Centre;;;;;
Batsari;Kagara Ward;;Zanko Health Clinic;;;;;
Batsari;Ababau;;Kagara Ward;;;;;
Batsari;Batsari  Ward;;Batsari General Hospital;;;;;
Batsari;Batsari  Ward;;Batsari Mobile Clinic;;;;;
Batsari;Batsari  Ward;;Biya Ki Kwana Health Clinic;;;;;
Batsari;Batsari  Ward;;Chiroma Foundation Clinic;;;;;
Batsari;Batsari  Ward;;Family Support MCHC Batsari ;;;;;
Batsari;Batsari  Ward;;Garin Dan Yaro Health Clinic;;;;;
Batsari;Batsari  Ward;;Garin Lulai Health Clinic;;;;;
Batsari;Batsari  Ward;;Katoge Health Centre;;;;;
Batsari;Batsari  Ward;;Mallamawa PHC;;;;;
Batsari;Batsari  Ward;;Salihawar Dakamna Health Clinic;;;;;
Batsari;Batsari  Ward;;Secretariat Health Clinic  ;;;;;
Batsari;Batsari  Ward;;Ung. Malamai Health Clinic;;;;;
Batsari;Batsari  Ward;;Watangadiya Health Clinic;;;;;
Batsari;Batsari  Ward;;Yasore Health Post;;;;;
Batsari;Dan Alhaji;;Yan Gayya Ward;;;;;
Batsari;Darini Magaji Abu Ward;;Garin Inu Health Clinic;;;;;
Batsari;Darini Magaji Abu Ward;;Karewa Maternal and Child Health Clinic;;;;;
Batsari;Darini Magaji Abu Ward;;Magaji Abu Health Clinic;;;;;
Batsari;Darini Magaji Abu Ward;;Shekewa Maternal and Child Clinic;;;;;
Batsari;Darini Magaji Abu Ward;;Yargamji Health Clinic (Batsari);;;;;
Batsari;Kandawa Ward;;Dankar Health Centre;;;;;
Batsari;Kandawa Ward;;Kandawa Primary Health Centre;;;;;
Batsari;Kandawa Ward;;Tsauwa Health Clinic;;;;;
Batsari;Karare Ward;;Karare Primary Health Centre;;;;;
Batsari;Karare Ward;;Kokiya Health Clinic;;;;;
Batsari;Karare Ward;;Kwatarni Health Clinic;;;;;
Batsari;Karare Ward;;Madaddabai MCHC;;;;;
Batsari;Madogara Ward;;Garin Bugaje Health Clinic;;;;;
Batsari;Madogara Ward;;Garin Zaki Health Clinic;;;;;
Batsari;Madogara Ward;;Madogara Health Clinic;;;;;
Batsari;Madogara Ward;;Nahuta Health Clinic;;;;;
Batsari;Manawa Ward;;Batsarin Alhaji Health Clinic;;;;;
Batsari;Manawa Ward;;Dangeza Maternal and Child Hopspital;;;;;
Batsari;Manawa Ward;;Duba Health Centre;;;;;
Batsari;Manawa Ward;;Kofa MCHC;;;;;
Batsari;Manawa Ward;;Tsugunni Health Centre;;;;;
Batsari;Rumah Ward;;Garin Labo Maternal and Child Health Clinic;;;;;
Batsari;Rumah Ward;;Kwandatso Health Clinic;;;;;
Batsari;Rumah Ward;;Rayi Health Clinic (Batsari);;;;;
Batsari;Rumah Ward;;Ruma Primary Health Centre;;;;;
Batsari;Rumah Ward;;Sabon Garin Dunburawa Health Clinic;;;;;
Batsari;Rumah Ward;;Yar Larba Health Clinic;;;;;
Batsari;Wagini Ward;;Dan Tudu Health Centre;;;;;
Batsari;Wagini Ward;;Daurawa Health Centre;;;;;
Batsari;Wagini Ward;;Garin Dodo Health Clinic;;;;;
Batsari;Wagini Ward;;Garin Hambama;;;;;
Batsari;Wagini Ward;;Kasai Health Clinic;;;;;
Batsari;Wagini Ward;;Wagini Health Centre;;;;;
Batsari;Yau Yau;;Mallamawa Ward;;;;;
Batsari;Mallamawa Ward;;Gangara Health Clinic;;;;;
Batsari;Mallamawa Ward;;Garwa Health Clinic;;;;;
Batsari;Mallamawa Ward;;Mallamawa MCHC (Batsari);;;;;
Batsari;Mallamawa Ward;;Yarlum Health Clinic;;;;;
Batsari;Mallamawa Ward;;Yauyau Health Clinic;;;;;
Batsari;Yan Gayya Ward;;Garin Goje Health Clinic;;;;;
Batsari;Yan Gayya Ward;;Gehe Health Clinic;;;;;
Batsari;Yan Gayya Ward;;Kukar Toro Health Clinic;;;;;
Batsari;Yan Gayya Ward;;Kurmiyal Health Clinic;;;;;
Batsari;Yan Gayya Ward;;Mai Doriya Health Clinic;;;;;
Batsari;Yan Gayya Ward;;Makada Duma Health Clinic(Batsari);;;;;
Batsari;Yan Gayya Ward;;S. Dan Alhaji Health Clinic;;;;;
Batsari;Yan Gayya Ward;;Saki Jiki Health Clinic;;;;;
Batsari;Yan Gayya Ward;;Yandaka Primary Health Centre;;;;;
Batsari;Yan Gayya Ward;;Yangaiya Health Clinic;;;;;
Baure;Babban Mutum Ward;;B Mutum Primary Health Centre;;;;;
Baure;Babban Mutum Ward;;Daje Health Clinic;;;;;
Baure;Babban Mutum Ward;;Gure Health Clinic;;;;;
Baure;Babban Mutum Ward;;Salai Health Clinic;;;;;
Baure;Baure City  Ward;;Baure General Hospital;;;;;
Baure;Dankum Ward;;Agala Dispensary;;;;;
Baure;Dankum Ward;;Dankum Dispensary;;;;;
Baure;Dankum Ward;;Maimakwami Health Clinic;;;;;
Baure;Dankum Ward;;Muduri Dispensary;;;;;
Baure;Dankum Ward;;Unguwar Gamji Clinic;;;;;
Baure;Faski Ward;;Burdudu Dispensary;;;;;
Baure;Faski Ward;;Faski Maternal and Child Clinic;;;;;
Baure;Faski Ward;;Kagara Health Clinic;;;;;
Baure;Faski Ward;;Maikiliya Health Clinic;;;;;
Baure;Garki Ward;;Garki Dispensary;;;;;
Baure;Garki Ward;;Tumfushi Health Clinic;;;;;
Baure;Hui Ward;;Danta Garma Dispensary;;;;;
Baure;Hui Ward;;Hui Dispensary;;;;;
Baure;Hui Ward;;Hurtumi Health Clinic;;;;;
Baure;Maibara Ward;;Achakwale Health Clinic;;;;;
Baure;Maibara Ward;;Kawari Dispensary (Baure);;;;;
Baure;Maibara Ward;;Mai Bara Dispensary;;;;;
Baure;Maibara Ward;;Maibara Maternal and Child Hospital;;;;;
Baure;Taraminawa ward;;Taranamiwa Health Clinic;;;;;
Baure;Taraminawa ward;;Ung Isah Maternal and Child Hospital;;;;;
Baure;Unguwar Rai Ward;;Ung Rai Dispensary;;;;;
Baure;Yan Maulu Ward;;Kumbi Dispensary;;;;;
Baure;Yan Maulu Ward;;U Mantau Dispensary;;;;;
Baure;Yan Maulu Ward;;Yanmaulu Maternal and Child Health Clinic;;;;;
Baure;Yanduna Ward;;Yanduna Maternal and Child Hospital;;;;;
Bindawa;Daye Ward;;Ba'awa Maternal and Child Health Centre;;;;;
Bindawa;Daye Ward;;Marke Dispensary;;;;;
Bindawa;Daye Ward;;Dageji Dispensary;;;;;
Bindawa;Daye Ward;;Daye Dispensary;;;;;
Bindawa;Daye Ward;;Dokaji Dispensary;;;;;
Bindawa;Daye Ward;;Gaiwa Dispensary;;;;;
Bindawa;Daye Ward;;Gwanza Maternal and Child Health Centre;;;;;
Bindawa;Daye Ward;;Moile Ambulance;;;;;
Bindawa;Daye Ward;;Baushi Dispensary;;;;;
Bindawa;Daye Ward;;Tama Primary Health Centre (Bindawa);;;;;
Bindawa;Faru Ward;;Dallaji Model Primary Health Centre;;;;;
Bindawa;Faru Ward;;Faru Dispensary;;;;;
Bindawa;Faru Ward;;Kura Dispensary;;;;;
Bindawa;Faru Ward;;Kwaryanma Dispensary;;;;;
Bindawa;Faru Ward;;Rugar Idi Primary Health Centre;;;;;
Bindawa;Faru Ward;;Yar Rabo Dispensary;;;;;
Bindawa;Baure Ward;;Baure Dispensary (Bindawa);;;;;
Bindawa;Baure Ward;;Baure Primary Health Centre (Bindawa);;;;;
Bindawa;Baure Ward;;Dadin Dowa Dispensary;;;;;
Bindawa;Baure Ward;;Dakwale Dispensary;;;;;
Bindawa;Baure Ward;;Mazanya Dispensary;;;;;
Bindawa;Bindawa Ward;;Bindawa Comprehensive Health Centre;;;;;
Bindawa;Bindawa Ward;;Bindawa Dispensary;;;;;
Bindawa;Bindawa Ward;;Makera Dispensary;;;;;
Bindawa;Bindawa Ward;;Sabaru Dispensary;;;;;
Bindawa;Bindawa Ward;;Zango Dispensary (Bindawa);;;;;
Bindawa;Dallaje ;; Faru Ward;;;;;
Bindawa;Doro Ward;;Doro Dispensary;;;;;
Bindawa;Doro Ward;;Doro Primary Health Centre;;;;;
Bindawa;Doro Ward;;Karkahu Dispensary;;;;;
Bindawa;Doro Ward;;Tuwaru Dispensary;;;;;
Bindawa;Gaiwa Ward;;Magami Dispensary;;;;;
Bindawa;Gaiwa Ward;;Makera Dispensary (Bindawa);;;;;
Bindawa;Giremawa Ward;;Aisawa Dispensary;;;;;
Bindawa;Giremawa Ward;;Giremawa Maternal and Child Health Clinic;;;;;
Bindawa;Giremawa Ward;;Gobirawa Dispensary (Bindawa);;;;;
Bindawa;Giremawa Ward;;Kangi Dispensary;;;;;
Bindawa;Giremawa Ward;;Yannagani Dispensary;;;;;
Bindawa;Jibawa;;Rugar Badu Ward;;;;;
Bindawa;Kamri Ward;;Bartai Dispensary;;;;;
Bindawa;Kamri Ward;;Kamri Maternal and Child Health Centre;;;;;
Bindawa;Kamri Ward;;Yan'ali Dispensary;;;;;
Bindawa;Shibdawa Ward;;Agalawa Dispensary;;;;;
Bindawa;Shibdawa Ward;;Kirya Dispensary;;;;;
Bindawa;Shibdawa Ward;;Larabawa Dispensary;;;;;
Bindawa;Shibdawa Ward;;Shibdawa Maternal and Child Health Clinic;;;;;
Bindawa;Shibdawa Ward;;Zakata Dispensary;;;;;
Bindawa;Tama;;Daye Ward;;;;;
Bindawa;Yangora Ward;;Gawo Dispensary;;;;;
Bindawa;Yangora Ward;;jago Dispensary;;;;;
Bindawa;Yangora Ward;;Digga Dispensary;;;;;
Bindawa;Yangora Ward;;Rugar Jabe Dispensary;;;;;
Bindawa;Yangora Ward;;Yangora Dispensary;;;;;
Bindawa;Rugar Badu Ward;;Adarkawa Dispensary;;;;;
Bindawa;Rugar Badu Ward;;Gimi Dispensary;;;;;
Bindawa;Rugar Badu Ward;;Jibawa Dispensary;;;;;
Bindawa;Rugar Badu Ward;;Rugar Bade Dispensary;;;;;
Bindawa;Rugar Badu Ward;;Shaiskawa Maternal and Child Health Centre;;;;;
Bindawa;Rugar Badu Ward;;Yar kuki Dispensary;;;;;
Charanchi;Banye Ward;;Badake Dispensary;;;;;
Charanchi;Banye Ward;;Banye Primary Health Centre;;;;;
Charanchi;Banye Ward;;Kagadama Health Facility;;;;;
Charanchi;Banye Ward;;Lamutani Dispensary;;;;;
Charanchi;Banye Ward;;Sagoriyo Dispensary;;;;;
Charanchi;Banye Ward;;Yanunku Dispensary;;;;;
Charanchi;Charanchi Ward;;Charanchi Dispensary;;;;;
Charanchi;Charanchi Ward;;Charanchi Family Support Programme Clinic;;;;;
Charanchi;Charanchi Ward;;Charanchi Maternity Clinic;;;;;
Charanchi;Charanchi Ward;;Hanaye Dispensary;;;;;
Charanchi;Charanchi Ward;;Kereriya Dispensary;;;;;
Charanchi;Charanchi Ward;;Mazaga Health Facility;;;;;
Charanchi;Charanchi Ward;;Tiki Dispensary;;;;;
Charanchi;Doka Ward;;Danbuna Dispensary;;;;;
Charanchi;Doka Ward;;Doka Dispensary;;;;;
Charanchi;Doka Ward;;Jewa Dispensary;;;;;
Charanchi;Doka Ward;;Kunatau Health Clinic;;;;;
Charanchi;Doka Ward;;Marke Dispensary(Charanchi);;;;;
Charanchi;Ganuwa Ward;;Burtu Health Center;;;;;
Charanchi;Ganuwa Ward;;Dabganya Health Clinic;;;;;
Charanchi;Ganuwa Ward;;Danjakka Health Clinic;;;;;
Charanchi;Ganuwa Ward;;Dokau Ganua Dispensary;;;;;
Charanchi;Ganuwa Ward;;Ganuwa Dispensary (Charanchi);;;;;
Charanchi;Ganuwa Ward;;Gauniki Dispensary;;;;;
Charanchi;Koda Ward;;Dokau Mai Rimaye Health Clinic;;;;;
Charanchi;Koda Ward;;Farin Ruwa Dispensary;;;;;
Charanchi;Koda Ward;;Koda Dispensary;;;;;
Charanchi;Koda Ward;;Kodar Saiki Dispensary;;;;;
Charanchi;Koda Ward;;Magama Health Clinic;;;;;
Charanchi;Kuraye Ward;;Bagga Dispensary;;;;;
Charanchi;Kuraye Ward;;Dagora Dispensary;;;;;
Charanchi;Kuraye Ward;;Kuraye Health Clinic;;;;;
Charanchi;Kuraye Ward;;Kuraye Primary Health Care;;;;;
Charanchi;Kuraye Ward;;Rugar Wake Dispensary;;;;;
Charanchi;Kuraye Ward;;Yar-malamai Health Clinc;;;;;
Charanchi;Majen Wayya Ward;;Baran Gizo Dispensary;;;;;
Charanchi;Majen Wayya Ward;;Kartake Dispensary;;;;;
Charanchi;Majen Wayya Ward;;Lamba Dispensary;;;;;
Charanchi;Majen Wayya Ward;;Majen Yawa Dispensary;;;;;
Charanchi;Majen Wayya Ward;;Nasarawa Dispensary;;;;;
Charanchi;Majen Wayya Ward;;Sabaru Health Clinic;;;;;
Charanchi;Majen Wayya Ward;;Yarmudi Health Clinic;;;;;
Charanchi;Radda Ward;;Billiri Health Clinic;;;;;
Charanchi;Radda Ward;;Dangaladi Health clinic;;;;;
Charanchi;Radda Ward;;Farfaru Primary Health Centre;;;;;
Charanchi;Radda Ward;;Kadanya Dispensary;;;;;
Charanchi;Radda Ward;;Radda Primary Health Centre;;;;;
Charanchi;Radda Ward;;Zana Health Clinc;;;;;
Charanchi;Safana Ward;;Bajinawa Dispensary;;;;;
Charanchi;Safana Ward;;Damakwaro Dispensary;;;;;
Charanchi;Safana Ward;;Kuki Health Clinic;;;;;
Charanchi;Safana Ward;;Safana Dispensary;;;;;
Charanchi;Safana Ward;;Yandu Health Clinic;;;;;
Charanchi;Tsakatsa Ward;;Area Health Clinic;;;;;
Charanchi;Tsakatsa Ward;;Dafara Dispensary;;;;;
Charanchi;Tsakatsa Ward;;Malawawa Dispensary;;;;;
Charanchi;Tsakatsa Ward;;Ruga Dispensary;;;;;
Charanchi;Tsakatsa Ward;;Tsakatsa Dispensary;;;;;
Dan Musa;Dan Ali Ward;;Amarawa Dispensary;;;;;
Dan Musa;Dan Ali Ward;;Dan Ali Dispensary;;;;;
Dan Musa;Dan Ali Ward;;Dantunkuri Dispensary;;;;;
Dan Musa;Dan Ali Ward;;Tashar Biri Health Clinic;;;;;
Dan Musa;Dan Ali Ward;;Tashar Kadanya Dispensary;;;;;
Dan Musa;Dan Musa A Ward;;Dan Musa Mobile Clinic;;;;;
Dan Musa;Dan Musa A Ward;;Danmusa General Hospital;;;;;
Dan Musa;Dan Musa A Ward;;Danmusa Primary Health Centre;;;;;
Dan Musa;Dan Musa B Ward;;Gurza Kuka Health Clinic;;;;;
Dan Musa;Dan Musa B Ward;;Mairabon Tuwo Health Clinic;;;;;
Dan Musa;Dan Musa B Ward;;Mara Zamfarawa Dispensary;;;;;
Dan Musa;Dandire A Ward;;Dandure Primary Health Centre;;;;;
Dan Musa;Dandire A Ward;;Hanki Biri Health Clinic;;;;;
Dan Musa;Dandire B Ward;;Dantudu Dispensary;;;;;
Dan Musa;Dandire B Ward;;U Malamai Dispensary;;;;;
Dan Musa;Maidabino A Ward;;Gidan Kunduma Dispensary;;;;;
Dan Musa;Maidabino A Ward;;Kulere Dispensary;;;;;
Dan Musa;Maidabino A Ward;;Maidabino Primary Health Centre;;;;;
Dan Musa;Maidabino A Ward;;Runka Health Clinic;;;;;
Dan Musa;Maidabino A Ward;;Tabarau Dispensary;;;;;
Dan Musa;Maidabino B Ward;;Dangyeza Dispensary;;;;;
Dan Musa;Maidabino B Ward;;Dunya Dispensary;;;;;
Dan Musa;Maidabino B Ward;;Falale Dispensary;;;;;
Dan Musa;Maidabino B Ward;;Gobirawa Dispensary (Dan Musa);;;;;
Dan Musa;Maidabino B Ward;;Laletu Dispensary;;;;;
Dan Musa;Mara A Ward;;Bichi Dispensary;;;;;
Dan Musa;Mara A Ward;;Dutsin Dadi Health Center;;;;;
Dan Musa;Mara A Ward;;Mara Katsinawa Health Centre;;;;;
Dan Musa;Mara A Ward;;Marke Dispensary;;;;;
Dan Musa;Mara A Ward;;Shawaire Dispensary;;;;;
Dan Musa;Mara A Ward;;Sokwatawa Dispensary;;;;;
Dan Musa;Mara B Ward;;Bare Bari Health Clinic;;;;;
Dan Musa;Mara B Ward;;Danalkima Dispensary;;;;;
Dan Musa;Mara B Ward;;Nasarawa Dispensary (Dan Musa);;;;;
Dan Musa;Yantumaki A Ward;;Fafawa Dispensary;;;;;
Dan Musa;Yantumaki A Ward;;Yardanko Dispensary;;;;;
Dan Musa;Yantumaki A Ward;;Yashi Dispensary;;;;;
Dan Musa;Yantumaki B Ward;;T Maialewa Dispensary;;;;;
Dan Musa;Yantumaki B Ward;;Tashar Icce Health Clinic;;;;;
Dan Musa;Yantumaki B Ward;;Yantumaki Primary Health Centre;;;;;
Dandume;Dandume A Ward;;Dandume Comprehensive Health Centre;;;;;
Dandume;Dandume A Ward;;Dandume Primary Health Center;;;;;
Dandume;Dandume A Ward;;Gaskia Clinic;;;;;
Dandume;Dandume A Ward;;Hajara Medical Centre;;;;;
Dandume;Dandume A Ward;;Nasiha Clinic;;;;;
Dandume;Dandume B Ward;;Jiruwa Health Clinic;;;;;
Dandume;Dandume B Ward;;Kondanba Dispensary;;;;;
Dandume;Dandume B Ward;;Kwakware Dispensary;;;;;
Dandume;Dandume B Ward;;U Rimi Health Centre;;;;;
Dandume;Dandume B Ward;;Unguwar Bango Dispensary;;;;;
Dandume;Dandume B Ward;;Unguwar Zango Health Clinic;;;;;
Dandume;Dansoda Ward;;Dansoda Health Clinic;;;;;
Dandume;Dansoda Ward;;Dugu Sambo Dispensary;;;;;
Dandume;Dansoda Ward;;Kabalawa Health Post;;;;;
Dandume;Dansoda Ward;;Unguwar Malan Haji Dispensary;;;;;
Dandume;Dantankari Ward;;Dantankari Primary Health Centre;;;;;
Dandume;Dantankari Ward;;Hayin Mujiya Dispensary;;;;;
Dandume;Dantankari Ward;;Kurmin Chakara Health Post;;;;;
Dandume;Dantankari Ward;;U Mujiya Health Post;;;;;
Dandume;Dantankari Ward;;Unguwar Soro Health Post;;;;;
Dandume;M;;Wando Ward;;;;;
Dandume;Mahuta A Ward;;Alheri Clinic (Mahuta A);;;;;
Dandume;Mahuta A Ward;;Kirijam Health Clinic;;;;;
Dandume;Mahuta A Ward;;Mahuta Primary Health Center;;;;;
Dandume;Mahuta B Ward;;Gwaigwaye Health Centre;;;;;
Dandume;Mahuta B Ward;;U Alkasi Dispensary;;;;;
Dandume;Mahuta C Ward;;Dandarau Health Clinic;;;;;
Dandume;Mahuta C Ward;;Kauran Pawa Health Clinic;;;;;
Dandume;Mahuta C Ward;;Mahuta MDGs;;;;;
Dandume;Mahuta C Ward;;Sako Marini Health Clinic;;;;;
Dandume;Mahuta C Ward;;U Mai Gayya Dispensary;;;;;
Dandume;Maikwama Ward;;Illalah Dispensary;;;;;
Dandume;Maikwama Ward;;Madobi Health Post;;;;;
Dandume;Maikwama Ward;;Mai Kwama Health Clinic;;;;;
Dandume;Maikwama Ward;;Nasarawa Dispensary (Dandume);;;;;
Dandume;Tumburka Ward A;;MDG Tumburkai;;;;;
Dandume;Tumburka Ward A;;Tumburkai Primary Health Centre;;;;;
Dandume;Tumburka Ward A;;U Waziri Dispensary;;;;;
Dandume;Tumburka Ward A;;Unguwar Allah Nanan Health Clinic;;;;;
Dandume;Tumburka Ward B;;Barkan Health Post;;;;;
Dandume;Tumburka Ward B;;Jidadi Dispensary;;;;;
Dandume;Tumburka Ward B;;Kauran Alasan Health Clinic;;;;;
Dandume;Tumburka Ward B;;Layin Kadanaya MDGs;;;;;
Dandume;Tumburka Ward B;;Takalmawa Dispensary;;;;;
Dandume;Tumburka Ward B;;Unguwar Ilu Health Post;;;;;
Dandume;Wando Ward;;Danmayaki Health Center;;;;;
Dandume;Wando Ward;;Magaji Wando Primary Health Centre;;;;;
Dandume;Wando Ward;;Unguwar Doro Dispensary;;;;;
Danja;Dabai Ward.;;Noma Dispensary;;;;;
Danja;Dabai Ward.;;Dabai Primary Health Centre;;;;;
Danja;Dabai Ward.;;Ung Jajaye Health Clinic;;;;;
Danja;Dabai Ward.;;Ung Madawaki Dispensary;;;;;
Danja;Danja A  Ward;;Dogon Dawa Health Centre;;;;;
Danja;Danja A  Ward;;Ung Dandaudu Health Clinic;;;;;
Danja;Danja A  Ward;;Ung Nuhu Dispensary;;;;;
Danja;Danja A  Ward;;Yarkasuna Health Clinic;;;;;
Danja;Danja B (Danja) Ward;;Danja Comprehensive Health Centre;;;;;
Danja;Danja B (Danja) Ward;;Danja Mobile Clinic;;;;;
Danja;Danja B (Danja) Ward;;Family Support Clinic Danja;;;;;
Danja;Danja B (Danja) Ward;;Ihsan Hospital;;;;;
Danja;Danja B (Danja) Ward;;Rinjin Baure Health Clinic;;;;;
Danja;Danja B (Danja) Ward;;Tatari Dispensary;;;;;
Danja;Jiba Ward.;;Abasawa Dispensary;;;;;
Danja;Jiba Ward.;;Jiba Primary Health Centre;;;;;
Danja;Jiba Ward.;;Layin Mahauta Dispensary;;;;;
Danja;Jiba Ward.;;Tashar Gero Health Clinic;;;;;
Danja;Jiba Ward.;;Ung Balarabe Dispensary;;;;;
Danja;Kahutu A Ward.;;Hurgu Dispensary;;;;;
Danja;Kahutu A Ward.;;Kahutu Primary Health Centre;;;;;
Danja;Kahutu A Ward.;;Sabuwar Kasuwa Health Clinic;;;;;
Danja;Kahutu B Ward.;;Barmo Dispensary;;;;;
Danja;Kahutu B Ward.;;Chediya Dispensary (Danja);;;;;
Danja;Kahutu B Ward.;;Dan Mai Gauta Dispensary;;;;;
Danja;Kahutu B Ward.;;Gidan Daiya Dispensary;;;;;
Danja;Kahutu B Ward.;;Gidan Na Masari Health Clinic;;;;;
Danja;Kahutu B Ward.;;Tudun Kanwa Dispensary;;;;;
Danja;Kahutu B Ward.;;Tudun Wakili Health Clinic;;;;;
Danja;Tsangamawa Ward.;;B Rafi Dispensary;;;;;
Danja;Tsangamawa Ward.;;Dan Amarya Dispensary;;;;;
Danja;Tsangamawa Ward.;;Dauraku Dispensary;;;;;
Danja;Tsangamawa Ward.;;Dorayi Dispensary;;;;;
Danja;Tsangamawa Ward.;;Karofi Health Clinic;;;;;
Danja;Tsangamawa Ward.;;Ung Abdu Kanti Dispensary;;;;;
Danja;Tsangamawa Ward.;;Yammachi Health Clinic;;;;;
Danja;Yakaji A  Ward;;Kirare Health Clinic;;;;;
Danja;Yakaji A  Ward;;Kokami Dispensary;;;;;
Danja;Yakaji A  Ward;;Marabar Dabai Dispensary;;;;;
Danja;Yakaji A  Ward;;Zage Zagi Dispensary;;;;;
Danja;Yakaji B Ward;;Bazanga Dispensary;;;;;
Danja;Yakaji B Ward;;Gidan Garba Health Clinic;;;;;
Danja;Yakaji B Ward;;Nahuce Dispensary;;;;;
Danja;Yakaji B Ward;;U Sai Maternal and Child Health Clinic;;;;;
Danja;Yakaji B Ward;;Ung Sambo Dispensary;;;;;
Danja;kt. Tandama Ward.;;Buzaye Dispensary;;;;;
Danja;kt. Tandama Ward.;;Dantalle Dispensary;;;;;
Danja;kt. Tandama Ward.;;Majema Health Clinic;;;;;
Danja;kt. Tandama Ward.;;Rafin Gora Dispensary;;;;;
Danja;kt. Tandama Ward.;;Sandada Dispensary;;;;;
Danja;kt. Tandama Ward.;;Tafida Dispensary;;;;;
Danja;kt. Tandama Ward.;;Tandama Primary Health Centre;;;;;
Danja;kt. Tandama Ward.;;U Rimi Dispensary;;;;;
Daura;Dawaki A Ward;;Baraji Maternal and Child Health Clinic;;;;;
Daura;Dawaki B Ward;;Daura General Hospital;;;;;
Daura;Dawaki B Ward;;Daura Maternal and Child Health Clinic;;;;;
Daura;Dawaki B Ward;;Family Support Clinic;;;;;
Daura;Daura  Ward;;Daura Mobile Clinic;;;;;
Daura;Kusugu Ward;;Daura Comprehensive Health Centre;;;;;
Daura;Madobi A Ward;;Madobi Health Clinic;;;;;
Daura;Madobi A Ward;;Sharawa Maternal and Child Health Clinic;;;;;
Daura;Madobi B Ward;;Kurneji Health Centre;;;;;
Daura;Madobi B Ward;;Suduje PHC;;;;;
Daura;Mazoji A Ward;;Tanbu Urban Dispensary;;;;;
Daura;Mazoji B - Daura Ward;;Dan Nakola Health Clinic;;;;;
Daura;S;;Yara A Ward;;;;;
Daura;S;;Yara B Ward;;;;;
Daura;Sabongari Ward;;Daura Clinic;;;;;
Daura;Sabongari Ward;;Gurjiya Maternal and Child Health Clinic;;;;;
Daura;Sabongari Ward;;Kalgo Maternal and Child Health Clinic;;;;;
Daura;Sabongari Ward;;Kanti Maternal and Child Health Clinic;;;;;
Daura;U;;Dawaki A Ward;;;;;
Daura;U;;Dawaki B Ward;;;;;
Daura;Yara A Ward;;Urban Health Clinic;;;;;
Daura;Yara B Ward;;Hindatu Maternal and Child Health Clinic;;;;;
Dutsi;Dan Aunai Ward;;Dan Aunai Maternal and Child Health Clinic;;;;;
Dutsi;Dan Aunai Ward;;Dandalin Yola Health Clinic;;;;;
Dutsi;Dan Aunai Ward;;K Burtu Health Post;;;;;
Dutsi;Dan Aunai Ward;;Kage Health Post (Dutsi);;;;;
Dutsi;Dan Aunai Ward;;Sobashi Dispensary;;;;;
Dutsi;Dutsi A Ward;;Dutsawa Health Post;;;;;
Dutsi;Dutsi A Ward;;Dutsi Maternal and Child Health Clinic;;;;;
Dutsi;Dutsi A Ward;;Gallawa Health Clinic;;;;;
Dutsi;Dutsi B Ward;;Dankudu Health Post;;;;;
Dutsi;Dutsi B Ward;;Dutsi Comprehensive Health Centre;;;;;
Dutsi;Dutsi B Ward;;Machinawa Dispensary;;;;;
Dutsi;Dutsi B Ward;;Talu Health Clinic;;;;;
Dutsi;Kayawa Ward;;Giginya MCHC;;;;;
Dutsi;Kayawa Ward;;Kantutdu Health Clinic;;;;;
Dutsi;Kayawa Ward;;Kayawa Maternal and Child Health Clinic;;;;;
Dutsi;Kayawa Ward;;Kayawa MPHC;;;;;
Dutsi;Kayawa Ward;;Makanga Health Post;;;;;
Dutsi;Kayawa Ward;;Nareje Health Clinic;;;;;
Dutsi;Ruwan Kaya A Ward;;Duguneji Health Clinic;;;;;
Dutsi;Ruwan Kaya A Ward;;Minawa Primary Health Centre;;;;;
Dutsi;Ruwan Kaya B Ward;;Mabawa Health Post;;;;;
Dutsi;Ruwan Kaya B Ward;;Nasaraw Health Clinic;;;;;
Dutsi;Ruwan Kaya B Ward;;Raba Health Post;;;;;
Dutsi;Ruwan Kaya B Ward;;Ruwan kaya Health Clinic;;;;;
Dutsi;Sirika A Ward;;Jarkasa Health Clinic;;;;;
Dutsi;Sirika A Ward;;Karawa Maternal and Child Health Clinic;;;;;
Dutsi;Sirika A Ward;;Tuduyal Health Clinic;;;;;
Dutsi;Sirika A Ward;;Wakadama Health Clinic;;;;;
Dutsi;Sirika B Ward;;Be'el Health Clinic;;;;;
Dutsi;Sirika B Ward;;Karemi Health Clinic;;;;;
Dutsi;Sirika B Ward;;Katoge HC;;;;;
Dutsi;Sirika B Ward;;Rijiya Health Post;;;;;
Dutsi;Sirika B Ward;;Shargalle Model Primary Health Centre ;;;;;
Dutsi;Sirika B Ward;;Sirika Health Post;;;;;
Dutsi;Yamel A Ward;;Bagga Health Clinic;;;;;
Dutsi;Yamel A Ward;;Birkin Sadai Health Clinic;;;;;
Dutsi;Yamel A Ward;;Yalde Health Clinic;;;;;
Dutsi;Yamel A Ward;;Yamel Dispensary;;;;;
Dutsi;Yamel A Ward;;Yamel Maternal Child Health Clinic;;;;;
Dutsi;Yamel B Ward;;Balare Health Centre;;;;;
Dutsi;Yamel B Ward;;Beguwa HC;;;;;
Dutsi;Yamel B Ward;;Dutsi Mobile Clinic;;;;;
Dutsi;Yamel B Ward;;Farin Haki Health Clinic;;;;;
Dutsi;Yamel B Ward;;Shargalle Family Support Programme Clinic;;;;;
Dutsi;Yamel B Ward;;T Wali Health Centre;;;;;
Dutsin-Ma;Bagagadi Ward;;Bagagadi Primary Health Centre;;;;;
Dutsin-Ma;Bagagadi Ward;;Bajinawa Health Clinic;;;;;
Dutsin-Ma;Bagagadi Ward;;Dage Lawal Primary Health Centre;;;;;
Dutsin-Ma;Bagagadi Ward;;Kura Katoge Health Clinic;;;;;
Dutsin-Ma;Dabawa Ward;;Dabawa Dispensary;;;;;
Dutsin-Ma;Dabawa Ward;;Kwantamawa Health Clinic;;;;;
Dutsin-Ma;Dabawa Ward;;Matsani PHC;;;;;
Dutsin-Ma;Dabawa Ward;;Y Shatuna Dispensary;;;;;
Dutsin-Ma;Dutsinma A Ward;;Dutsin-Ma Comprehensive Health Centre;;;;;
Dutsin-Ma;Dutsinma A Ward;;Dutsinma General Hospital;;;;;
Dutsin-Ma;Dutsinma A Ward;;Dutsin-Ma Mobile Clinic;;;;;
Dutsin-Ma;Dutsinma A Ward;;Family Support Clinic;;;;;
Dutsin-Ma;Dutsinma A Ward;;Godiya Medical Clinic;;;;;
Dutsin-Ma;Dutsinma A Ward;;Wakaji Health Clinic;;;;;
Dutsin-Ma;Dutsinma B Ward;;G Safara Dispensary;;;;;
Dutsin-Ma;Dutsinma B Ward;;Dutsinma Medical Clinic;;;;;
Dutsin-Ma;Dutsinma B Ward;;Dutsin-ma PHC;;;;;
Dutsin-Ma;Dutsinma B Ward;;Kagara Dispensary;;;;;
Dutsin-Ma;Dutsinma B Ward;;Ruwan Doruwa Health Clinic;;;;;
Dutsin-Ma;Karofi A Ward;;Daka Health Clinic;;;;;
Dutsin-Ma;Karofi A Ward;;Faguwa Dispensary;;;;;
Dutsin-Ma;Karofi A Ward;;Jaka Dispensary;;;;;
Dutsin-Ma;Karofi A Ward;;Karofi Primary Health Centre;;;;;
Dutsin-Ma;Karofi A Ward;;Rayi Dispensary (Dutsin-Ma);;;;;
Dutsin-Ma;Karofi B Ward;;Dogonzu Health Post;;;;;
Dutsin-Ma;Karofi B Ward;;Taura Health Clinic;;;;;
Dutsin-Ma;Karofi B Ward;;Wakazo Health Clinic;;;;;
Dutsin-Ma;Kuki B Ward;;Dantakiri Dispensary;;;;;
Dutsin-Ma;Kuki B Ward;;Tsawa Tsawa Health Clinic;;;;;
Dutsin-Ma;Kuki Ward;;Gobirawa Health Clinic;;;;;
Dutsin-Ma;Kuki Ward;;Kuki Primary Health Centre;;;;;
Dutsin-Ma;Kuki Ward;;Kuliya Health Clinic;;;;;
Dutsin-Ma;Kutawa Ward;;Badole Dispensary (Dutsin-Ma);;;;;
Dutsin-Ma;Kutawa Ward;;Garhi Health Post;;;;;
Dutsin-Ma;Kutawa Ward;;Takatsaba Health Clinic;;;;;
Dutsin-Ma;Kutawa Ward;;Y Ruma Primary Healt Centre;;;;;
Dutsin-Ma;Makera Ward;;Dogon Ruwa Dispensary;;;;;
Dutsin-Ma;Makera Ward;;G Gamawa Dispensary;;;;;
Dutsin-Ma;Makera Ward;;Makera Primary Health Centre (Dutsin-Ma);;;;;
Dutsin-Ma;Makera Ward;;Sanawa Health Centre;;;;;
Dutsin-Ma;Makera Ward;;Turare Primary Health Centre;;;;;
Dutsin-Ma;Shema Ward;;Gizawa Health Clinic;;;;;
Dutsin-Ma;Shema Ward;;MPHC Hayin Gada;;;;;
Dutsin-Ma;Shema Ward;;Shema Primary Health Centre;;;;;
Faskari;Daudawa Ward;;Daudawa Primary Health Centre;;;;;
Faskari;Daudawa Ward;;Kanon Haki Health Clinic;;;;;
Faskari;Daudawa Ward;;kwankiro Health Clinic;;;;;
Faskari;Daudawa Ward;;Ung Samanja Health Clinic;;;;;
Faskari;Faskari Ward;;Bilbis Health Clinic;;;;;
Faskari;Faskari Ward;;Dogon Awo Health Clinic;;;;;
Faskari;Faskari Ward;;Faskari Comprehensive Health Centre;;;;;
Faskari;Faskari Ward;;Faskari Government Health Clinic;;;;;
Faskari;Faskari Ward;;Faskari Mobile Clinic;;;;;
Faskari;Faskari Ward;;Ung Dan Bika Health Clinic;;;;;
Faskari;Faskari Ward;;Ung Dan Boka Health Clinic;;;;;
Faskari;Faskari Ward;;Ung Danmairo Health Clinic;;;;;
Faskari;Faskari Ward;;Ung Gago Health Clinic;;;;;
Faskari;Faskari Ward;;Unguwar Bika Health Clinic;;;;;
Faskari;Mai Gora Ward;;A Babba Health Clinic;;;;;
Faskari;Mai Gora Ward;;Dogon Dawa Health Clinic;;;;;
Faskari;Mai Gora Ward;;Kadisau Health Clinic;;;;;
Faskari;Mai Gora Ward;;Kukok Health Clinic;;;;;
Faskari;Mai Gora Ward;;Maigora Health Clinic;;;;;
Faskari;Mai Gora Ward;;Ung A. Sani Health Clinic;;;;;
Faskari;Mai Gora Ward;;Unguwar Gizo Health Clinic;;;;;
Faskari;Mai Gora Ward;;Unguwar Namande Dispensary;;;;;
Faskari;Mairuwa Ward;;Bele Health Clinic;;;;;
Faskari;Mairuwa Ward;;Kadirawa Health Clinic;;;;;
Faskari;Mairuwa Ward;;Mairuwa Primary Health Centre;;;;;
Faskari;Mairuwa Ward;;Unguwar Maje Health Clinic;;;;;
Faskari;Ruwan Godiya;;Danbau Health Clinic;;;;;
Faskari;Ruwan Godiya;;Kwai Health Clinic;;;;;
Faskari;Ruwan Godiya;;Kwakware Health Clinic;;;;;
Faskari;Ruwan Godiya;;Ruwan Godiya Primary Health Centre;;;;;
Faskari;Ruwan Godiya;;Shawu Health Clinic;;;;;
Faskari;Ruwan Godiya;;Ung Sule Moriki HealthClinic;;;;;
Faskari;Ruwan Godiya;;Yantuwaru Health Clinic;;;;;
Faskari;Sabon Layi Ward;;Birnin Kogo Health Clinic;;;;;
Faskari;Sabon Layi Ward;;Fankama Dispensary;;;;;
Faskari;Sabon Layi Ward;;Gobirawa Dispensary (Faskari);;;;;
Faskari;Sabon Layi Ward;;Kagana Health Clinic;;;;;
Faskari;Sabon Layi Ward;;Kahi Health Clinic;;;;;
Faskari;Sabon Layi Ward;;Makera Health Clinic;;;;;
Faskari;Sabon Layi Ward;;Sabon Layi Galadima Health Clinic;;;;;
Faskari;Sabon Layi Ward;;Tsuru Health Clinic;;;;;
Faskari;Sabon Layi Ward;;U Doka Dispensary;;;;;
Faskari;Sabon Layi Ward;;Unguwar Sakkai Health Clinic;;;;;
Faskari;Sabon Layi Ward;;Unguwar Tsamiya Dispensary;;;;;
Faskari;Sheme Ward;;Kamfani Health Clinic;;;;;
Faskari;Sheme Ward;;Nasarawa Dispensary (Faskari);;;;;
Faskari;Sheme Ward;;Sheme Health Clinic;;;;;
Faskari;Sheme Ward;;Ung Hayi Health Clinic;;;;;
Faskari;Sheme Ward;;Ung Sarki Health Clinic;;;;;
Faskari;Tafoki Ward;;Doma (A) Health Clinic;;;;;
Faskari;Tafoki Ward;;Tafoki Primary Health Centre;;;;;
Faskari;Tafoki Ward;;Unguwar Miko Health Clinic;;;;;
Faskari;Tafoki Ward;;Yardabaro Health Clinic;;;;;
Faskari;Yankara Ward;;Ung Bakwai Health Clinic;;;;;
Faskari;Yankara Ward;;Ung Maidawa Health Clinic;;;;;
Faskari;Yankara Ward;;Yankara Primary Health Centre;;;;;
Faskari;Yankara Ward;;Zagami Health Clinic;;;;;
Faskari;Yar Malamai Ward;;Bakarya Health Clinic;;;;;
Faskari;Yar Malamai Ward;;Dan Aji Health Clinic;;;;;
Faskari;Yar Malamai Ward;;Kuka Shidda Health Clinic;;;;;
Faskari;Yar Malamai Ward;;Mai Sabo Health Clinic;;;;;
Faskari;Yar Malamai Ward;;Marafa Health Clinic;;;;;
Faskari;Yar Malamai Ward;;Mununu Health Clinic;;;;;
Faskari;Yar Malamai Ward;;Ramanya Health Clinic;;;;;
Faskari;Yar Malamai Ward;;Yarmalamai Dispensary (Faskari);;;;;
Funtua;Gari Ward;;B C J Health Clinic;;;;;
Funtua;Gari Ward;;Bistit Clinic;;;;;
Funtua;Gari Ward;;KTARDA Health Clinic;;;;;
Funtua;Gari Ward;;Tudun Wada Health Centre;;;;;
Funtua;Dandutse Ward;;Dandutse Health Clinic;;;;;
Funtua;Dukke Ward;; Bare Bari Health Clinic;;;;;
Funtua;Dukke Ward;;Ang Biri Health Clinic;;;;;
Funtua;Dukke Ward;;Ang Daudu Health Post;;;;;
Funtua;Dukke Ward;;Ang Malam Tanko Health Post;;;;;
Funtua;Dukke Ward;;Ang Sallah Dispensary;;;;;
Funtua;Dukke Ward;;Anguwar Bishi Health Clinic;;;;;
Funtua;Dukke Ward;;Chibauna Health Clinic;;;;;
Funtua;Dukke Ward;;Dikke Primary Health Centre;;;;;
Funtua;Dukke Ward;;Gwaigwaye Health Post;;;;;
Funtua;Dukke Ward;;Hayin Yanbarkuna Health Clinic;;;;;
Funtua;Dukke Ward;;Kufan Tsamiya Dispensary;;;;;
Funtua;Dukke Ward;;Rafin Dinya Health Clinic;;;;;
Funtua;Dukke Ward;;Ung Inji Health Clinic;;;;;
Funtua;Dukke Ward;;Unguwar Sha'e Health Clinic;;;;;
Funtua;Dukke Ward;;Zamfarawa Health Clinic;;;;;
Funtua;Goya Ward;;Anguwar Moda Health Clinic;;;;;
Funtua;Goya Ward;;Dan Layi Health Post;;;;;
Funtua;Goya Ward;;Goya Primary Health Centre;;;;;
Funtua;Goya Ward;;Kwangwai Health Clinic;;;;;
Funtua;Goya Ward;;Makwalla Health Clinic;;;;;
Funtua;Mai Gamji Ward;;Anguwar Yawa Health Clinic;;;;;
Funtua;Mai Gamji Ward;;Dankawo Health Clinic;;;;;
Funtua;Mai Gamji Ward;;Jabiri Dispensary;;;;;
Funtua;Mai Gamji Ward;;Kwatangiri Health Post;;;;;
Funtua;Mai Gamji Ward;;Maigamji Primary Health Centre;;;;;
Funtua;Mai Gamji Ward;;New Funtua Clinic;;;;;
Funtua;Mai Gamji Ward;;Rinji Health Clinic;;;;;
Funtua;Mai Gamji Ward;;Yartabki Dispensary;;;;;
Funtua;Makera Ward - Funtua;;Bagari Health Clinic;;;;;
Funtua;Makera Ward - Funtua;;Danfili Health Clinic;;;;;
Funtua;Makera Ward - Funtua;;Funtua Comprehensive Health Centre;;;;;
Funtua;Makera Ward - Funtua;;Funtua General Hospital;;;;;
Funtua;Makera Ward - Funtua;;Gwaigwayen Nono Health Clinic;;;;;
Funtua;Makera Ward - Funtua;;Kaliyawa Health Clinic;;;;;
Funtua;Makera Ward - Funtua;;Kwana Guga Health Post;;;;;
Funtua;Makera Ward - Funtua;;Nakowan Hospital;;;;;
Funtua;Makera Ward - Funtua;;PHC Makera;;;;;
Funtua;Makera Ward - Funtua;;U Dahiru Health Clinic;;;;;
Funtua;Maska Ward;;Ang Tofa Health Post;;;;;
Funtua;Maska Ward;;Bagari Dispensary;;;;;
Funtua;Maska Ward;;Gwangori Health Post;;;;;
Funtua;Maska Ward;;Maska Primary Health Centre;;;;;
Funtua;Maska Ward;;MDG Nasarawa Health Clinic;;;;;
Funtua;Nasarawa Ward;;Maternity Hospital;;;;;
Funtua;Nasarawa Ward;;Almajiri Mobile Health Clinic;;;;;
Funtua;Nasarawa Ward;;Funtua Mobile Clinic;;;;;
Funtua;Nasarawa Ward;;Khamec Clinic;;;;;
Funtua;S;;Gari Ward;;;;;
Funtua;Tudun Iya Ward;;Ang Dandada Health Post;;;;;
Funtua;Tudun Iya Ward;;Ang Mai Laya Health Post;;;;;
Funtua;Tudun Iya Ward;;Bagire Health Post;;;;;
Funtua;Tudun Iya Ward;;Burma Health Post;;;;;
Funtua;Tudun Iya Ward;;Lasanawa Health Post;;;;;
Funtua;Tudun Iya Ward;;Tudun Iya Primary Health Centre;;;;;
Ingawa;B.Kwari Ward;;Bakin Kwari Health Clinic;;;;;
Ingawa;B.Kwari Ward;;Bouje Maternal and Child Health Clinic;;;;;
Ingawa;B.Kwari Ward;;Daunaka Primary Health Care;;;;;
Ingawa;B.Kwari Ward;;Jigawa Health Clinic;;;;;
Ingawa;B.Kwari Ward;;Kandare Health Clinic;;;;;
Ingawa;B.Kwari Ward;;Karkarku Dispensary;;;;;
Ingawa;B.Kwari Ward;;Sagartau Health Clinic;;;;;
Ingawa;B.Kwari Ward;;Tunas Dispensary;;;;;
Ingawa;Bidore Ward;;Bidare Dispensary;;;;;
Ingawa;Bidore Ward;;Hotarau Health Clinic;;;;;
Ingawa;Bidore Ward;;Rimin Hago Health Clinic;;;;;
Ingawa;Bidore Ward;;Yaya Maternal and Child Health Clinic;;;;;
Ingawa;Iyan Kaura Ward;;Amalawa Health Clinic;;;;;
Ingawa;Iyan Kaura Ward;;Damtsi Health Clinic;;;;;
Ingawa;Iyan Kaura Ward;;Dundu Dispensary;;;;;
Ingawa;Iyan Kaura Ward;;Kurfeji Maternal and Child Health Centre;;;;;
Ingawa;Iyan Kaura Ward;;Santar Nakyalli Dispensary;;;;;
Ingawa;Iyan Kaura Ward;;Santar Yallawal Dispensary;;;;;
Ingawa;Iyan Kaura Ward;;Tukuku Health Clinic;;;;;
Ingawa;Iyan Kaura Ward;;Yan Kaura Dispensary;;;;;
Ingawa;Jobe Ward;;Ganjuwa Maternal and Child Health Clinic;;;;;
Ingawa;Jobe Ward;;Jobe Health Clinic;;;;;
Ingawa;Jobe Ward;;Kandawa Health Clinic;;;;;
Ingawa;Jobe Ward;;Nasarawa Health Clinic;;;;;
Ingawa;Jobe Ward;;Yartsari Health Clinic;;;;;
Ingawa;Jobe Ward;;Zango Health Clinic;;;;;
Ingawa;Kafi Ward;;Adamawa Health Clinic;;;;;
Ingawa;Kafi Ward;;Kafi Health Clinic;;;;;
Ingawa;Kafi Ward;;Manomawa Maternal and Child Health Clinic;;;;;
Ingawa;Kafi Ward;;Sabon Sara Health Clinic;;;;;
Ingawa;Kafi Ward;;Sabon Sara Health Clinic;;;;;
Ingawa;Agayawa Ward;;Agayawa Primary Health Centre;;;;;
Ingawa;Agayawa Ward;;Yallami G Dispensary;;;;;
Ingawa;Bareruwa Ward;;Bareruwa Health Clinic;;;;;
Ingawa;Bareruwa Ward;;Damkawa Health Clinic;;;;;
Ingawa;Bareruwa Ward;;Danshitan Dispensary;;;;;
Ingawa;Bareruwa Ward;;Ladan Maternal and Child Health Clinic;;;;;
Ingawa;Bareruwa Ward;;Ruruma Maternal and Child Health Clinic;;;;;
Ingawa;Bareruwa Ward;;Wanzamai Health Clinic;;;;;
Ingawa;Dara Ward;;Dara Primary Health Clinic;;;;;
Ingawa;Dara Ward;;Saudawa Health Clinic;;;;;
Ingawa;Dara Ward;;Todai Health;;;;;
Ingawa;Daunaka;;B.Kwari Ward;;;;;
Ingawa;Dugul Ward;;Badole Dispensary (Ingawa);;;;;
Ingawa;Dugul Ward;;Dukuma Dispensary;;;;;
Ingawa;Dugul Ward;;Tsancini Health Clinic;;;;;
Ingawa;Ingawa Ward;;Ingawa Central Health Clinic;;;;;
Ingawa;Ingawa Ward;;Ingawa Family Support Programme Clinic;;;;;
Ingawa;Ingawa Ward;;Ingawa General Hospital;;;;;
Ingawa;Ingawa Ward;;Ingawa Mobile Clinic;;;;;
Ingawa;Ingawa Ward;;Yakurutu Health Clinic;;;;;
Ingawa;Kandawa;;Jobe Ward;;;;;
Ingawa;Kurfeji;;Iyan Kaura Ward;;;;;
Ingawa;Manomawa;;Kafi Ward;;;;;
Ingawa;Yandoma Ward;;Jasmawa Health Clinic;;;;;
Ingawa;Yandoma Ward;;Yandoma Comprehensive Health Centre;;;;;
Ingawa;Yandoma Ward;;Yandoma Maternal and Child Health Clinic;;;;;
Ingawa;Yaya;;Bidore Ward;;;;;
Jibia;Bugaje Ward;;Bugaje Primary Health Center;;;;;
Jibia;Bugaje Ward;;Gakurdi Health Post;;;;;
Jibia;Bugaje Ward;;Kaura Health Post;;;;;
Jibia;Bugaje Ward;;Murtuku Health Post;;;;;
Jibia;Bugaje Ward;;Sabuwar Unguwa Health Clinic;;;;;
Jibia;Bugaje Ward;;Tantagarya Health Post;;;;;
Jibia;Farfaru Ward;;Farfaru Health Post;;;;;
Jibia;Farfaru Ward;;Garin Gado Health Post;;;;;
Jibia;Farfaru Ward;;Mazanya Abu Health Clinic;;;;;
Jibia;Farfaru Ward;;Zandam Health Post;;;;;
Jibia;Faru Ward;;Faru Healt Post;;;;;
Jibia;Faru Ward;;Gurbin Magarya PHC;;;;;
Jibia;Faru Ward;;J Mage Health Post;;;;;
Jibia;Faru Ward;;Jibia Maje Health Clinic;;;;;
Jibia;Faru Ward;;Mallamawa Health Post;;;;;
Jibia;Gangara Ward;;Falele Health Clinic;;;;;
Jibia;Gangara Ward;;Gangara Health Centre (Jibia);;;;;
Jibia;Gangara Ward;;Jaja Health Clinic;;;;;
Jibia;Gangara Ward;;Kanwa Health Post;;;;;
Jibia;Gangara Ward;;Maje Health Post;;;;;
Jibia;Gangara Ward;;Tankuri Health Post;;;;;
Jibia;Gurbi (Jibia)Ward;;Farara Health Post;;;;;
Jibia;Gurbi (Jibia)Ward;;Gurbin Baure Health Clinic;;;;;
Jibia;Gurbi (Jibia)Ward;;Shinfida Health Post;;;;;
Jibia;Gurbi (Jibia)Ward;;Tagwaye Health Post;;;;;
Jibia;Gurbi (Jibia)Ward;;Tsamba Bakwai Health Post;;;;;
Jibia;Gurbi (Jibia)Ward;;Tsamben Radi Health Post;;;;;
Jibia;Jibia A Ward;;Jibia Clinic;;;;;
Jibia;Jibia A Ward;;Tudun Wada Health Clinic;;;;;
Jibia;Jibia B Ward;;Jibia BabbaHealth Clinic;;;;;
Jibia;Jibia B Ward;;Jibia General Hospital;;;;;
Jibia;Jibia B Ward;;PPFN Jibia;;;;;
Jibia;Kusa Ward;;Garin Rabe Health Clinic;;;;;
Jibia;Kusa Ward;;Daddara Health Centre;;;;;
Jibia;Kusa Ward;;Farun Bala Health Post;;;;;
Jibia;Kusa Ward;;Kusa Health Post;;;;;
Jibia;Kusa Ward;;Natsinta Health Clinic;;;;;
Jibia;Kusa Ward;;Rimin Kusa Health Clinic;;;;;
Jibia;Mazanya Ward;;Kwarare Health Clinic;;;;;
Jibia;Mazanya Ward;;Magama Comprehensive Health Center;;;;;
Jibia;Mazanya Ward;;Mazanya Health Post;;;;;
Jibia;Mazanya Ward;;MCH magama;;;;;
Jibia;Riko Ward;;Agangaro Health Clinic;;;;;
Jibia;Riko Ward;;Daga Health Post;;;;;
Jibia;Riko Ward;;Dan Cafa Health Clinic;;;;;
Jibia;Riko Ward;;Dogon Dawa Health Post;;;;;
Jibia;Riko Ward;;Ginzo Health Clinic;;;;;
Jibia;Riko Ward;;Riko Health Post;;;;;
Jibia;Yangayya Ward ;;Jarkuka Health Clinic;;;;;
Jibia;Yangayya Ward ;;Jibia Mobile Clinic;;;;;
Jibia;Yangayya Ward ;;Kukar Babangida Health Post;;;;;
Jibia;Yangayya Ward ;;Matso Matso Health Post;;;;;
Jibia;Yangayya Ward ;;Yangayya Health Post;;;;;
Kafur;Dantuture Ward;;Dankanjiba Dispensary;;;;;
Kafur;Dantuture Ward;;Dantutture Health Clinic;;;;;
Kafur;Dantuture Ward;;Jange B Dispensary;;;;;
Kafur;Dantuture Ward;;Jargaba Dispensary;;;;;
Kafur;Dutsen Kura Ward;;Bori Dispensary;;;;;
Kafur;Dutsen Kura Ward;;Kanya Health Clinic;;;;;
Kafur;Dutsen Kura Ward;;Marabar Kanya Health Centre;;;;;
Kafur;Dutsen Kura Ward;;Rataya Health Clinic;;;;;
Kafur;Dutsen Kura Ward;;U Tsamiya Dispensary;;;;;
Kafur;Gamzago Ward;;Barakai Health Post;;;;;
Kafur;Gamzago Ward;;Bayala Dispensary;;;;;
Kafur;Gamzago Ward;;Gamzago Dispensary;;;;;
Kafur;Gamzago Ward;;Mallawa Dispensary;;;;;
Kafur;Gamzago Ward;;Nsarawa Halth Post;;;;;
Kafur;Gozaki Ward;;Gozaki Health Centre;;;;;
Kafur;Gozaki Ward;;Huguma Dispensary;;;;;
Kafur;Gozaki Ward;;Sani A Dispensary;;;;;
Kafur;Gozaki Ward;;Tibis Dispensary;;;;;
Kafur;Gozaki Ward;;Unguwar Nuhu Dispensary;;;;;
Kafur;Kafur Ward;;Kadanya Dispensary;;;;;
Kafur;Kafur Ward;;Kafur Comprehensive Health Centre;;;;;
Kafur;Kafur Ward;;Sabon Birni Mahuta Dispensary;;;;;
Kafur;Kafur Ward;;Unguwar Dogo Dispensary;;;;;
Kafur;Kurumgafa Ward;;KufanTambu Dispensary;;;;;
Kafur;Kurumgafa Ward;;Kuringafa Dispensary;;;;;
Kafur;Kurumgafa Ward;;Layin Barkono Dispensary;;;;;
Kafur;Kurumgafa Ward;;Unguwar Alhaji Ya'u Dispensary;;;;;
Kafur;Kurumgafa Ward;;Yaribori Dispensary;;;;;
Kafur;Mahuta Ward;;Bari Health Post;;;;;
Kafur;Mahuta Ward;;Dankwaro Dispensary;;;;;
Kafur;Mahuta Ward;;Kagara Health Post;;;;;
Kafur;Mahuta Ward;;Mahuta Health Clinic;;;;;
Kafur;Mahuta Ward;;Sabon Layin Suran Health Clinic;;;;;
Kafur;Masari Ward;;Bugudu Dispensary;;;;;
Kafur;Masari Ward;;Dallatu Model Primary Health Centre;;;;;
Kafur;Masari Ward;;Layin Makera Dispensary;;;;;
Kafur;Masari Ward;;Masari Dispensary;;;;;
Kafur;Masari Ward;;Ung Shukau Dispensary;;;;;
Kafur;Masari Ward;;Unguwar Alhaji Amadu Dispensary;;;;;
Kafur;Masari Ward;;Unguwar Samaila Health Post;;;;;
Kafur;Rugoji Ward;;Dawa Dispensary;;;;;
Kafur;Rugoji Ward;;D Yanke Dispensary;;;;;
Kafur;Rugoji Ward;;Dayawa Health Clinic;;;;;
Kafur;Rugoji Ward;;Kurmi Dispensary;;;;;
Kafur;Rugoji Ward;;Rugoji Health Centre;;;;;
Kafur;Rugoji Ward;;Yartalata Dispensary;;;;;
Kafur;Sabuwar Kasa Ward;;Mahangi Health Clinic;;;;;
Kafur;Sabuwar Kasa Ward;;Sabon Layin Baja Dispensary;;;;;
Kafur;Sabuwar Kasa Ward;;Sabuwar Kasa Health Centre;;;;;
Kafur;Sabuwar Kasa Ward;;Sheka Health Clinic;;;;;
Kaita;Abdallawa Ward;;Abdallawa Health Clinic;;;;;
Kaita;Abdallawa Ward;;Danbazau Health Clinic;;;;;
Kaita;Baawa Ward;;Ba'awa Health Clinic;;;;;
Kaita;Baawa Ward;;Dankunama Primary Health Centre (MDG);;;;;
Kaita;Baawa Ward;;Jifatu Health Centre;;;;;
Kaita;Baawa Ward;;Nasarawa Health Clinc(Kaita);;;;;
Kaita;Baawa Ward;;S Birni Health Centre;;;;;
Kaita;Dankaba Ward;;Dankaba Health Clinic;;;;;
Kaita;Dankaba Ward;;Dono Health Post;;;;;
Kaita;Dankaba Ward;;Sawarya Health Clinic;;;;;
Kaita;Dankama Ward;;Dankama Primary Health Centre;;;;;
Kaita;Dankama Ward;;Dantudu Health Clinic(Kaita);;;;;
Kaita;Gafiya Ward;;Bado Health Clinic;;;;;
Kaita;Gafiya Ward;;Gafiya Health Clinic;;;;;
Kaita;Gafiya Ward;;Nahuta(kaita) Health Clinic;;;;;
Kaita;Gafiya Ward;;Zabakau Health Clinic;;;;;
Kaita;Girka Ward;;D Gamji Health Centre;;;;;
Kaita;Girka Ward;;Garu Health Clinic;;;;;
Kaita;Girka Ward;;Girka Health Clinic;;;;;
Kaita;Girka Ward;;Jankyarma Health Clinic;;;;;
Kaita;Girka Ward;;U Tsamiya Health Clinic(kaita);;;;;
Kaita;kaita  Ward;;Dabar Health Clinic;;;;;
Kaita;kaita  Ward;;Gande Health Centre;;;;;
Kaita;kaita  Ward;;Kaita Comprehensive Health Centre;;;;;
Kaita;kaita  Ward;;Kaita Health Centre;;;;;
Kaita;kaita  Ward;;Kaita Mobile Clinic;;;;;
Kaita;Matsai Ward;;Kabobi Health Clinic;;;;;
Kaita;Matsai Ward;;Matsai Health Clinic;;;;;
Kaita;Matsai Ward;;Radi Health Centre;;;;;
Kaita;Yandaki Ward;;D Safe Health Clinic;;;;;
Kaita;Yandaki Ward;;Loki Health Centre;;;;;
Kaita;Yandaki Ward;;Yandaki Maternal and Child Hospital;;;;;
Kaita;Yanhoho Ward;;K Mashi Health Clinic;;;;;
Kaita;Yanhoho Ward;;Sabi Health Centre;;;;;
Kaita;Yanhoho Ward;;Yanhoho Health Clinic;;;;;
Kankara;Burdugau Ward;;Burdugau Maternal and Child Health Clinic;;;;;
Kankara;Burdugau Ward;;Kurba Health Clinic;;;;;
Kankara;Burdugau Ward;;Sharadda Dispensary;;;;;
Kankara;Dan-Murabu Ward;;Ma Rabu Health Centre;;;;;
Kankara;Dan-Murabu Ward;;U Tabo Health Centre;;;;;
Kankara;Gundawa Ward;;Gundawa Health Clinic;;;;;
Kankara;Gundawa Ward;;Tudu Health Clinic;;;;;
Kankara;Gundawa Ward;;U Tsamiya Health Centre;;;;;
Kankara;Gundawa Ward;;Wawar Kaza Health Clinic;;;;;
Kankara;Gurbi Ward;;Danbirgim Health Centre;;;;;
Kankara;Gurbi Ward;;Gurbi Health Clinic;;;;;
Kankara;Gurbi Ward;;Katoge Health Clinic;;;;;
Kankara;Gurbi Ward;;Majifa Health Centre;;;;;
Kankara;Gurbi Ward;;Pauwa Health Clinic;;;;;
Kankara;Gurbi Ward;;Yangeme Health Centre;;;;;
Kankara;Kankara Ward;;Kankara General Hospital;;;;;
Kankara;Kankara Ward;;Kankara Maternal and Child Health Clinic;;;;;
Kankara;Kankara Ward;;Kankara Mobile Clinic;;;;;
Kankara;Katare Ward;;Bada'U Health Centre;;;;;
Kankara;Katare Ward;;Dandashire Health Clinic;;;;;
Kankara;Katare Ward;;G Zaki Health Centre;;;;;
Kankara;Katare Ward;;Hunya Health Centre;;;;;
Kankara;Katare Ward;;Ketare Primary Health Centre;;;;;
Kankara;Kuka Sheka Ward;;Kukar Sheka Health Centre;;;;;
Kankara;Kuka Sheka Ward;;Mashigi Health Centre;;;;;
Kankara;Kuka Sheka Ward;;S Layi Health Centre;;;;;
Kankara;Mabai Ward;;D Nakwabo Health Clinic;;;;;
Kankara;Mabai Ward;;Dorowa Maternal and Child Health Clinic;;;;;
Kankara;Mabai Ward;;Mabai Health Clinic;;;;;
Kankara;Yar Goje Ward;;Danmarke Health Centre;;;;;
Kankara;Yar Goje Ward;;Yargoje Maternal and Child Health Clinic;;;;;
Kankara;Yar Tsamiya Ward;;Batsirake Health Centre;;;;;
Kankara;Yar Tsamiya Ward;;Hauwa Kai Health Centre;;;;;
Kankara;Yar Tsamiya Ward;;Yartsamiya Health Clinic;;;;;
Kankara;Zango Ward;;Bakkai Health Centre;;;;;
Kankara;Zango Ward;;D Marke Health Clinic;;;;;
Kankara;Zango Ward;;Da Sabau Health Clinic;;;;;
Kankara;Zango Ward;;Jeka Areda Health Centre;;;;;
Kankara;Zango Ward;;Kabuke Health Centre;;;;;
Kankara;Zango Ward;;Yarsanta Health Clinic;;;;;
Kankara;Zango Ward;;Zango Primary Health Centre (Kankara);;;;;
Kankia;Dangi Fakuwa Ward;;Dan Nayaki MCH;;;;;
Kankia;Dangi Fakuwa Ward;;Fakuwa Primary Health Centre;;;;;
Kankia;Dangi Fakuwa Ward;;K Maina Health Clinic;;;;;
Kankia;Gachi Ward;;Dandoro MCH;;;;;
Kankia;Gachi Ward;;Kankia General Hospital;;;;;
Kankia;Gal A Ward;;Galadima Primary Health Centre(Kankia);;;;;
Kankia;Gal A Ward;;Kandawa Health Centre;;;;;
Kankia;Gal A Ward;;Kankia Mobile Clinic;;;;;
Kankia;Gal A Ward;;M D Clinic;;;;;
Kankia;Gal B Ward;;Kawari Maternal and Child Health Clinic;;;;;
Kankia;Gyaza;;Kunduru Ward;;;;;
Kankia;Kafin Soli Ward;;Gayya PHC;;;;;
Kankia;Kafin Soli Ward;;G Danzara Dispensary;;;;;
Kankia;Kafin Soli Ward;;Kafin Soli Maternal and Child Health Clinic;;;;;
Kankia;Kafin Soli Ward;;Sagawa Dispensary;;;;;
Kankia;Kankia Unknown Ward;;K Dangi MCH;;;;;
Kankia;Kankia Unknown Ward;;Kafin Dangi Health Centre;;;;;
Kankia;Kankia Unknown Ward;;Kankia Family Support Programme Clinic;;;;;
Kankia;Kankia Unknown Ward;;Kankia Primary Heatlh Centre;;;;;
Kankia;Kankia Unknown Ward;;Kankia Rapha Clinic;;;;;
Kankia;Kankia Unknown Ward;;Nasara Clinic and Maternity;;;;;
Kankia;Kankia Unknown Ward;;Rimaye Health Clinic;;;;;
Kankia;Rimaye Ward;;Nasarawa Rimaye Health Clinic;;;;;
Kankia;Rimaye Ward;;Rimaye Primary Health Centre;;;;;
Kankia;Rimaye Ward;;Yargajem Health Clinic;;;;;
Kankia;Sukuntuni Ward;;Sukuntuni Maternal and Child Health Clinic;;;;;
Kankia;Sukuntuni Ward;;Tudun Wulli Dispensary;;;;;
Kankia;Tafashiya Nasarawa Ward;;Nasarawa Dispensary (Kankia);;;;;
Kankia;Tafashiya Nasarawa Ward;;Tafashiya MCHC;;;;;
Kankia;Tsa Magam Ward;;Macinjin Dispensary;;;;;
Kankia;Tsa Magam Ward;;Magam Primary Health Centre;;;;;
Kankia;Tsa Magam Ward;;Mallamawa Dispensary;;;;;
Kankia;Tsa Magam Ward;;Tashar Gamji Health Clinic;;;;;
Kankia;Tsa Magam Ward;;Tsa Dispensary;;;;;
Kankia;Kunduru Ward;;Gwalgoro Health Centre;;;;;
Kankia;Kunduru Ward;;Gyaza Primary Health Centre;;;;;
Kankia;Kunduru Ward;;Janga Dispensary;;;;;
Kankia;Kunduru Ward;;Kunduru Dispensary;;;;;
Kankia;Kunduru Ward;;Tokachi Dispensary;;;;;
Kankia;Kunduru Ward;;Yarkutungu MCHC;;;;;
Katsina;Arewa I Ward;;W Arewa Health Centre;;;;;
Katsina;Arewa II Ward;;Army Barrack Clinic;;;;;
Katsina;Arewa II Ward;;Bilikisu Clinic;;;;;
Katsina;Arewa II Ward;;Ikon-Allah Clinic;;;;;
Katsina;Gabas I Ward;;A Js Clinic;;;;;
Katsina;Gabas I Ward;;Alheri Clinic;;;;;
Katsina;Gabas I Ward;;Allah Bamu Lafia Clinic;;;;;
Katsina;Gabas I Ward;;Anfani Clinic;;;;;
Katsina;Gabas I Ward;;CAC Maternity Faith Home;;;;;
Katsina;Gabas I Ward;;Katsina K Sauri Maternal and Child Health Clinic;;;;;
Katsina;Gabas I Ward;;Labmina Clinic;;;;;
Katsina;Gabas II Ward;;Amana Clinic;;;;;
Katsina;Gabas II Ward;;Hamdala Clinic;;;;;
Katsina;Gabas II Ward;;K Marusa Low Cost Dispensary;;;;;
Katsina;Gabas II Ward;;Katsina Allah Bamu Lafia Clinic;;;;;
Katsina;Gabas II Ward;;Katsina Government House Clinic;;;;;
Katsina;Gabas II Ward;;Katsina K Marusa Maternal and Child Health Clinic;;;;;
Katsina;Gabas II Ward;;Okmos Clinic;;;;;
Katsina;Gabas II Ward;;PPFN Clinic;;;;;
Katsina;Gabas II Ward;;Sura Clinic;;;;;
Katsina;Gabas II Ward;;Umulkhairi Clinic;;;;;
Katsina;Gabas III Ward;;Katsina General Hospital;;;;;
Katsina;Gabas III Ward;;Kukar Gesa Health Centre (Katsina);;;;;
Katsina;Gabas III Ward;;Sauki Clinic;;;;;
Katsina;Katsina Unknown Ward;;Dutsen safe Health Centre;;;;;
Katsina;Katsina Unknown Ward;;Garama Health Clinic;;;;;
Katsina;Katsina Unknown Ward;;Katsina  City Clinic;;;;;
Katsina;Katsina Unknown Ward;;Katsina Amfani Clinic;;;;;
Katsina;Katsina Unknown Ward;;Katsina Mobile Clinic;;;;;
Katsina;Katsina Unknown Ward;;Katsina Steel Rolling Hospital;;;;;
Katsina;Katsina Unknown Ward;;Makera Katsina Health Clinic;;;;;
Katsina;Kudu I Ward;;Katsina R Dadi Maternal and Child Health Clinic;;;;;
Katsina;Kudu I Ward;;Noor Clinic;;;;;
Katsina;Kudu I Ward;;Police Clinic;;;;;
Katsina;Kudu II Ward;;Gidan Dawa Health Centre;;;;;
Katsina;Kudu II Ward;;Katsina K Kaura Maternal and Child Health Clinic;;;;;
Katsina;Kudu II Ward;;Turai Umaru Yar'Adua MCH;;;;;
Katsina;Kudu III Ward;;Abbatoir Maternal Child Health Clinic;;;;;
Katsina;Kudu III Ward;;Inwala Dispensary;;;;;
Katsina;Kudu III Ward;;K. Dara Clinic;;;;;
Katsina;Kudu III Ward;;Military Clinic;;;;;
Katsina;Kudu III Ward;;New Millenium Clinic;;;;;
Katsina;Kudu III Ward;;S Unguwa Health Clinic;;;;;
Katsina;Shinkafi I Ward;;MDG Clinic D;;;;;
Katsina;Shinkafi I Ward;;Shinkafi Health Centre;;;;;
Katsina;Shinkafi II Ward;;Kwado Health Centre;;;;;
Katsina;Yamma I Ward;;Tudun Yanlihidda Health Clinic;;;;;
Katsina;Yamma II Ward;;Katsina Federal Medical Centre;;;;;
Katsina;Yamma II Ward;;Katsina K Guga Maternal and Child Health Clinic;;;;;
Katsina;Yamma II Ward;;Nasarawa Day Health Clinic;;;;;
Kurfi;Barkiya Ward;;Barkiya Model Primary Health Centre;;;;;
Kurfi;Barkiya Ward;;Kukoki Health Clinic;;;;;
Kurfi;Barkiya Ward;;Yar Madaga Health Clinic;;;;;
Kurfi;Barkiya Ward;;Yarliyau Dispensary;;;;;
Kurfi;Barkiya Ward;;Yarmarke Dispensary;;;;;
Kurfi;Birchi Ward;;Birchi Primary Health Centre;;;;;
Kurfi;Birchi Ward;;Chediya Dispensary (Kurfi);;;;;
Kurfi;Birchi Ward;;Tashar Barau Health Clinic;;;;;
Kurfi;Kurfi A Ward;;Arewa Health Clinic;;;;;
Kurfi;Kurfi A Ward;;Kaguwa Model Primary Health Centre;;;;;
Kurfi;Kurfi A Ward;;Kofar Yamma Kurfi Comphrehensive Health Centre;;;;;
Kurfi;Kurfi A Ward;;Kurfi General Hospital;;;;;
Kurfi;Kurfi A Ward;;Yar-Randa Dispensary;;;;;
Kurfi;Kurfi B Ward;;Bahirawa Health Clinic;;;;;
Kurfi;Kurfi B Ward;;Fadumawa Health Clinic;;;;;
Kurfi;Kurfi B Ward;;Kauyen Dan Amarya Health Clinic;;;;;
Kurfi;Kurfi B Ward;;Muji Dispensary;;;;;
Kurfi;Kurfi B Ward;;Sauyawa Dispensary;;;;;
Kurfi;Kurfi B Ward;;Tamawa Dispensary;;;;;
Kurfi;Rawayau A Ward;;Alkarya Dispensary;;;;;
Kurfi;Rawayau A Ward;;Dangawo Health Clinic;;;;;
Kurfi;Rawayau A Ward;;Rawayau Model Primary Health Clinic;;;;;
Kurfi;Rawayau B Ward;;S Gari Rawayau Dispensary;;;;;
Kurfi;Rawayau B Ward;;Yar Unguwa Dispensary;;;;;
Kurfi;Rawayau B Ward;;Yarmakers Health Clinic;;;;;
Kurfi;Tsauri A Ward;;Agama Lafia Health Clinic;;;;;
Kurfi;Tsauri A Ward;;Babandawa Health Clinic;;;;;
Kurfi;Tsauri A Ward;;Katoge Dispensary;;;;;
Kurfi;Tsauri A Ward;;Tsauri Primary Health Centre;;;;;
Kurfi;Tsauri B Ward;;Danagali Dispensary;;;;;
Kurfi;Tsauri B Ward;;Gwanzo Health Clinic;;;;;
Kurfi;Tsauri B Ward;;Kaware Primary Health Centre;;;;;
Kurfi;Wurma A Ward;;Gatarawa Health Clinic;;;;;
Kurfi;Wurma A Ward;;Kudewa Health Clinic;;;;;
Kurfi;Wurma A Ward;;Lambo Health Clinic;;;;;
Kurfi;Wurma A Ward;;Wurma Primary Health Centre;;;;;
Kurfi;Wurma B Ward;;Birninya Health Clinic;;;;;
Kurfi;Wurma B Ward;;Chikawa Dispensary;;;;;
Kurfi;Wurma B Ward;;F Dutsi Dispensary;;;;;
Kurfi;Wurma B Ward;;Fandogari Dispensary;;;;;
Kurfi;Wurma B Ward;;Tamu Dispensary;;;;;
Kurfi;Wurma B Ward;;Yar-Budu Health Clinic;;;;;
Kusada;Bauranya A Ward;;Bauranya Health Clinic;;;;;
Kusada;Bauranya A Ward;;Mairana Health Clinic;;;;;
Kusada;Boko Ward;;Garin Dangamau MCH;;;;;
Kusada;Boko Ward;;Boko Sere Dispensary;;;;;
Kusada;Boko Ward;;Tutture Health Centre;;;;;
Kusada;Boko Ward;;Yanzaro Health Clinic;;;;;
Kusada;Dudunni Ward;;Dudunni Health Clinic;;;;;
Kusada;Dudunni Ward;;Jofalawa Health Clinic;;;;;
Kusada;Dudunni Ward;;Makadawa Health Clinic;;;;;
Kusada;Dudunni Ward;;Zango Yanu Dispensary;;;;;
Kusada;Kaikai Ward;;Gunsari Maternal and Child Health Clinic;;;;;
Kusada;Kaikai Ward;;Kaikai Health Clinic;;;;;
Kusada;Kaikai Ward;;Rinji Millenium Develoment Goal;;;;;
Kusada;Kofa Ward;;Kagadama Health Clinic;;;;;
Kusada;Kofa Ward;;Katoge Kofa Health Clinic;;;;;
Kusada;Kofa Ward;;Kofa Dispensary;;;;;
Kusada;Kofa Ward;;Kyafau Health Clinic;;;;;
Kusada;Kofa Ward;;Sabaru Health Facility;;;;;
Kusada;Kofa Ward;;Sabon Rafi Health Facility;;;;;
Kusada;Kofa Ward;;Tufani Health Facility;;;;;
Kusada;Kusada  Ward;;Dangamau Health Clinic;;;;;
Kusada;Kusada  Ward;;Harbau Health Clinic;;;;;
Kusada;Kusada  Ward;;Kusada Comprehensive Health Center;;;;;
Kusada;Mawashi Ward;;Agantar Fulani MCHC;;;;;
Kusada;Mawashi Ward;;Mawashi MCHC;;;;;
Kusada;Mawashi Ward;;Tsanna Health Clinic;;;;;
Kusada;Mawashi Ward;;Yardoka Health Clinic;;;;;
Kusada;Yashe B Ward;;Gidan M Daya Dispensary;;;;;
Kusada;Yashe B Ward;;Jeri Health Clinic;;;;;
Kusada;Yashe B Ward;;Magama Yashe Health Clinic;;;;;
Kusada;Yashe Ward;;Yashe Primary Health Centre;;;;;
Mai'Adua;Bumbum A Ward;;Bumbum Maternal Child Health Clinic;;;;;
Mai'Adua;Bumbum A Ward;;MCH Shekiyal;;;;;
Mai'Adua;Bumbum B Ward;;Kwadage Health Clinic;;;;;
Mai'Adua;Bumbum B Ward;;Maidaniya Health Clinic;;;;;
Mai'Adua;Bumbum B Ward;;Tsiga Health Clinic;;;;;
Mai'Adua;Danyashe Ward;;Dan Yashe Health Clinic;;;;;
Mai'Adua;Danyashe Ward;;Dogon Hawa Health Clinic;;;;;
Mai'Adua;Danyashe Ward;;Misira Health Clinic;;;;;
Mai'Adua;Danyashe Ward;;Tsabu Health Clinic;;;;;
Mai'Adua;Koza Ward;;Bula Health Clinic;;;;;
Mai'Adua;Koza Ward;;Jassa Health Clinic;;;;;
Mai'Adua;Koza Ward;;Jirdede Health Clinic;;;;;
Mai'Adua;Koza Ward;;Koza Model Primary Health Clinic;;;;;
Mai'Adua;Koza Ward;;Maidaddaga Health Clinic;;;;;
Mai'Adua;Mai Adua Ward A;;Kofar Yamma health Clinic;;;;;
Mai'Adua;Mai Adua Ward A;;Mai Adua Comprehensive Health entre;;;;;
Mai'Adua;Mai Adua Ward A;;Mai'Adua Maternal and Child Health Clinic;;;;;
Mai'Adua;Mai'Adua Unknown Ward;;Buduma Health Clinic;;;;;
Mai'Adua;Mai'Adua Unknown Ward;;Danyawa Health Clinic;;;;;
Mai'Adua;Mai'Adua Unknown Ward;;Kongolan Maternal and Child Health Centre;;;;;
Mai'Adua;Mai'Adua Unknown Ward;;Mai Adua Mobile Clinic;;;;;
Mai'Adua;Mai'Adua Unknown Ward;;Maimagarya Health Clinic;;;;;
Mai'Adua;Mai'Aduwa B Ward;;Maiturmi Health Clinic;;;;;
Mai'Adua;Mai'Aduwa B Ward;;Maludu Health Clinic;;;;;
Mai'Adua;Mai'Aduwa C Ward;;Dagara Health Clinic;;;;;
Mai'Adua;Mai'Aduwa C Ward;;Galadima Health Clinic (Mai'adua);;;;;
Mai'Adua;Mai'Aduwa C Ward;;Unguwar Labe Health Clinic;;;;;
Mai'Adua;Maikomi A Ward;;Haukan Zama Health Clinic;;;;;
Mai'Adua;Maikomi A Ward;;Maikoni Health Clinic;;;;;
Mai'Adua;Maikomi A Ward;;Tadi Health Clinic;;;;;
Mai'Adua;Maikomi B Ward;;Maigari Health Clinic;;;;;
Mai'Adua;Maikomi B Ward;;Yankara Health Clinic;;;;;
Mai'Adua;Maikomi B Ward;;Yayaye Health Clinic;;;;;
Mai'Adua;Natsalle Ward;;Gwajo Gwajo Health Clinic;;;;;
Mai'Adua;Natsalle Ward;;Sharta Health Clinic;;;;;
Mai'Adua;Natsalle Ward;;Tofakai Health Clinic;;;;;
Mai'Adua;Natsalle Ward;;Yaryandi Health Clinic;;;;;
Malumfashi;Borin Dawa Ward;;Allah Madogara Health Clinic;;;;;
Malumfashi;Borin Dawa Ward;;Borindawa Health Clinic;;;;;
Malumfashi;Borin Dawa Ward;;Zangon Borindawa Health Clinic;;;;;
Malumfashi;Dansarai Ward;;Aljiyawa Health Clinic;;;;;
Malumfashi;Dansarai Ward;;Dansarai Health Clinic;;;;;
Malumfashi;Dansarai Ward;;Tunkuda Health Clinic;;;;;
Malumfashi;Dayi Ward;;Ammakiyayi Health Centre;;;;;
Malumfashi;Dayi Ward;;Babban Duhu Health Clinic;;;;;
Malumfashi;Dayi Ward;;Dayi Primary Health Centre;;;;;
Malumfashi;G Dansaka Ward;;Dansaka Primary Health Centre;;;;;
Malumfashi;G Dansaka Ward;;Gangara Health Centre (Malumfashi);;;;;
Malumfashi;G Dansaka Ward;;Lamuntami Health Clinic;;;;;
Malumfashi;Karfi Ward;;Gadin Karfi Health Clinic;;;;;
Malumfashi;Karfi Ward;;Karfi Primary Health Centre;;;;;
Malumfashi;Karfi Ward;;L Minister Health Centre;;;;;
Malumfashi;Karfi Ward;;Yan Mai Dabo Health Clinic;;;;;
Malumfashi;Makaurachi Ward;;Badawa Health Centre;;;;;
Malumfashi;Makaurachi Ward;;Jakwalawa Health Clinic;;;;;
Malumfashi;Makaurachi Ward;;Makauraci Primary Health Centre;;;;;
Malumfashi;Malumfashi A  Ward;;Central Clinic and Maternity (Malunfash);;;;;
Malumfashi;Malumfashi A  Ward;;Danbilago Health Clinic;;;;;
Malumfashi;Malumfashi A  Ward;;ECWA Health Clinic;;;;;
Malumfashi;Malumfashi A  Ward;;M Fashi Health Centre;;;;;
Malumfashi;Malumfashi A  Ward;;Malumfashi Women and Children's Hospital;;;;;
Malumfashi;Malumfashi A  Ward;;Nasarawa(Mfashi) Health Post;;;;;
Malumfashi;Malumfashi B Ward;;Albarka Clinic;;;;;
Malumfashi;Malumfashi B Ward;;Malumfashi General Hospital;;;;;
Malumfashi;Malumfashi B Ward;;Tsamiyar Dukumi Health Clinic;;;;;
Malumfashi;Malumfashi B Ward;;Tura Health Clinic;;;;;
Malumfashi;Naalma Ward;;Garangozai Health Clinic;;;;;
Malumfashi;Naalma Ward;;Gidan Galadima Health Post;;;;;
Malumfashi;Naalma Ward;;Karo Health Centre;;;;;
Malumfashi;Naalma Ward;;Kwandawa Health Clinic;;;;;
Malumfashi;Naalma Ward;;Na'Alma Primary Health Centre;;;;;
Malumfashi;Ruwan Sanyi Ward;;Katanga Health Centre;;;;;
Malumfashi;Ruwan Sanyi Ward;;Kurmin Saki Health Post;;;;;
Malumfashi;Ruwan Sanyi Ward;;Ruwan Sanyi Primary Health Centre;;;;;
Malumfashi;Ruwan Sanyi Ward;;Ung Ari Health Clinic;;;;;
Malumfashi;Yaba Ward;;Burdugau Health Centre;;;;;
Malumfashi;Yaba Ward;;M Kankara Health Centre;;;;;
Malumfashi;Yaba Ward;;U Gambo Health Centre;;;;;
Malumfashi;Yaba Ward;;Unguwar Kere Health Post;;;;;
Malumfashi;Yaba Ward;;Yaba Health Centre;;;;;
Malumfashi;Yaba Ward;;Yar Teba Health Clinic;;;;;
Malumfashi;Yammama Ward;;Gora Yamma Health Clinic;;;;;
Malumfashi;Yammama Ward;;Gwanamarde Health Clinic;;;;;
Malumfashi;Yammama Ward;;Yan Mama Health Centre;;;;;
Mani;Bagiwa Ward;;Bagiwa Health Post;;;;;
Mani;Bagiwa Ward;;Duru Health Post;;;;;
Mani;Bagiwa Ward;;Nasarawa Health Post;;;;;
Mani;Bujawa Ward;;Bujawa Primary Health Centre;;;;;
Mani;Bujawa Ward;;Gewayen Maternal and Child Health Clinic;;;;;
Mani;Bujawa Ward;;Isufana Health Post;;;;;
Mani;Bujawa Ward;;Kafasu Health Centre;;;;;
Mani;Bujawa Ward;;Kangwama Health Center;;;;;
Mani;Bujawa Ward;;Randawa Maternal and Child Health Centre;;;;;
Mani;Bujawa Ward;;Taiki Health Center;;;;;
Mani;Bujawa Ward;;Tuskulle Health Post;;;;;
Mani;Bujawa Ward;;Yaunawa Health Post;;;;;
Mani;Duwan;;Makau Ward;;;;;
Mani;Hamcheta Ward;;Aliyaba Health Centre;;;;;
Mani;Hamcheta Ward;;Binoni Health Clinic;;;;;
Mani;Hamcheta Ward;;Hamcheta Maternal and Child Health Clinic;;;;;
Mani;Hamcheta Ward;;Samfa Health Center;;;;;
Mani;Jani Ward;;Jani Comprehensive Health Centre;;;;;
Mani;Jani Ward;;Kurna Health Post;;;;;
Mani;Jani Ward;;Sambawa Health Center;;;;;
Mani;Jani Ward;;Yarchakaram Health Post;;;;;
Mani;Kwatta Ward;;Charanbi Health Post;;;;;
Mani;Kwatta Ward;;Gawon Malla Health Centre;;;;;
Mani;Kwatta Ward;;Kwallikodan Health Post;;;;;
Mani;Kwatta Ward;;Kwatta Maternal and Child Health Clinic;;;;;
Mani;Machika Ward - M;;Aniyawa Health Post;;;;;
Mani;Machika Ward - M;;Gallawa Health Clinic;;;;;
Mani;Machika Ward - M;;Jibda Health Post;;;;;
Mani;Machika Ward - M;;Machika Health Centre;;;;;
Mani;Magami Ward;;Bakan Kara Health Post;;;;;
Mani;Magami Ward;;Kurkus Health Center;;;;;
Mani;Magami Ward;;Magami Health Centre;;;;;
Mani;Magami Ward;;Walana Health Clinic;;;;;
Mani;Mani  Ward;;Kada Rabe Health Post;;;;;
Mani;Mani  Ward;;Mani Comprehensive Health Centre;;;;;
Mani;Mani  Ward;;Mani General Hospital;;;;;
Mani;Mani  Ward;;Mani Mobile Clinic;;;;;
Mani;Mani  Ward;;Mani Primary Health Centre;;;;;
Mani;Muduru Ward;;Damawa Health Centre;;;;;
Mani;Muduru Ward;;Kukoki Health Clinic;;;;;
Mani;Muduru Ward;;Muduru Maternal and Child Health Clinic;;;;;
Mani;Tsagem Ward;;Baryawa Health Center;;;;;
Mani;Tsagem Ward;;Durbi Takusheyi Health Post;;;;;
Mani;Tsagem Ward;;Shaiskawa Health Centre;;;;;
Mani;Tsagem Ward;;Sheme Health Center;;;;;
Mani;Tsagem Ward;;Tsagem Primary Health Centre;;;;;
Mani;Makau Ward;;Duwan Primary Health Centre;;;;;
Mani;Makau Ward;;Gabi Health Post;;;;;
Mani;Makau Ward;;Gamba Health Centre;;;;;
Mani;Makau Ward;;Makau Health Center;;;;;
Mani;Makau Ward;;Marke Health Post;;;;;
Mashi;Bamle Ward;;Birnin Kuka Primary Health Centre;;;;;
Mashi;Bamle Ward;;Buku Health Clinic;;;;;
Mashi;Bamle Ward;;Dandana Dispensary;;;;;
Mashi;Bamle Ward;;Hamis Health Clinic;;;;;
Mashi;Bamle Ward;;Kamarawa Health Clinic;;;;;
Mashi;Bamle Ward;;Kasanki Maternal and Child Health Clinic;;;;;
Mashi;Doguru A Ward;;Badauri Health Clinic;;;;;
Mashi;Doguru A Ward;;Bagawa Health Clinic;;;;;
Mashi;Doguru A Ward;;Doguru Maternal and Child Health Clinic;;;;;
Mashi;Doguru A Ward;;Ishe She Dispensary;;;;;
Mashi;Doguru A Ward;;Kudan Damawa Health Clinic;;;;;
Mashi;Doguru B Ward;;Danlado Health Clinic;;;;;
Mashi;Doguru B Ward;;Darkima Health Centre;;;;;
Mashi;Doguru B Ward;;Kindigi Health Clinic;;;;;
Mashi;Doguru B Ward;;Marke Health Clinic;;;;;
Mashi;Gallu Ward;;Agala Health Clinic;;;;;
Mashi;Gallu Ward;;Danfardu Health Clinic;;;;;
Mashi;Gallu Ward;;Gallu Dispensary;;;;;
Mashi;Gallu Ward;;Gyarta Health Clinic;;;;;
Mashi;Jigawa Ward;;Jigawa Dispensary;;;;;
Mashi;Jigawa Ward;;Tagura Dispensary;;;;;
Mashi;Jigawa Ward;;Tsamiyar Health Clinic;;;;;
Mashi;Karau Ward;;Bula Dispensary;;;;;
Mashi;Karau Ward;;Doka Health Post;;;;;
Mashi;Karau Ward;;Filin Manda Health Clinic;;;;;
Mashi;Karau Ward;;Garo Health Clinic;;;;;
Mashi;Karau Ward;;Jana Dispensary;;;;;
Mashi;Karau Ward;;Tudu Dispensary;;;;;
Mashi;Karau Ward;;Tuluwa Dispensary;;;;;
Mashi;Majigiri Ward;;Dangoshi Health Post;;;;;
Mashi;Majigiri Ward;;Dankada MCHC;;;;;
Mashi;Majigiri Ward;;Majigiri Maternal and Child Health Clinic;;;;;
Mashi;Majigiri Ward;;Makera Dispensary (Mashi);;;;;
Mashi;Majigiri Ward;;Sabuwa Rijiya Health Clinic;;;;;
Mashi;Mashi Ward;;Cidawa Health Post;;;;;
Mashi;Mashi Ward;;Dokawa Health Post;;;;;
Mashi;Mashi Ward;;Halimatu Maternity Home;;;;;
Mashi;Mashi Ward;;Mashi Comprehensive Health Centre;;;;;
Mashi;Mashi Ward;;Mashi Health Clinic;;;;;
Mashi;Mashi Ward;;Mashi Mobile Clinic;;;;;
Mashi;Mashi Ward;;Toranke Health Clinic;;;;;
Mashi;Mashi Ward;;Yarriga Dispensary;;;;;
Mashi;Sonkaya Ward;;Kotai Health Clinic;;;;;
Mashi;Sonkaya Ward;;Sonkaya Maternal and Child Health Clinic;;;;;
Mashi;Sonkaya Ward;;Wazobiya Health Clinic;;;;;
Mashi;Sonkaya Ward;;Yardaddo Dispensary;;;;;
Mashi;Tamilo Ward;;Bunu Health Post;;;;;
Mashi;Tamilo Ward;;Guma Health Clinic;;;;;
Mashi;Tamilo Ward;;Kilago Health Clinic;;;;;
Mashi;Tamilo Ward;;Kwabaje Health Post;;;;;
Mashi;Tamilo Ward;;Manawa Dispensary;;;;;
Mashi;Tamilo Ward;;Moraye Health Clinic;;;;;
Mashi;Tamilo Ward;;Randa Maternal and Child Health Clinic;;;;;
Mashi;Tamilo Ward;;Tamilo Maternal and Child Health Clinic;;;;;
Matazu;Dissi Ward;;Danbanga Dispensary;;;;;
Matazu;Dissi Ward;;Dissi Health Clinic;;;;;
Matazu;Dissi Ward;;Gidan Alh Lawal Health Clinic;;;;;
Matazu;Gwarjo Ward;;Gwarjo Primary Health Centre;;;;;
Matazu;Gwarjo Ward;;Ilali Health Clinic;;;;;
Matazu;Gwarjo Ward;;Jinfin Nawala Health Clinic;;;;;
Matazu;Gwarjo Ward;;Yar' Unguwa Health Clinic;;;;;
Matazu;Karadua Ward;;Kaga Dama Health Clinic;;;;;
Matazu;Karadua Ward;;Karaduwa Dispensary;;;;;
Matazu;Karadua Ward;;Nasarawa Dispensary (Matazu);;;;;
Matazu;Karadua Ward;;Yar'kanya Health Clinic;;;;;
Matazu;Kogari Ward;;Daurawa Dispensary;;;;;
Matazu;Kogari Ward;;Kachari Health Clinic;;;;;
Matazu;Kogari Ward;;Kogari Health Clinic;;;;;
Matazu;Kogari Ward;;Tsakuwa Health Clinic;;;;;
Matazu;Kogari Ward;;Unguwar Sarki Health Clinic;;;;;
Matazu;Matazu A Ward;;Ginchawa Health Clinic;;;;;
Matazu;Matazu A Ward;;Matazu Mobile Clinic;;;;;
Matazu;Matazu A Ward;;Tabobi Health Clinic;;;;;
Matazu;Matazu B Ward;;Kudu Health Clinic;;;;;
Matazu;Matazu B Ward;;Kufen Ruga Health Clinic;;;;;
Matazu;Matazu B Ward;;Matazu Comprehensive Health Centre;;;;;
Matazu;Mazoji A -  Matazu Ward;;Dugul Health Clinic;;;;;
Matazu;Mazoji A -  Matazu Ward;;PaPu Health Clinic;;;;;
Matazu;Mazoji A -  Matazu Ward;;Yalwa Health Clinic;;;;;
Matazu;Mazoji B - Matazu Ward;;Mazoji Primary Health Centre;;;;;
Matazu;Rinjin Idi Ward;;Jimawa Health Center;;;;;
Matazu;Rinjin Idi Ward;;Karawo Health Clinic;;;;;
Matazu;Rinjin Idi Ward;;Rinjin Idi Health Clinic;;;;;
Matazu;Rinjin Idi Ward;;Sabon Gari Health Clinic (Matazu);;;;;
Matazu;Sayaya Ward;;Bakane Health Clinic;;;;;
Matazu;Sayaya Ward;;Bauraji Health Clinic;;;;;
Matazu;Sayaya Ward;;Kawari Dispensary (Matazu);;;;;
Matazu;Sayaya Ward;;Kogon Maidawa Health Center;;;;;
Matazu;Sayaya Ward;;Raddawa Health Clinic;;;;;
Matazu;Sayaya Ward;;Saura Health Clinic;;;;;
Matazu;Sayaya Ward;;Sayaya Primary Health Centre;;;;;
Musawa;Dangani Ward;;Bakam Health Clinic;;;;;
Musawa;Dangani Ward;;Dangani Primary Health Centre;;;;;
Musawa;Dangani Ward;;Gidan Dodo Health Clinic;;;;;
Musawa;Dangani Ward;;Katoge (Dangani Ward)Health Clinic;;;;;
Musawa;Dangani Ward;;Sako Health Clinic;;;;;
Musawa;Dangani Ward;;Turawa Health Clinic;;;;;
Musawa;Danjanku Ward;;Lumo Health Clinic;;;;;
Musawa;Danjanku Ward;;Badawa Health Clinic;;;;;
Musawa;Danjanku Ward;;Danjanku Primary Health Care;;;;;
Musawa;Danjanku Ward;;Dankado Health Clinic;;;;;
Musawa;Danjanku Ward;;Karachi Health Clinic;;;;;
Musawa;Danjanku Ward;;Munta Health Clinic;;;;;
Musawa;Danjanku Ward;;Sabon Layi Health Clinic;;;;;
Musawa;Garu Ward;;Gangara Health Centre;;;;;
Musawa;Garu Ward;;Garu Primary Health Center;;;;;
Musawa;Garu Ward;;Garun Sanyina Health Clinic;;;;;
Musawa;Garu Ward;;Hadaba Health Clinic;;;;;
Musawa;Garu Ward;;Kunturya Health Clinic;;;;;
Musawa;Garu Ward;;Tsuntsaye Health Clinic;;;;;
Musawa;Gingin Ward;;Fampo Health Clinic;;;;;
Musawa;Gingin Ward;;Gingin Health Clinic;;;;;
Musawa;Gingin Ward;;Jangaci Health Clinic;;;;;
Musawa;Gingin Ward;;Katsiro Health Clinic;;;;;
Musawa;Gingin Ward;;Yar Santa Health Clinic;;;;;
Musawa;Gingin Ward;;Yarkirgi Health Clinic;;;;;
Musawa;Jikamshi Ward;;Aduwa Health Clinic;;;;;
Musawa;Jikamshi Ward;;Jikamshi Comprehensive Health Centre;;;;;
Musawa;Kira Ward;;Burkumi Health Clinic;;;;;
Musawa;Kira Ward;;Daurawa Health Clinic;;;;;
Musawa;Kira Ward;;Ganuwa Health Clinic (Musawa);;;;;
Musawa;Kira Ward;;Kira Health Clinic;;;;;
Musawa;Kira Ward;;Yarkanya Health Clinic;;;;;
Musawa;Kurkujan A Ward;;Kurkujan Primary Health Centre;;;;;
Musawa;Kurkujan A Ward;;Rugar Fari Health Clinic;;;;;
Musawa;Kurkujan B Ward;;Bango Health Clinic;;;;;
Musawa;Kurkujan B Ward;;Fulalawa Health Clinic;;;;;
Musawa;Kurkujan B Ward;;Mararraban Musawa Health Clinic;;;;;
Musawa;Kurkujan B Ward;;Yardanya Health Clinic;;;;;
Musawa;Musawa  Ward;;Musawa Family Support Programme Clinic;;;;;
Musawa;Musawa  Ward;;Musawa General Hospital;;;;;
Musawa;Musawa  Ward;;Nsarawa Health Clinic;;;;;
Musawa;Musawa  Ward;;Rugar Kusa Health Clinic;;;;;
Musawa;Tabanni Ward;;Gidan Dukku Health Clinic;;;;;
Musawa;Tabanni Ward;;Gidan Gora Health Clinic;;;;;
Musawa;Tabanni Ward;;Rinjin Samo Health Clinic;;;;;
Musawa;Tabanni Ward;;Sabon Gida Health Clinic;;;;;
Musawa;Tabanni Ward;;Santar Rinji Health Clinic;;;;;
Musawa;Tabanni Ward;;Tabanni Primary Health Center;;;;;
Musawa;Tabanni Ward;;Yarraddau Health Clinic;;;;;
Musawa;Tuge Ward;;Alhazawa Health Clinic;;;;;
Musawa;Tuge Ward;;Karo Health Clinic;;;;;
Musawa;Tuge Ward;;Salihawa Health clinic;;;;;
Musawa;Tuge Ward;;Tsabe Health Clinic;;;;;
Musawa;Tuge Ward;;Tuge Primary Health Centre;;;;;
Musawa;Tuge Ward;;Walki Health Clinic;;;;;
Rimi;Abukur Ward;;Abukur Health Centre;;;;;
Rimi;Abukur Ward;;Tafirdawa Health Center;;;;;
Rimi;Fardami Ward;;Fardami Health Centre;;;;;
Rimi;Fardami Ward;;Makwalla Dispensary (Rimi);;;;;
Rimi;Iyatawa Ward;;Danmusa Dispensary (Rimi);;;;;
Rimi;Iyatawa Ward;;Iyatawa Health Centre;;;;;
Rimi;Iyatawa Ward;;Remawa Health Centre;;;;;
Rimi;Iyatawa Ward;;Yar Nabanye Dispensary;;;;;
Rimi;Iyatawa Ward;;Yargwamna Health Centre;;;;;
Rimi;Kadandani Ward;;Are Dispensary;;;;;
Rimi;Kadandani Ward;;Jikamshin Kadandani Health Center;;;;;
Rimi;Kadandani Ward;;Kadandani Health Centre;;;;;
Rimi;Magama Masabo Kurabau Ward ;;Karare II Health Center;;;;;
Rimi;Magama Masabo Kurabau Ward ;;Kurabau Dispensary;;;;;
Rimi;Magama Masabo Kurabau Ward ;;Magama Dispensary;;;;;
Rimi;Magama Masabo Kurabau Ward ;;Masabo Dispensary;;;;;
Rimi;Magama Masabo Kurabau Ward ;;Rimin Guza Dispensary;;;;;
Rimi;Maje Karare Ward;;Karare I Dispensary;;;;;
Rimi;Maje Karare Ward;;Majen Gobir Health Centre;;;;;
Rimi;Maje Karare Ward;;Yar Kadir Health Center;;;;;
Rimi;Makurda Ward;;Dabganya Health Center;;;;;
Rimi;Makurda Ward;;Makurda Health Centre;;;;;
Rimi;Rimi Unknown Ward;;Karas Rimi Dispensary;;;;;
Rimi;Rimi Ward;;Rimi General Hospital;;;;;
Rimi;Rimi Ward;;Rimi Health Centre;;;;;
Rimi;Sabon Gari Ward;;Allareni Health Centre;;;;;
Rimi;Sabon Gari Ward;;Dagora Health Centre;;;;;
Rimi;Sabon Gari Ward;;Renawa Health Center;;;;;
Rimi;Sabon Gari Ward;;S Garin Goje Health Centre;;;;;
Rimi;Tsagero Ward;;Kanya Health Center;;;;;
Rimi;Tsagero Ward;;Tsagero Health Centre;;;;;
Rimi;Tsagero Ward;;Turaji Health Center;;;;;
Sabuwa;Damari Ward;;Damari Primary Health Centre;;;;;
Sabuwa;Damari Ward;;Gulange Health Clinic;;;;;
Sabuwa;Damari Ward;;Hayin Kasuwa Health Clinic;;;;;
Sabuwa;Damari Ward;;Hayin Tabo Health Clinic;;;;;
Sabuwa;Damari Ward;;Kyaware Health Clinic;;;;;
Sabuwa;Dungun Muazu Ward;;Ung Sarkin Noma H;;;;;
Sabuwa;Dungun Muazu Ward;;Dankolo Health Clinic;;;;;
Sabuwa;Dungun Muazu Ward;;Dungun Muazu Primary Health Centre;;;;;
Sabuwa;Gamji Ward;;Albasu Health Clinic;;;;;
Sabuwa;Gamji Ward;;Gamji Primary Health Centre;;;;;
Sabuwa;Gamji Ward;;Gobirawa Health Clinic;;;;;
Sabuwa;Gamji Ward;;Kanawa Dispensary;;;;;
Sabuwa;Gamji Ward;;U Maigaiya Health Clinic;;;;;
Sabuwa;Gazari Ward;;Gazari Health Clinic;;;;;
Sabuwa;Gazari Ward;;Inono Health Clinic;;;;;
Sabuwa;Gazari Ward;;Jigo Health Clinic;;;;;
Sabuwa;Gazari Ward;;Yarkaka Health Clinic;;;;;
Sabuwa;Machika Ward;;Barkishi Health Clinic;;;;;
Sabuwa;Machika Ward;;M Kindo Health Clinic;;;;;
Sabuwa;Machika Ward;;Machika Primary Health Care;;;;;
Sabuwa;Machika Ward;;Maiganguma Health Clinic;;;;;
Sabuwa;Machika Ward;;Ung Rimi Health Clinic;;;;;
Sabuwa;Machika Ward;;Yarkinda Health Clinic;;;;;
Sabuwa;Maibakko Ward;;Hayin Isau Health Clinic;;;;;
Sabuwa;Maibakko Ward;;Maibakko Health Clinic;;;;;
Sabuwa;Maibakko Ward;;Ung Bako Health Clinic;;;;;
Sabuwa;Maibakko Ward;;Ung Sani Health Clinic;;;;;
Sabuwa;Maibakko Ward;;Yanlagwada Health Clinic;;;;;
Sabuwa;Rafin Iwa Ward;;Rafin Iwa H;;;;;
Sabuwa;Rafin Iwa Ward;;Bandaga Health Clinic;;;;;
Sabuwa;Rafin Iwa Ward;;Labi Health Clinic;;;;;
Sabuwa;Rafin Iwa Ward;;Maichaki Health Clinic;;;;;
Sabuwa;Rafin Iwa Ward;;Ung Tukur Health Clinic;;;;;
Sabuwa;Sabuwa A Ward;;Awala Health Clinic;;;;;
Sabuwa;Sabuwa A Ward;;Sabuwa Comprehensive Health Centre;;;;;
Sabuwa;Sabuwa A Ward;;Sabuwa Mobile Clinic;;;;;
Sabuwa;Sabuwa B Ward;;Mangwarori Health Clinic;;;;;
Sabuwa;Sabuwa B Ward;;Mazare Health Clinic;;;;;
Sabuwa;Sayau Ward;;Dankurmi Health Clinic;;;;;
Sabuwa;Sayau Ward;;Sayau Primary Health Centre;;;;;
Sabuwa;Sayau Ward;;Taura Health Clinic;;;;;
Sabuwa;Sayau Ward;;Ung Nakaba Health Clinic;;;;;
Safana;Babban Duhu A Ward;;Baban Duhu Primary Health Center;;;;;
Safana;Babban Duhu A Ward;;Barebari Dispensary;;;;;
Safana;Babban Duhu A Ward;;Kukar Rabo Health Facility;;;;;
Safana;Babban Duhu A Ward;;Unguwar Jibir Health Facility;;;;;
Safana;Babban Duhu B Ward;;Gamji Health Facility;;;;;
Safana;Babban Duhu B Ward;;Kirtawa health facility;;;;;
Safana;Babban Duhu B Ward;;Kukar Samu Health Centre;;;;;
Safana;Babban Duhu B Ward;;Malaboo Health Facility;;;;;
Safana;Babban Duhu B Ward;;Muniya Dispensary;;;;;
Safana;Baure A Ward;;Baure Dispensary (Safana);;;;;
Safana;Baure A Ward;;Danjukku Health Facility;;;;;
Safana;Baure A Ward;;Garin Waziri Health Facility;;;;;
Safana;Baure A Ward;;Mabirkida Health Facility;;;;;
Safana;Baure A Ward;;Salihar Kalgo Health Post;;;;;
Safana;Baure B Ward;;Garin Tambari Health Facility;;;;;
Safana;Baure B Ward;;Illela Dispensary;;;;;
Safana;Baure B Ward;;Marina Dispensary;;;;;
Safana;Runka A Ward;;Gazurawa Dispensary;;;;;
Safana;Runka A Ward;;Habul Health Facility;;;;;
Safana;Runka A Ward;;Kunkunna Dispensary;;;;;
Safana;Runka A Ward;;Runka Primary Health Centre;;;;;
Safana;Runka B Ward;;Garin Magaji Dispensary;;;;;
Safana;Runka B Ward;;Gora 2 Dispensary;;;;;
Safana;Runka B Ward;;Gurbi Health Facility;;;;;
Safana;Runka B Ward;;Maikada Dispensary;;;;;
Safana;Runka B Ward;;Makanwachi Health Facility;;;;;
Safana;Runka B Ward;;Yarlilo Dispensary;;;;;
Safana;Safana Ward;;Kunamawa Dispensary;;;;;
Safana;Safana Ward;;Mara Primary Health Center;;;;;
Safana;Safana Ward;;Safana Comprehensive Health Centre;;;;;
Safana;Safana Ward;;Safana Family Support Programme Clinic;;;;;
Safana;Safana Ward;;Safana Mobile Clinic;;;;;
Safana;Tsaskiya Ward;;Dagarawa Dispensary;;;;;
Safana;Tsaskiya Ward;;Mammando Dispensary;;;;;
Safana;Tsaskiya Ward;;Tsaskiya Dispensary;;;;;
Safana;Tsaskiya Ward;;Zabuwa Health Facility;;;;;
Safana;Zakka A Ward;;Maje Health Facility;;;;;
Safana;Zakka A Ward;;Zakka Primary Health Centre;;;;;
Safana;Zakka B Ward;;Dan Zaki Health Facility;;;;;
Safana;Zakka B Ward;;Danawo Health Post;;;;;
Safana;Zakka B Ward;;Kauyen Tsamiya Health Post;;;;;
Safana;Zakka B Ward;;Kwayawa Health Facility;;;;;
Safana;Zakka B Ward;;Mahuta Health Facility;;;;;
Safana;Zakka B Ward;;Ummadau Dispensary;;;;;
Sandamu;Daneji A Ward;;Rijiyar Tsamiya North H;;;;;
Sandamu;Daneji A Ward;;Babatawa Health Clinic;;;;;
Sandamu;Daneji A Ward;;Jarkuka Health Centre;;;;;
Sandamu;Daneji A Ward;;Rijiyar Tsamiya MCHC;;;;;
Sandamu;Daneji B Ward;;Kacika Health Clinic;;;;;
Sandamu;Daneji B Ward;;Majiyawa Health Clinic;;;;;
Sandamu;Daneji B Ward;;Ruma Health Centre;;;;;
Sandamu;Daneji B Ward;;Walawa Health Clinic;;;;;
Sandamu;Fago A Ward;;Fago Maternal and Child Health Clinic;;;;;
Sandamu;Fago A Ward;;Fagon Fulani Health Clinic;;;;;
Sandamu;Fago A Ward;;Yaka Wada Health Centre;;;;;
Sandamu;Fago B Ward;;Garin Shagari Health Centre;;;;;
Sandamu;Fago B Ward;;Gazori Health Centre;;;;;
Sandamu;Fago B Ward;;Gumzu Health Clinic;;;;;
Sandamu;Fago B Ward;;Kaibaki Health Clinic;;;;;
Sandamu;Fago B Ward;;Zugai Marternal Child Health Centre;;;;;
Sandamu;Kagare Ward;;Kagare Health Centre;;;;;
Sandamu;Kagare Ward;;Kagaren Fulani Health Centre;;;;;
Sandamu;Kagare Ward;;Kawari Health Clinic;;;;;
Sandamu;Karkarku Ward;;Karkarku Health Centre;;;;;
Sandamu;Karkarku Ward;;Maye Health Clinic;;;;;
Sandamu;Katsayal Ward;;Katsayal Maternal and Child Health Clinic;;;;;
Sandamu;Katsayal Ward;;Katsayal North Health Clinic;;;;;
Sandamu;Kwasarawa Ward;;Dangau Health Clinic;;;;;
Sandamu;Kwasarawa Ward;;Ingawa Health Clinic;;;;;
Sandamu;Kwasarawa Ward;;Kwasarawa Maternal and Child Health Clinic;;;;;
Sandamu;Rade A Ward;;Gundu Health Clinic;;;;;
Sandamu;Rade A Ward;;Kyaru Health Clinic;;;;;
Sandamu;Rade A Ward;;Lemo Health Centre;;;;;
Sandamu;Rade A Ward;;Rade Health Centre;;;;;
Sandamu;Rade A Ward;;Yan Manuwa Health Clinic;;;;;
Sandamu;Rade B Ward;;Gangarawa Health Clinic;;;;;
Sandamu;Rade B Ward;;Jiba Health Clinic;;;;;
Sandamu;Rade B Ward;;Makauraci Health Clinic;;;;;
Sandamu;Rade B Ward;;Ruwan Dutsi MCHC;;;;;
Sandamu;Rade B Ward;;Sabon Garin Burta Health Clinic;;;;;
Sandamu;Sandamu Ward;;Janbagi Health Centre;;;;;
Sandamu;Sandamu Ward;;Lugga Health Centre;;;;;
Sandamu;Sandamu Ward;;Sandamu Comprehensive Health Centre;;;;;
Sandamu;Sandamu Ward;;Sandamu Mobile Clinic;;;;;
Zango;Dargage Ward;;Adunawa Health Post;;;;;
Zango;Dargage Ward;;Barage Dispensary;;;;;
Zango;Dargage Ward;;Dargage Health Clinic;;;;;
Zango;Dargage Ward;;Piwuni Health Clinic;;;;;
Zango;Garni Ward;;Badeke Health Post;;;;;
Zango;Garni Ward;;Dawan Malam Health Clinic;;;;;
Zango;Garni Ward;;Garni Maternal and Child Health Clinic;;;;;
Zango;Garni Ward;;Madaka Health Clinic;;;;;
Zango;Garni Ward;;Makiyawa Health Post;;;;;
Zango;Gwamba Ward;;Gwamba Maternal and Child Health Clinic;;;;;
Zango;Gwamba Ward;;Gwarin Dispensary;;;;;
Zango;Gwamba Ward;;Ung Duma Health Post;;;;;
Zango;K;;Malamai Ward;;;;;
Zango;Kanda Ward;;Kanda Dispensary;;;;;
Zango;Kanda Ward;;Kunture Health Post;;;;;
Zango;Kawarin Kudi Ward;;Bugaje Health Post (Zango);;;;;
Zango;Kawarin Kudi Ward;;Kawarinki Health Clinic;;;;;
Zango;Kawarin Kudi Ward;;Kyaukawa Health Clinic;;;;;
Zango;Kawarin Kudi Ward;;Rahamawa Health Clinic;;;;;
Zango;Rogogo Ward;;Chidari HC;;;;;
Zango;Rogogo Ward;;Rogogo Maternal and Child Health Clinic;;;;;
Zango;Rogogo Ward;;Ung Gaje Health Post;;;;;
Zango;Sara Ward;;Sara Maternal and Child Health Clinic;;;;;
Zango;Yardaje Ward;;Dishe Health Clinic;;;;;
Zango;Yardaje Ward;;Yardaje Maternal and Child Health Clinic;;;;;
Zango;Zango  Ward;;K Kudu Zango Dispensary;;;;;
Zango;Zango  Ward;;Zango Comprehensive Health Centre;;;;;
Zango;Zango  Ward;;Zango Mobile Clinic;;;;;
Zango;Zango  Ward;;Zango Model Primary Health Centre;;;;;
Zango;Malamai Ward;;Bidawa Dispensary;;;;;
Zango;Malamai Ward;;Bidawa Fulani Health Post;;;;;
Zango;Malamai Ward;;Kafan Mallamai Health Clinic;;;;;
