LGA;Ward;Settlement;Facility;Type;Ownership;Address;Longitude;Latitude
Aleiro;Dan Galadima I Ward;;Dan Galadima Dispensary;;;;;
Aleiro;Dan Galadima II Ward;;Gumin Dari Dispensary;;;;;
Aleiro;Dan Galadima II Ward;;Saddam Dispensary;;;;;
Aleiro;Danwarai Ward;;Danwarai Dispensary;;;;;
Aleiro;Jiga Birni Ward;;Gangije Health Clinic;;;;;
Aleiro;Jiga Birni Ward;;Jiga Dispensary;;;;;
Aleiro;Jiga Makera Ward;;Jiga Kambarori Health Clinic;;;;;
Aleiro;Jiga Makera Ward;;Jiga Sala Dispensary;;;;;
Aleiro;Kashin Zama Ward;;Kashin Zama Dispensary;;;;;
Aleiro;Rafin Bauna Ward;;Unguwar Galadima Primary Health Clinic;;;;;
Aleiro;Rafin Bauna Ward;;Unguwar Alu Health Clinic;;;;;
Aleiro;Rafin Bauna Ward;;Rafin Bauna Dispensary;;;;;
Aleiro;Rafin Bauna Ward;;Unguwar Basharu Dispensary;;;;;
Aleiro;Sabiyel Ward;;Sabiyel Dispensary;;;;;
Aleiro;Sabiyel Ward;;Dakalaa Dispensary;;;;;
Aleiro;Sabiyel Ward;;Marmaro Dispensary;;;;;
Aleiro;Sarkin Fada I Ward;;University Clinic;;;;;
Aleiro;Sarkin Fada II Ward;;Dorawai Dispensary;;;;;
Aleiro;Sarkin Fada II Ward;;General Hospital Aliero;;;;;
Aleiro;Sarkin Fada II Ward;;Gumbulu Dispensary;;;;;
Arewa;Bachaka Ward;;Daura Dispensary;;;;;
Arewa;Bachaka Ward;;Bachaka Dispensary;;;;;
Arewa;Bui Ward;;Mamunu Dispensary;;;;;
Arewa;Bui Ward;;Model Primary Health Centre Bui;;;;;
Arewa;Bui Ward;;Tungar Tsoho Health Clinic (MDG);;;;;
Arewa;Bui Ward;;Gigane Dispensary;;;;;
Arewa;Bui Ward;;Taggo Dispensary;;;;;
Arewa;Bui Ward;;Dangongora Dispensary;;;;;
Arewa;Chibike Ward;;Dogon Daji Primary Health Centre;;;;;
Arewa;Chibike Ward;;Farsango Dispensary;;;;;
Arewa;Chibike Ward;;Marake Dispensary;;;;;
Arewa;Chibike Ward;;Chibike Dispensary;;;;;
Arewa;Falde Ward;;Falde Dispensary;;;;;
Arewa;Falde Ward;;Baraya Dispensary;;;;;
Arewa;Feske/Jafeji Ward;;Amagwaro Dispensary;;;;;
Arewa;Feske/Jafeji Ward;;Feske Tudu Dispensary;;;;;
Arewa;Feske/Jafeji Ward;;Ganza Dispensary;;;;;
Arewa;Gorin Dikko Ward;;Sabaru Dispensary;;;;;
Arewa;Gorin Dikko Ward;;Gorun Dikko Dispensary;;;;;
Arewa;Gumudai/R/Tsaka WArd;;Gumundai Dispensary;;;;;
Arewa;Gumudai/R/Tsaka WArd;;Gorun Ango Dispensary;;;;;
Arewa;Gumudai/R/Tsaka WArd;;Rafin Tsaka Upgraded Dispensary;;;;;
Arewa;Gumudai/R/Tsaka WArd;;Gunki Dispensary;;;;;
Arewa;Kangiwa Ward;;Kwalaye Zabarma Dispensary;;;;;
Arewa;Kangiwa Ward;;Ke Kangiwa MAternal & Child Health;;;;;
Arewa;Kangiwa Ward;;Karen Malam Dispensary;;;;;
Arewa;Kangiwa Ward;;Kangiwa Town Dispensary;;;;;
Arewa;Kangiwa Ward;;Kwalaye Hausa Dispensary;;;;;
Arewa;Kangiwa Ward;;Kuri Babba Dispensary;;;;;
Arewa;Kangiwa Ward;;General Hospital Kangiwa;;;;;
Arewa;Leima/Jantullu Ward;;Rimau Dispensary;;;;;
Arewa;Leima/Jantullu Ward;;Leima Dispensary;;;;;
Arewa;Leima/Jantullu Ward;;Madamfara Dispensary;;;;;
Arewa;Leima/Jantullu Ward;;Karen Jantullu Dispensary;;;;;
Arewa;Leima/Jantullu Ward;;Tsamiya Dispensary;;;;;
Arewa;Sarka Ward;;Sarka Dispensary;;;;;
Arewa;Sarka Ward;;Gorun Labbo Dispensary;;;;;
Arewa;Sarka Ward;;Kwakare Dispensary;;;;;
Arewa;Sarka Ward;;Zagabu Dispensary;;;;;
Arewa;Yeldu Ward;;Gandu Wala Dispensary;;;;;
Arewa;Yeldu Ward;;Gwambara Dispensary;;;;;
Arewa;Yeldu Ward;;Yeldu Primary Health Centre;;;;;
Arewa;Yeldu Ward;;Matamkari Dispensary;;;;;
Argungu;Alwasa Ward;;Gotomo Dispensary;;;;;
Argungu;Alwasa Ward;;Umaru Dispensary;;;;;
Argungu;Alwasa Ward;;Tungar Rafin Health Centre;;;;;
Argungu;Alwasa Ward;;Gwabbare Health Facility;;;;;
Argungu;Alwasa Ward;;T/Marina Community Dispensary;;;;;
Argungu;Alwasa Ward;;Alwasa Upgraded Dispensary;;;;;
Argungu;Alwasa Ward;;Dabire Dispensary;;;;;
Argungu;Dikko ward;;Kara Health Centre;;;;;
Argungu;Felende Ward;;Tungar Maidawa Health Centre;;;;;
Argungu;Felende Ward;;U/Maian Hassan Dispensary;;;;;
Argungu;Felende Ward;;Tungar Alkason Health Facility;;;;;
Argungu;Felende Ward;;T/Noma C Dispensary;;;;;
Argungu;Felende Ward;;Jada Health Clinic;;;;;
Argungu;Felende Ward;;Felende Health Facility;;;;;
Argungu;Galadima Ward;;Argungu Town Dispensary;;;;;
Argungu;Gulma Ward;;Gulma Town Dispensary;;;;;
Argungu;Gulma Ward;;Gulma Primary Health Centre;;;;;
Argungu;Gwazange Ward;;Fakon Sarki Dispensary;;;;;
Argungu;Gwazange Ward;;Kamfani Health Post;;;;;
Argungu;Gwazange Ward;;Gijiya Dispensary;;;;;
Argungu;Gwazange Ward;;Bela Health Facilty;;;;;
Argungu;Gwazange Ward;;Wali Health Clinic;;;;;
Argungu;Kokani North Ward;;Sabbon Garin Kanta Dispensary;;;;;
Argungu;Kokani South Ward;;Argungu General Hospital;;;;;
Argungu;Kokani South Ward;;Argungu  G R A Health Clinic;;;;;
Argungu;Kokani South Ward;;Argungu Maternal and Child Health Clinic;;;;;
Argungu;Kokani South Ward;;Argungu Gaskiya Clinic;;;;;
Argungu;Kokani South Ward;;Argungu N R C Health Clinic;;;;;
Argungu;Kokani South Ward;;Argungu C H C ;;;;;
Argungu;Lailaba Ward;;Nastini Health Facility;;;;;
Argungu;Lailaba Ward;;Baguni Health Facility;;;;;
Argungu;Lailaba Ward;;Damba Health Clinic;;;;;
Argungu;Lailaba Ward;;Lailaba Health Facility;;;;;
Argungu;Sauwa Ward;;Birinin Lafiya Health Centre;;;;;
Argungu;Sauwa Ward;;Sauwa Dispensary;;;;;
Argungu;Sauwa Ward;;Dalatu Health Centre;;;;;
Argungu;Sauwa Ward;;K/Sani Upgraded Dispensary;;;;;
Argungu;Sauwa Ward;;Kukadu Health Centre;;;;;
Argungu;Sauwa Ward;;Bangola Health Centre;;;;;
Argungu;Zazzagawa Ward;;Raya Health Post;;;;;
Argungu;Zazzagawa Ward;;Rumbiki Dispensary;;;;;
Argungu;Zazzagawa Ward;;Fakkai Health Centre;;;;;
Argungu;Zazzagawa Ward;;Sarkawa Health Clinic;;;;;
Argungu;Zazzagawa Ward;;Tungar Zazzawa Dispensary;;;;;
Argungu;Zazzagawa Ward;;Tungulawa Health Clinic;;;;;
Argungu;Zazzagawa Ward;;Unguwar Shayau Health Clinic;;;;;
Augie;Augie North;;Augie General Hospital;;;;;
Augie;Augie South Ward;;Augie Maternal and Child Health Clinic;;;;;
Augie;Bagaye/Mera Ward;;Mera Health Facility;;;;;
Augie;Bagaye/Mera Ward;;Bagaye Health Facility;;;;;
Augie;Bayawa North Ward;;Dafashe Health Facility;;;;;
Augie;Bayawa North Ward;;Bayawa Health Facility;;;;;
Augie;Bayawa South Ward;;Sabla Health Facility;;;;;
Augie;Bayawa South Ward;;Jabaki Health Facility;;;;;
Augie;Birnin/Tudu Gudale Ward;;Dannal Primary Health Post ;;;;;
Augie;Birnin/Tudu Gudale Ward;;Gudale Dispensary;;;;;
Augie;Birnin/Tudu Gudale Ward;;Dunne Primary Health Post;;;;;
Augie;Birnin/Tudu Gudale Ward;;Birnin Tudu Health Facility;;;;;
Augie;Birnin/Tudu Gudale Ward;;Gidan Koni Health Clinic;;;;;
Augie;Bubuche Ward;;Bagarawa Health Facility;;;;;
Augie;Bubuche Ward;;Bubche Health Facility;;;;;
Augie;Kwaido/Dundaye Ward;;Tungar Tudu Health Clinic;;;;;
Augie;Kwaido/Dundaye Ward;;Zagi Dispensary;;;;;
Augie;Kwaido/Dundaye Ward;;Kwaido Health Facility;;;;;
Augie;Kwaido/Dundaye Ward;;Matankari Primary Health Centre;;;;;
Augie;Kwaido/Dundaye Ward;;Dundayi Dispensary;;;;;
Augie;Tiggi Ward;;Fadi Samme Health Post;;;;;
Augie;Tiggi Ward;;Awade Dispensary;;;;;
Augie;Tiggi Ward;;Gidan Agoda Dispensary;;;;;
Augie;Tiggi Ward;;Tiggi Health Post;;;;;
Augie;Tiggi Ward;;Lugga Health Post;;;;;
Augie;Tiggi Ward;;Shafarma Maternal and Child Health Clinic;;;;;
Augie;Yola Ward;;Garu Health Clinic;;;;;
Augie;Yola Ward;;Bagura Dispensary;;;;;
Augie;Yola Ward;;Gidan Dabi Health Clinic;;;;;
Augie;Yola Ward;;Illelar Rafi Dispensary;;;;;
Augie;Yola Ward;;Yola Dispensary;;;;;
Augie;Yola Ward;;Shafazane Health Clinic;;;;;
Bagudo;Bagudo Tuga Ward;;Garin Gidi Dispensary;;;;;
Bagudo;Bagudo Tuga Ward;;Bagudo Maternal and Child Health Clinic;;;;;
Bagudo;Bagudo Tuga Ward;;Tuga Dispensary;;;;;
Bagudo;Bagudo Tuga Ward;;Bagudo Primary Health Care;;;;;
Bagudo;Bagudo Tuga Ward;;Tugar Bage Dispensary;;;;;
Bagudo;Bahindikaliel Ward;;Bahindi Dispensary;;;;;
Bagudo;Bahindikaliel Ward;;Kaliyal Basic Health Clinic;;;;;
Bagudo;Bani/Tsamiya Ward;;Sanji Dispensary;;;;;
Bagudo;Bani/Tsamiya Ward;;Tsamiya Dispensary;;;;;
Bagudo;Bani/Tsamiya Ward;;Gidan Zawa Dispensary;;;;;
Bagudo;Bani/Tsamiya Ward;;Sanbe Dispensary;;;;;
Bagudo;Bani/Tsamiya Ward;;Bani Dispensary;;;;;
Bagudo;Illo Sabon  Gari Ward;;Illo Town Dispensary;;;;;
Bagudo;Illo Sabon  Gari Ward;;Illo General Hospital;;;;;
Bagudo;Illo Sabon  Gari Ward;;Geshero Dispensary;;;;;
Bagudo;Illo Sabon  Gari Ward;;Sabon Garin Illo Dispensary;;;;;
Bagudo;Illo Sabon  Gari Ward;;Illo General Hospital;;;;;
Bagudo;Kaoje Gwamba Ward;;Yamusa Dispensary;;;;;
Bagudo;Kaoje Gwamba Ward;;Maje Dispensary;;;;;
Bagudo;Kaoje Gwamba Ward;;Bakin Ruwa Upgraded Dispensary;;;;;
Bagudo;Kaoje Gwamba Ward;;Kaudu Dispensary;;;;;
Bagudo;Kaoje Gwamba Ward;;Gwamba Dispensary;;;;;
Bagudo;Kaoje Gwamba Ward;;Ka'oje General Hospital;;;;;
Bagudo;Kaoje Gwamba Ward;;Gyandane Dispensary;;;;;
Bagudo;Kaoje Gwamba Ward;;Maje Dispensary;;;;;
Bagudo;Kende Kurgu Ward;;Kende Dispensary;;;;;
Bagudo;Kende Kurgu Ward;;Lani Dispensary;;;;;
Bagudo;Lafagu Gante Ward;;Lafagu Dispensary;;;;;
Bagudo;Lafagu Gante Ward;;Ke Gantan Tudu Health Clinic;;;;;
Bagudo;Lafagu Gante Ward;;Gantan Fadama Dispensary;;;;;
Bagudo;Lafagu Gante Ward;;Tungan Lawal Dispensary;;;;;
Bagudo;Lolo Giris Ward;;Tondi Health Clinic;;;;;
Bagudo;Lolo Giris Ward;;Kasati Dispensary;;;;;
Bagudo;Lolo Giris Ward;;Lolo Basic Health Clinic;;;;;
Bagudo;Lolo Giris Ward;;Kazoti Dispensary;;;;;
Bagudo;Matsinkai Geza Ward;;Matsinkai Dispensary;;;;;
Bagudo;Matsinkai Geza Ward;;Geza Dispensary;;;;;
Bagudo;SharabiKonguwai Ward;;Shorabi Dispensary;;;;;
Bagudo;SharabiKonguwai Ward;;Kumbobo Dispensary;;;;;
Bagudo;SharabiKonguwai Ward;;Shara Biyu Dispensary;;;;;
Bagudo;SharabiKonguwai Ward;;Maidahini Dispensary;;;;;
Bagudo;Zagga Kwasara Ward;;Kwasara Dispensary;;;;;
Bagudo;Zagga Kwasara Ward;;Mado Dispensary;;;;;
Bagudo;Zagga Kwasara Ward;;Zagga Primary Health Centre;;;;;
Birnin Kebbi;Ambursa Ward;;Ambursa Health Clinic;;;;;
Birnin Kebbi;Birnin Kebbi Unknown Ward;;Unity Clinic;;;;;
Birnin Kebbi;Birnin Kebbi Unknown Ward;;Birnin Kebbi Police Barracks Clinic;;;;;
Birnin Kebbi;Dangaladima Ward;;Gamagira Health Clinic;;;;;
Birnin Kebbi;Dangaladima Ward;;Illela Yari Health Clinic;;;;;
Birnin Kebbi;Gawasu Damana Ward;;Gawasu Dispensary;;;;;
Birnin Kebbi;Gawasu Damana Ward;;Damana Dispensary;;;;;
Birnin Kebbi;Gawasu Damana Ward;;Akwara Dispesary;;;;;
Birnin Kebbi;Gulumbe Ward;;Gulumbe Health Clinic;;;;;
Birnin Kebbi;GwadonGwaji Ward;;Shagari Quarters Dispensary;;;;;
Birnin Kebbi;GwadonGwaji Ward;;Kawara Dispensary (Birnin Kebbi);;;;;
Birnin Kebbi;GwadonGwaji Ward;;Gwadangwaji Dispensary;;;;;
Birnin Kebbi;Kardi Ward;;Yamama Dispensary;;;;;
Birnin Kebbi;Kardi Ward;;Kardi Dispensary;;;;;
Birnin Kebbi;Kardi Ward;;Matankari Dispensary;;;;;
Birnin Kebbi;Kardi Ward;;Nufawa Dispensary;;;;;
Birnin Kebbi;Kardi Ward;;Harasawa Dispensary;;;;;
Birnin Kebbi;Kola Tarasa Ward;;Kola Dispensary;;;;;
Birnin Kebbi;Kola Tarasa Ward;;Wuro Maliki Dispensary;;;;;
Birnin Kebbi;Kola Tarasa Ward;;Unguwar Kayi Primary Health Centre;;;;;
Birnin Kebbi;Kola Tarasa Ward;;Tarasa Dispensary;;;;;
Birnin Kebbi;Lagga Randali Ward;;Randali Dispensary;;;;;
Birnin Kebbi;Lagga Randali Ward;;Bame Mairuwa Dispensary;;;;;
Birnin Kebbi;Lagga Randali Ward;;Lagga Dispensary;;;;;
Birnin Kebbi;Lagga Randali Ward;;Janzomo Dispensary;;;;;
Birnin Kebbi;Makera Ward;;Danyeku Dispensary;;;;;
Birnin Kebbi;Makera Ward;;Makera Upgraded Dispensary;;;;;
Birnin Kebbi;Marafa Ward;;Takalafiya Basic Health Clinic;;;;;
Birnin Kebbi;Marafa Ward;;Takalau Dispensary;;;;;
Birnin Kebbi;Marafa Ward;;Hafsat Eye Centre;;;;;
Birnin Kebbi;Mauride Karyo Ward;;Kalabani Health Post;;;;;
Birnin Kebbi;Mauride Karyo Ward;;U/Mejin Nana Dispensary;;;;;
Birnin Kebbi;Mauride Karyo Ward;;Mauride Dispensary;;;;;
Birnin Kebbi;Mauride Karyo Ward;;Baban Dutsi Health Post;;;;;
Birnin Kebbi;Mauride Karyo Ward;;Karyo Dispensary;;;;;
Birnin Kebbi;Mauride Karyo Ward;;Gargariyo Health Clinic;;;;;
Birnin Kebbi;Nassarawa I Ward;;Godiya Health Clinic;;;;;
Birnin Kebbi;Nassarawa I Ward;;Fati Lami Clinic;;;;;
Birnin Kebbi;Nassarawa I Ward;;Police Health Clinic;;;;;
Birnin Kebbi;Nassarawa I Ward;;Gesse Clinic;;;;;
Birnin Kebbi;Nassarawa I Ward;;Sir Yahaya Memorial Hospital;;;;;
Birnin Kebbi;Nassarawa I Ward;;Birnin Kebbi VVF Centre;;;;;
Birnin Kebbi;Nassarawa I Ward;;Birnin Kebbi Maternal and Child Health Clinic;;;;;
Birnin Kebbi;Nassarawa I Ward;;Bayan Tasha Dispensary;;;;;
Birnin Kebbi;Nassarawa I Ward;;Gesse VVF Centre;;;;;
Birnin Kebbi;Nassarawa II Ward;;Birnin Kebbi Army Barracks Clinic;;;;;
Birnin Kebbi;Nassarawa II Ward;;Alfa Health Clinic;;;;;
Birnin Kebbi;Nassarawa II Ward;;Mayo Foundation Clinic;;;;;
Birnin Kebbi;Nassarawa II Ward;;Makera Gandu Dispensary;;;;;
Birnin Kebbi;Nassarawa II Ward;;Badaria Clinic;;;;;
Birnin Kebbi;Ujariyo Ward;;Asarara Primary Health Care ;;;;;
Birnin Kebbi;Ujariyo Ward;;Dagera Dispensary;;;;;
Birnin Kebbi;Ujariyo Ward;;Asarara Dispensary;;;;;
Birnin Kebbi;Ujariyo Ward;;Tsamiya Health Clinic;;;;;
Birnin Kebbi;Ujariyo Ward;;Unguwar Kwaire Dispensary;;;;;
Birnin Kebbi;Ujariyo Ward;;Ujariyo Dispensary;;;;;
Birnin Kebbi;Ujariyo Ward;;Junju Dispensary;;;;;
Birnin Kebbi;Zauro Ward;;Zauro Dispensary;;;;;
Bunza;Bunza Marafa;;Bunza Maternal and Child Health Clinic;;;;;
Bunza;Bunza Marafa;;Bunza General Hospital;;;;;
Bunza;Bunza Marafa;;Balu Dispensary;;;;;
Bunza;Dangaladima;;Bunza Primary Health Centre;;;;;
Bunza;Dangaladima;;Wabbaku Dispensary;;;;;
Bunza;Gwade Ward;;Bangalasa Primary Health Centre;;;;;
Bunza;Gwade Ward;;Damana Dispensary;;;;;
Bunza;Gwade Ward;;Waje Dispensary;;;;;
Bunza;Gwade Ward;;Gwade Upgraded Dispensary;;;;;
Bunza;Gwade Ward;;Owa Primary Health Centre ;;;;;
Bunza;Maidahini Ward;;Maidahini Dispensary;;;;;
Bunza;Maidahini Ward;;Garadi Dispensary;;;;;
Bunza;Raha Ward;;Saba Dispensary;;;;;
Bunza;Raha Ward;;Matseri Health Clinic;;;;;
Bunza;Raha Ward;;Tungar lele dispensary;;;;;
Bunza;Raha Ward;;Raha Primary Health Centre;;;;;
Bunza;Sabon Birni Ward;;Shikadu Dispensary;;;;;
Bunza;Sabon Birni Ward;;Sabonbirni Health Clinic;;;;;
Bunza;Sabon Birni Ward;;Loko Dispensary;;;;;
Bunza;Sabon Birni Ward;;Garrafitta Health Clinic;;;;;
Bunza;Salwai Ward;;Salwai Dispensary;;;;;
Bunza;Tilli Ward;;Sabon Gari Tunga Primary Health Centre;;;;;
Bunza;Tilli Ward;;Tilli Upgraded Dispensary;;;;;
Bunza;Tilli Ward;;Afaja Dispensary;;;;;
Bunza;Tilli Ward;;Hilema Dispensary;;;;;
Bunza;Tilli Ward;;Tozo Primary Health Centre  ;;;;;
Bunza;Tunga Ward;;Gwadi Dispensary;;;;;
Bunza;Tunga Ward;;Kahibile Dispensary;;;;;
Bunza;Tunga Ward;;Tungar DanNupe Dispensary;;;;;
Bunza;Zogirma Ward;;Tsamiya Dispensary;;;;;
Bunza;Zogirma Ward;;Zogirma Upgraded Dispensary;;;;;
Bunza;Zogirma Ward;;Guddol Primary Health Centre ;;;;;
Dandi;Bani Zumbu Ward;;Wasali Dispensary;;;;;
Dandi;Bani Zumbu Ward;;Bani Zumbu Dispensary;;;;;
Dandi;Buma Ward;;Buma Primary Health Centre;;;;;
Dandi;Buma Ward;;Tunga Rafi Dispensary;;;;;
Dandi;Buma Ward;;Gamana Dispensary;;;;;
Dandi;Dole Kaina Ward;;Tungan Sule Dispensary;;;;;
Dandi;Dole Kaina Ward;;Dolekaina Dispensary;;;;;
Dandi;Fana Ward;;Tungar Kaka Dispensary;;;;;
Dandi;Fana Ward;;Fana Primary Health Centre;;;;;
Dandi;Fana Ward;;Maidaji Dispensary;;;;;
Dandi;Fana Ward;;Issah Kana Dispensary;;;;;
Dandi;Gezah Ward;;Belin Zumbai Health Clinic;;;;;
Dandi;Gezah Ward;;Geza Dispensary;;;;;
Dandi;Kamba-Kamba Ward;;Kamba Ward;;;;;
Dandi;Kamba-Kamba Ward;;Gorun Bajida Primary Health Centre;;;;;
Dandi;Kamba-Kamba Ward;;Kamba Maternal and Child Health Clinic;;;;;
Dandi;Kamba-Kamba Ward;;Kamba General Hospital;;;;;
Dandi;Kamba-Kamba Ward;;Yamco Health Clinic;;;;;
Dandi;Kamba-Kamba Ward;;Annuri Health Clinic;;;;;
Dandi;Kamba-Kamba Ward;;Kamba Gaskiya Health Clinic;;;;;
Dandi;Kwakwaba Ward;;Kwakwaba Dispensary;;;;;
Dandi;Kyangakwai Ward;;Gorun Yamma Dispensary;;;;;
Dandi;Kyangakwai Ward;;Fingillah Dispensary;;;;;
Dandi;Kyangakwai Ward;;Kengakwai Dispensary;;;;;
Dandi;Maigwaza Ward;;Maigwaza Dispensary;;;;;
Dandi;Shiko Ward;;Rijiyar Maikabi Dispensary;;;;;
Dandi;Shiko Ward;;Shiko Dispensary;;;;;
Danko/Wasagu;Ayu Ward;;Sakawa Dispensary;;;;;
Danko/Wasagu;Ayu Ward;;Unguwan Kibiya Dispensary;;;;;
Danko/Wasagu;Ayu Ward;;Malekachi Primary Health Centre;;;;;
Danko/Wasagu;Ayu Ward;;Ayu Primary Health Centre;;;;;
Danko/Wasagu;Bena Ward;;Bena Health Clinic;;;;;
Danko/Wasagu;Bena Ward;;Malekachi Bena Dispensary;;;;;
Danko/Wasagu;Bena Ward;; keTudunwada Primary Health Centre;;;;;
Danko/Wasagu;Bena Ward;;Bankami Dispensary;;;;;
Danko/Wasagu;Bena Ward;;Bena General Hospital;;;;;
Danko/Wasagu;Danko Maga Ward;;Maga Primary Health Centre;;;;;
Danko/Wasagu;Danko Maga Ward;;Maga Dispensary;;;;;
Danko/Wasagu;Danko Maga Ward;;Danko Primary Health Centre;;;;;
Danko/Wasagu;Danko Maga Ward;;Masama Primary Health Centre;;;;;
Danko/Wasagu;Danko Maga Ward;;G/Hausawa Primary Health Centre;;;;;
Danko/Wasagu;Dan-Umaru Ward;;Yarmaitaba Dispensary;;;;;
Danko/Wasagu;Dan-Umaru Ward;;Ramuna Disp;;;;;
Danko/Wasagu;Dan-Umaru Ward;;Tumburku Primary Health Centre;;;;;
Danko/Wasagu;Dan-Umaru Ward;;Dan Umaru Primary Health Centre;;;;;
Danko/Wasagu;Dan-Umaru Ward;;Mai Rairai Health Clinic;;;;;
Danko/Wasagu;Dan-Umaru Ward;;Danmutari Primary Health Centre;;;;;
Danko/Wasagu;Gwanfi Kele Ward;;Tungan Bizo Dispensary;;;;;
Danko/Wasagu;Gwanfi Kele Ward;;Kele Primary Health Centre;;;;;
Danko/Wasagu;Gwanfi Kele Ward;;Kaksafi Dispensary;;;;;
Danko/Wasagu;Kanya Ward;;Kango Dispensary;;;;;
Danko/Wasagu;Kanya Ward;;Biki Dispensary;;;;;
Danko/Wasagu;Kanya Ward;;Kanya Primary Health Centre;;;;;
Danko/Wasagu;Kanya Ward;;Rade Health Post;;;;;
Danko/Wasagu;Kanya Ward;;Dipindu Dispensary;;;;;
Danko/Wasagu;Kanya Ward;;Bajida Dispensary;;;;;
Danko/Wasagu;Kyabu Kandu Ward;;Kyabo Primary Health Centre;;;;;
Danko/Wasagu;Kyabu Kandu Ward;;Kuntomo Primary Health Centre;;;;;
Danko/Wasagu;Kyabu Kandu Ward;;Dikenge Dispensary;;;;;
Danko/Wasagu;Kyabu Kandu Ward;;Romna Dispensary;;;;;
Danko/Wasagu;Ribah Machika Ward;;Yar Ali Primary Health Centre;;;;;
Danko/Wasagu;Ribah Machika Ward;;Masallaci Dispensary;;;;;
Danko/Wasagu;Ribah Machika Ward;;Dutsen Kwana Primary Health Centre;;;;;
Danko/Wasagu;Ribah Machika Ward;;Makofa Dispensary;;;;;
Danko/Wasagu;Ribah Machika Ward;;Machika Primary Health Centre;;;;;
Danko/Wasagu;Ribah Machika Ward;;Ribah Primary Health Centre;;;;;
Danko/Wasagu;Ribah Machika Ward;;Magami Primary Health Centre;;;;;
Danko/Wasagu;Ribah Machika Ward;;Ribah General Hospital;;;;;
Danko/Wasagu;Ribah Machika Ward;;Nasara Medical Clinic;;;;;
Danko/Wasagu;Ribah Machika Ward;;Ribah  Maternal & Child Health Clinic;;;;;
Danko/Wasagu;Ribah Machika Ward;;Ribah Government Girls Science College Clinic;;;;;
Danko/Wasagu;Ribah Machika Ward;;Ditan Dispensary;;;;;
Danko/Wasagu;Ribah Machika Ward;;Ribah Government Day Secondary School Clinic;;;;;
Danko/Wasagu;Waje Ward;;Waje Dispenasry;;;;;
Danko/Wasagu;Waje Ward;;Yarbuga Dispensary;;;;;
Danko/Wasagu;Waje Ward;;Dankade Primary Health Centre;;;;;
Danko/Wasagu;Waje Ward;;Unashi Primary Health Centre;;;;;
Danko/Wasagu;Waje Ward;;Kurku Dispensary;;;;;
Danko/Wasagu;Waje Ward;;Shangel Primary Health Centre;;;;;
Danko/Wasagu;Waje Ward;;Mawisa Primary Health Centre;;;;;
Danko/Wasagu;Waje Ward;;Wadako Primary Health Centre;;;;;
Danko/Wasagu;Waje Ward;;Warkata Dispensary;;;;;
Danko/Wasagu;Waje Ward;;Kurgiye Dispensary;;;;;
Danko/Wasagu;Waje Ward;;Yar Kuka Primary Health Centre;;;;;
Danko/Wasagu;Waje Ward;;Tungan Gaya Primary Health Centre;;;;;
Danko/Wasagu;Waje Ward;;Zuttu Primary Health Centre;;;;;
Danko/Wasagu;Wasagu Ward;;Dandabi Dispensary;;;;;
Danko/Wasagu;Wasagu Ward;;Wasagu General Hospital;;;;;
Danko/Wasagu;Wasagu Ward;;Dadinkowa Primary Health Centre;;;;;
Danko/Wasagu;Wasagu Ward;;Wasagu Primary Health Centre;;;;;
Danko/Wasagu;Wasagu Ward;;Tudun Bichi Primary Health Centre;;;;;
Danko/Wasagu;Wasagu Ward;;Kurmachi Dispensary;;;;;
Danko/Wasagu;Yalmo/Shindi/ Wari Ward;;Donka Primary Health Centre;;;;;
Danko/Wasagu;Yalmo/Shindi/ Wari Ward;;Koliko Primary Health Centre;;;;;
Fakai;Bajida Ward;;Nomankowa Primary Health Centre;;;;;
Fakai;Bajida Ward;;Bako Primary Health Centre;;;;;
Fakai;Bajida Ward;;Kukum Dispensary;;;;;
Fakai;Bajida Ward;;Bajida Dispensary;;;;;
Fakai;Bajida Ward;;Maikabi Primary Health Centre;;;;;
Fakai;Bangu Ward;;Bangu Dispensary;;;;;
Fakai;Bangu Ward;;Garin Tudu Dispensary;;;;;
Fakai;Bangu Ward;;Garin Isah Primary Health Centre;;;;;
Fakai;Birnin Tudu Ward;;Uchiri Dispensary;;;;;
Fakai;Birnin Tudu Ward;;Buk Primary Health Centre;;;;;
Fakai;Birnin Tudu Ward;;Urgun Primary Health Centre;;;;;
Fakai;Birnin Tudu Ward;;Matseri Dispensary;;;;;
Fakai;Birnin Tudu Ward;;Tungar Yawo Health Clinic;;;;;
Fakai;Fakai Kuka Ward;;Fakai Dispensary;;;;;
Fakai;Fakai Kuka Ward;;Kuka Primary Health Centre;;;;;
Fakai;Fakai Kuka Ward;;Maidanisa Dispensary;;;;;
Fakai;Gulbin Kuka Ward;;Maijahula Primary Health Centre;;;;;
Fakai;Gulbin Kuka Ward;;Sabon Gari Dispensary;;;;;
Fakai;Gulbin Kuka Ward;;Cidawa Primary Health Centre;;;;;
Fakai;Gulbin Kuka Ward;;Gulbin Kuka Dispensary;;;;;
Fakai;Kangi Ward;;Gobiraje Primary Health Centre;;;;;
Fakai;Kangi Ward;;Kangi Dispensary;;;;;
Fakai;Mahuta ward;;Mahuta General Hospital;;;;;
Fakai;Mahuta ward;;Matuta Dispensary;;;;;
Fakai;Mahuta ward;;GGSS Clinic;;;;;
Fakai;Maikende Ward;;Garin Awal Dispensary;;;;;
Fakai;Maikende Ward;;Ba'are Primary Health Centre;;;;;
Fakai;Maikende Ward;;Bulu Shifkau Dispensary;;;;;
Fakai;Maikende Ward;;Maikande Primary Health Centre;;;;;
Fakai;Marafa ward;;Kirgi Primary Health Centre;;;;;
Fakai;Marafa ward;;Dan Indo Primary Health Centre;;;;;
Fakai;Marafa ward;;Marafa Dispensary;;;;;
Fakai;Peni-Peni Ward;;Chikau Primary Health Centre;;;;;
Fakai;Peni-Peni Ward;;Yoko Dispensary;;;;;
Fakai;Peni-Peni Ward;;Farin Ruwa Primary Health Centre;;;;;
Fakai;Peni-Peni Ward;;Aneh Primary Health Centre;;;;;
Gwandu;Cheberu Ward;;Mammawa Dispensary;;;;;
Gwandu;Cheberu Ward;;Magun Health Clinic;;;;;
Gwandu;Cheberu Ward;;Bada Primary Health Cebtre;;;;;
Gwandu;Cheberu Ward;;Amore Dispensary;;;;;
Gwandu;Cheberu Ward;;Gandatobe Health Post;;;;;
Gwandu;Cheberu Ward;;Danjema Health Clinic;;;;;
Gwandu;Cheberu Ward;;Ceberu Health Post;;;;;
Gwandu;Cheberu Ward;;Wariri Dispensary;;;;;
Gwandu;Dalijan Ward;;Warari Zoromawa Health Clinic;;;;;
Gwandu;Dalijan Ward;;Barama Health Post;;;;;
Gwandu;Dalijan Ward;;Gwabare Sakke Health Clinic;;;;;
Gwandu;Dalijan Ward;;Nufawa Health Clinic;;;;;
Gwandu;Dalijan Ward;;Gwabare Dispensary;;;;;
Gwandu;Dalijan Ward;;Dalijan Dispensary;;;;;
Gwandu;Dodoru Ward;;Yole Birnin D Dispensary;;;;;
Gwandu;Dodoru Ward;;Yole Magarawa Health Clinic;;;;;
Gwandu;Dodoru Ward;;Dodoru Dispensary;;;;;
Gwandu;Gulmare Ward;;Tari Dispensary;;;;;
Gwandu;Gulmare Ward;;Gulmare Primary Health Centre;;;;;
Gwandu;Gulmare Ward;;Yole Maimiya Health Clinic;;;;;
Gwandu;Gulmare Ward;;Gitta Noma Primary Health Centre;;;;;
Gwandu;Gulmare Ward;;Madadi Dispensary;;;;;
Gwandu;Gulmare Ward;;Gitta Birni Primary Health Centre;;;;;
Gwandu;Gulmare Ward;;Illela Dispensary;;;;;
Gwandu;Gwandu Dan Galadima Ward;;Gwandu Rural Health Centre;;;;;
Gwandu;Gwandu Dan Galadima Ward;;Gwandu General Hospital;;;;;
Gwandu;Gwandu Marafa Ward;;Women Centre Health Post;;;;;
Gwandu;Kambaza Ward;;Kambaza General Hospital ;;;;;
Gwandu;Kambaza Ward;;Kambaza Fulani Health Clinic;;;;;
Gwandu;Kambaza Ward;;Kambaza Dispensary;;;;;
Gwandu;Malisa Ward;;Dabagi Primary Health Centre;;;;;
Gwandu;Malisa Ward;;Gorar Sullabawa Dispensary;;;;;
Gwandu;Malisa Ward;;Gorar Kwacado Dispensary;;;;;
Gwandu;Malisa Ward;;Malisa Dispensary;;;;;
Gwandu;Maruda Ward;;Gumbai Dispensary;;;;;
Gwandu;Maruda Ward;;Maruda Dispensary;;;;;
Gwandu;Maruda Ward;;Naman Goma Dispensary;;;;;
Gwandu;Maruda Ward;;Kurya Health Clinic;;;;;
Gwandu;Maruda Ward;;Rugardawa Health Post;;;;;
Gwandu;Masama Ward;;Masama Dispensary;;;;;
Gwandu;Masama Ward;;Kwasgara Primary Health Centre;;;;;
Jega;Alelu Ward;;Aleyu Dispensary;;;;;
Jega;Alelu Ward;;Jadadi Dispensary;;;;;
Jega;Alelu Ward;;Gehuru Dispensary;;;;;
Jega;Dongamaji Ward;;Dan Gamji Dispensary;;;;;
Jega;Dongamaji Ward;;Uguwar Madi Dispensary;;;;;
Jega;Dongamaji Ward;;Dudduke Health Clinic;;;;;
Jega;Dongamaji Ward;;Akalawa Dispensary;;;;;
Jega;Dunbegu Ward;;Dunbegu Dispensary;;;;;
Jega;Dunbegu Ward;;Unguwar Garji Primary Health Centre;;;;;
Jega;Dunbegu Ward;;Bara Dispensary;;;;;
Jega;Dunbegu Ward;;Basaura Dispensary;;;;;
Jega;Fircin Ward;;Town Council Primary Health Centre;;;;;
Jega;Fircin Ward;;Tungar Zabarmawa Health Clinic;;;;;
Jega;Ginidi/Kyarmi Ward;;Galbi Dispensary;;;;;
Jega;Ginidi/Kyarmi Ward;;Kyarmi Health Clinic;;;;;
Jega;Ginidi/Kyarmi Ward;;GRA Primary Health Centre;;;;;
Jega;Ginidi/Kyarmi Ward;;Gindi Dispensary;;;;;
Jega;Ginidi/Kyarmi Ward;;Nasarawa Dispensary;;;;;
Jega;Jandutsi Ward;;Jandutsi Dispensary;;;;;
Jega;Jandutsi Ward;;Barnin Mallan Dispensary;;;;;
Jega;Jandutsi Ward;;Agwada Dispensary;;;;;
Jega;Jega Unknown Ward;;Kulon Koji Primary Health Centre;;;;;
Jega;Katanga Ward;;Fagada Dispensary;;;;;
Jega;Katanga Ward;;Katanga Dispensary;;;;;
Jega;Kimba Ward;;Ingarje Dispensary;;;;;
Jega;Kimba Ward;;Kuntane Dispensary;;;;;
Jega;Kimba Ward;;Kimba Dispensary;;;;;
Jega;Magaji A Ward;;Birnin Yari Primary Health Centre;;;;;
Jega;Magaji A Ward;;Birnin Yari Dispensary;;;;;
Jega;Magaji B Ward;;Jega General Hospital;;;;;
Jega;Magaji B Ward;;Tudun Wada Primary Health Centre;;;;;
Kalgo;Dangoma/Gayi Ward;;Dan Goma Health Clinic;;;;;
Kalgo;Dangoma/Gayi Ward;;Gayi Health Clinic;;;;;
Kalgo;Dangoma/Gayi Ward;;Tungan Noma Primary Health Clinic;;;;;
Kalgo;Diggi Ward;;Diggi Upgraded Dispensary;;;;;
Kalgo;Etene Ward;;Gangare Health Clinic;;;;;
Kalgo;Etene Ward;;Keta Hausawa Health Clinic;;;;;
Kalgo;Etene Ward;;Etene Health Clinic;;;;;
Kalgo;Hirishi/ Magarza Ward;;Magarza Clinic;;;;;
Kalgo;Hirishi/ Magarza Ward;;Biri Health Clinic;;;;;
Kalgo;Hirishi/ Magarza Ward;;Hirishi Health Clinic;;;;;
Kalgo;Kalgo Ward;;Kalgo Maternal and Child Health Clinic;;;;;
Kalgo;Kalgo Ward;;Unguwar Dikko Health Clinic;;;;;
Kalgo;Kalgo Ward;;Amanawa Clinic;;;;;
Kalgo;Kalgo Ward;;Unguwar Jeji Health Clinic;;;;;
Kalgo;Kukah Ward;;Sabana Health Clinic;;;;;
Kalgo;Kukah Ward;;Galaru Health Clinic;;;;;
Kalgo;Kukah Ward;;Kokani Health Clinic;;;;;
Kalgo;Kukah Ward;;Unguwar Kwalle Health Clinic;;;;;
Kalgo;Kukah Ward;;Kuka Upgraded Dispensary;;;;;
Kalgo;Muntubari Ward;;Ban Ganna Health Clinic;;;;;
Kalgo;Muntubari Ward;;Mutubari Health Clinic;;;;;
Kalgo;Nayelwa Ward;;Unguwar Rafi Health Clinic;;;;;
Kalgo;Nayelwa Ward;;Unguwar Maiyaki Health Clinic;;;;;
Kalgo;Nayelwa Ward;;Sandare Health Clinic;;;;;
Kalgo;Nayelwa Ward;;Kutu Kullu Health Clinic;;;;;
Kalgo;Nayelwa Ward;;Nayilwa Health Clinic;;;;;
Kalgo;Wurogauri Ward;;Wuro Gauri Health Clinic;;;;;
Kalgo;Zuguru Ward;;Zuguru Health Clinic;;;;;
Koko/Besse;Besse Ward;;Tudun Bude Dispensary;;;;;
Koko/Besse;Besse Ward;;Alheri Clinic;;;;;
Koko/Besse;Besse Ward;;Besse Maternal and Child Health Clinic;;;;;
Koko/Besse;Dada Ward;;Dada Dispensary;;;;;
Koko/Besse;Dada Ward;;T/Illo Primary Health Centre ;;;;;
Koko/Besse;Dada Ward;;Alelu Primary Health Centre;;;;;
Koko/Besse;Dutsinmari ward;;Samanaji Dispensary;;;;;
Koko/Besse;Dutsinmari ward;;Buma Primary Health Centre;;;;;
Koko/Besse;Dutsinmari ward;;Tulmeru Dispensary;;;;;
Koko/Besse;Dutsinmari ward;;Maikwari Primary Health Centre;;;;;
Koko/Besse;Dutsinmari ward;;Dutsin Mari Clinic;;;;;
Koko/Besse;Hirini Ward;;Hirini Dispensary;;;;;
Koko/Besse;Hirini Ward;;Madacci Primary Health Centre;;;;;
Koko/Besse;Hirini Ward;;Sakka Dispensary;;;;;
Koko/Besse;Illela Sabon Gari Ward;;Dan Dashe Primary Health Centre;;;;;
Koko/Besse;Illela Sabon Gari Ward;;Tungar Dodo Dispensary;;;;;
Koko/Besse;Jadadi Ward;;Dan Niki Dispensary;;;;;
Koko/Besse;Jadadi Ward;;Jadadi Maternal and Child Health Clinic;;;;;
Koko/Besse;Karamar Damba Ward;;Bakoshi Dispensary;;;;;
Koko/Besse;Karamar Damba Ward;;Karama Danba Dispensary;;;;;
Koko/Besse;Karamar Damba Ward;;Maikwari Primary Health Centre;;;;;
Koko/Besse;Koko/Magaji Ward;;Koko Maternal and Child Health Clinic;;;;;
Koko/Besse;Koko/Magaji Ward;;Koko General Hospital;;;;;
Koko/Besse;Lani Ward;;Lani Health Clinic;;;;;
Koko/Besse;Lani Ward;;Manyan Tafukka Dispensary;;;;;
Koko/Besse;Takware Ward;;Takwaren Kambari Dispensary;;;;;
Koko/Besse;Takware Ward;;Rafin Alhaji Primary Health Centre;;;;;
Koko/Besse;Takware Ward;;Tungan Magaji Health Clinic;;;;;
Koko/Besse;Zaria Ward;;Zaria Kalakala Maternal and Child Health Clinic;;;;;
Maiyama;Andarai Ward;;Arausaya Dispensary;;;;;
Maiyama;Andarai Ward;;Zugu Dispensary;;;;;
Maiyama;Andarai Ward;;Andarai Dispensary;;;;;
Maiyama;Andarai Ward;;Kurun Kudu Dispensary;;;;;
Maiyama;G/Kure Ward;;Gamjeji Dispensary;;;;;
Maiyama;G/Kure Ward;;Gumbin Kure Dispensary;;;;;
Maiyama;G/Tazo Ward;;Giwatazo Dispensary;;;;;
Maiyama;G/Tazo Ward;;Zara Dispensary;;;;;
Maiyama;G/Tazo Ward;;Kurya Health Post;;;;;
Maiyama;Gidiga Ward;;Kuberi Dispensary;;;;;
Maiyama;Gidiga Ward;;Gidiga Dispensary;;;;;
Maiyama;Karaye Ward;;Dogondaji Dispensary;;;;;
Maiyama;Karaye Ward;;Karaye Dispensary;;;;;
Maiyama;Kawara Ward;;Kamba Dispensary;;;;;
Maiyama;Kawara Ward;;Ruwan Fiu Dispensary;;;;;
Maiyama;Kawara Ward;;Sabon Sara Dispensary;;;;;
Maiyama;Kawara Ward;;Kawara Dispensary (Maiyama);;;;;
Maiyama;Liba Ward;;Dadin Kowa Dispensary;;;;;
Maiyama;Liba Ward;;Danwa Dispensary;;;;;
Maiyama;Liba Ward;;Liba Dispensary;;;;;
Maiyama;Liba Ward;;Sagwarada Primary Health Centre;;;;;
Maiyama;Liba Ward;;Aida (MDG) Health Clinic;;;;;
Maiyama;Maiyama Ward;;Maiyama General Hospital;;;;;
Maiyama;Maiyama Ward;;Maiyama Maternal and Child Health Clinic;;;;;
Maiyama;Mungadi Ward;;Mungadi Dispensary;;;;;
Maiyama;Mungadi Ward;;Mungadi Maternal and Child Health Clinic;;;;;
Maiyama;Mungadi Ward;;Rafin Na Gidan Dispensary;;;;;
Maiyama;Mungadi Ward;;Botoro Dispensary;;;;;
Maiyama;S/Dosa Ward;;Hulkui Dispensary;;;;;
Maiyama;S/Dosa Ward;;Gubba Dispensary;;;;;
Maiyama;S/Dosa Ward;;Saran Dosa Dispensary;;;;;
Maiyama;S/Dosa Ward;;Achikaratu Health Clinic;;;;;
Maiyama;S/Mayalo Ward;;Kangwa Dispensary;;;;;
Maiyama;S/Mayalo Ward;;Mayalo Upgraded Dispensary;;;;;
Maiyama;S/Mayalo Ward;;Sambawa Primary Health Centre;;;;;
Ngaski;Birnin Yauri Ward;;Laka Health Post;;;;;
Ngaski;Birnin Yauri Ward;;Maikaho Health Post;;;;;
Ngaski;Birnin Yauri Ward;;Birnin Yauri Primary Health Centre;;;;;
Ngaski;Birnin Yauri Ward;;Tungwani Health Post;;;;;
Ngaski;Gafara Ward;;Masamale Dispensary;;;;;
Ngaski;Gafara Ward;;Gidan Kwano Primary Health Centre;;;;;
Ngaski;Gafara Ward;;Ra Ishi Dispensary;;;;;
Ngaski;Gafara Ward;;Wawu Dispensary;;;;;
Ngaski;Gafara Ward;;Ntade Health Post;;;;;
Ngaski;Gafara Ward;;Lopa Primary Health Centre;;;;;
Ngaski;Gafara Ward;;Gafara Dispensary;;;;;
Ngaski;Garin Baka Ward;;Makirin Primary Health Centre;;;;;
Ngaski;Garin Baka Ward;;Rikwahe Dispensary;;;;;
Ngaski;Garin Baka Ward;;Garin Baka Dispensary;;;;;
Ngaski;Garin Baka Ward;;Gwarzo Health Post;;;;;
Ngaski;Kambuwa Ward;;Tungan Kolo Dispensary;;;;;
Ngaski;Kambuwa Ward;;Dan Maraya Dispensary;;;;;
Ngaski;Kambuwa Ward;;Kambuwa  Primary Health Centre;;;;;
Ngaski;Kambuwa Ward;;Kwaliyo Dispensary;;;;;
Ngaski;Kambuwa Ward;;Kimo Dispensary;;;;;
Ngaski;Kwakwaran Ward;;Gungun Tagwaye Dispensary;;;;;
Ngaski;Kwakwaran Ward;;Chupamini Dispensary;;;;;
Ngaski;Libata Ward;;Libata  Primary Health Centre;;;;;
Ngaski;Libata Ward;;Lokon Uba Dispensary;;;;;
Ngaski;Libata Ward;;Kabirba Dispensary;;;;;
Ngaski;Libata Ward;;Kwasharo Dispensary;;;;;
Ngaski;Makawa Ward;;Ulaira Dispensary;;;;;
Ngaski;Makawa Ward;;Guguwa Health Post;;;;;
Ngaski;Ngaski Ward;;Mararaban Koso Dispensary;;;;;
Ngaski;Ngaski Ward;;Tungan Hala Dispensary;;;;;
Ngaski;Ngaski Ward;;Ngaski Basic Health Clinic;;;;;
Ngaski;Ngaski Ward;;Makurdi Dispensary;;;;;
Ngaski;Ngaski Ward;;Kinkya Dispensary;;;;;
Ngaski;Utono Ward;;Gungun Hoge Dispensary;;;;;
Ngaski;Utono Ward;;Utono Dispensary;;;;;
Ngaski;Wara Ward;;Warra General Hospital;;;;;
Ngaski;Wara Ward;;Wara Town Dispensary;;;;;
Ngaski;Wara Ward;;Warra Maternal and Child Health Clinic;;;;;
Sakaba;Adai Ward;;Mahuta Health Clinic;;;;;
Sakaba;Adai Ward;;Maee Health Clinic;;;;;
Sakaba;Adai Ward;;Pampama Health Clinic;;;;;
Sakaba;Adai Ward;;Maganda Dispensary;;;;;
Sakaba;Dankolo Ward;;Dankolo Primary Health Centre;;;;;
Sakaba;Dankolo Ward;;Daura Primary Health Centre;;;;;
Sakaba;Dankolo Ward;;Agali Health Clinic;;;;;
Sakaba;Doka Bere Ward;;Dokar Hausawa Dispensary;;;;;
Sakaba;Doka Bere Ward;;Tunga Baure Dispensary;;;;;
Sakaba;Doka Bere Ward;;Unguwar Marafa Health Clinic;;;;;
Sakaba;Doka Bere Ward;;Tungar Shibo Health Clinic;;;;;
Sakaba;Fada Ward;;Dirin Daji Maternal and Child Health Clinic;;;;;
Sakaba;Fada Ward;;DirinDaji General Hospital;;;;;
Sakaba;Gelwasa Ward;;Tudun Wada Primary Health Centre;;;;;
Sakaba;Gelwasa Ward;;Gelwasa Health Clinic;;;;;
Sakaba;Jan Birni Ward;;Janbirni Dispensary;;;;;
Sakaba;Jan Birni Ward;;Laraba Primary Health Centre;;;;;
Sakaba;Makuku Ward;;Dokar  Kambari Dispensary;;;;;
Sakaba;Makuku Ward;;Ikobi Primary Health Centre;;;;;
Sakaba;Makuku Ward;;Babira Health Clinic;;;;;
Sakaba;Makuku Ward;;Makuku Dispensary;;;;;
Sakaba;Maza Maza Ward;;Skoka Dispensary;;;;;
Sakaba;Maza Maza Ward;;Rafin Gora Dispensary;;;;;
Sakaba;Maza Maza Ward;;Kageta Health Clinic;;;;;
Sakaba;Maza Maza Ward;;Mazamaza Dispensary;;;;;
Sakaba;Sakaba Ward;;Sakaba Dispensary;;;;;
Sakaba;Sakaba Ward;;Mazakko Dispensary;;;;;
Sakaba;Sakaba Ward;;Madi Health Clinic;;;;;
Sakaba;Sakaba Ward;;Kadanho Health Clinic;;;;;
Sakaba;Tudun Kuka Ward;;Tudun Kuka Maternal & Child Health Clinic;;;;;
Shanga;Atuwo Ward;;Atuwo Dispensary;;;;;
Shanga;Atuwo Ward;;Kyastu Dispensary;;;;;
Shanga;Dugu-Tsoho Ward;;Dugu Raha Dispensary;;;;;
Shanga;Dugu-Tsoho Ward;;T/Tsamiya Dispensary;;;;;
Shanga;Dugu-Tsoho Ward;;Dugu Tsoho Dispensary;;;;;
Shanga;Gebbe Ward;;Binuwa Dispensary;;;;;
Shanga;Gebbe Ward;;Tsamiya Health Post;;;;;
Shanga;Gebbe Ward;;Bukunji Dispensary;;;;;
Shanga;Gebbe Ward;;Shabanda Dispensary;;;;;
Shanga;Gebbe Ward;;Gebbe Dispensary;;;;;
Shanga;Kawara ward;;Sargo Dispensary;;;;;
Shanga;Kawara ward;;Kawara Dispensary (Shanga);;;;;
Shanga;Kawara ward;;Kwanji Dispensary;;;;;
Shanga;Kawara ward;;Inugu Health Post;;;;;
Shanga;Rafin Kirya Ward;;Rafin Kirya Dispensary;;;;;
Shanga;Rafin Kirya Ward;;Takki Tara Dispensary;;;;;
Shanga;Rafin Kirya Ward;;Keri Health Post;;;;;
Shanga;Sakace Ward;;Sakale Dispensary;;;;;
Shanga;Sakace Ward;;Hundeji Dispensary;;;;;
Shanga;Sakace Ward;;Bakinturu Dispensary;;;;;
Shanga;Sakace Ward;;Toro Health Post;;;;;
Shanga;Sakace Ward;;Golongo Health Post;;;;;
Shanga;Sakace Ward;;Wadata Health Post;;;;;
Shanga;Sawashi Ward;;Kyassan Dispensary;;;;;
Shanga;Sawashi Ward;;Sawashi Dispensary;;;;;
Shanga;Sawashi Ward;;Garon Masa Dispensary;;;;;
Shanga;Sawashi Ward;;Nanarawa Health Post;;;;;
Shanga;Shanga Ward;;Shanga Dispensary;;;;;
Shanga;Shanga Ward;;Kubai Dispensary;;;;;
Shanga;Shanga Ward;;Shanga Maternal and Child Health Clinic;;;;;
Shanga;Shanga Ward;;Ganwo Dispensary;;;;;
Shanga;Shanga Ward;;Shanga General Hospital;;;;;
Shanga;Shanga Ward;;Saminaka (T/Fana)Primary Health Centre;;;;;
Shanga;Takware Ward;;Takware Dispensary;;;;;
Shanga;Takware Ward;;Tungan Noma Health Clinic;;;;;
Shanga;Takware Ward;;Tungan Giwa Dispensary;;;;;
Shanga;Yar Besse Ward;;Yarbesse Dispensary;;;;;
Suru;Aljannare Ward;;Aljannare Dispensary;;;;;
Suru;Aljannare Ward;;Tungar Alhaji Dispensary;;;;;
Suru;Bakuwai Ward;;Bakwai Dispensary;;;;;
Suru;Bakuwai Ward;;Kainiki Health Clinic;;;;;
Suru;Bakuwai Ward;;Yarma Dispensary;;;;;
Suru;Bakuwai Ward;;Kwakware Dispensary;;;;;
Suru;Bandam Ward;;Tundifai Dispensary;;;;;
Suru;Bandam Ward;;Zakuwa Dispensary;;;;;
Suru;Bandam Ward;;Banda Dispensary;;;;;
Suru;Bandam Ward;;Gawasa Dispensary;;;;;
Suru;Barbarejo Ward;;Barharejo Dispensary;;;;;
Suru;Barbarejo Ward;;Tungar Arawa Dispensary;;;;;
Suru;Barbarejo Ward;;Fawa Sabo Dispensary;;;;;
Suru;Dakin Gari Ward;;Dakingari Federal Medical Centre;;;;;
Suru;Dakin Gari Ward;;Dakin Gari RHC Clinic;;;;;
Suru;Dakin Gari Ward;;Bendu Dispensary;;;;;
Suru;Dandane Ward;;Hore Dispensary;;;;;
Suru;Dandane Ward;;Maikwari Dispensary;;;;;
Suru;Dandane Ward;;Dandane Dispensary;;;;;
Suru;Ginga Ward;;Sangelu Dispensary;;;;;
Suru;Ginga Ward;;Daniya Health Clinic;;;;;
Suru;Ginga Ward;;Kankure Primary Health Centre;;;;;
Suru;Ginga Ward;;Ginga Health Clinic;;;;;
Suru;Giro Ward;;Fala Health Clinic;;;;;
Suru;Giro Ward;;Giro Dispensary;;;;;
Suru;Kwaifa Ward;;Matankari Dispensary;;;;;
Suru;Kwaifa Ward;;Kwaifa Dispensary;;;;;
Suru;Kwaifa Ward;;Dandawa Dispensary;;;;;
Suru;Shema Ward;;Shema Dispensary;;;;;
Suru;Suru Ward;;Kawara Dispensary;;;;;
Suru;Suru Ward;;Katu Dispensary;;;;;
Suru;Suru Ward;;Suru Dispensary;;;;;
Suru;Suru Ward;;Suru General Hospital;;;;;
Suru;Suru Ward;;Bumare Dispensary;;;;;
Yauri;Chulu Koma Ward;;Unguwan Makera Health Clinic;;;;;
Yauri;Chulu Koma Ward;;Gumbi Dispensary;;;;;
Yauri;Gungun Sarki Ward;;Hinambiru Dispensary;;;;;
Yauri;Gungun Sarki Ward;;Rukubalo PHC;;;;;
Yauri;Jijima Ward;;Maishagali Dispensary;;;;;
Yauri;Jijima Ward;;Jijima Dispensary;;;;;
Yauri;Tondi ward;;Tondi Gada Clinic;;;;;
Yauri;Tondi ward;;Bunzawa Health Post;;;;;
Yauri;Tondi ward;;Tondi Tsamiya Health Post;;;;;
Yauri;Tondi ward;;Gungun Sakache Health Clinic;;;;;
Yauri;Tondi ward;;Tilo 1 Dispensary;;;;;
Yauri;Yalwa East Ward;;Unguwan Mallamai Health Clinic;;;;;
Yauri;Yelwa Central Ward;;Yauri Family Support Programme Clinic;;;;;
Yauri;Yelwa North Ward;;Tungan Bindiga Health Clinic;;;;;
Yauri;Yelwa North Ward;;Yauri Maternal and Child Health Clinic;;;;;
Yauri;Yelwa North Ward;;Yauri General Hospital;;;;;
Yauri;Yelwa West Ward;;Illela Yauri Clinic;;;;;
Yauri;Zamare Ward;;Jalbabu Primary Health Centre;;;;;
Yauri;Zamare Ward;;Zamare Model Primary Health Centre;;;;;
Yauri;Zamare Ward;;Tungan Damisa Dispensary;;;;;
Yauri;Zamare Ward;;Hibirabu Dispensary;;;;;
Zuru;Bedi Ward;;Bedi South Primary Health Centre;;;;;
Zuru;Bedi Ward;;Domo A Primary Health Centre;;;;;
Zuru;Bedi Ward;;Bedi Dispensary;;;;;
Zuru;Bedi Ward;;Umama Gamji Primary Health Centre;;;;;
Zuru;Dabai Seme Ward;;Usimoh Dispensary;;;;;
Zuru;Dabai Seme Ward;;Deherge Primary Health Centre;;;;;
Zuru;Dabai Seme Ward;;Uzugu Health Clinic;;;;;
Zuru;Dabai Seme Ward;;Ukuri Dispensary;;;;;
Zuru;Giroman Dabai Ward;;Kwendo Primary Health Centre;;;;;
Zuru;Giroman Dabai Ward;;Kezge Health Clinic;;;;;
Zuru;Giroman Dabai Ward;;Dabai Primary Health Centre;;;;;
Zuru;Giroman Dabai Ward;;Sabon Garin Dabai Health Clinic;;;;;
Zuru;Giroman Dabai Ward;;Unguwan Galadima Primary Health Centre;;;;;
Zuru;Isgogo Dago Ward;;Daggo Dispensary;;;;;
Zuru;Isgogo Dago Ward;;Isgogo (Tuta) Health Clinic;;;;;
Zuru;Manga Ushe Ward;;Amanawa Primary Health Centre;;;;;
Zuru;Manga Ushe Ward;;Zagne Primary Health Centre;;;;;
Zuru;Manga Ushe Ward;;Elambelu Dispensary;;;;;
Zuru;Manga Ushe Ward;;Magoro Dispensary;;;;;
Zuru;Manga Ushe Ward;;Rioseme Health Clinic;;;;;
Zuru;Rafin Zuru Ward;;Martha Bamaiyi General Hospital;;;;;
Zuru;Rafin Zuru Ward;;Zuru Town Dispensary;;;;;
Zuru;Rikoto Ward;;Rikolto Dispensary;;;;;
Zuru;Senchi Ward;;Senchi Dispensary;;;;;
Zuru;Senchi Ward;;Bahago Dispensary;;;;;
Zuru;Senchi Ward;;Bamaiyi Sunduh General Hospital;;;;;
Zuru;Tadurga Ward;;Maikoro Dispensary;;;;;
Zuru;Tadurga Ward;;Tadurga Primary Health Centre;;;;;
Zuru;Zodi Ward;;Zodi Dispensary;;;;;
Zuru;Zodi Ward;;Rafin Hinta Primary Health Centre;;;;;
