LGA;Ward;Settlement;Facility;Type;Ownership;Address;Longitude;Latitude
Asa;Aboto-Odo-Ode Ward;;Aboto Oja Maternity and Dispensary;;;;;
Asa;Aboto-Odo-Ode Ward;;Odoode Dispensary;;;;;
Asa;Afon Ward;;Igboroko  Cottage Hospital;;;;;
Asa;Afon Ward;;Afon District Health Unit Clinic;;;;;
Asa;Afon Ward;;Afon General Hospital;;;;;
Asa;Agbona / Elebue Fata Ward;;Elubue Health Clinic;;;;;
Asa;Agbona / Elebue Fata Ward;;Budo-Tuntun Primary Health centre;;;;;
Asa;Agbona / Elebue Fata Ward;;Agbona Primary Health Centre;;;;;
Asa;Alapa / Onire/Odegiwa Ward;;Alapa Maternity  and Dispensary;;;;;
Asa;Alapa / Onire/Odegiwa Ward;;Onikeke Health Clinic;;;;;
Asa;Awe / Orimaro Ward;;Afo - Oja Primary Health Care ;;;;;
Asa;Awe / Orimaro Ward;;Awe Primary Health Centre;;;;;
Asa;Budo Egba Ward;;Olusola Saraki Cottage Hospital;;;;;
Asa;Efue / Berikodi Ward;;Efue Primary Health Centre;;;;;
Asa;Gambari / Ayekale Ward;;Bukola Saraki Primary Health Centre;;;;;
Asa;Ila - Oja Ward;;Olomoda Dispensary;;;;;
Asa;Ila - Oja Ward;;Igbo Aran Maternity and Dispensary;;;;;
Asa;Ila - Oja Ward;;Sapati Oko Maternity and Dispensary;;;;;
Asa;Ila - Oja Ward;;Aboto Alfa Maternity and Dspensary;;;;;
Asa;Ila - Oja Ward;;Ajagusi Primary Health Centre;;;;;
Asa;Laduba Ward;;Ago Oja Maternity and Dispensary;;;;;
Asa;Laduba Ward;; Laduba Primary Health Centre;;;;;
Asa;Laduba Ward;;Spati ile Health Facility;;;;;
Asa;Ogbondoroko Ward;;Ogbodoroko Reke Health Facility;;;;;
Asa;Ogele Ward;;Ogele Dispensary;;;;;
Asa;Ogele Ward;;Pampo Haelth Facility;;;;;
Asa;Okeso/Afeyin Ward;;Okeso Health Clinic;;;;;
Asa;Okeweru / Yowere II Ward ;;Bakase Health Clinic;;;;;
Asa;Otte / Balla Ward;;Balla Dispensary;;;;;
Asa;Otte / Balla Ward;;Eyenkorin Dispensary;;;;;
Asa;Otte / Balla Ward;;Lasoju Health Clinic;;;;;
Asa;Otte / Balla Ward;;Akopari Comprehensive Health Centre;;;;;
Asa;Otte / Balla Ward;;Otte Comprehensive Health Centre;;;;;
Asa;Sosoki / Yowere I Ward;;Yowere Dispensary;;;;;
Baruten;Bode/Babane Ward;;Gukombu L. G. Clinic ;;;;;
Baruten;Bode/Babane Ward;;Bode LG Clinic;;;;;
Baruten;Boriya/Shiya Ward;;Shiya LG Health Clinic;;;;;
Baruten;Boriya/Shiya Ward;;Kpaluru LG Clinic;;;;;
Baruten;Bwen/Kiyoru Ward;;Gbabe LG Clinic;;;;;
Baruten;Bwen/Kiyoru Ward;;Budo Aiki Health Clinic;;;;;
Baruten;Bwen/Kiyoru Ward;;Dameru L. G. Clinic;;;;;
Baruten;Bwen/Kiyoru Ward;;Biogberu Health Clinic;;;;;
Baruten;Bwen/Kiyoru Ward;;Kw Bwen L G Clinic;;;;;
Baruten;Gure/Giwasoro Ward;;Gwane LG Health Clinic;;;;;
Baruten;Gure/Giwasoro Ward;;Tinuboye Memorial Clinic, Gwassoro;;;;;
Baruten;Gure/Giwasoro Ward;;Gure Model Primary Health Centre;;;;;
Baruten;Gure/Giwasoro Ward;;An - Nusra Hospital, Yarin;;;;;
Baruten;Gure/Giwasoro Ward;;Kosubosu LG Clinic;;;;;
Baruten;Gure/Giwasoro Ward;;Tuka LG Health Clinic;;;;;
Baruten;Gure/Giwasoro Ward;;Kosubosu  L G Maternity ;;;;;
Baruten;Gure/Giwasoro Ward;;Moshigbofa LG Health Clinic;;;;;
Baruten;Gure/Giwasoro Ward;;Hawa Memorial Clinic & Mat.;;;;;
Baruten;Gure/Giwasoro Ward;;Bwereguru  LG Health Clinic;;;;;
Baruten;Gure/Giwasoro Ward;;Yanri L G  Clinic ;;;;;
Baruten;Gwanara Ward;;Gwanara LG Health Clinic;;;;;
Baruten;Gwanara Ward;;Gobo LG Health Clinic;;;;;
Baruten;Gwanara Ward;;Gwanara Basic Health Centre;;;;;
Baruten;Ilesha Ward;;Ilesha LG Health Clinic;;;;;
Baruten;Ilesha Ward;;Kw Child Welfare Clinic, Ilesha/Baruba;;;;;
Baruten;Ilesha Ward;;Ilesa Cottage Hospital;;;;;
Baruten;Kenu/Taberu Ward;;Sheye LG Health Clinic;;;;;
Baruten;Kenu/Taberu Ward;;Kenu LG Health Clinic;;;;;
Baruten;Kenu/Taberu Ward;;Taberu LG Health Clinic;;;;;
Baruten;Kenu/Taberu Ward;;Yanberuku LG Health Clinic;;;;;
Baruten;Kpura/Yakira Ward;;Yakiru LG Health Clinic;;;;;
Baruten;Kpura/Yakira Ward;;Kpura LG Health Clinic;;;;;
Baruten;Kpura/Yakira Ward;;Kero LG Health Clinic;;;;;
Baruten;Okuta Ward;;Okuta Mobile Health Clinic;;;;;
Baruten;Okuta Ward;; LG Clinic, Fonfon ;;;;;
Baruten;Okuta Ward;;Teu LG Health Clinic;;;;;
Baruten;Okuta Ward;;Okuta General Hospital;;;;;
Baruten;Okuta Ward;;Kw Child Welfare Clinic, Okuta;;;;;
Baruten;Shinau/Tumbuyan Ward;;Bukaru LG Health Clinic;;;;;
Baruten;Shinau/Tumbuyan Ward;;Sinawu LG Health Clinic;;;;;
Baruten;Shinau/Tumbuyan Ward;;Tumbuyan LG Health Clinic;;;;;
Baruten;Yashikira  Ward;;Mosunmade Clinic, Chikanda;;;;;
Baruten;Yashikira  Ward;;Kuburufu LG Health Clinic;;;;;
Baruten;Yashikira  Ward;;Chikanda Basic Health Clinic;;;;;
Baruten;Yashikira  Ward;;Yashikira LG Health Clinic;;;;;
Baruten;Yashikira  Ward;;Karonji LG Health Clinic;;;;;
Baruten;Yashikira  Ward;;Yashikira Basic Health Clinic;;;;;
Edu;Lafiagi 2 Ward ;;Kokodo Dispensary;;;;;
Edu;Lafiagi 2 Ward ;;Lafiagi General Hospital;;;;;
Edu;Lafiagi 2 Ward ;;Lafiagi Distric Health Unit;;;;;
Edu;Lafiagi 3 Ward;;Zambufu Comprehensive Health Centre;;;;;
Edu;Lafiagi 3 Ward;;Guye-dadi Maternity & Dispensary;;;;;
Edu;Shonga 1 Ward;;Shonga Maternity Centre;;;;;
Edu;Shonga 2 Ward;;Gboro Primary Health Care Centre;;;;;
Edu;Shonga 2 Ward;;Dumagi Maternity and Dispensary;;;;;
Edu;Shonga 2 Ward;;Kanko Primary Health Care Centre;;;;;
Edu;Tsaragi 1 Ward;;Gbadagun Primary Health Care Centre;;;;;
Edu;Tsaragi 2 Ward;;Bacita Maternity Centre;;;;;
Edu;Tsaragi 3 Ward;;Tsaragi Maternity Centre;;;;;
Edu;Tsaragi 3 Ward;;Patidzuru Health Clinic;;;;;
Ekiti;Eruku Ward;;ErukuHealth Clinic;;;;;
Ekiti;Eruku Ward;;Eruku Cottage Hospital;;;;;
Ekiti;Isapa Ward;;Isapa Basic Health Centre;;;;;
Ekiti;Koro Ward;;Koro E.C.W.A Clinic , ;;;;;
Ekiti;Koro Ward;;Koro Health Centre;;;;;
Ekiti;Obbo Aiyegunle 1 Ward;;Obbo Aiyegunle Cottage Hospital;;;;;
Ekiti;Obbo Aiyegunle 1 Ward;;Obbo Aiyegunle Health Centre;;;;;
Ekiti;Obbo Ile/Ora Ward;;Ora-Aiyetoro Basic Health Clinic;;;;;
Ekiti;Obbo Ile/Ora Ward;;Obbo Ile Health Centre;;;;;
Ekiti;Oke-Opin/Etan Ward;;Titilope Clinic;;;;;
Ekiti;Oke-Opin/Etan Ward;;Oke Opin Health Centre;;;;;
Ekiti;Oke-Opin/Etan Ward;;Etan Health Centre;;;;;
Ekiti;Opin Ward;;Araromi-opin Cottage Hospital;;;;;
Ekiti;Opin Ward;;Isareopin Health Centre;;;;;
Ekiti;Opin Ward;;Isolo Opin Health Post;;;;;
Ekiti;Opin Ward;;Ajuba Health Post;;;;;
Ekiti;Opin Ward;;Epe-Opin Basic Health Clinic;;;;;
Ekiti;Opin Ward;;Ikerin Opin Health Post;;;;;
Ekiti;Osi Ward I. ;;Carosi Hospital;;;;;
Ekiti;Osi Ward I. ;;Osi Health Centre;;;;;
Ekiti;Osi Ward II;;New Bra Hospital;;;;;
Ifelodun;Idofian Ward 1;;Idofian PHC;;;;;
Ifelodun;Idofian Ward 1;;Alakuko Health Post;;;;;
Ifelodun;Idofian Ward 1;;Elerinjare PHC;;;;;
Ifelodun;Agunjin Ward;;Health Post, Temidire;;;;;
Ifelodun;Agunjin Ward;;Basic Health Centre, Agbeku;;;;;
Ifelodun;Idofian  Ward 2;;Amayo Basic Health Centre;;;;;
Ifelodun;Idofian  Ward 2;;Abiye Ganmo Maternity and Clinic;;;;;
Ifelodun;Idofian  Ward 2;;Ganmo Basic Health Centre;;;;;
Ifelodun;Idofian  Ward 2;;Omolowo Health Clinic;;;;;
Ifelodun;Igbaja  Ward 1;;Igbaja Basic Health Centre;;;;;
Ifelodun;Igbaja Ward 2;;Balogun/Mosudo Basic Health Centre;;;;;
Ifelodun;Igbaja Ward 2;;Offa Irese Health Post;;;;;
Ifelodun;Igbaja Ward 3;;Alasoro Basic Health Centre;;;;;
Ifelodun;Igbaja Ward 3;;Oroki Oja Health Post;;;;;
Ifelodun;Igbaja Ward 3;;Yaru Basic Health Clinic;;;;;
Ifelodun;Ile-Ere Ward;;Afin Basic Health Centre;;;;;
Ifelodun;Ile-Ere Ward;;Owodeofaro Basic Health Centre;;;;;
Ifelodun;Ile-Ere Ward;;Ago Olomo Basic Health Centre;;;;;
Ifelodun;Oke Ode Ward 3;;Shagbe Basic Health Clinic;;;;;
Ifelodun;Omupo 1 Ward;;Owu Obaloyan NMH;;;;;
Ifelodun;Oro Ago Ward;;Oyatedo Basic Health Centre;;;;;
Ifelodun;Oro Ago Ward;;Oro Ago Health Post;;;;;
Ifelodun;Share 1 Ward;;Share Primary Health Centre;;;;;
Ifelodun;Share 2 Ward;;Share General Hospital;;;;;
Ifelodun;Share 3 Ward;;Rasamic Loma Clinic;;;;;
Ifelodun;KW Share Ward V;;Kw Basic Health Centre, Share Junction;;;;;
Ilorin East;Agbeyangi/Abadamu Ward;;Agbeyangi Health Centre;;;;;
Ilorin East;Apado Ward;;Apado Dispensary and Maternity;;;;;
Ilorin East;Are 2 Ward;;Sabo Oke Medical Centre;;;;;
Ilorin East;Are 2 Ward;;Fogofolu Hospital;;;;;
Ilorin East;Are 2 Ward;;Olarenwaju Hospital;;;;;
Ilorin East;Gambari 1 Ward;;Awodi Health Centre;;;;;
Ilorin East;Gambari 2 Ward;;Ajibola Clinic;;;;;
Ilorin East;Gambari 2 Ward;; Ojagboro Primary Health Centre;;;;;
Ilorin East;Gambari 2 Ward;;Kw Abata Karuma Health Centre;;;;;
Ilorin East;Ibagun Ward;;Sobi-Medical Centre ;;;;;
Ilorin East;Ibagun Ward;;Fatimoh Memorial Clinic;;;;;
Ilorin East;Ibagun Ward;;Oluwakemi Clinic and Maternity;;;;;
Ilorin East;Ibagun Ward;;Alimayaki Health Centre;;;;;
Ilorin East;Ibagun Ward;;Okelele Health Centre;;;;;
Ilorin East;Ibagun Ward;;Kw Alafia Tayo Hospital;;;;;
Ilorin East;Iponrin Ward;;Iponrin Dispensary and Maternity;;;;;
Ilorin East;Marafa/Pepete Ward;;Marafa Health Centre;;;;;
Ilorin East;Marafa/Pepete Ward;;Pepele Health Post;;;;;
Ilorin East;Marafa/Pepete Ward;;Eleshinmeta Health Centre;;;;;
Ilorin East;Maya / Ile Apa;;Ilorin University Teaching Hospital;;;;;
Ilorin East;Maya / Ile Apa;;Temidayo Clinic and Maternity;;;;;
Ilorin East;Maya / Ile Apa;;Abanta Health Post;;;;;
Ilorin East;Maya / Ile Apa;;Budo-Are Health Centre;;;;;
Ilorin East;Maya / Ile Apa;;Ile Apa Health Centre;;;;;
Ilorin East;Oke Oyi / Oke Ose  Ward;;Ariyibi Health Post;;;;;
Ilorin East;Oke Oyi / Oke Ose  Ward;;Oke Oyi Basic Health Clinic;;;;;
Ilorin East;Oke Oyi / Oke Ose  Ward;;Aiyetoro Oja Health Centre;;;;;
Ilorin East;Oke Oyi / Oke Ose  Ward;;Alalubosa Health Centre;;;;;
Ilorin East;Oke Oyi / Oke Ose  Ward;;Oke Oyi Dispensary and Maternity;;;;;
Ilorin East;Oke Oyi / Oke Ose  Ward;;Oke Ose Model Primary Health Centre;;;;;
Ilorin East;Zango Ward;;Ore-Ofe Clinic ;;;;;
Ilorin East;Zango Ward;;Omolola Hospital;;;;;
Ilorin South;Akanbi 1 Ward;;Kw Ilota-Apaola Health Centre;;;;;
Ilorin South;Akanbi 1 Ward;;Fufu Prototype Clinic;;;;;
Ilorin South;Akanbi 1 Ward;;Kw Bada-Ifedapo Health Centre;;;;;
Ilorin South;Akanbi 3 Ward;;Kw Yusjib Hospital;;;;;
Ilorin South;Akanbi 3 Ward;;Civil Service Hospital;;;;;
Ilorin South;Akanbi 3 Ward;;Danialu Health Post;;;;;
Ilorin South;Akanbi 3 Ward;;Kw medical Care Clinic;;;;;
Ilorin South;Akanbi 3 Ward;;Ero Omo Basic Health Clinic;;;;;
Ilorin South;Akanbi 3 Ward;;Ife olu Hospital ;;;;;
Ilorin South;Akanbi 3 Ward;;Oke Ogun/Agbabiaka Clinic;;;;;
Ilorin South;Akanbi 3 Ward;;Kw Royal Hospital ;;;;;
Ilorin South;Akanbi 4 Ward;;Tanke Clinic and Maternity;;;;;
Ilorin South;Akanbi 4 Ward;;Iyanu Olu Clinic;;;;;
Ilorin South;Akanbi 4 Ward;;Ago Ayekale Primary Health Center;;;;;
Ilorin South;Akanbi 4 Ward;;Jalala Health Centre;;;;;
Ilorin South;Akanbi 4 Ward;;Anchor Medical Hospital ;;;;;
Ilorin South;Akanbi 4 Ward;;Iyanu oluwa Hospital ;;;;;
Ilorin South;Akanbi 5 Ward;;Ogidi Comprehensive Health Centre;;;;;
Ilorin South;Akanbi 5 Ward;;Kulende Health Centre;;;;;
Ilorin South;Akanbi 5 Ward;;Olutayo Hospital ;;;;;
Ilorin South;Akanbi 5 Ward;;Kw Godwill Clinic and Maternity;;;;;
Ilorin South;Akanbi 5 Ward;;Abidayo Clinic And Maternity;;;;;
Ilorin South;Akanbi 5 Ward;;Kulende Housing Estate Clinic;;;;;
Ilorin South;Akanbi 5 Ward;;Sobi Specialist Hospital;;;;;
Ilorin South;Balogun Fulani 1 Ward;;Centre Igboro Children Specialist Hospital;;;;;
Ilorin South;Balogun Fulani 2 Ward;;Kosemani Hospital;;;;;
Ilorin South;Balogun Fulani Ward 3;;Temitope Hospital;;;;;
Ilorin South;Okaka 1 Ward;;Doctors clinic ;;;;;
Ilorin South;Okaka 2 Ward;;Bawa Clinic;;;;;
Ilorin South;Oke Ogun Ward;;Oke Ogun Health Clinic;;;;;
Ilorin South;Oke Ogun Ward;;Olufadi Health Clinic (Oke Ogun);;;;;
Ilorin West;Adewole Ward;;Istijaba Clinic and Maternity, Gereu;;;;;
Ilorin West;Adewole Ward;;Idigba Health Centre;;;;;
Ilorin West;Adewole Ward;;Kidiz Medical Centre;;;;;
Ilorin West;Adewole Ward;;Abaniselolu Hospital;;;;;
Ilorin West;Adewole Ward;;Adewole Health Centre;;;;;
Ilorin West;Adewole Ward;;Adewole Cottage Hospital;;;;;
Ilorin West;Adewole Ward;;Adeyi Hospital, Kuntu;;;;;
Ilorin West;Ajikobi Ward;;Omoda  Health Centre;;;;;
Ilorin West;Ajikobi Ward;;Aisat Memorial Hospital;;;;;
Ilorin West;Ajikobi Ward;;Ajikobi Cottage Hospital;;;;;
Ilorin West;Ajikobi Ward;;Agbaji Health Centre;;;;;
Ilorin West;Alanamu Ward;;Alanamu Basic Health Centre;;;;;
Ilorin West;Alanamu Ward;;Baboko Clinic;;;;;
Ilorin West;Alanamu Ward;;Orelope Clinic and Maternity;;;;;
Ilorin West;Baboko Ward;;Magajingeri  Health Centre;;;;;
Ilorin West;Badari Ward;;Badari Health Centre;;;;;
Ilorin West;Badari Ward;;Eyitayo Clinic and Maternity, Oja Iya;;;;;
Ilorin West;Magaji Geri Ward;;Omolara Clinic and Maternity;;;;;
Ilorin West;Magaji Geri Ward;;Ago Market Health Clinic;;;;;
Ilorin West;Magaji Geri Ward;;Emir's Palace Health Clinic;;;;;
Ilorin West;Ogidi Ward;;Ogidi/ Banni Basic Health Centre (Ilorin West);;;;;
Ilorin West;Ojuekun / Zarumi Ward;;Olorunlambe Clinic and Maternity;;;;;
Ilorin West;Ojuekun / Zarumi Ward;;Zarumi Health Centre;;;;;
Ilorin West;Ojuekun / Zarumi Ward;;Oju-ekun Health Centre;;;;;
Ilorin West;Oko Erin Ward;;Oko Erin Health Centre;;;;;
Ilorin West;Oko Erin Ward;;Asadam Clinic and Maternity;;;;;
Ilorin West;Oko Erin Ward;;Oyebanji Hospital;;;;;
Ilorin West;Oko Erin Ward;;Ekundayo Clinic and Maternity;;;;;
Ilorin West;Oko Erin Ward;;Hassanat Memorial Hospital;;;;;
Ilorin West;Oko Erin Ward;;Ayeitoro Health Centre;;;;;
Ilorin West;Oloje Ward;;Ayo Clinic and Maternity, Oloje;;;;;
Ilorin West;Oloje Ward;;Ilorin Clinic and Maternity, Oloje;;;;;
Ilorin West;Ubandawaki Ward;;Pakata Health Centre;;;;;
Ilorin West;Ubandawaki Ward;;Oke-Agodi Health Centre;;;;;
Ilorin West;Ubandawaki Ward;;Olupelu Clinic and Maternity;;;;;
Ilorin West;Wara/Osin/Egbejila Ward;;Offa-garage Health Centre;;;;;
Ilorin West;Wara/Osin/Egbejila Ward;;Egbejila Health Centre;;;;;
Ilorin West;Wara/Osin/Egbejila Ward;;Wara Health Centre;;;;;
Ilorin West;Wara/Osin/Egbejila Ward;;Ogundele Health Centre;;;;;
Ilorin West;Wara/Osin/Egbejila Ward;;Osin / Aremu Health Centre;;;;;
Ilorin West;Wara/Osin/Egbejila Ward;;Staff Clinic;;;;;
Irepodun;Ajasse 1 Ward;;Okeyapo Primary Health Centre;;;;;
Irepodun;Ajasse 1 Ward;;Ilala Primary Health Centre;;;;;
Irepodun;Ajasse 1 Ward;;Ajasse Primary Health Centre;;;;;
Irepodun;Ajasse 1 Ward;;Buhari Primary Health Centre;;;;;
Irepodun;Ajasse 2 Ward;;Omido Health Clinic;;;;;
Irepodun;Ajasse 2 Ward;;Bayaagan Health Clinic;;;;;
Irepodun;Ajasse 2 Ward;;Agbamu Primary Health Centre;;;;;
Irepodun;Ajasse 2 Ward;;Ajengbe Health Clinic;;;;;
Irepodun;Ajasse 2 Ward;;Sanmora Health Clinic;;;;;
Irepodun;Ajasse 2 Ward;;Agbonda Primary Health Centre;;;;;
Irepodun;Ajasse 2 Ward;;Igbonla Primary Health Centre;;;;;
Irepodun;Ajasse 2 Ward;;Adigun Dispensary;;;;;
Irepodun;Aran Ward;;KW Ofe - Aran Primary Health Centre;;;;;
Irepodun;Aran Ward;;KW Agan - Oru Primary Health Centre;;;;;
Irepodun;Arandun Ward;;Owode Health Clinic;;;;;
Irepodun;Arandun Ward;;Arandun Primary Health Centre;;;;;
Irepodun;Esie/Ijan Ward;;Esie Primary Health Centre;;;;;
Irepodun;Esie/Ijan Ward;;Ijan Otun Primary Health Centre;;;;;
Irepodun;Esie/Ijan Ward;;Agbele Health Clinic;;;;;
Irepodun;Ifaja Ward;;Ifaja Health Clinic;;;;;
Irepodun;Ifaja Ward;;Landmark University Clinic;;;;;
Irepodun;Ifaja Ward;;Asore Clinic / Hospital;;;;;
Irepodun;Ihaye Ward;;Adeyemo Hospital, Omu-Aran;;;;;
Irepodun;Ihaye Ward;;Ihaye  Omu-Aran Primary Health Centre;;;;;
Irepodun;Ihaye Ward;;Ajisafe  Clinic / Hospital,;;;;;
Irepodun;Ihaye Ward;;Omu-Aran General Hospital;;;;;
Irepodun;Ihaye Ward;;Orolodo Primary Health Centre;;;;;
Irepodun;Ipetu/Rore/Aran Orin Ward;;Olomi-Oja Primary Health Clinic;;;;;
Irepodun;Ipetu/Rore/Aran Orin Ward;;Rore Primary Health Centre;;;;;
Irepodun;Ipetu/Rore/Aran Orin Ward;;Ipetu Primary Health Centre;;;;;
Irepodun;Ipetu/Rore/Aran Orin Ward;;Aran-Orin Comprehensive Health Centre;;;;;
Irepodun;Oko Ward;;Oko Primary Health Centre;;;;;
Irepodun;Oro 1 Ward;;Sie/Olorunsogo Health Clinic;;;;;
Irepodun;Oro 1 Ward;;Awoye Clinic / Hospital;;;;;
Irepodun;Oro 1 Ward;;KW Oke - Ola Primary Health Centre;;;;;
Irepodun;Oro 2 Ward;;Iludun-Oro  E.C.W.A Hospital;;;;;
Irepodun;Oro 2 Ward;;Iddo Oro Primary Health Centre;;;;;
Irepodun;Oro 2 Ward;;Okerimi Primary Health Centre;;;;;
Irepodun;Oro 2 Ward;;Iludun Oro Primary Health Centre;;;;;
Isin;Alla Ward;;Oponda PrimaryHealth Centre;;;;;
Isin;Alla Ward;;Alla Primary Health Centre;;;;;
Isin;Edidi Ward;;Edidi Primary Health Centre;;;;;
Isin;Ijara Isin Ward;;Ijara Isin Primary Health Centre;;;;;
Isin;Isalu-Isin Ward 2;;Isanlu-Isin Primary Health Centre;;;;;
Isin;Isalu-Isin Ward 2;; Isanlu Model Primary Health Centre;;;;;
Isin;Isanlu-Isin Ward 1;;Isanlu Isin General Hospital;;;;;
Isin;Isanlu-Isin Ward 1;;Eleyin Primary Health Centre;;;;;
Isin;Iwo Ward;;Iwo Comprehensive Health Clinic;;;;;
Isin;Oke Aba Ward;;Odo Eku Primary Health Centre ;;;;;
Isin;Oke Aba Ward;;Oke Aba Primary Health Centre;;;;;
Isin;Oke Aba Ward;; Iwo Odu Ore Primary Health Centre;;;;;
Isin;Oke Onigbin Ward;;Ogo Oluwa Health Clinic;;;;;
Isin;Oke Onigbin Ward;;Igbesi Primary Health Centre;;;;;
Isin;Oke Onigbin Ward;;Isin Evangelical Church of West Africa (ECWA) Dispensary and Maternity;;;;;
Isin;Oke Onigbin Ward;;Express Clinic;;;;;
Isin;Oke Onigbin Ward;;Oke Onigbin Primary Health Centre;;;;;
Isin;Olla Ward;;Olla Primary Health Centre;;;;;
Isin;Owu-Isin Ward;;Iji Primary Health Centre;;;;;
Isin;Owu-Isin Ward;;Owu  Model Primary Health Centre;;;;;
Isin;Sabaja/Pamo/Oba Ward;;Pamo Primary Health Centre;;;;;
Isin;Sabaja/Pamo/Oba Ward;;Oba Primary Health Centre;;;;;
Kaiama;Adena Ward;;Kossa Health Post;;;;;
Kaiama;Adena Ward;;Gbajibo Primary Health Centre;;;;;
Kaiama;Adena Ward;;Adena Primary Health Centre;;;;;
Kaiama;Banni Ward;;Banni Basic Health Center;;;;;
Kaiama;Banni Ward;;Hamdallah Primary Health Centre;;;;;
Kaiama;Banni Ward;;Famini Health Post;;;;;
Kaiama;Gwanabe 1 Ward;;Verra Health Post;;;;;
Kaiama;Gwanabe 1 Ward;;Nuku Health Post;;;;;
Kaiama;Gwanabe 1 Ward;;Gorobani Primary Health Centre;;;;;
Kaiama;Gwanabe 1 Ward;;Kanikoko Primary Health Centre;;;;;
Kaiama;Gwanabe 1 Ward;;Woro Primary Health Centre;;;;;
Kaiama;Gwanabe 2 Ward;;Aboki Health Clinic;;;;;
Kaiama;Gwaria Ward;;Moshe Gada Primary Health Centre;;;;;
Kaiama;Gwaria Ward;;Gatte Primary Health Care;;;;;
Kaiama;Gwaria Ward;;Gwaria Primary Health Centre;;;;;
Kaiama;Kaiama 1 Ward;;Alubarika Clinic;;;;;
Kaiama;Kaiama 1 Ward;;Kw Buka Biu Primary Health Care.;;;;;
Kaiama;Kaiama 2 Ward;;Kaiama Maternity Center;;;;;
Kaiama;Kaiama 2 Ward;;Kaiama  General Hospital.;;;;;
Kaiama;Kaiama 3 Ward;;Kaiama School Clinic ;;;;;
Kaiama;Kemanji Ward;;Tenebo Health Post;;;;;
Kaiama;Kemanji Ward;;Kemanji Primary Health Centre;;;;;
Kaiama;Wojibe Ward;;Camp Health Post;;;;;
Kaiama;Wojibe Ward;;Nanu Primary Health Centre;;;;;
Kaiama;Wojibe Ward;;Kugiji  Modern Primary Health Centre;;;;;
Kaiama;Wojibe Ward;;Kinikini Primary Health Centre;;;;;
Moro;Abati Alara Ward;;Tepatan Health Clinic;;;;;
Moro;Abati Alara Ward;;Kiribi Health Clinic;;;;;
Moro;Ajannaku Ward;; Aga Health Clinic;;;;;
Moro;Arobadi Ward;;Arobadi  Health Centre;;;;;
Moro;Babadudu Ward;;Babadudu Health Post;;;;;
Moro;Babadudu Ward;;Igboemu Health Post;;;;;
Moro;Bode Saadu Ward;;Bode Saadu Basic Health Clinic;;;;;
Moro;Ejidongari Ward;;Ejidongari Basic Health Clinic;;;;;
Moro;Jebba Ward;;Jebba Maternal and Child Health Clinic;;;;;
Moro;Lanwa Ward;;Lanwa Basic Health Clinic;;;;;
Moro;Malete Ward;;Malete Maternal and Child Health Clinic;;;;;
Moro;Megida Ward;;Ipaiye Cottage Hospital;;;;;
Moro;Megida Ward;;Daji Health Clinic;;;;;
Moro;Okemi Ward;;Alfa Oterere Health Post;;;;;
Moro;Okutala Ward;;Odentan Health Clinic;;;;;
Moro;Okutala Ward;;Olokonla Health Clinic;;;;;
Moro;Okutala Ward;;Amu Health Post;;;;;
Moro;Okutala Ward;;Okutala Maternal and Child Health Clinic;;;;;
Moro;Oloru Ward;;Oloru Maternal and Child Health Clinic;;;;;
Moro;Oloru Ward;;Kanbi Health Post;;;;;
Moro;Shao Ward;;Shao Comprehensive Health Clinic;;;;;
Moro;Wumi Ayaki Ward;;Elemere Health Post;;;;;
Moro;Wumi Ayaki Ward;;Asomu Health Clinic;;;;;
Offa;Balogun Ward;;Balogun Basic Health Clinic;;;;;
Offa;Balogun Ward;;Afolabi Hospital ;;;;;
Offa;Essa A Ward;;Essa Primary Health Care Centre;;;;;
Offa;Essa A Ward;;Ayaba Primary Health Care Centre;;;;;
Offa;Essa C Ward;;Kw Nawarul-deen Basic Health Centre;;;;;
Offa;Igbo-Idun Ward;;Eleshinfunfun Basic Health Clinic;;;;;
Offa;Igbo-Idun Ward;;Gbosun Basic Health Clinic;;;;;
Offa;Igbo-Idun Ward;;Igboidun Comprehensive Health Centre;;;;;
Offa;Igbo-Idun Ward;;Ajegunle Basic Health Clinic (Offa);;;;;
Offa;Ojomu Central A Ward;;Ojomu Primary Health Care Centre;;;;;
Offa;Ojomu North West Ward;;Owode Market Based Clinic;;;;;
Offa;Ojomu North West Ward;;St. Clair's School Clinic ;;;;;
Offa;Ojomu North West Ward;;Lamodi Basic Health Clinic;;;;;
Offa;Ojomu North West Ward;;Housewife Maternity Clinic ;;;;;
Offa;Ojomu North West Ward;;Offa Specialist Hospital ;;;;;
Offa;Ojomu South East Ward;;Olanipekun Medical Clinic ;;;;;
Offa;Shawo South East Ward;;Wale Clinic ;;;;;
Offa;Shawo South East Ward;;Abogunnugun Primary Health Care Centre;;;;;
Offa;Shawo South East Ward;;ACC School Clinic, Offa;;;;;
Offa;Shawo South West Ward;;Onome Maternity and  Clinic ;;;;;
Offa;Shawo South West Ward;;Nigeria Navy Clinic ;;;;;
Offa;Shawo South West Ward;;Offa Gram School Clinic ;;;;;
Oke-Ero;Aiyedun Ward;;Ekan Comprehensive Health Centre;;;;;
Oke-Ero;Aiyedun Ward;;Aiyedun Health Clinic;;;;;
Oke-Ero;Ekan Ward;;Ekan Health Clinic;;;;;
Oke-Ero;Idofin Odo Ashe Ward;;Idofin Ashe Cottage Hospital;;;;;
Oke-Ero;Idofin Odo Ashe Ward;;Idofin Ehin Afo Health Post;;;;;
Oke-Ero;Idofin Odo Ashe Ward;;Idofin Aiyekale Health Post;;;;;
Oke-Ero;Idofin Odo Ashe Ward;;Odo Aga Health Post;;;;;
Oke-Ero;Igbana 2 Ward;;Idofin Igbana Model Health Clinic;;;;;
Oke-Ero;Ilale/Erinmope/Imoji Ward;;Erinmope Health Clinic;;;;;
Oke-Ero;Ilale/Erinmope/Imoji Ward;;Ilale Health Clinic;;;;;
Oke-Ero;Ilale/Erinmope/Imoji Ward;;Imoji Health Clinic;;;;;
Oke-Ero;Iloffa Ward;;Iloffa Staff Clinic;;;;;
Oke-Ero;Iloffa Ward;;Iloffa Odoowa Health Clinic;;;;;
Oke-Ero;Iloffa Ward;;Iloffa Cottage Hospital ,;;;;;
Oke-Ero;Iloffa Ward;;Ashaolu Clinic;;;;;
Oke-Ero;Imode/Egosi  Ward;;Imode Health Clinic;;;;;
Oke-Ero;Odo-Owa 2 Ward;;Odo Owa Health Clinic;;;;;
Oke-Ero;Odo-owa Ward 1;;Adebayo Memorial  Hospital, Odo-Owa;;;;;
Oyun;Aho Ward;;Basic Health Clinic, Inaja Alaro;;;;;
Oyun;Aho Ward;; Basic Health Clinic, Ahogbada;;;;;
Oyun;Erin Ile North Ward;;Erin North Basic Health Clinic;;;;;
Oyun;Erin Ile South Ward;;Erin Ile South Basic Health Clinic;;;;;
Oyun;Erin Ile South Ward;;Kw Model Health Centre, Erin Ile;;;;;
Oyun;Igbonna Ward;;Igbonna Basic Health Clinic;;;;;
Oyun;Igbonna Ward;;Kw Bolorunduro Basic Health Clinic;;;;;
Oyun;Igosun Ward;;Igosun Basic Health Clinic;;;;;
Oyun;Ijagbo Ward;;Ijagbo Basic Health Clinic;;;;;
Oyun;Ikotun Ward;;Ikotun Basic Health Clinic;;;;;
Oyun;Ikotun Ward;;Kw Falokun, Basic Health Clinic;;;;;
Oyun;Ikotun Ward;;Gudugba Basic Health  Clinic;;;;;
Oyun;Ilemona Ward;;Ajooko Oja Basic Health Clinic;;;;;
Oyun;Ilemona Ward;;Ilemona Basic Health Clinic;;;;;
Oyun;Ipee Ward;;Ipee Basic Health Centre;;;;;
Oyun;Irra Ward;;Ira Basic Health Centre;;;;;
Oyun;Ojoku Ward;;Ojoku Basic Health Centre;;;;;
Pategi;Kpada 1 Ward;;Ward  Health Clinic Gakpan;;;;;
Pategi;Kpada 1 Ward;;Kpada Model Primary Health Centre;;;;;
Pategi;Kpada 1 Ward;;Gulugi Basic Health Clinic;;;;;
Pategi;Kpada 2 Ward;;Cottage Hospital, Rogun;;;;;
Pategi;Kpada 2 Ward;;Fey LG Dispensary;;;;;
Pategi;Kpada 2 Ward;;Basic Health Center,  Echiwada;;;;;
Pategi;Kpada 2 Ward;;Koro Dispensary and Maternity;;;;;
Pategi;Kpada 3 Ward;;Tankpafu Health Clinic;;;;;
Pategi;Kpada 3 Ward;;Matokun Health Post;;;;;
Pategi;Kpada 3 Ward;;Agboro LGA Dispensary;;;;;
Pategi;Kpada 3 Ward;;Rifun Maternity and Dispensary ;;;;;
Pategi;Lade 1 Ward;;Gada Bozuwa Maternity and Dispensery.;;;;;
Pategi;Lade 1 Ward;;Ekati Basic Health Clinic;;;;;
Pategi;Lade 2 Ward;;Rani Ndako Health Post;;;;;
Pategi;Lade 2 Ward;;Lade Cottage Hospital;;;;;
Pategi;Lade 3 Ward;;Lalagi Health Post,;;;;;
Pategi;Lade 3 Ward;;Edogi Chapa Health Post;;;;;
Pategi;Lade 3 Ward;;Dzaka Health Post;;;;;
Pategi;Lade 3 Ward;;Sakpefu Health Post;;;;;
Pategi;Patigi 1 Ward;;Patigi Infant Welfar Clinic,  ;;;;;
Pategi;Patigi 3 Ward;;Patigi General Hospital;;;;;
Pategi;Patigi 3 Ward;;Patigi LG Dispensary;;;;;
Pategi;Patigi 4 Ward;;Gbaradogi Health Post;;;;;
Pategi;Patigi 4 Ward;;Edogi kpansanako Health Post;;;;;
