LGA;Ward;Settlement;Facility;Type;Ownership;Address;Longitude;Latitude
Agege;Atobaje Ward;;Adu Medical Clinic;;;;;
Agege;Awori Ward;;May-Fair Medical Centre;;;;;
Agege;Awori Ward;;Habibat Memorial Convalescent Home;;;;;
Agege;Awori Ward;;Motolani Medical Centre;;;;;
Agege;Dopemu Ward;;Mobonike Hospital;;;;;
Agege;Dopemu Ward;;Promise Medical Centre;;;;;
Agege;Dopemu Ward;;Sikiratullah Medical Clinic;;;;;
Agege;Dopemu Ward;;Al-Imaan Hospital and Maternity Home;;;;;
Agege;Dopemu Ward;;Glorious Favour Hospital;;;;;
Agege;Dopemu Ward;;Keeb Ideal Surgical Hospital;;;;;
Agege;Dopemu Ward;;Olaotan Nursing Home;;;;;
Agege;Dopemu Ward;;The Hamfar Hospital;;;;;
Agege;Dopemu Ward;;Oluayomide Convalescent Home;;;;;
Agege;Isale Odo Ward;;Beta Hospital;;;;;
Agege;Isale Odo Ward;;Shonowo Hospital;;;;;
Agege;Isale Odo Ward;;De-Kem Hospital;;;;;
Agege;Isale Odo Ward;;Salem Specialist Hospital;;;;;
Agege;Isale Odo Ward;;De Kem Nursing Home;;;;;
Agege;Isale Odo Ward;;Country Home Clinic;;;;;
Agege;Isale Oja Ward;;Krobon Hospital;;;;;
Agege;Isale Oja Ward;;Dopemu Primary Health Centre;;;;;
Agege;Isale Oja Ward;;St Sabina Hospital;;;;;
Agege;Isale Oja Ward;;Olive Medical Care;;;;;
Agege;Isale Oja Ward;;St Victoria Clinic;;;;;
Agege;Isale Oja Ward;;Iloro Primary Health Centre;;;;;
Agege;Isale Oja Ward;;Prime Health Gate Medicare;;;;;
Agege;Isale Oja Ward;;Happy Home Clinic;;;;;
Agege;Isale Oja Ward;;Getwell Hospital;;;;;
Agege;Keke Ward;;The Apostolic Church , Agege Area Medical Centre;;;;;
Agege;Keke Ward;;Mount Zion Convalescent Home;;;;;
Agege;Keke Ward;;Fanimed Hospitals;;;;;
Agege;Keke Ward;;Sango Primary Health Centre;;;;;
Agege;Keke Ward;;Bankole Hospital;;;;;
Agege;Kwakwa Uku Ward;;Kwa Kwa Uku PHC;;;;;
Agege;Oke Koto Ward;;All Souls Infla Hospital;;;;;
Agege;Oke Koto Ward;;Todays Medicare;;;;;
Agege;Oke Koto Ward;;Adeoti Nursing Home;;;;;
Agege;Oke Koto Ward;;Methodist church clinic;;;;;
Agege;Oke Koto Ward;;Omoyeni Clinic;;;;;
Agege;Orile Ward (Agege);;Rambola Abiola Memorial Hospital;;;;;
Agege;Orile Ward (Agege);;Orile Agege General Hospital;;;;;
Agege;Orile Ward (Agege);;Mabol Clinic;;;;;
Agege;Orile Ward (Agege);;Soretire Primary Health Care;;;;;
Agege;Orile Ward (Agege);;Olu-Adebo Hospital;;;;;
Agege;Orile Ward (Agege);;Power-Line Primary Health Centre;;;;;
Agege;Oyewole Ward;;Divine Hills Maternity Centre;;;;;
Agege;Oyewole Ward;;Divine Favour Maternity Home;;;;;
Agege;Oyewole Ward;;Veta Hospital;;;;;
Agege;Oyewole Ward;;Biobatan Hospital;;;;;
Agege;Oyewole Ward;;El-Muskhad Maternity Centre;;;;;
Agege;Papa Ashafa Ward;;Mercy & Glory Convalescent Centre;;;;;
Agege;Papa Ashafa Ward;;Mertiland Nursing Home;;;;;
Agege;Papa Ashafa Ward;;Papa Ashafa Health Post;;;;;
Agege;Papa Ashafa Ward;;Mucas Hospital;;;;;
Agege;Papa Ashafa Ward;;Alpha Convalescent Centre;;;;;
Agege;Papa Ashafa Ward;;Sar-Victory Specialist Hospital;;;;;
Agege;Powerline Ward;;Molayo Hospital;;;;;
Agege;Powerline Ward;;New Merit Hospital Limited;;;;;
Agege;Powerline Ward;;Dunia Hospital;;;;;
Agege;Sango Ward;;Adams Clinic and Maternity Home;;;;;
Agege;Sango Ward;;Rekky Medical Centre;;;;;
Agege;Sango Ward;;J.A Lashman Hospital;;;;;
Agege;Sango Ward;;DLW HOSPITAL;;;;;
Agege;Sango Ward;;Prema Sai Hospital;;;;;
Agege;Sango Ward;;Ajegunle Health Post;;;;;
Ajeromi/Ifelodun;Aiyetoro Ward;;Living Word Maternity Home;;;;;
Ajeromi/Ifelodun;Aiyetoro Ward;;Regnie Hospital;;;;;
Ajeromi/Ifelodun;Aiyetoro Ward;;Emmanuel P Maternity Home;;;;;
Ajeromi/Ifelodun;Aiyetoro Ward;;Blessed Redeemer Hospital;;;;;
Ajeromi/Ifelodun;Aiyetoro Ward;;City of Hope Medical Centre;;;;;
Ajeromi/Ifelodun;Ajegunle Ward;;Ajeromi Health Post;;;;;
Ajeromi/Ifelodun;Ajegunle Ward;;Ajegunle PHC;;;;;
Ajeromi/Ifelodun;Ajegunle Ward;;Goodness and Mercy Hospital;;;;;
Ajeromi/Ifelodun;Akere Ward;;Al Qadir Convalescent Home;;;;;
Ajeromi/Ifelodun;Akere Ward;;Medics Medical Centre;;;;;
Ajeromi/Ifelodun;Akere Ward;;The Lord That Healeth Clinic;;;;;
Ajeromi/Ifelodun;Akere Ward;;Faleti Medical Centre;;;;;
Ajeromi/Ifelodun;Akere Ward;;Lord Overcomers Clinic;;;;;
Ajeromi/Ifelodun;Akere Ward;;St Charles Infirmary Medical Centre;;;;;
Ajeromi/Ifelodun;Akere Ward;;Femi Hospital;;;;;
Ajeromi/Ifelodun;Akere Ward;;Akere Primary Health Centre;;;;;
Ajeromi/Ifelodun;Akere Ward;;Faith Line Medical Centre;;;;;
Ajeromi/Ifelodun;Akere Ward;;Kenny Medical Centre;;;;;
Ajeromi/Ifelodun;Akere Ward;;Hilton Hospital;;;;;
Ajeromi/Ifelodun;Akere Ward;;Saseun Hospital;;;;;
Ajeromi/Ifelodun;Akere Ward;;Ericon Clinic;;;;;
Ajeromi/Ifelodun;Akere Ward;;Miracle Nursing Home;;;;;
Ajeromi/Ifelodun;Akere Ward;;Celian Hospital;;;;;
Ajeromi/Ifelodun;Akere Ward;;Halisa Gold Hospital;;;;;
Ajeromi/Ifelodun;Akere Ward;;Goodwill Family Hospital;;;;;
Ajeromi/Ifelodun;Akere Ward;;Augusta Hospital;;;;;
Ajeromi/Ifelodun;Akere Ward;;Patol Medical Centre;;;;;
Ajeromi/Ifelodun;Akere Ward;;Bayo Ogunro Hosp;;;;;
Ajeromi/Ifelodun;Alaba Ward;;NASA Hospital;;;;;
Ajeromi/Ifelodun;Alaba Ward;;Adebambo Hospital;;;;;
Ajeromi/Ifelodun;Alaba Ward;;NASAM Hospital;;;;;
Ajeromi/Ifelodun;Alaba Ward;;Ajifat Nursing Home;;;;;
Ajeromi/Ifelodun;Alakoto Ward;;Immaculate Maternity Home;;;;;
Ajeromi/Ifelodun;Alakoto Ward;;Gogoro Convalescent Home;;;;;
Ajeromi/Ifelodun;Alakoto Ward;;Mayor Clinic;;;;;
Ajeromi/Ifelodun;Alayabiagb Ward;;St Milla Hospital;;;;;
Ajeromi/Ifelodun;Alayabiagb Ward;;Asomba Medical Centre;;;;;
Ajeromi/Ifelodun;Alayabiagb Ward;;Obisesan Naval Hospital;;;;;
Ajeromi/Ifelodun;Alayabiagb Ward;;Ronke Awoye Clinic;;;;;
Ajeromi/Ifelodun;Alayabiagb Ward;;Chinex Maternity Home;;;;;
Ajeromi/Ifelodun;Amukoko Ward;;Success Convalescent & Maternity Home;;;;;
Ajeromi/Ifelodun;Amukoko Ward;;Olamide Convalescent Home;;;;;
Ajeromi/Ifelodun;Amukoko Ward;;Safejo Medical Centre;;;;;
Ajeromi/Ifelodun;Amukoko Ward;;Debby Maternity Home;;;;;
Ajeromi/Ifelodun;Amukoko Ward;;Ifunaya Hospital;;;;;
Ajeromi/Ifelodun;Amukoko Ward;;Lord Overcomers Clinic;;;;;
Ajeromi/Ifelodun;Amukoko Ward;;Zem-Zem Convalescent Home;;;;;
Ajeromi/Ifelodun;Amukoko Ward;;Hal Clinic;;;;;
Ajeromi/Ifelodun;Amukoko Ward;;Amukoko Primary Health Centre;;;;;
Ajeromi/Ifelodun;Amukoko Ward;;Overcomer Clinic;;;;;
Ajeromi/Ifelodun;Amukoko Ward;;Soh mi Medical Centre;;;;;
Ajeromi/Ifelodun;Amukoko Ward;;Deetab Hospital;;;;;
Ajeromi/Ifelodun;Amukoko Ward;;Natafod Consultants Hospital;;;;;
Ajeromi/Ifelodun;Apasa Ward;;Jomark Hospital;;;;;
Ajeromi/Ifelodun;Apasa Ward;;Remsol Nursing Home;;;;;
Ajeromi/Ifelodun;Awodi Ora Ward;;Olu Funmilayo Medical Centre;;;;;
Ajeromi/Ifelodun;Awodi Ora Ward;;Cardoso Catholic Foundation Clinic;;;;;
Ajeromi/Ifelodun;Awodi Ora Ward;;St Anthony of Padua Medical Centre;;;;;
Ajeromi/Ifelodun;Awodi Ora Ward;;Ajeromi Ifelodun General Hospital;;;;;
Ajeromi/Ifelodun;Awodi Ora Ward;;Sasco Hospital;;;;;
Ajeromi/Ifelodun;Ibafon Ward;;Efan Hospital;;;;;
Ajeromi/Ifelodun;Ibafon Ward;;Sonex Clinic Ltd;;;;;
Ajeromi/Ifelodun;Ibafon Ward;;Abbey Medical Centre;;;;;
Ajeromi/Ifelodun;Ibafon Ward;;Kingdom Medical Clinic;;;;;
Ajeromi/Ifelodun;Ibafon Ward;;Ibafon Primary Health Centre;;;;;
Ajeromi/Ifelodun;Ibafon Ward;;Dacko Medical Centre;;;;;
Ajeromi/Ifelodun;Ibafon Ward;;St James Clinic;;;;;
Ajeromi/Ifelodun;Layeni Ward;;Tolu Medical Centre;;;;;
Ajeromi/Ifelodun;Layeni Ward;;City Medicare Hospital;;;;;
Ajeromi/Ifelodun;Layeni Ward;;Godfri Convalescent Home;;;;;
Ajeromi/Ifelodun;Layeni Ward;;El Trinity Medical Centre;;;;;
Ajeromi/Ifelodun;Layeni Ward;;De Ife Oluwa Maternity Home;;;;;
Ajeromi/Ifelodun;Layeni Ward;;El-Trinity Medical Centre;;;;;
Ajeromi/Ifelodun;Layeni Ward;;Beebat Medical Centre;;;;;
Ajeromi/Ifelodun;Layeni Ward;;Divine Maternity;;;;;
Ajeromi/Ifelodun;Layeni Ward;;Anna's Maternity Home;;;;;
Ajeromi/Ifelodun;Layeni Ward;;Layeni Primary Health Centre;;;;;
Ajeromi/Ifelodun;Layeni Ward;;Sovereign God Maternity;;;;;
Ajeromi/Ifelodun;Layeni Ward;;Afegbo Maternity Hospital;;;;;
Ajeromi/Ifelodun;Ojora Ward;;Oridilu Primary Health Centre;;;;;
Ajeromi/Ifelodun;Ojora Ward;;White flag Convalescent Home;;;;;
Ajeromi/Ifelodun;Ojora Ward;;First Hope Clinic;;;;;
Ajeromi/Ifelodun;Oke Oja Ward;;Community (St Theresa Hospital) Health Post;;;;;
Ajeromi/Ifelodun;Oke Oja Ward;;Ade Ade Nursing Home;;;;;
Ajeromi/Ifelodun;Owoyemi Ward;;Olanrewaju Medical Centre;;;;;
Ajeromi/Ifelodun;Owoyemi Ward;;Stay Well Medical Centre;;;;;
Ajeromi/Ifelodun;Owoyemi Ward;;Prince and Princess Hospltal;;;;;
Ajeromi/Ifelodun;Owoyemi Ward;;Milverton Convalescent Centre;;;;;
Ajeromi/Ifelodun;Owoyemi Ward;;Rikky Clinic and Maternity Hospital;;;;;
Ajeromi/Ifelodun;Owoyemi Ward;;All Souls Specialist Hospital;;;;;
Ajeromi/Ifelodun;Temidire Ward;;Jibol Nursing Home;;;;;
Ajeromi/Ifelodun;Temidire Ward;;Desay Clinic;;;;;
Ajeromi/Ifelodun;Tolu Ward;;Tolu Medical Hospital;;;;;
Ajeromi/Ifelodun;Tolu Ward;;Zollinger Hospital;;;;;
Ajeromi/Ifelodun;Tolu Ward;;Merit Medical Centre;;;;;
Ajeromi/Ifelodun;Tolu Ward;;Tolu Primary Health Centre;;;;;
Alimosho;Abaranje Okerube Ward;;Better Life Hospital;;;;;
Alimosho;Abaranje Okerube Ward;;White Shield Clinic;;;;;
Alimosho;Abaranje Okerube Ward;;Manifel Medical Centre;;;;;
Alimosho;Abaranje Okerube Ward;;Hebrew Land Convalescent Home;;;;;
Alimosho;Abaranje Okerube Ward;;FABOL MATERNITY;;;;;
Alimosho;Abaranje Okerube Ward;;D- Noble Clinic;;;;;
Alimosho;Abesan Ward;;Akinyele Primary Health Centre;;;;;
Alimosho;Abesan Ward;;Christ Model Maternity;;;;;
Alimosho;Abesan Ward;;Dew of Blessing Clinic;;;;;
Alimosho;Aboru ward;;Bethel Convalescent Home;;;;;
Alimosho;Aboru ward;;Pillars Medical Centre;;;;;
Alimosho;Aboru ward;;Omosola Hospital ;;;;;
Alimosho;Aboru ward;;Leeway Nursing Home;;;;;
Alimosho;Aboru ward;;Olamide Hospital;;;;;
Alimosho;Aboru ward;;Jages Maternity Home;;;;;
Alimosho;Aboru ward;;Peak Health Hospital;;;;;
Alimosho;Aboru ward;;Aboru  Primary Health Centre;;;;;
Alimosho;Abule Egba Ward;;Setfone Hospital LTD;;;;;
Alimosho;Abule Egba Ward;;Hamkad Hospital;;;;;
Alimosho;Abule Egba Ward;;Evangel Maternity Home;;;;;
Alimosho;Abule Egba Ward;;The Zion Maternity Centre;;;;;
Alimosho;Abule Egba Ward;;Yemi Maternity;;;;;
Alimosho;Abule Egba Ward;;De Nikky Hospital;;;;;
Alimosho;Abule Egba Ward;;Temitope Cinic and Maternity;;;;;
Alimosho;Agbelekale Ward;;Agbenugba Primary Health Centre;;;;;
Alimosho;Agbelekale Ward;;Guardian Health Centre;;;;;
Alimosho;Agbelekale Ward;;Araba Medical Centre;;;;;
Alimosho;Agbelekale Ward;;Ogundimu Primary Health Centre;;;;;
Alimosho;Agbelekale Ward;;Agbelekale Primary Health Centre;;;;;
Alimosho;Agbelekale Ward;;Grace of God Hospital;;;;;
Alimosho;Agbelekale Ward;;Living Faith Health Care;;;;;
Alimosho;Ajasa Amikanle Ward;;Amikanle Primary Health Centre;;;;;
Alimosho;Ajasa Amikanle Ward;;Savannah Convalescent Home;;;;;
Alimosho;Ajasa Amikanle Ward;;Ikola PHC;;;;;
Alimosho;Ajasa Amikanle Ward;;Abimbola Convalescent Centre;;;;;
Alimosho;Ajasa Amikanle Ward;;Akinsayo Hospital;;;;;
Alimosho;Ajasa Amikanle Ward;;ABS Medicare Centre;;;;;
Alimosho;Ajasa Amikanle Ward;;Lords Glory Nursing Home;;;;;
Alimosho;Ajasa Amikanle Ward;;Onaolapo Victory Clinic;;;;;
Alimosho;Ajasa Amikanle Ward;;Lex Medical Centre;;;;;
Alimosho;Ajasa Amikanle Ward;;Surulere Primary Health Centre;;;;;
Alimosho;Ajasa Amikanle Ward;;Meran Primary Health Centre;;;;;
Alimosho;Ajasa Amikanle Ward;;Oluwatodupefun Convalescent Home;;;;;
Alimosho;Ajasa Amikanle Ward;;ETOP-Obong Maternity home;;;;;
Alimosho;Akesan-Obadore Ward;;Isodeva Hospital;;;;;
Alimosho;Akesan-Obadore Ward;;Gracious Yem Clinic;;;;;
Alimosho;Akesan-Obadore Ward;;D-Green Pasture Maternity Home;;;;;
Alimosho;Akesan-Obadore Ward;;El Dunamis Hospital;;;;;
Alimosho;Akesan-Obadore Ward;;Adebek Maternity Home;;;;;
Alimosho;Akesan-Obadore Ward;;Madaniya Women Specialist Hospital;;;;;
Alimosho;Akesan-Obadore Ward;;Pakal Medical Clinic;;;;;
Alimosho;Akesan-Obadore Ward;;Ahmaz Clinic;;;;;
Alimosho;Akesan-Obadore Ward;;Divine Blessing Hospital;;;;;
Alimosho;Akowonjo;;Mary the Queen Hospital;;;;;
Alimosho;Akowonjo;;Westcare Specialist Hospital;;;;;
Alimosho;Akowonjo;;Crystal Hospital;;;;;
Alimosho;Akowonjo;;Benrosevim Clinic;;;;;
Alimosho;Akowonjo;;City of Salvation Hospital and Maternity;;;;;
Alimosho;Alabata Ward;;Akowonjo Primary Health Centre;;;;;
Alimosho;Alabata Ward;;Rock Foundation Hospital (Alabata);;;;;
Alimosho;Alagbado Ward;;Agbado Primary Health Centre;;;;;
Alimosho;Alagbado Ward;;New Merit Hospital;;;;;
Alimosho;Alagbado Ward;;St. Michael Hospital;;;;;
Alimosho;Alagbado Ward;;Eucharistic Heart of Jesus Medical Centre;;;;;
Alimosho;Alagbado Ward;;Funbi Medical Centre;;;;;
Alimosho;Alagbado Ward;;Femtake Convalescent Centre;;;;;
Alimosho;Alagbado Ward;;Paulate Hospital;;;;;
Alimosho;Alagbado Ward;;Onyx Hospital;;;;;
Alimosho;Alagbado Ward;;Austra Convalscent Home;;;;;
Alimosho;Alagbado Ward;;GandT Nursing Home;;;;;
Alimosho;Alagbado Ward;;Ade Ayo Clinic;;;;;
Alimosho;Alagbado Ward;;Loveth Maternity Home;;;;;
Alimosho;Allaguntan Ward;;Glad Tidings Medical Centre;;;;;
Alimosho;Allaguntan Ward;;De Olutayo Convalescent Home;;;;;
Alimosho;Allaguntan Ward;;Light Hospital;;;;;
Alimosho;Allaguntan Ward;;Okiki Hospital;;;;;
Alimosho;Atan Ward;;Tofaan Hospital;;;;;
Alimosho;Ayobo Ward;;Hope Alive Hospital;;;;;
Alimosho;Ayobo Ward;;Insight Medicare Hospital;;;;;
Alimosho;Ayobo Ward;;Victory Success Maternity Home;;;;;
Alimosho;Ayobo Ward;;Faba Maternity Home;;;;;
Alimosho;Ayobo Ward;;Citi Hospital (Annex);;;;;
Alimosho;Ayobo Ward;;Glorious News Convalescent Home;;;;;
Alimosho;Ayobo Ward;;Banke Hospital;;;;;
Alimosho;Ayobo Ward;;Oluwabamise Health Care Service;;;;;
Alimosho;Ayobo Ward;;Akanbi Memorial Hospital;;;;;
Alimosho;Ayobo Ward;;Ayobo Primary Health Centre;;;;;
Alimosho;Ayobo Ward;;T God bless;;;;;
Alimosho;Ayobo Ward;;Moyo Medical centre;;;;;
Alimosho;Bada Ward;;Cele Apata Clinic;;;;;
Alimosho;Bada Ward;;St Monicas Hospital;;;;;
Alimosho;Bada Ward;;Bada Health Post;;;;;
Alimosho;Baruwa Ward;;Solad Medical Centre;;;;;
Alimosho;Baruwa Ward;;Baruwa Primary Health Centre - Alimosho;;;;;
Alimosho;Egan Ward;;CAC Ibudo Agbara;;;;;
Alimosho;Egan Ward;;Santa Maria Hospital;;;;;
Alimosho;Egan Ward;;Vintage Hospital;;;;;
Alimosho;Egan Ward;;El-Rapha Nursing Home;;;;;
Alimosho;Egan Ward;;Isuti Medical centre;;;;;
Alimosho;Egan Ward;;Benaz Nursing Home;;;;;
Alimosho;Egan Ward;;Life Fount Medical Centre;;;;;
Alimosho;Egan Ward;;El-Dunamis Medical Centre;;;;;
Alimosho;Egan Ward;;Crest Hospital;;;;;
Alimosho;Egan Ward;;Egan Primary Health Centre;;;;;
Alimosho;Egan Ward;;Banuso Clinic;;;;;
Alimosho;Egbe-Agodo Ward;;Precious Gift Convalescent Home;;;;;
Alimosho;Egbe-Agodo Ward;;Potters Maternity;;;;;
Alimosho;Egbe-Agodo Ward;;Limad hospital;;;;;
Alimosho;Egbe-Agodo Ward;;Jones Specialist Clinic;;;;;
Alimosho;Egbe-Agodo Ward;;Blue sea hospital;;;;;
Alimosho;Egbe-Agodo Ward;;Oohbee Hospital;;;;;
Alimosho;Egbe-Agodo Ward;;Holiness Clinic;;;;;
Alimosho;Egbe-Agodo Ward;;Mount Pisgal Hospital;;;;;
Alimosho;Egbe-Agodo Ward;;Emis Maternity Home;;;;;
Alimosho;Egbe-Agodo Ward;;New Divine Grace Nursing Home;;;;;
Alimosho;Egbe-Agodo Ward;;Agodo Health Clinic;;;;;
Alimosho;Egbeda Ward;;Christ City of Peace Maternity;;;;;
Alimosho;Egbeda Ward;;Open Door Hospital;;;;;
Alimosho;Egbeda Ward;;Miset Specialist Hospital - Egbeda;;;;;
Alimosho;Egbeda Ward;;Tripple J Clinic;;;;;
Alimosho;Egbeda Ward;;Careway Hospital;;;;;
Alimosho;Egbeda Ward;;Joy Gate Maternity Home;;;;;
Alimosho;Egbeda Ward;;Ferguson Hospital;;;;;
Alimosho;Egbeda Ward;;Shefi Hospital;;;;;
Alimosho;Egbe-Liasu Ward;;Oluwaseun Clinic - Alimosho;;;;;
Alimosho;Egbe-Liasu Ward;;Jola-Oluwa Convalescent Home;;;;;
Alimosho;Egbe-Liasu Ward;;Mount Sinai Hospital and Maternity;;;;;
Alimosho;Egbe-Liasu Ward;;Bissalam Hospital;;;;;
Alimosho;Gowon Estate Ward;;Olutoba clinic;;;;;
Alimosho;Gowon Estate Ward;;Afrique Medical Clinic;;;;;
Alimosho;Gowon Estate Ward;;Prince and Princess Hospital;;;;;
Alimosho;Gowon Estate Ward;;Gowan Estate Clinic Consortium;;;;;
Alimosho;Gowon Estate Ward;;B&Y Hospital;;;;;
Alimosho;Gowon Estate Ward;;Talent Specialist Hospital;;;;;
Alimosho;Idimu Ward;;Idimu Prime Clinic;;;;;
Alimosho;Idimu Ward;;Ephrah Medical Clinic;;;;;
Alimosho;Idimu Ward;;Modern Care HOSPITAL;;;;;
Alimosho;Idimu Ward;;Ayis Hospital;;;;;
Alimosho;Idimu Ward;;Godwin Nursing Home;;;;;
Alimosho;Idimu Ward;;Helen Aderonke Primary Health Centre;;;;;
Alimosho;Idimu Ward;;Prince Bobby Adegoroye Hospital;;;;;
Alimosho;Idimu Ward;;Demolake Memorial Nursing Home;;;;;
Alimosho;Idimu Ward;;Basis Hospital;;;;;
Alimosho;Idimu Ward;;Lota Medical Clinic;;;;;
Alimosho;Igando Ward;;Tonajib Hospital (Igando);;;;;
Alimosho;Igando Ward;;Okey Madu Maternity Home;;;;;
Alimosho;Igando Ward;;De-Life Hospital;;;;;
Alimosho;Igando Ward;;Faithland Nursing Home;;;;;
Alimosho;Igando Ward;;Frank City Hospital;;;;;
Alimosho;Igando Ward;;Jimson Convalescent Home;;;;;
Alimosho;Ijegun Ward (Alimosho);;Maciland Medical Centre;;;;;
Alimosho;Ijegun Ward (Alimosho);;St Kizito Catholic Mission Clinic;;;;;
Alimosho;Ijegun Ward (Alimosho);;Morinola Convalescent Home;;;;;
Alimosho;Ijegun Ward (Alimosho);;Nifib Hospital;;;;;
Alimosho;Ijegun Ward (Alimosho);;Datam Convalescent Home;;;;;
Alimosho;Ijegun Ward (Alimosho);;All Grace Medical centre;;;;;
Alimosho;Ijegun Ward (Alimosho);;Fountain Hospital;;;;;
Alimosho;Ijegun Ward (Alimosho);;Olatemi Maternity;;;;;
Alimosho;Ijegun Ward (Alimosho);;Glory of God maternity;;;;;
Alimosho;Ijegun Ward (Alimosho);;Life Pillar Clinic;;;;;
Alimosho;Ijegun Ward (Alimosho);;Eni Ayo Nursing Home;;;;;
Alimosho;Ikotun Ward;;De Inland Clinic;;;;;
Alimosho;Ikotun Ward;;Dayspring Hospital;;;;;
Alimosho;Ikotun Ward;;Jocab Convalescent Home;;;;;
Alimosho;Ikotun Ward;;Life Oasis Maternity Home;;;;;
Alimosho;Ikotun Ward;;De-Liberty Faith Maternity;;;;;
Alimosho;Ikotun Ward;;Ikotun Primary Health Centre;;;;;
Alimosho;Ikotun Ward;;Primex Hospital;;;;;
Alimosho;Ikotun Ward;;Emmanuelle Clinic;;;;;
Alimosho;Ikotun Ward;;Ayinla Memorial Clinic and Maternity;;;;;
Alimosho;Ikotun Ward;;Blessed Mary and Maternity Home;;;;;
Alimosho;Ikotun Ward;;Unita Hospital;;;;;
Alimosho;Ikotun Ward;;Ayo Kehinde Maternity Home;;;;;
Alimosho;Ikotun Ward;;Life Core Medical Centre;;;;;
Alimosho;Ikotun Ward;;B-Rock Convalescent Home;;;;;
Alimosho;Ikotun Ward;;Santa Medical Centre;;;;;
Alimosho;Ikotun Ward;;Broad Hospital;;;;;
Alimosho;Ipaja Ward;;Holy Bethany Clinic;;;;;
Alimosho;Ipaja Ward;;Kunlade Hospital;;;;;
Alimosho;Ipaja Ward;;Dave Rhodes Maternity Home;;;;;
Alimosho;Ipaja Ward;;Fola Debo Maternity;;;;;
Alimosho;Ipaja Ward;;Agape Hospital;;;;;
Alimosho;Ipaja Ward;;The Ark Hospital;;;;;
Alimosho;Isheri Olofin Ward;;Isheri Primary Health Centre (Olofin);;;;;
Alimosho;Isheri Olofin Ward;;Fellowship Hospital -Annexe;;;;;
Alimosho;Isheri Olofin Ward;;Ogbomoshotedo Primary Health Centre;;;;;
Alimosho;Isheri Olofin Ward;;St Williams Hospital;;;;;
Alimosho;Isheri Olofin Ward;;Ajiboye Maternity Home;;;;;
Alimosho;Isheri Oshun;;Davestar Hospital;;;;;
Alimosho;Isheri Oshun;;Cornerstone Foundation Hospital;;;;;
Alimosho;Isheri Oshun;;Ebun Oluwa Maternity;;;;;
Alimosho;Isheri Oshun;;Morlad Hospital and Maternity Home;;;;;
Alimosho;Mosan Aknogun Ward;;The Vine Medical Centre;;;;;
Alimosho;Mosan Aknogun Ward;;Akinogun Primary Health Centre;;;;;
Alimosho;Mosan Aknogun Ward;;Raban Hospital;;;;;
Alimosho;Oguntade Bameke Ward;;Mojol Hospital;;;;;
Alimosho;Oguntade Bameke Ward;;St Jacob Nursing Home;;;;;
Alimosho;Oguntade Bameke Ward;;Golden Victory Way Hospital;;;;;
Alimosho;Oguntade Bameke Ward;;Life Anchor Hospital;;;;;
Alimosho;Oguntade Bameke Ward;;Shasha Medical Clinic;;;;;
Alimosho;Oguntade Bameke Ward;;Christ The King Medical Cliinic;;;;;
Alimosho;Oguntade Bameke Ward;;Orisunbare Primary Health Centre;;;;;
Alimosho;Oguntade Bameke Ward;;The Doctors Clinic;;;;;
Alimosho;Oguntade Bameke Ward;;Summit Hospital Home;;;;;
Alimosho;Oguntade Bameke Ward;;Adenike Fadeyibi Specialist Hospital;;;;;
Alimosho;Oguntade Bameke Ward;;Mercy stripes specialist hospital;;;;;
Alimosho;Oguntade Bameke Ward;;Mediservices Community Clinic;;;;;
Alimosho;Oguntade Bameke Ward;;Jumoke Clinic;;;;;
Alimosho;Oguntade Bameke Ward;;Royal Salvation Hospital;;;;;
Alimosho;Oguntade Bameke Ward;;Mayo Mide Convalescent Nursing Home;;;;;
Alimosho;Okeodo Ward;;Haven Hospital;;;;;
Alimosho;Okeodo Ward;;KSO Medical Services;;;;;
Alimosho;Okeodo Ward;;Obitoks Hospital;;;;;
Alimosho;Okeodo Ward;;Leke Memorial Clinic;;;;;
Alimosho;Okeodo Ward;;Funmilola Maternity Home;;;;;
Alimosho;Okeodo Ward;;Oar Medical Centre;;;;;
Alimosho;Okeodo Ward;;Real Care Hospital;;;;;
Alimosho;Oki Ward;;Royal Castle Maternity Home;;;;;
Alimosho;Oki Ward;;Oki PHC;;;;;
Alimosho;Oki Ward;;Zenith Medical Centre;;;;;
Alimosho;Okunlola Ward;;Debusoyin clinic;;;;;
Alimosho;Okunlola Ward;;New Bethel Samaritan;;;;;
Alimosho;Okunlola Ward;;Abudant Life Maternity Home;;;;;
Alimosho;Okunlola Ward;;Rauf Aregbesola Medical Centre;;;;;
Alimosho;Omituntun Ward;;D'Great Hospital;;;;;
Alimosho;Omituntun Ward;;Moria Hospital Annexe;;;;;
Alimosho;Santos Ward;;Santos Medical Centre;;;;;
Alimosho;Unity Estate Ward;;Vine Yard Hospital;;;;;
Amuwo Odofin;Abule Osun Ward;;Macfan Medical Centre;;;;;
Amuwo Odofin;Abule Osun Ward;;Bonne Sante Hospital - Onireke;;;;;
Amuwo Odofin;Adosoba Ward;;Bola Ahmed Tinubu Primary Health Centre;;;;;
Amuwo Odofin;Adosoba Ward;;Oyeronke Memorial Maternity Centre;;;;;
Amuwo Odofin;Adosoba Ward;;Adekite Maternity Home;;;;;
Amuwo Odofin;Agboju Ward;;Golden Care Hospital;;;;;
Amuwo Odofin;Agboju Ward;;El Bethel Hospital;;;;;
Amuwo Odofin;Agboju Ward;;K Express Clinic;;;;;
Amuwo Odofin;Agboju Ward;;Hopeland Hospital;;;;;
Amuwo Odofin;Agboju Ward;;Agboju Primary Health Centre;;;;;
Amuwo Odofin;Agboju Ward;;Fravyn Clinic;;;;;
Amuwo Odofin;Eko Akete Mile 2 Ward;;Chosen Hospital;;;;;
Amuwo Odofin;Eko Akete Mile 2 Ward;;St Richard Clinic;;;;;
Amuwo Odofin;Eko Akete Mile 2 Ward;;Mile 2 Primary Health Centre;;;;;
Amuwo Odofin;Eko Akete Mile 2 Ward;;Kingswill Hospital;;;;;
Amuwo Odofin;Eko Akete Mile 2 Ward;;Zodiak Hospital;;;;;
Amuwo Odofin;Eko Akete Mile 2 Ward;;Jes/Jes Clinic;;;;;
Amuwo Odofin;Eko Akete Mile 2 Ward;;Sonea Hospital;;;;;
Amuwo Odofin;Eko Akete Mile 2 Ward;;Panox Hospital;;;;;
Amuwo Odofin;Eko Akete Mile 2 Ward;;AMC Hospital;;;;;
Amuwo Odofin;Ibeshe Ward;;Ibeshe Primary Health Centre;;;;;
Amuwo Odofin;Ifelodun Ward;;Royal Oak Hospital;;;;;
Amuwo Odofin;Ifelodun Ward;;Neb's Clinic;;;;;
Amuwo Odofin;Ifelodun Ward;;maternal & child center(mcc);;;;;
Amuwo Odofin;Ifelodun Ward;;Somito Specialist Hospital;;;;;
Amuwo Odofin;Ifelodun Ward;;Pentecost Clinic;;;;;
Amuwo Odofin;Ifelodun Ward;;Selcy Clinic;;;;;
Amuwo Odofin;Ifelodun Ward;;First Line Hospital;;;;;
Amuwo Odofin;Ifelodun Ward;;levan medical center;;;;;
Amuwo Odofin;Ifelodun Ward;;Lasapienza Hospital;;;;;
Amuwo Odofin;Ijegun Ward (Amuwo Odofin);;Holly Family Hospital;;;;;
Amuwo Odofin;Ijegun Ward (Amuwo Odofin);;Archangels Hospital;;;;;
Amuwo Odofin;Ijegun Ward (Amuwo Odofin);;Glad Heart Specialist Clinic;;;;;
Amuwo Odofin;Ijegun Ward (Amuwo Odofin);;Satellite Primary Health Centre;;;;;
Amuwo Odofin;Ijegun Ward (Amuwo Odofin);;De-Uzoma Clinic;;;;;
Amuwo Odofin;Ijegun Ward (Amuwo Odofin);;Bengoz Maternity Home;;;;;
Amuwo Odofin;Ijegun Ward (Amuwo Odofin);;Ijegun Primary Health Centre;;;;;
Amuwo Odofin;Ijegun Ward (Amuwo Odofin);;Leafega Maternity Home;;;;;
Amuwo Odofin;Ijegun Ward (Amuwo Odofin);;Orion Clinic;;;;;
Amuwo Odofin;Ijegun Ward (Amuwo Odofin);;Rhowil Total Care;;;;;
Amuwo Odofin;Irede Ward;;Irede Health Post;;;;;
Amuwo Odofin;Irepodun Ward;;Prime Care Hospital;;;;;
Amuwo Odofin;Kirikiri Ward;;Nigeria Naval Hospital;;;;;
Amuwo Odofin;Kirikiri Ward;;New Nigeria Hospital;;;;;
Amuwo Odofin;Kirikiri Ward;;St Joseph Catholic Clinic;;;;;
Amuwo Odofin;Kirikiri Ward;;De-Anointed Ugoh Medical Centre;;;;;
Amuwo Odofin;Kirikiri Ward;;Aminat Convalescent Home;;;;;
Amuwo Odofin;Kirikiri Ward;;Life Hope Multiconsult Medical Centre;;;;;
Amuwo Odofin;Kirikiri Ward;;Eronmon Specialist Hospital;;;;;
Amuwo Odofin;Kuje Ward;;Adetunji Memorial Hospital;;;;;
Amuwo Odofin;Kuje Ward;;Blessed Assurance Maternity;;;;;
Amuwo Odofin;Kuje Ward;;Far East Medical Centre;;;;;
Amuwo Odofin;Kuje Ward;;ls Safe Hand Medical Centre;;;;;
Amuwo Odofin;Kuje Ward;;Makal Medical Centre - Kuje;;;;;
Amuwo Odofin;Odofin Ward;;Igbologun Medical Centre;;;;;
Amuwo Odofin;Odofin Ward;;Day Spring Faith Hospital;;;;;
Amuwo Odofin;Odofin Ward;;Beach Land Hospital;;;;;
Amuwo Odofin;Odofin Ward;;Redeemed Maternity;;;;;
Amuwo Odofin;Orire Ward;;Hovas Place Hospital and Clinic;;;;;
Amuwo Odofin;Orire Ward;;Gods power Clinic;;;;;
Amuwo Odofin;Orire Ward;;Holy Family Medical Centre;;;;;
Amuwo Odofin;Orire Ward;;Faithcare Hospital;;;;;
Amuwo Odofin;Orire Ward;;Festac Primary Health Centre;;;;;
Amuwo Odofin;Orire Ward;;Bethseda Clinic and Maternity Home;;;;;
Amuwo Odofin;Orire Ward;;Blue Lime Hospital;;;;;
Amuwo Odofin;Orire Ward;;Renue Clinic;;;;;
Amuwo Odofin;Orire Ward;;ls Ituah Medical Centre;;;;;
Amuwo Odofin;Orire Ward;;Praise Medical Centre;;;;;
Amuwo Odofin;Orire Ward;;Golden Cross Hospital;;;;;
Amuwo Odofin;Orire Ward;;Emel Hospital;;;;;
Amuwo Odofin;Orire Ward;;St Clement Specialist Hospital;;;;;
Amuwo Odofin;Orire Ward;;The Hosanna Clinic;;;;;
Amuwo Odofin;Orire Ward;;Outreach Medical Service;;;;;
Amuwo Odofin;Orire Ward;;Le Bonne Sante Health Services;;;;;
Amuwo Odofin;Orire Ward;;Sheperd Specialist Hospital;;;;;
Amuwo Odofin;Orire Ward;;Holy Rosary Medical Centre;;;;;
Amuwo Odofin;Orire Ward;;St Judes Hospital;;;;;
Amuwo Odofin;Orire Ward;;De Marvel Hospital;;;;;
Amuwo Odofin;Tomaro Ward;;Igbo Ologun Primary Health Centre;;;;;
Amuwo Odofin;Tomaro Ward;;Sagbokodji Primary Health Centre;;;;;
Apapa;Abete Ward;;Reliance Nursing Home;;;;;
Apapa;Abraham Adesanya Ward;;Honey well Clinic;;;;;
Apapa;Abraham Adesanya Ward;;Nanti health Post;;;;;
Apapa;Abraham Adesanya Ward;;TandS Hospital;;;;;
Apapa;Abraham Adesanya Ward;;Lagos Clinic ;;;;;
Apapa;Abraham Adesanya Ward;;Tincan Hospital;;;;;
Apapa;Abraham Adesanya Ward;;Sea School Clinic;;;;;
Apapa;Alafia (Apapa) Ward;;Afolabi Convalescent Home;;;;;
Apapa;Alafia (Apapa) Ward;;Bamiyo Medical Clinic;;;;;
Apapa;Alafia (Apapa) Ward;;Sari Primary Health Centre;;;;;
Apapa;Alafia (Apapa) Ward;;Eternal Life Hospital;;;;;
Apapa;Anjorin Ward;;Flour Mills of Nigeria Clinic;;;;;
Apapa;Anjorin Ward;;Majoroh Medical Centre - Anjorin;;;;;
Apapa;Anjorin Ward;;Unicare Clinic - Apapa;;;;;
Apapa;Anjorin Ward;;Medicare Medical Centre;;;;;
Apapa;Anjorin Ward;;St Louis Medical Centre;;;;;
Apapa;Anjorin Ward;;Apapa General Hospital;;;;;
Apapa;Anjorin Ward;;Christ Medical Centre;;;;;
Apapa;Anjorin Ward;;Sacred Heart Clinic (Apapa);;;;;
Apapa;Anjorin Ward;;Ahmadiyya Muslim Hospital;;;;;
Apapa;Anjorin Ward;;Apapa Annex Staff Clinic;;;;;
Apapa;Anjorin Ward;;Taan Medico Hospital;;;;;
Apapa;Apapa Ward;;Iduna Specialist Hospital - Apapa;;;;;
Apapa;Apapa Ward;;Oluwole Health Post;;;;;
Apapa;Apapa Ward;;St Milla Hospital - Apapa;;;;;
Apapa;Badia Ward;;Jim Sam Hosptial;;;;;
Apapa;Badia Ward;;Barak Hospital;;;;;
Apapa;Gaskiya Ward;;Mass Care Nursing Home;;;;;
Apapa;Gaskiya Ward;;Olojowon Primary Health Centre;;;;;
Apapa;Ijora Ward;;Seven Up Clinic;;;;;
Apapa;Ijora Ward;;Abizak Convalscent Clinic;;;;;
Apapa;Ijora Ward;;Greif Clinic;;;;;
Apapa;Ijora Ward;;Ijora Primary Health Centre;;;;;
Apapa;Ijora Ward;;Forte Oil PLC Clinic;;;;;
Apapa;Marine Beach Ward;;Grace and George Clinic;;;;;
Apapa;Marine Beach Ward;;Gidado Clinic and Maternity Home;;;;;
Apapa;Marine Beach Ward;;Mobil Oil Clinic;;;;;
Apapa;Marine Beach Ward;;Marine Beach Health Post;;;;;
Apapa;Marine Beach Ward;;Emmanuel Medical Centre;;;;;
Apapa;Oduduwa Ward;;Lagoon Hospital (Apapa);;;;;
Apapa;Owoseni Ward;;St. Peter Nursing Home;;;;;
Apapa;Sari Ward;;Syban Medical Clinic;;;;;
Apapa;Sari Ward;;Winax Clinic and Maternity Home;;;;;
Apapa;Sari Ward;;Olukayode Convalescent Home;;;;;
Apapa;Sari Ward;;Galaxy Clinic;;;;;
Apapa;Sari Ward;;Zion PHC;;;;;
Badagry;Ahovikoh Ward;;Thalital Medical Center;;;;;
Badagry;Ahovikoh Ward;;Badagry General Hospital;;;;;
Badagry;Ajara Topa Ward;;Yematt Maternity Home;;;;;
Badagry;Ajara Topa Ward;;Caregiver Hospital;;;;;
Badagry;Ajara Topa Ward;;Ajara Medical Centre;;;;;
Badagry;Ajara Topa Ward;;Ajara Health Post;;;;;
Badagry;Ajara Vetho Ward;;French Village Clinic;;;;;
Badagry;Ajara Vetho Ward;;Ajara Primary Health Centre (Badagry);;;;;
Badagry;Ajido Ward;;Ajido Primary Health Centre;;;;;
Badagry;Akoro Ward;;SAPO Health Post;;;;;
Badagry;Apa Ward;;Apa Primary Health Centre;;;;;
Badagry;Apa Ward;;Peace Lover ;;;;;
Badagry;Apa Ward;;Jesus Reigns Maternity Home;;;;;
Badagry;Apa Ward;;God's Will Convalescent Home;;;;;
Badagry;Aradagun Mowo Ward;;Fortune Maternity Home;;;;;
Badagry;Aradagun Mowo Ward;;Mowo Primary Health Centre;;;;;
Badagry;Aradagun Mowo Ward;;Ibukun Clinic;;;;;
Badagry;Araromi Ale Ward;;Godsof Maternity Home;;;;;
Badagry;Araromi Ale Ward;;MIC Stephen Nursing Home;;;;;
Badagry;Araromi Ale Ward;;Ademola Hospital;;;;;
Badagry;Araromi Ale Ward;;Ibijola Hospital;;;;;
Badagry;Araromi Ale Ward;;Saseun Hospital Annexe;;;;;
Badagry;Araromi Ale Ward;;Ajetola Nursing Home;;;;;
Badagry;Araromi Ale Ward;;Favour Hospital;;;;;
Badagry;Araromi Ale Ward;;Deelacs Hospital;;;;;
Badagry;Araromi Ale Ward;;Morogbo Primary Health Centre;;;;;
Badagry;Araromi Ale Ward;;Toluwalope Maternity Centre;;;;;
Badagry;Araromi Ale Ward;;Christ Foundation Clinic;;;;;
Badagry;Araromi Ale Ward;;Victoria Memorial Hospital;;;;;
Badagry;Araromi Ale Ward;;Appleyard Clinic;;;;;
Badagry;Araromi Ale Ward;;Gold Maternity Home;;;;;
Badagry;Awhajingboh Ward;;GBEREFU PHC;;;;;
Badagry;Awhajingboh Ward;;Marina Primary Health Centre (Awhajingbon Quarters);;;;;
Badagry;Gbethronme Ward;;Seme Primary Health Centre;;;;;
Badagry;Ibereko Ward;;Modupe Oluwa Nursing Home;;;;;
Badagry;Ibereko Ward;;Ola Oki Hospital;;;;;
Badagry;Ibereko Ward;;Our's Lady France's Hospital;;;;;
Badagry;Ibereko Ward;;Ola Oki Hospital (annex);;;;;
Badagry;Ibereko Ward;;Ibereko Primary Health Centre;;;;;
Badagry;Ikoga Ward;;Anthony Cardinal Maternity Center;;;;;
Badagry;Ikoga Ward;;Ayo-Olu Clinic;;;;;
Badagry;Ikoga Ward;;Iragbo/Iragan  HP;;;;;
Badagry;Ikoga Ward;;Pota Primary Health Centre;;;;;
Badagry;Ilogbo Ward;;Ilogbo Primary Health Centre;;;;;
Badagry;Ilogbo Ward;;Lana Convalescent Home;;;;;
Badagry;Ilogbo Ward;;Yo Omolara Maternity Home;;;;;
Badagry;Ilogbo Ward;;Isamole Health Post;;;;;
Badagry;Ilogbo Ward;;Adejoke Hospital;;;;;
Badagry;Iworo Gbankon Ward;;Ilado Primary Health Centre;;;;;
Badagry;Iworo Gbankon Ward;;Adebayo Living Tower Hospital;;;;;
Badagry;Iworo Gbankon Ward;;Morayo Clinic;;;;;
Badagry;Iworo Gbankon Ward;;Comfort Modupe Nursing Home;;;;;
Badagry;Kweme Ward;;Farasime Primary Health Centre;;;;;
Badagry;Posukoh Ward;;Harmony Hospital;;;;;
Badagry;Posukoh Ward;;Seriki Abimbola Memorial Hospital;;;;;
Badagry;Posukoh Ward;;Evergreen Medical Centre;;;;;
Badagry;Posukoh Ward;;Great Physician Hospital;;;;;
Badagry;Topo/Idale Ward;;Topo - Idale HP;;;;;
Badagry;Topo/Idale Ward;;Ascon Clinic;;;;;
Badagry;Wesere Ward;;Igbogbele Primary Health Centre;;;;;
Epe;Agbowa Ward;;Agbowa Primary Health Centre;;;;;
Epe;Ajebo Ward G1;;Ajebo Health Clinic;;;;;
Epe;Ajebo Ward G1;;Orugbo Health Clinic;;;;;
Epe;Bado Ward;;Epe Primary Health Centre;;;;;
Epe;Ibonwon Ward J1;;Ibonwon Clinic;;;;;
Epe;Ifesowapo Ward;;Igbodu Health Centre;;;;;
Epe;Ifesowapo Ward;;Itokin Primary Health Centre;;;;;
Epe;Ifesowapo Ward;;Ketu General Hospital;;;;;
Epe;Ilara Ward;;Igbonla Primary Heatlh Centre;;;;;
Epe;Ilara Ward;;Ilara Primary Health Centre;;;;;
Epe;Isale Agoro Ward;;Afuye Primary Health Centre;;;;;
Epe;Odoragunsin Ward;;Mojoda Primary Health Centre;;;;;
Epe;Odoragunsin Ward;;Eredo Primary Health Centre;;;;;
Epe;Owu/Ota Ward;;Owu Primary Health Centre;;;;;
Epe;Owu/Ota Ward;;Ota Ikosi Primary Health Centre;;;;;
Epe;Owu/Ota Ward;;Odo Ayandelu Primary Health Centre;;;;;
Epe;Papa Ward A6;;Papa PHC;;;;;
Epe;Papa Ward A6;;Epe General Hospital;;;;;
Eti-Osa;1004 Victoria Isand Ward;;Ave Maria Hospital;;;;;
Eti-Osa;1004 Victoria Isand Ward;;Medbury Medical Servicesl - 1004;;;;;
Eti-Osa;1004 Victoria Isand Ward;;Fatai Williams Clinic;;;;;
Eti-Osa;Addo Ward;;Sheriff Clinic;;;;;
Eti-Osa;Addo Ward;;Ado Primary Health Centre;;;;;
Eti-Osa;Ajah Ward;;Milaj Convalescent Home;;;;;
Eti-Osa;Ajah Ward;;Baefem Specialist Hospital;;;;;
Eti-Osa;Ajah Ward;;Kids Care Paediatric Hospital;;;;;
Eti-Osa;Ajah Ward;;Ajah Primary Health Centre;;;;;
Eti-Osa;Ajah Ward;;Mobil Clinic;;;;;
Eti-Osa;Ajah Ward;;Ajah Clinic and Maternity Home;;;;;
Eti-Osa;Ajah Ward;;Doren Specialist Hospital;;;;;
Eti-Osa;Ajah Ward;;Critical Rescue International;;;;;
Eti-Osa;Ajah Ward;;Badore Primary Health Centre;;;;;
Eti-Osa;Ajiran Osapa Ward;;Ajiran Health Post;;;;;
Eti-Osa;Ajiran Osapa Ward;;Sheriff Clinic - Etiosa;;;;;
Eti-Osa;Ajiran Osapa Ward;;Esteemos Health Clinic;;;;;
Eti-Osa;Ajiran Osapa Ward;;Care max hospital ;;;;;
Eti-Osa;Ajiran Osapa Ward;;First City Hospital;;;;;
Eti-Osa;Apese Ward;;Royal Saints Hospital;;;;;
Eti-Osa;Apese Ward;;Eko Hotel Clinic;;;;;
Eti-Osa;Apese Ward;;Budo Specialist Hospital;;;;;
Eti-Osa;Apese Ward;;Lagoon Specialist Suites;;;;;
Eti-Osa;Badore Ward;;J Rapha Hospital;;;;;
Eti-Osa;Badore Ward;;The Heritage Specialist Clinic;;;;;
Eti-Osa;Badore Ward;;St Edward Hospital;;;;;
Eti-Osa;Badore Ward;;Havilah Clinic;;;;;
Eti-Osa;Badore Ward;;The Royal Infirmary;;;;;
Eti-Osa;Falomo Oyinkan ward;;St John Anglican Church hsp;;;;;
Eti-Osa;Falomo Oyinkan ward;;Gold Cross Hospital - Keffi;;;;;
Eti-Osa;Igbo Efon Ward;;Chevron Clinic;;;;;
Eti-Osa;Igbo Efon Ward;;Igbo Efon Primary Health Centre;;;;;
Eti-Osa;Igbo Efon Ward;;Udeco Medical Centre;;;;;
Eti-Osa;Ijeh/Dolphin Ward;;Excel Children Medical Centre;;;;;
Eti-Osa;Ikate Ward;;Ikate Primary Health Centre;;;;;
Eti-Osa;Ikate Ward;;Anna Maria Hospital;;;;;
Eti-Osa;Ikate Ward;;Gbara/Maiyegun Health Post;;;;;
Eti-Osa;Ikate Ward;;Niyot Medical Centre;;;;;
Eti-Osa;Ikate Ward;;Rainbow Specialist Hospital;;;;;
Eti-Osa;Ikoyi 11 Ward;;Citizen Medical Centre - Keffi;;;;;
Eti-Osa;Ikoyi Ward 1;;The Childrens  Practice;;;;;
Eti-Osa;Ikoyi Ward 1;;Ikoyi Primary Health Centre;;;;;
Eti-Osa;Jkota Ward;;Verdic Life Care Hospital;;;;;
Eti-Osa;Kuramo Ward;;Victoria Island Consultant and Hospital Services;;;;;
Eti-Osa;Maroko Okun Alfa Ward;;Atlantic Medical Centre;;;;;
Eti-Osa;Maroko Okun Alfa Ward;;S A Adeyemi PHC- Ilasan;;;;;
Eti-Osa;Maroko Okun Alfa Ward;;Nuklius Specialist Hospital;;;;;
Eti-Osa;Maroko Okun Alfa Ward;;The True Vine Hospital;;;;;
Eti-Osa;Maroko Okun Alfa Ward;;Ikota Primary Health Centre;;;;;
Eti-Osa;Maroko Okun Alfa Ward;;Peninsula Hospital;;;;;
Eti-Osa;Maroko Okun Alfa Ward;;St Kizito Hospital;;;;;
Eti-Osa;Maroko Okun Alfa Ward;;Healing Stripes Hospital;;;;;
Eti-Osa;Maroko Okun Alfa Ward;;Familycare Ikota Medical Centre;;;;;
Eti-Osa;Maroko Okun Alfa Ward;;Queensway Hospital;;;;;
Eti-Osa;Obalende Ward;;Divine Hospital;;;;;
Eti-Osa;Obalende Ward;;Obalende Primary Health Centre;;;;;
Eti-Osa;Obalende Ward;;Ambassador Medica Clinic;;;;;
Eti-Osa;Obalende Ward;;St Francois Hospital;;;;;
Eti-Osa;Obalende Ward;;Cosmoderm Medical Centre;;;;;
Eti-Osa;Obalende Ward;;Ife-Oluwa Maternity Home;;;;;
Eti-Osa;Obalende Ward;;Royal Cross Medical Centre;;;;;
Eti-Osa;Okunmobo - Ogombo Ward;;Ogombo  Health Post;;;;;
Eti-Osa;Okunmobo - Ogombo Ward;;Okunmapo Health post;;;;;
Eti-Osa;Osapa Ward;;Mofford Clinic;;;;;
Eti-Osa;Sangotedo Ward;;Safe Way Hospital;;;;;
Eti-Osa;Sangotedo Ward;;Sangotedo Primary Health Centre;;;;;
Eti-Osa;Sangotedo Ward;;Dalet Hospital;;;;;
Eti-Osa;Tarkwa Bay Ward;;Tarkwa Bay Health Post;;;;;
Eti-Osa;V/Island Ward;;Dennis Ashley Hospital;;;;;
Eti-Osa;V/Island Ward;;Peadiatric Partners Ltd;;;;;
Eti-Osa;V/Island Ward;;Lagoon Hospital (Eti Osa);;;;;
Eti-Osa;V/Island Ward;;ST. Nicholas Hospital;;;;;
Eti-Osa;V/Island Ward;;Hartwell Hospital;;;;;
Eti-Osa;V/Island Ward;;Faith City Hospital;;;;;
Eti-Osa;V/Island Ward;;Premier Specialist Medical Clinic;;;;;
Ibeju Lekki;Ibeju 1 Ward;;As-salam Medical Centre;;;;;
Ibeju Lekki;Ibeju 1 Ward;;Ibeju Primary Health Centre;;;;;
Ibeju Lekki;Ibeju 1 Ward;;Oko Oba Primary Health Centre;;;;;
Ibeju Lekki;Ibeju 2 Ward;;God Favour Clinic;;;;;
Ibeju Lekki;Ibeju 2 Ward;;Paulson Convalescent Centre;;;;;
Ibeju Lekki;Ise Gbogun Ward ;;Aboreji Health Post;;;;;
Ibeju Lekki;Ise Gbogun Ward ;;Okun Ise Health Post;;;;;
Ibeju Lekki;Iwerekun 1 Ward;;Lakonwe Primary Health Centre;;;;;
Ibeju Lekki;Iwerekun 1 Ward;;Mike Esther Convalescent Home;;;;;
Ibeju Lekki;Iwerekun 1 Ward;;Griggs Specialist Hosp;;;;;
Ibeju Lekki;Iwerekun 1 Ward;;As Salam Convalescent Centre;;;;;
Ibeju Lekki;Iwerekun 1 Ward;;Aderain Hospital;;;;;
Ibeju Lekki;Iwerekun 1 Ward;;Awoyaya Primary Health Centre 2 (CBHIS);;;;;
Ibeju Lekki;Iwerekun 1 Ward;;La New Vigour Hospital;;;;;
Ibeju Lekki;Iwerekun 1 Ward;;Awoyaya Primary Health Centre 1;;;;;
Ibeju Lekki;Iwerekun 1 Ward;;Little Way Hospital;;;;;
Ibeju Lekki;Iwerekun 1 Ward;;Heilung kruez Hospital;;;;;
Ibeju Lekki;Iwerekun 1 Ward;;Awoyaya Hospital;;;;;
Ibeju Lekki;Iwerekun 2 Ward;;Luscent Hospital;;;;;
Ibeju Lekki;Iwerekun 2 Ward;;Bogije Primary Health Centre;;;;;
Ibeju Lekki;Iwerekun 2 Ward;;Natzah hospital;;;;;
Ibeju Lekki;Iwerekun 2 Ward;;Aparagi Health Centre;;;;;
Ibeju Lekki;Iwerekun 2 Ward;;God is Great Maternity;;;;;
Ibeju Lekki;Iwerekun 2 Ward;;Otunla Primary Health Centre;;;;;
Ibeju Lekki;Iwerekun 2 Ward;;Aris Hopsital;;;;;
Ibeju Lekki;Lekki 1;;Lekki Primary Health Centre;;;;;
Ibeju Lekki;Lekki 1;;Osoroko Primary Health Centre;;;;;
Ibeju Lekki;Lekki 1;;Idotun Health Post;;;;;
Ibeju Lekki;Lekki 2;;Magbon Segun Primary Health Centre;;;;;
Ibeju Lekki;Lekki 2;;Idasho Primary Health Centre;;;;;
Ibeju Lekki;Lekki 2;;Okunraye Primary Health Centre;;;;;
Ibeju Lekki;Lekki 2;;Famous Clinic;;;;;
Ibeju Lekki;Orimedu  1 Ward;;Orimedu Primary Health Centre;;;;;
Ibeju Lekki;Orimedu 2 Ward;;New Nelpha Clinic;;;;;
Ibeju Lekki;Orimedu 2 Ward;;Makog Hospital;;;;;
Ibeju Lekki;Orimedu 2 Ward;;Iberekodo Primary Health Centre;;;;;
Ibeju Lekki;Orimedu 2 Ward;;Kenade Convalescent Home;;;;;
Ibeju Lekki;Orimedu 3 Ward;;Solu Alade Primary Health Centre;;;;;
Ibeju Lekki;Orimedu 3 Ward;;Debojo Primary Health Centre;;;;;
Ibeju Lekki;Shirinwon 2 Ward;;Apakin Primary Health Centre;;;;;
Ifako/Ijaye;Abule Egba (Ifako) Ward;;RCCG Maternity;;;;;
Ifako/Ijaye;Abule Egba (Ifako) Ward;;P&G Clinic;;;;;
Ifako/Ijaye;Abule Egba (Ifako) Ward;;Standard Life Care Hospital;;;;;
Ifako/Ijaye;Abule Egba (Ifako) Ward;;Geo Marie Clinic;;;;;
Ifako/Ijaye;Abule Egba (Ifako) Ward;;Ola Oluwa Hospital;;;;;
Ifako/Ijaye;Abule Egba (Ifako) Ward;;First Mainland Hospital;;;;;
Ifako/Ijaye;Agbado Dalemo Ward;;St Emmanuel Convalescent Centre;;;;;
Ifako/Ijaye;Agbado Dalemo Ward;;Jefis Specialist Hospital;;;;;
Ifako/Ijaye;Agbado Dalemo Ward;;Bolutife Convalescent Centre;;;;;
Ifako/Ijaye;Agbado Dalemo Ward;;Abule Titun Primary Health Centre;;;;;
Ifako/Ijaye;Agbado Ojokoro Ward;;The Champion Nursing Home;;;;;
Ifako/Ijaye;Agbado Ojokoro Ward;;All for God Maternity ;;;;;
Ifako/Ijaye;Agbado Ojokoro Ward;;Wemmy Maternity Home;;;;;
Ifako/Ijaye;Agbado Ojokoro Ward;;Orire Convalescent Centre;;;;;
Ifako/Ijaye;Agbado Ojokoro Ward;;Tomi Nursing Home;;;;;
Ifako/Ijaye;Agbado Ojokoro Ward;;Agbado Primary Health Centre (Ifako/Ijaye);;;;;
Ifako/Ijaye;Agbado Ojokoro Ward;;Rem Yem Health Centre;;;;;
Ifako/Ijaye;Agbado Ojokoro Ward;;Solidarity Convalescent Home;;;;;
Ifako/Ijaye;Agbado Ojokoro Ward;;Shallom Medical Centre;;;;;
Ifako/Ijaye;Ajegunle Ilo Ward;;Ajegunle Ilo Primary Health Centre;;;;;
Ifako/Ijaye;Ifako Coker Ward;;Ifako Primary Health Centre;;;;;
Ifako/Ijaye;Ifako Coker Ward;;Golden Mother Maternity Home;;;;;
Ifako/Ijaye;Ifako Coker Ward;;Layole Hospital and Maternity;;;;;
Ifako/Ijaye;Ifako Coker Ward;;Olasubomi (All in Care) Clinic;;;;;
Ifako/Ijaye;Ifako Pele Ward;;St Thomas Hospital;;;;;
Ifako/Ijaye;Ifako Pele Ward;;Hollow of His Hands Clinic;;;;;
Ifako/Ijaye;Ifako Pele Ward;;Our Friend Hospital;;;;;
Ifako/Ijaye;Ifako Pele Ward;;Sophi Clinic;;;;;
Ifako/Ijaye;Ijaiye Grinrinmi Ward;;Isokan Primary Health Centre;;;;;
Ifako/Ijaye;Ijaiye Grinrinmi Ward;;Grace Fountain Medical Centre;;;;;
Ifako/Ijaye;Ijaiye Grinrinmi Ward;;Adesola Primary Health Centre;;;;;
Ifako/Ijaye;Ijaiye Ojokoro Ward;;Uptown Medical Centre;;;;;
Ifako/Ijaye;Ijaiye Ojokoro Ward;;Mid Dental Clinic;;;;;
Ifako/Ijaye;Ijaiye Ojokoro Ward;;God First Hospital;;;;;
Ifako/Ijaye;Ijaiye Ojokoro Ward;;Ahmadiyya Hospital;;;;;
Ifako/Ijaye;Ijaiye Ojokoro Ward;;New King Clinic;;;;;
Ifako/Ijaye;Ijaiye Ojokoro Ward;;Malomo Medical Clinic;;;;;
Ifako/Ijaye;Ijaiye Ojokoro Ward;;Longing Medical Centre;;;;;
Ifako/Ijaye;Ijaiye Ojokoro Ward;;Victoria Clinic - Ifako;;;;;
Ifako/Ijaye;Ijaiye Ojokoro Ward;;The Shield Specialist Hospital;;;;;
Ifako/Ijaye;Ijaiye Ojokoro Ward;;Nilan Medical Centre;;;;;
Ifako/Ijaye;Ijaiye Ojokoro Ward;;Ojokoro Primary Health Centre;;;;;
Ifako/Ijaye;Ijaiye Ojokoro Ward;;Me& Lord Clinic;;;;;
Ifako/Ijaye;Ijaiye Okeira Ward;;Moyus Hospital;;;;;
Ifako/Ijaye;Ijaiye Okeira Ward;;Nu Life Specialist Hospital;;;;;
Ifako/Ijaye;Ijaiye Okeira Ward;;De Rightsource Specialist Hospital;;;;;
Ifako/Ijaye;Ijaiye Okeira Ward;;Urbane Medical Centre;;;;;
Ifako/Ijaye;Ijaiye Okeira Ward;;Brafus Hospital;;;;;
Ifako/Ijaye;Ijaye Ifako Ward;;Inton Hospital;;;;;
Ifako/Ijaye;Ijaye Ifako Ward;;Balmigilead Medical;;;;;
Ifako/Ijaye;Ijaye Ifako Ward;;Blue Cross Hospital;;;;;
Ifako/Ijaye;Iju Ishaga Ward;;Rhaphai Hospital;;;;;
Ifako/Ijaye;Iju Ishaga Ward;;Iju Primary Health Centre;;;;;
Ifako/Ijaye;Iju Ishaga Ward;;Rolawe Clinic;;;;;
Ifako/Ijaye;Iju Ishaga Ward;;St Paul Clinic;;;;;
Ifako/Ijaye;Iju Ishaga Ward;;Fagba Convalescent Home;;;;;
Ifako/Ijaye;Iju Ishaga Ward;;Osuntuyi Medical Centre - Ifako;;;;;
Ifako/Ijaye;Iju Ishaga Ward;;ST Crost Hospital;;;;;
Ifako/Ijaye;Iju Ishaga Ward;;Longe Medical Hospital;;;;;
Ifako/Ijaye;Iju Obawole Ward;;Bayo Medical Centre;;;;;
Ifako/Ijaye;Iju Obawole Ward;;Deji Clinic - Ifako;;;;;
Ifako/Ijaye;Iju Ogundimu Ward;;Pacific Hospital;;;;;
Ifako/Ijaye;Iju Ogundimu Ward;;Ancilla Catholic Hospital;;;;;
Ifako/Ijaye;Iju Ogundimu Ward;;Dew Medical Centre;;;;;
Ifako/Ijaye;Iju Ogundimu Ward;;Iju Ogundimu Primary Health Centre;;;;;
Ifako/Ijaye;Iju Ogundimu Ward;;God Called Me Clinic;;;;;
Ifako/Ijaye;Iju Ogundimu Ward;;VAKS Health;;;;;
Ifako/Ijaye;Tabon Tabon Ward;;Akinola Hospital;;;;;
Ifako/Ijaye;Tabon Tabon Ward;;Masol  Clinic;;;;;
Ifako/Ijaye;Tabon Tabon Ward;;Madek Hospital and Maternity;;;;;
Ifako/Ijaye;Tabon Tabon Ward;;Dandy Medical Centre;;;;;
Ifako/Ijaye;Tabon Tabon Ward;;Ayodele Medical Centre;;;;;
Ikeja;Aguda Ward (Ikeja);;Regency Specialist Hospital;;;;;
Ikeja;Aguda Ward (Ikeja);;Aguda Primary Health Centre;;;;;
Ikeja;Aguda Ward (Ikeja);;County Hospital;;;;;
Ikeja;Akiode Ward;;Amazing Grace Medical Centre;;;;;
Ikeja;Akiode Ward;;Progressive Cottage Hospital;;;;;
Ikeja;Akiode Ward;;St Mary Specialist ;;;;;
Ikeja;Akiode Ward;;Akiode Primary Health Centre;;;;;
Ikeja;Alade Ward;;Ikeja Medical Centre;;;;;
Ikeja;Alausa Ward;;Alausa Primary Health Centre;;;;;
Ikeja;Alausa Ward;;The Humana Hospital;;;;;
Ikeja;Alausa Ward;;Bodet Medit Care and Maternity;;;;;
Ikeja;Alausa Ward;;Cadbury Staff Clinic;;;;;
Ikeja;Anifowose Ward;;Rose Scan Maternity Home;;;;;
Ikeja;Anifowose Ward;;Ikeja Primary Health Centre;;;;;
Ikeja;GRA Ward;;Finnih Medical Centre;;;;;
Ikeja;GRA Ward;;Arch Bishop Vinning Memorial Clinic;;;;;
Ikeja;GRA Ward;;Desert International Hospital;;;;;
Ikeja;GRA Ward;;Life Support Medical Centre;;;;;
Ikeja;GRA Ward;;Beko Ransome Kuti Primary Heatlh Centre;;;;;
Ikeja;GRA Ward;;Lagos State University Teaching Hospital;;;;;
Ikeja;GRA Ward;;Chest Clinic;;;;;
Ikeja;GRA Ward;;Arthtimed Specialist Hospital;;;;;
Ikeja;Ogba Oluwole Ward;;Kowa Specialist Clinic;;;;;
Ikeja;Ogba Oluwole Ward;;Jajo Clinic;;;;;
Ikeja;Ogba Oluwole Ward;;Health Ville Clinic;;;;;
Ikeja;Ogba Oluwole Ward;;Isalu Hospital;;;;;
Ikeja;Ogba Oluwole Ward;;De Life Gate Specialist Hospital;;;;;
Ikeja;Ogba Oluwole Ward;;Guinness Nigeria Staff Clinic;;;;;
Ikeja;Ogba Oluwole Ward;;Ogba Primary Health Centre;;;;;
Ikeja;Ojodu Ward;;Solid Rock Hospital;;;;;
Ikeja;Ojodu Ward;;Roding Medical Centre;;;;;
Ikeja;Ojodu Ward;;Finna Clinic;;;;;
Ikeja;Ojodu Ward;;Tola Maternity Home;;;;;
Ikeja;Ojodu Ward;;Adenaike Hospital;;;;;
Ikeja;Ojodu Ward;;Moye Maternity Home;;;;;
Ikeja;Ojodu Ward;;Ojodu Primary Health Centre;;;;;
Ikeja;Ojodu Ward;;New Gate Medical Services;;;;;
Ikeja;Ojodu Ward;;Royan Hospital;;;;;
Ikeja;Ojodu Ward;;Gbadeyanka Medical Centre;;;;;
Ikeja;Ojodu Ward;;St Timothy Catholic Clinic;;;;;
Ikeja;Oke-Ira Central Ward;;De-Tee and Kay Maternity Home;;;;;
Ikeja;Oke-Ira Central Ward;;Josek Medical Centre ;;;;;
Ikeja;Oke-Ira Central Ward;;Oke Ira Central Primary Health Centre;;;;;
Ikeja;Oke-Ira Central Ward;;G and S Hospital;;;;;
Ikeja;Oke-Ira Central Ward;;Lydia Nursing Home;;;;;
Ikeja;Oke-Ira Powerline Ward;;Silkin Hospital;;;;;
Ikeja;Oke-Ira Powerline Ward;;Sotire Hosp;;;;;
Ikeja;Oke-Ira Powerline Ward;;Oke-Ira Primary Health Centre;;;;;
Ikeja;Oke-Ira Powerline Ward;;Tolu Hospital;;;;;
Ikeja;Onigbongbo Ward;;Onigbongbo Primary Health Centre;;;;;
Ikeja;Onilekere Ward;;Onilekere Primary Health Centre;;;;;
Ikeja;Onilekere Ward;;Olukayode Health care Centre ;;;;;
Ikeja;Opebi Ward;;Julius Specialist Hosp;;;;;
Ikeja;Opebi Ward;;Opebi Primary Health Centre;;;;;
Ikeja;Opebi Ward;;St. Ives Specialist Hospital;;;;;
Ikeja;Opebi Ward;;Renal Dialysis Centre;;;;;
Ikeja;Opebi Ward;;Impact Health Service LTD;;;;;
Ikeja;Opebi Ward;;The Shepherd Medical Centre;;;;;
Ikeja;Oregun Ward;;De Vine Hospital;;;;;
Ikeja;Oregun Ward;;Idowu Specialist Hospital;;;;;
Ikeja;Oregun Ward;;Vitabiotics Clinic;;;;;
Ikeja;Oregun Ward;;Oregun Primary Health Centre;;;;;
Ikeja;Oregun Ward;;Olusosun Primary Health Care;;;;;
Ikeja;Orile Ikeja Ward;;New Ikeja Hospital;;;;;
Ikeja;Orile Ikeja Ward;;White House Clinic;;;;;
Ikeja;Orile Ikeja Ward;;Triumph Medical Centre;;;;;
Ikeja;Orile Ikeja Ward;;St Leo's Primary Health Centre;;;;;
Ikeja;Orile Ikeja Ward;;Holy Trinity Hospital;;;;;
Ikeja;Orile Ikeja Ward;;Life Care Clinic;;;;;
Ikeja;Orile Ikeja Ward;;Shoreman Medical Centre;;;;;
Ikeja;Orile Ikeja Ward;;Fellowship Hospital;;;;;
Ikeja;Orile Ikeja Ward;;Gods Love Maternity Home;;;;;
Ikeja;Orile Ikeja Ward;;Motayo Hospital;;;;;
Ikeja;Orile Ikeja Ward;;TLC Clinic;;;;;
Ikeja;Orile Ikeja Ward;;Gina Maternity Home;;;;;
Ikeja;Seriki Aro Ward;;Healing Balm Clinic;;;;;
Ikeja;Seriki Aro Ward;;Lister Medical Centre;;;;;
Ikeja;Seriki Aro Ward;;Apex Care Clinic;;;;;
Ikeja;Seriki Aro Ward;;Mother and Child Hospital;;;;;
Ikeja;Seriki Aro Ward;;Bolasad Specialist Hospital;;;;;
Ikeja;Seriki Aro Ward;;Adefemi Hospital;;;;;
Ikeja;Seriki Aro Ward;;Lagoon Clinic;;;;;
Ikeja;Seriki Aro Ward;;Kidney Solution Centre;;;;;
Ikeja;Seriki Aro Ward;;Lagoon Hospital - Ikeja;;;;;
Ikeja;Seriki Aro Ward;;Adeniyi Jones Primary Health Centre;;;;;
Ikeja;Wasimi Ward;;Wasimi Primary Health Centre;;;;;
Ikorodu;Abosan;;Igbogbo Primary Health Centre;;;;;
Ikorodu;Abosan;;K Idowu Medical Clinic;;;;;
Ikorodu;Abosan;;Skyebright Medical Clinic;;;;;
Ikorodu;Aga Ijomu Ward;;Faithfavour maternity;;;;;
Ikorodu;Aga Ijomu Ward;;Ikorodu General Hospital;;;;;
Ikorodu;Aga Ijomu Ward;;Esiri Specialist Hospital;;;;;
Ikorodu;Aga Ijomu Ward;;King O David Clinic;;;;;
Ikorodu;Aga Ijomu Ward;;Bigway Clinic;;;;;
Ikorodu;Aga Ijomu Ward;;Rapha Medical Centre;;;;;
Ikorodu;Aga Ijomu Ward;;Oluwasetemi Clinic;;;;;
Ikorodu;Aga Ijomu Ward;;Katis Medical Centre;;;;;
Ikorodu;Aga Ijomu Ward;;Apena Clinic;;;;;
Ikorodu;Agbala Lasumwon Ward;;Agbala Lasunwon Primary Health Centre;;;;;
Ikorodu;Agbala Lasumwon Ward;;La Continental Hospital;;;;;
Ikorodu;Agbala Lasumwon Ward;;Helping Hand Royal Hospital;;;;;
Ikorodu;Agbala Lasumwon Ward;;Rodes Clinic;;;;;
Ikorodu;Agbala Lasumwon Ward;;Kolak Hospital;;;;;
Ikorodu;Agbala Lasumwon Ward;;RCCG Maternity Centre;;;;;
Ikorodu;Agura Ward;;Agura Primary Health Centre;;;;;
Ikorodu;Agura Ward;;Tolulope Maternity Home;;;;;
Ikorodu;Aige Solomade Ward;;New Gate Hospital;;;;;
Ikorodu;Aige Solomade Ward;;B&T Trust Medical Clinic;;;;;
Ikorodu;Aige Solomade Ward;;Rolayo Clinic;;;;;
Ikorodu;Aige Solomade Ward;;Qelim Maternity Home;;;;;
Ikorodu;Aige Solomade Ward;;Shanu Medical Centre;;;;;
Ikorodu;Aige Solomade Ward;;Fayosi Clinic;;;;;
Ikorodu;Aige Solomade Ward;;Akpo Medical Centre;;;;;
Ikorodu;Aige Solomade Ward;;Jobi Hospital;;;;;
Ikorodu;Aige Solomade Ward;;Tobiloba Medical Centre;;;;;
Ikorodu;Aige Solomade Ward;;Saheed Memorial Hospital;;;;;
Ikorodu;Aiyegbami Ward;;Life source hospital;;;;;
Ikorodu;Aiyegbami Ward;;Aromedic Hospital;;;;;
Ikorodu;Aiyegbami Ward;;Ayobami Nursing Home;;;;;
Ikorodu;Ajaguro Ward;;Grace Cottage Clinic;;;;;
Ikorodu;Ajaguro Ward;;Hill Top Convalescent Home;;;;;
Ikorodu;Ajaguro Ward;;Nike Nursing Home;;;;;
Ikorodu;Ajaguro Ward;;Ori Okuta  Health Centre;;;;;
Ikorodu;Atere Ward;;Imota Primary Health Centre;;;;;
Ikorodu;Bayeku Ward;;Sure Health Hospital;;;;;
Ikorodu;Bayeku Ward;;Compass Medical Centre;;;;;
Ikorodu;Bayeku Ward;;Oluremi Convalescent Home;;;;;
Ikorodu;Bayeku Ward;;Bayeku Primary Health Centre;;;;;
Ikorodu;Bayeku Ward;;Temap Convalescent Home;;;;;
Ikorodu;Egbin ward;;Ijede Health Centre;;;;;
Ikorodu;Erikorodu Ward;;Baikal Clinic;;;;;
Ikorodu;Erikorodu Ward;;Rock of Life Maternity;;;;;
Ikorodu;Erikorodu Ward;;Harpazo Maternity Centre;;;;;
Ikorodu;Erikorodu Ward;;Lifeful Medical Centre;;;;;
Ikorodu;Erikorodu Ward;;De Immaculate Clinic;;;;;
Ikorodu;Erikorodu Ward;;BA Clinic;;;;;
Ikorodu;Erikorodu Ward;;Aileri clinic;;;;;
Ikorodu;Erikorodu Ward;;Parafa Health Post;;;;;
Ikorodu;Ewu Elepe Ward;;Oladapo medical centre;;;;;
Ikorodu;Ewu Elepe Ward;;St Rapheal hospital;;;;;
Ikorodu;Ewu Elepe Ward;;Gods Goodness Maternity;;;;;
Ikorodu;Ewu Elepe Ward;;Ewu Elepe Health Post;;;;;
Ikorodu;Ibeshe Ward - Ikorodu;;Ibeshe Primary Health Centre - Ik;;;;;
Ikorodu;Ibeshe Ward - Ikorodu;;Holy Trinity Hospital;;;;;
Ikorodu;Ibeshe Ward - Ikorodu;;Royal Cottage Clinic;;;;;
Ikorodu;Ibeshe Ward - Ikorodu;;Life O Guard Clinic;;;;;
Ikorodu;Ibeshe Ward - Ikorodu;;Life Gate Clinic;;;;;
Ikorodu;Igbokuta Ward;;Igbokuta Primary Health Centre;;;;;
Ikorodu;Ipakodo Ward;;Hopewell Hospital;;;;;
Ikorodu;Ipakodo Ward;;Ipakodo Primary Health Centre;;;;;
Ikorodu;Ipakodo Ward;;Aruna Ogun Memorial Specialist Hospital;;;;;
Ikorodu;Isawo Ward;;El-bethel hospital;;;;;
Ikorodu;Isawo Ward;;Holy Zion Clinic;;;;;
Ikorodu;Isawo Ward;;Igbo Olomu Primary Health Centre;;;;;
Ikorodu;Isawo Ward;;Oyeade Convalescent Home;;;;;
Ikorodu;Isawo Ward;;Bernice Clinic;;;;;
Ikorodu;Isawo Ward;;Oak Hospital;;;;;
Ikorodu;Isawo Ward;;De-Ifes Clinic;;;;;
Ikorodu;Isawo Ward;;Greatfoundation clinic;;;;;
Ikorodu;Isawo Ward;;Topcare;;;;;
Ikorodu;Isawo Ward;;Care Point Hospital;;;;;
Ikorodu;Isawo Ward;;EHI Clinic;;;;;
Ikorodu;Isawo Ward;;Felicia Maternity Home;;;;;
Ikorodu;Isawo Ward;;Ambassador Clinic;;;;;
Ikorodu;Isele Ward;;Ikorodu Primary Health Centre;;;;;
Ikorodu;Isiu Ward;;Isiu Primary Health Centre;;;;;
Ikorodu;Itunmaja Ward;;Christolub Convalascent Home;;;;;
Ikorodu;Itunmaja Ward;;Ori Okuta Primary Health Centre;;;;;
Ikorodu;Itunmokun Ward;;Akinbola Convalescent Home;;;;;
Ikorodu;Itunmokun Ward;;O Shola Clinic;;;;;
Ikorodu;Itunmokun Ward;;Warm Heart Hospital;;;;;
Ikorodu;Itunmokun Ward;;Kings Court Hospital;;;;;
Ikorodu;Itunmokun Ward;;De Rabs Medical Centre;;;;;
Ikorodu;Itunmokun Ward;;Emilagba clinic;;;;;
Ikorodu;Itunmokun Ward;;Irogho Nursing Home;;;;;
Ikorodu;Itunmokun Ward;;Life Light Hospital;;;;;
Ikorodu;Itunmokun Ward;;Divine Touch Clinic;;;;;
Ikorodu;Itunpate Ward;;Ajayi Medical Centre - Ikorodu;;;;;
Ikorodu;Itunpate Ward;;Omotayo Convalescent Home;;;;;
Ikorodu;Majidun Ward;;Opeolu Clinic;;;;;
Ikorodu;Majidun Ward;;J and T Temitope Convalescent;;;;;
Ikorodu;Majidun Ward;;Majidun Primary Health Centre;;;;;
Ikorodu;Odongunyan Ward;;Tessed Clinic;;;;;
Ikorodu;Odongunyan Ward;;Sevic Clinic;;;;;
Ikorodu;Odongunyan Ward;;Molad Clinic;;;;;
Ikorodu;Odongunyan Ward;;Amglow Hospital;;;;;
Ikorodu;Odongunyan Ward;;Bronila mmedical Centre;;;;;
Ikorodu;Odongunyan Ward;;Saviour D Rock Hospital;;;;;
Ikorodu;Odongunyan Ward;;Dasochris Hospital;;;;;
Ikorodu;Odongunyan Ward;;Golden Crown Hospital;;;;;
Ikorodu;Odongunyan Ward;;Exceeding Grace Hospital;;;;;
Ikorodu;Odongunyan Ward;;Pharcept Hospital;;;;;
Ikorodu;Odongunyan Ward;;Dele Hospital;;;;;
Ikorodu;Odongunyan Ward;;Prince of Peace Nursing Home;;;;;
Ikorodu;Odongunyan Ward;;Agbede Primary Health Centre;;;;;
Ikorodu;Odongunyan Ward;;Regon Hospital;;;;;
Ikorodu;Odongunyan Ward;;Dupson Hospital;;;;;
Ikorodu;Odongunyan Ward;;Idera Hospital;;;;;
Ikorodu;Odongunyan Ward;;Bomi Angel Medical Centre;;;;;
Ikorodu;Odongunyan Ward;;Odo Nla Primary Health Centre;;;;;
Ikorodu;Odongunyan Ward;;Stevans Medical Centre;;;;;
Ikorodu;Odongunyan Ward;;Jaykay Convalescent Home;;;;;
Ikorodu;Odongunyan Ward;;Excellence Hospital;;;;;
Ikorodu;Odongunyan Ward;;Losi Oba Health Centre;;;;;
Ikorodu;Oke Eletu Ward;;Abule Eko PHC;;;;;
Ikorodu;Oke Eletu Ward;;Oke Eletu Primary Health Centre;;;;;
Ikorodu;Oke Eletu Ward;;De-Victory Life Specialist Hospital;;;;;
Ikorodu;Oke Eletu Ward;;Palmview Medical Centre;;;;;
Ikorodu;Oke Eletu Ward;;Majoks Maternity Home;;;;;
Ikorodu;Okeyinbo Ward;;Ijede Primary Health Centre;;;;;
Ikorodu;Olori Eyita Ward;;O Browne Clinic;;;;;
Ikorodu;Olori Eyita Ward;;Winners Convalescent Home;;;;;
Ikorodu;Olori Eyita Ward;;Abington Hospital;;;;;
Ikorodu;Olori Eyita Ward;;Eloka Nursing Home;;;;;
Ikorodu;Olori Eyita Ward;;Calvary Nursing Home;;;;;
Ikorodu;Olori Eyita Ward;;Emmanuel Oshinowo Children Centre;;;;;
Ikorodu;Olori Eyita Ward;;Ikorodu Hospital;;;;;
Ikorodu;Olori Eyita Ward;;Mary Immaculate Nursing Home;;;;;
Ikorodu;Olori Eyita Ward;;St Augustine Hospital;;;;;
Ikorodu;Olori Eyita Ward;;Ewushu Hospital;;;;;
Ikorodu;Olorunda Ward;;De Immaculate Maternity (Annex);;;;;
Ikorodu;Olorunda Ward;;Olorunda Primary Health Centre;;;;;
Ikorodu;Olorunda Ward;;Esso Clinic;;;;;
Ikorodu;Olorunda Ward;;Chyjend Maternity Home;;;;;
Ikorodu;Owutu Ward;;Al-Rahim Clinic;;;;;
Ikorodu;Owutu Ward;;Triumph Clinic;;;;;
Ikorodu;Owutu Ward;;De victory medical centre;;;;;
Ikorodu;Owutu Ward;;Framag Hospital;;;;;
Ikorodu;Owutu Ward;;Hassadat Convalescent Home - Iko;;;;;
Ikorodu;Owutu Ward;;DEBMIC maternity home;;;;;
Ikorodu;Owutu Ward;;Holy Fill Medical Centre;;;;;
Ikorodu;Owutu Ward;;Bolakunmi Memorial Hospital;;;;;
Ikorodu;Owutu Ward;;His Marvelous Grace Hospital;;;;;
Ikorodu;Owutu Ward;;Mount Carmel Clinic;;;;;
Ikorodu;Owutu Ward;;The Scalpel Hospital;;;;;
Ikorodu;Owutu Ward;;Owutu Hospital;;;;;
Ikorodu;Owutu Ward;;Owutu clinic;;;;;
Ikorodu;Owutu Ward;;Health Forte Clinic;;;;;
Ikorodu;Solafun Ward;;Amodu Adesola Memorial Clinic;;;;;
Ikorodu;Solafun Ward;;Jesus Rdeemer Nursing Home;;;;;
Ikorodu;Solafun Ward;;Opeloyeru Clinic;;;;;
Ikorodu;Solafun Ward;;Ogunlana Clinic;;;;;
Ikorodu;Solafun Ward;;Banis Medical Centre;;;;;
Ikorodu;Tonabun Ward;;Busola Maternity home;;;;;
Kosofe;Agidi/Oshogun Ward;;Rotoy Maternity Home;;;;;
Kosofe;Agidi/Oshogun Ward;;St Michael Medical Centre;;;;;
Kosofe;Agiliti Maidan Ward;;Maidan Primary Health Centre;;;;;
Kosofe;Agiliti Maidan Ward;;Helal Clinic;;;;;
Kosofe;Agiliti Maidan Ward;;Al Hayyu Nursing Home;;;;;
Kosofe;Agiliti Maidan Ward;;Ola Morankinyo Clinic;;;;;
Kosofe;Agiliti Maidan Ward;;O King Clinic;;;;;
Kosofe;Agiliti Maidan Ward;;Elim Con. Hospital;;;;;
Kosofe;Agiliti Maidan Ward;;Al Sadiq Clinic;;;;;
Kosofe;Agiliti Maidan Ward;;Sam Convalescent Clinc;;;;;
Kosofe;Agiliti Maidan Ward;;Be Kind Hospital;;;;;
Kosofe;Anthony Ward;;Divine Specialist Clinic;;;;;
Kosofe;Anthony Ward;;King Solomon Hospital;;;;;
Kosofe;Anthony Ward;;Gbojomo Clinic;;;;;
Kosofe;Anthony Ward;;Life Fountain Clinic;;;;;
Kosofe;Araromi Ifako Ward;;Gbagada General Hospital - Ifako;;;;;
Kosofe;Araromi Ifako Ward;;Aniyun Hospital;;;;;
Kosofe;Araromi Ifako Ward;;MayFlower Clinic;;;;;
Kosofe;Araromi Ifako Ward;;Masters Touch Maternity Home;;;;;
Kosofe;Araromi Ifako Ward;;Family and Friend Hospital;;;;;
Kosofe;Araromi Ifako Ward;;Chevron Hospital;;;;;
Kosofe;Araromi Ifako Ward;;Micel Clinic;;;;;
Kosofe;Araromi Ifako Ward;;Adetola Specialish Hospital;;;;;
Kosofe;Arowosegbe Alapere Ward;;Oyinlola Clinic;;;;;
Kosofe;Arowosegbe Alapere Ward;;Adedembo Medical Centre;;;;;
Kosofe;Arowosegbe Alapere Ward;;Leye Clinic;;;;;
Kosofe;Arowosegbe Alapere Ward;;Lam Shallom Clinic;;;;;
Kosofe;Arowosegbe Alapere Ward;;Demoralayo Hospital;;;;;
Kosofe;Arowosegbe Alapere Ward;;Ayo Clinic(kosofe);;;;;
Kosofe;Arowosegbe Alapere Ward;;Lakefront Hospital;;;;;
Kosofe;Arowosegbe Alapere Ward;;Gold Cross Clinic;;;;;
Kosofe;Arowosegbe Alapere Ward;;Marosen Clinic;;;;;
Kosofe;Arowosegbe Alapere Ward;;Alapere Primary Health Centre;;;;;
Kosofe;Arowosegbe Alapere Ward;;Inland Specialist Hospital;;;;;
Kosofe;Arowosegbe Alapere Ward;;Agboyi Primary Health Centre;;;;;
Kosofe;Bamgbe/Elebiju ward;;Bolakunmi Hospital;;;;;
Kosofe;Bamgbe/Elebiju ward;;Ketu Primary Health Centre;;;;;
Kosofe;Bamgbe/Elebiju ward;;Rally Hospital - Kosofe;;;;;
Kosofe;Bamgbe/Elebiju ward;;Trust Amana Specialist;;;;;
Kosofe;Bamgbe/Elebiju ward;;Deji Clinic;;;;;
Kosofe;Bamgbe/Elebiju ward;;As Sakinah Clinic;;;;;
Kosofe;Erunkun Orishigun Ward;;Theo Hospital;;;;;
Kosofe;Erunkun Orishigun Ward;;Fineday Hospital;;;;;
Kosofe;Erunkun Orishigun Ward;;Delta Crown Hospital;;;;;
Kosofe;Erunkun Orishigun Ward;;Bernice Clinic - Kosofe;;;;;
Kosofe;Erunkun Orishigun Ward;;Hosanna Hospital;;;;;
Kosofe;Erunkun Orishigun Ward;;Dans Medical Clinic;;;;;
Kosofe;Idera Ward;;Idera PHC;;;;;
Kosofe;Ikosi Oke Ward;;Ikosi  Primary Health Centre;;;;;
Kosofe;Ikosi Oke Ward;;Elegbeleye Specialist Hospital;;;;;
Kosofe;Ikosi Oke Ward;;Yombo Hospital;;;;;
Kosofe;Ikosi Oke Ward;;CAC Oke Igbala;;;;;
Kosofe;Isheri Olowora Ward;;St Anthony's Hospital;;;;;
Kosofe;Isheri Olowora Ward;;St Benjamin Catholic Clinic;;;;;
Kosofe;Isheri Olowora Ward;;Ikosi Isheri Mutual Health Plan;;;;;
Kosofe;Isheri Olowora Ward;;Gifted Hands Medical Centre;;;;;
Kosofe;Isheri Olowora Ward;;Omolewa Med. Centre;;;;;
Kosofe;Isheri Olowora Ward;;Peniel Noble Hospital;;;;;
Kosofe;Isheri Olowora Ward;;Isheri Oloworu Primary Health Centre;;;;;
Kosofe;Mende Ward;;IFPF Hospital;;;;;
Kosofe;Mende Ward;;Mende Primary Health Centre;;;;;
Kosofe;Mende Ward;;Healthgate Specialised Clinic;;;;;
Kosofe;Mende Ward;;Bethphage Medical Clinic;;;;;
Kosofe;Mende Ward;;St Agnes Clinic;;;;;
Kosofe;Odogun Ajegunle Ward;;Good Sheppard Clinic;;;;;
Kosofe;Odogun Ajegunle Ward;;Ajegunle Primary Health Centre;;;;;
Kosofe;Odogun Ajegunle Ward;;Neolife Clinic;;;;;
Kosofe;Odogun Ajegunle Ward;;Barbinton Hospital;;;;;
Kosofe;Odogun Ajegunle Ward;;Donas Specialist Hospital;;;;;
Kosofe;Ogudu Ward;;Peach Care Medical Centre;;;;;
Kosofe;Ogudu Ward;;Ogudu Primary Health Centre;;;;;
Kosofe;Ogudu Ward;;Ola Ayoka Memorial Convalescent Home;;;;;
Kosofe;Ogudu Ward;;Nimbus Medical Centre;;;;;
Kosofe;Ogudu Ward;;Inland Specialist Hospital;;;;;
Kosofe;Ogudu Ward;;Med In Specialist Hospital;;;;;
Kosofe;Ogudu Ward;;Aplomb Medical Centre;;;;;
Kosofe;Ojota Ward;;Ameso Hospital;;;;;
Kosofe;Ojota Ward;;Omokehinde Maternity Home;;;;;
Kosofe;Ojota Ward;;Synergy Medical Clinic;;;;;
Kosofe;Ojota Ward;;Apex Care hospital;;;;;
Kosofe;Ojota Ward;;Liberty Life Hospital;;;;;
Kosofe;Olubori/Mosafejo Ward;;St Daniels Hospital;;;;;
Kosofe;Orile Ketu Ward;;First Cross Hospital;;;;;
Kosofe;Orile Ketu Ward;;Queen Specialist Hospital;;;;;
Kosofe;Orile Ketu Ward;;Al Afiat Clinic;;;;;
Kosofe;Orile Ketu Ward;;Dafe Medical Centre;;;;;
Kosofe;Orile Ketu Ward;;Barbinton Medical Centre;;;;;
Kosofe;Orile Ketu Ward;;Toyeek Hospital;;;;;
Kosofe;Orile Ketu Ward;;Yomi Convalescent Centre;;;;;
Kosofe;Orile Oworo Ward;;St Patrick Medical Centre;;;;;
Kosofe;Orile Oworo Ward;;Gloria Hospital;;;;;
Kosofe;Orile Oworo Ward;;Oworo Primary Health Centre - Orile;;;;;
Kosofe;Orile Oworo Ward;;Folabi Medical Centre;;;;;
Kosofe;Orile Oworo Ward;;Luli Maternity Home;;;;;
Kosofe;Orile Oworo Ward;;Adetola Specialist Hospital;;;;;
Kosofe;Shangisha Magodo Ward;;Sky High Medical Centre;;;;;
Lagos Island;Ajele Ward;;Fehintola Royal Consulting Medical;;;;;
Lagos Island;Ajele Ward;;First Bank of Nigeria Staff Clinic;;;;;
Lagos Island;Ajele Ward;;Cathedral Church of Christ Clinic;;;;;
Lagos Island;Ajele Ward;;JLT Specialist Clinic;;;;;
Lagos Island;Alagba Ward;;Ita Faji Health Post;;;;;
Lagos Island;Anikantanmo Ward;;Anikantamo Health Post;;;;;
Lagos Island;Anikantanmo Ward;;Ajike Sandal Memorial Medical Centre;;;;;
Lagos Island;Anikantanmo Ward;;Jibod Clinic;;;;;
Lagos Island;Araromi Odo Ward;;Premann Medical Centre;;;;;
Lagos Island;Araromi Odo Ward;;Hanoba Medical Centre;;;;;
Lagos Island;Araromi Odo Ward;;Onikan Health Centre;;;;;
Lagos Island;Araromi Odo Ward;;Mt Sinai Specialist;;;;;
Lagos Island;Araromi Odo Ward;;Tmac Specialist Hospital;;;;;
Lagos Island;Araromi Odo Ward;;Araromi PHC;;;;;
Lagos Island;Araromi Odo Ward;;Omni Medical Centre;;;;;
Lagos Island;Epetedo East Ward;;Sura Primary Health Centre;;;;;
Lagos Island;Epetedo West Ward;;MHA ;;;;;
Lagos Island;Epetedo West Ward;;Tajudeen Olusi Health Post;;;;;
Lagos Island;Epetedo West Ward;;Abimbola Awoniyi Hospital;;;;;
Lagos Island;Epetedo West Ward;;Phase III Health Post;;;;;
Lagos Island;Epetedo West Ward;;King Edward Medical Clinic;;;;;
Lagos Island;Idugunran/idumagbo ward;;Iga Idunganran Primary Health Centre;;;;;
Lagos Island;Idugunran/idumagbo ward;;Labib Medical Centre;;;;;
Lagos Island;Idugunran/idumagbo ward;;Fame Nursing Home;;;;;
Lagos Island;Idumoyinbo Ward;;Oba Adeyinka Oyekan PHC;;;;;
Lagos Island;Ilupesi Ebute Awo Ward;;Dero Medical Clinic;;;;;
Lagos Island;Ilupesi Ebute Awo Ward;;Dammy Nursing Home;;;;;
Lagos Island;Isale Gangan Ward;;Onola Health Post;;;;;
Lagos Island;Lafiaji Ward;;Pike Medical Clinic;;;;;
Lagos Island;Lafiaji Ward;;Nuklius Specialist Clinic;;;;;
Lagos Island;Odan ward;;Holy Cross Cathedral Clinic;;;;;
Lagos Island;Odan ward;;Hallmark Clinic;;;;;
Lagos Island;Odan ward;;Lagos Island General Hospital;;;;;
Lagos Island;Odan ward;;Avon Medical Centre;;;;;
Lagos Island;Odan ward;;St Nicholas Hospital;;;;;
Lagos Island;Odan ward;;Lagos Island Maternity Hospital;;;;;
Lagos Island;Odan ward;;Health Arena Hospital;;;;;
Lagos Island;Odan ward;;Our Saviour Church Clinic;;;;;
Lagos Island;Odan ward;;Lagos Medical Centre (SHELL);;;;;
Lagos Island;Odan ward;;Kenfield Clinic;;;;;
Lagos Island;Oke Arin Idumota Ward;;Ashiata Abake Memorial Hospital;;;;;
Lagos Island;Oke Arin Idumota Ward;;Oke Arin Health Post;;;;;
Lagos Island;Oke Olowogbowo Ward;;Olowogbowo Primary Health Centre;;;;;
Lagos Island;Oke Olowogbowo Ward;;Fuja Medical Centre;;;;;
Lagos Island;Okepopo East Ward;;Massey Street Children Hospital;;;;;
Lagos Island;Okepopo West Ward;;Evans Clinic and Maternity Centre;;;;;
Lagos Island;Okepopo West Ward;;De Beta Clinic;;;;;
Lagos Island;Okepopo West Ward;;Mayowa Hospital;;;;;
Lagos Island;Oko Awo Agarawu Ward;;Good Faith Clinic;;;;;
Lagos Island;Oko Awo Agarawu Ward;;Oko Awo Youth Friendly;;;;;
Lagos Island;Oko Awo Agarawu Ward;;Ikran Clinic;;;;;
Lagos Island;Oko Awo Agarawu Ward;;Agarawu Primary Health Centre;;;;;
Lagos Island;Olosun Oju Oto Ward;;City Hall Health Post;;;;;
Lagos Island;Oluwole Ward;;Central Bank of Nigeria Clinic;;;;;
Lagos Mainland;Abule-Ijesha Ward;;Lagos State Mainland Hospital;;;;;
Lagos Mainland;Abule-Ijesha Ward;;Military Hospital;;;;;
Lagos Mainland;Abule-Ijesha Ward;;Alli Daodu Primary Health Centre;;;;;
Lagos Mainland;Abule-Oja Ward;; Alhaji Kola Osho Primary Health Centre;;;;;
Lagos Mainland;Abule-Oja Ward;;Marien Hospital;;;;;
Lagos Mainland;Aderupoko Ward;;Dajuta Clinic;;;;;
Lagos Mainland;Aderupoko Ward;;Total Victory Convalescent Home;;;;;
Lagos Mainland;Alagomeji Ward;;Lobel Hospital;;;;;
Lagos Mainland;Alobal Desalu Ward;;Abule Nla Primary Health Centre;;;;;
Lagos Mainland;Araromi Ward;;Redeemed Maternity Home;;;;;
Lagos Mainland;Botanical Gardens Ward;;Remi and Remi Memorial Specialist Hospital;;;;;
Lagos Mainland;Botanical Gardens Ward;;Uzondu Medical Centre;;;;;
Lagos Mainland;Botanical Gardens Ward;;Imperial Hospital;;;;;
Lagos Mainland;Botanical Gardens Ward;;Brickfield Medical Centre;;;;;
Lagos Mainland;Freeman/Glover Ward;;Almat Medical Centre;;;;;
Lagos Mainland;Freeman/Glover Ward;;St Ken Medical Centre;;;;;
Lagos Mainland;Freeman/Glover Ward;;Simpson Primary Health Centre;;;;;
Lagos Mainland;Harvey Ward;;Harvey Road Comprehensive Health Centre;;;;;
Lagos Mainland;Harvey Ward;;AHI Youth Friendly Hospital;;;;;
Lagos Mainland;Harvey Ward;;Action Health Incorporated Clinic;;;;;
Lagos Mainland;Harvey Ward;;Adekunle Staff Clinic ;;;;;
Lagos Mainland;Harvey Ward;;D Lawrence Clinic;;;;;
Lagos Mainland;Harvey Ward;;St Dominic Clinic;;;;;
Lagos Mainland;Harvey Ward;;Marien Clinic;;;;;
Lagos Mainland;Harvey Ward;;Oba Salami Primary Health Centre;;;;;
Lagos Mainland;Harvey Ward;;Patmos Clinic;;;;;
Lagos Mainland;Harvey Ward;;Lawrence Hospital;;;;;
Lagos Mainland;Makoko Ward;;Pat Toria Clinic;;;;;
Lagos Mainland;Makoko Ward;;Ebute-Metta Federal Medical Centre;;;;;
Lagos Mainland;Makoko Ward;;Ondo-West Primary Health Centre;;;;;
Lagos Mainland;Makoko Ward;;Dantheo Health Centre;;;;;
Lagos Mainland;Makoko Ward;;Olayemi Convalescent Home;;;;;
Lagos Mainland;Ojo Oniyun Ward;;Federal Medical Centre;;;;;
Lagos Mainland;Ojo Oniyun Ward;;Ondo West Primary Health Centre;;;;;
Lagos Mainland;Ojo Oniyun Ward;;Stars Clinic;;;;;
Lagos Mainland;Ojo Oniyun Ward;;MO Oni Maternity Home;;;;;
Lagos Mainland;Okobaba Ward;;St. Paul Hospital;;;;;
Lagos Mainland;Okobaba Ward;;Ebute-Metta Comprehensive Health Centre;;;;;
Lagos Mainland;Okobaba Ward;;Ansarudeen Clinic;;;;;
Lagos Mainland;Okobaba Ward;;Kuba Hospital;;;;;
Lagos Mainland;Onike Oyadiran Ward;;El-Elyon Hospital Ltd;;;;;
Lagos Mainland;Onike Oyadiran Ward;;St Lukes Hospital;;;;;
Lagos Mainland;Onike Oyadiran Ward;;Vones Specialist Hospital;;;;;
Lagos Mainland;Onike Oyadiran Ward;;Hoares Memorial Methodist Cathedral Clinic;;;;;
Lagos Mainland;Onike Oyadiran Ward;;NSPMC Hospital;;;;;
Lagos Mainland;Otto Ward;;Otto Primary Health Centre;;;;;
Lagos Mainland;Oyingbo Ward;;Anglican Church Clinic;;;;;
Lagos Mainland;Oyingbo Ward;;Dunik Medical Centre;;;;;
Lagos Mainland;Salami / Bayewunmi Ward;;Ajoke Clinic;;;;;
Lagos Mainland;Salami / Bayewunmi Ward;;Cottage Medicare Hospital;;;;;
Lagos Mainland;Salami / Bayewunmi Ward;;Iwaya Primary Health Centre;;;;;
Mushin;Alafia Ward;;Ajax Hospital;;;;;
Mushin;Alafia Ward;;House of Peace Specialist Clinic;;;;;
Mushin;Alafia Ward;;La Labake Maternity Home;;;;;
Mushin;Alafia Ward;;Hammed Convalscent Centre;;;;;
Mushin;Alafia Ward;;Best Hope Hospital;;;;;
Mushin;Alafia Ward;;Mary Anne Medical Clinic;;;;;
Mushin;Alafia Ward;;Salvation Clinic & Hospital;;;;;
Mushin;Alafia Ward;;Kemsol Convalescent Home;;;;;
Mushin;Alafia Ward;;Divine Nursing Home;;;;;
Mushin;Alafia Ward;;Isolo Road Primary Health Centre;;;;;
Mushin;Alafia Ward;;May Hospital;;;;;
Mushin;Alafia Ward;;Olidec Hospital;;;;;
Mushin;Alafia Ward;;Alafia Tayo Maternity;;;;;
Mushin;Alakara Ward;;Kajola Primary Health Centre;;;;;
Mushin;Alakara Ward;;Redemption Medical Clinic;;;;;
Mushin;Alakara Ward;;Peniel Specialist Clinic;;;;;
Mushin;Alakara Ward;;La Redemption Medical Centre;;;;;
Mushin;Alakara Ward;;Continental Hospital;;;;;
Mushin;Atewolara Ward;;Mushin General Hospital;;;;;
Mushin;Atewolara Ward;;Sparklight Hospital;;;;;
Mushin;Atewolara Ward;;Halifat Convalescent Home;;;;;
Mushin;Atewolara Ward;;Merit General Clinic;;;;;
Mushin;Atewolara Ward;;Fountain of Grace Hospital;;;;;
Mushin;Babalosa 1 Ward;;Regina Mundi Clinic;;;;;
Mushin;Babalosa 1 Ward;;Olutoba Clinic;;;;;
Mushin;Babalosa 1 Ward;;T&S Hospital;;;;;
Mushin;Babalosa 2 Ward;;Abisat Convalescent Centre;;;;;
Mushin;Babalosa 2 Ward;;T & S Hospital;;;;;
Mushin;Idi Araba Ward;;Dela Hospital;;;;;
Mushin;Idi Araba Ward;;Lagos University Teaching Hospital LUTH;;;;;
Mushin;Idi Araba Ward;;FTG Clinic;;;;;
Mushin;Idi Araba Ward;;Aishat Specialist Hospital;;;;;
Mushin;Idi Araba Ward;;St'kizito Hospital;;;;;
Mushin;Idioro Ward;;BMM Hospital;;;;;
Mushin;Igbehin Ward;;Odus Maternity Home;;;;;
Mushin;Ilupeju Industrial ward;;Iyalode Bisoye Tejuoso Hospital;;;;;
Mushin;Ilupeju Industrial ward;;Shanu Clinic;;;;;
Mushin;Ilupeju Industrial ward;;Nestle Staff Clinic;;;;;
Mushin;Ilupeju Ward;;Coker Primary Health Centre - Mushin;;;;;
Mushin;Ilupeju Ward;;Joh-Fem Medical Clinic;;;;;
Mushin;Ilupeju Ward;;Crusaint Hospital;;;;;
Mushin;Ilupeju Ward;;Apollo Clinic;;;;;
Mushin;Ilupeju Ward;;Grace Springs Medical Clinic;;;;;
Mushin;Ilupeju Ward;;Liberty Hospital;;;;;
Mushin;Ilupeju Ward;;Oml Clinic;;;;;
Mushin;Ilupeju Ward;;Labi Hospital (Mushin);;;;;
Mushin;Ilupeju Ward;;May Hospital - Ilupeju;;;;;
Mushin;Ilupeju Ward;;Tims Clinic;;;;;
Mushin;Itire Ward;;Odus Specialist Clinic;;;;;
Mushin;Itire Ward;;Cassandra Clinic;;;;;
Mushin;Itire Ward;;Igbala Clinic and Maternity (Mushin);;;;;
Mushin;Mosalasi Ward;;Anikulapo Primary Health Centre;;;;;
Mushin;Mosalasi Ward;;AK Oyekan Hospital;;;;;
Mushin;Mosalasi Ward;;Dormanlong Engineering Staff Clinic;;;;;
Mushin;Mushin Ward;;Fajip Hospital;;;;;
Mushin;Mushin Ward;;A K Oyekanmi Hospital and Maternity;;;;;
Mushin;Mushin Ward;;Modupe Oluwa Clinic and Maternity;;;;;
Mushin;Mushin Ward;;T and S Clinic;;;;;
Mushin;Mushin Ward;;Victoria Abayomi Clinic;;;;;
Mushin;Mushin Ward;;Hilstar Hospital;;;;;
Mushin;Odo Eran Ward;;Adetutu Clinic Ltd;;;;;
Mushin;Odo Eran Ward;;Able God Clinic;;;;;
Mushin;Odo Eran Ward;;Itire Ijesha Primary Health Centre;;;;;
Mushin;Odo Eran Ward;;TSH Medical Centre;;;;;
Mushin;Oduselu Ward;;Frank Clinic - Mushin;;;;;
Mushin;Oduselu Ward;;Alves PHC;;;;;
Mushin;Ojuwoye Ward;;First Heritage Hospital;;;;;
Mushin;Ojuwoye Ward;;Ayantuga Primary Health Centre;;;;;
Mushin;Ojuwoye Ward;;Fafolu Medical Centre;;;;;
Mushin;Onitire Ward;;Dans Medicare Clinic;;;;;
Mushin;Onitire Ward;;Zephaniah Maternity Home;;;;;
Mushin;Onitire Ward;;KEMSOL CLINIC;;;;;
Mushin;Onitire Ward;;Sherpherdhill Hospital;;;;;
Mushin;Onitire Ward;;Ovansa Clinic;;;;;
Mushin;Papa Ajao Ward;;Nigeria Armed Forces Resettlement Centre;;;;;
Mushin;Papa Ajao Ward;;Ebenezer Specialist Clinic;;;;;
Mushin;Papa Ajao Ward;;St Andrew Hospital;;;;;
Mushin;Papa Ajao Ward;;Mount Sinai Hospital - Mushin;;;;;
Mushin;Papa Ajao Ward;;Palm Avenue Primary Health Centre;;;;;
Mushin;Papa Ajao Ward;;Mecure Eye Clinic;;;;;
Mushin;Papa Ajao Ward;;Sentinel Hospital - Mushin;;;;;
Ojo;Ajangbadi Ward;;Afromedia Primary Health Centre;;;;;
Ojo;Ajangbadi Ward;;Royal Apex Hospital;;;;;
Ojo;Ajangbadi Ward;;Fasam Convalescent Home;;;;;
Ojo;Ajangbadi Ward;;City Express Hospital;;;;;
Ojo;Ajangbadi Ward;;Abanise Maternity Centre;;;;;
Ojo;Ajangbadi Ward;;Mar King Convalescent Home;;;;;
Ojo;Egan Ward - Ojo;;Ishagira Primary Health Centre;;;;;
Ojo;Etegbin Ward;;Munidola Clinic;;;;;
Ojo;Etegbin Ward;;Imude Primary Healthcare Centre;;;;;
Ojo;Etegbin Ward;;Vine Yard Nursing Home;;;;;
Ojo;Etegbin Ward;;Imude Maternity;;;;;
Ojo;Etegbin Ward;;Safe Healing Home;;;;;
Ojo;Iba Ward;;Ifeoluwa Maternity Home;;;;;
Ojo;Iba Ward;;Angelic Care;;;;;
Ojo;Iba Ward;;Ijedodo Primary Healthcare Centre ;;;;;
Ojo;Iba Ward;;Richville Hospital;;;;;
Ojo;Iba Ward;;Treasure Clinic;;;;;
Ojo;Iba Ward;;Cares Hospital;;;;;
Ojo;Iba Ward;;Vic-D Maternity Home;;;;;
Ojo;Iba Ward;;Ijagemo Primary Health Centre;;;;;
Ojo;Iba Ward;;Albina Mejeel Specialist Clinic;;;;;
Ojo;Iba Ward;;Royale Medical Centre;;;;;
Ojo;Iba Ward;;Iba Primary Health Centre - Ojo;;;;;
Ojo;Igbo Elerin Ward;;De Solid Rock Maternity Centre;;;;;
Ojo;Igbo Elerin Ward;;God Bless U Maternity;;;;;
Ojo;Igbo Elerin Ward;;Trinity Clinic and Maternity ;;;;;
Ojo;Igbo Elerin Ward;;Leverage Hospital;;;;;
Ojo;Igbo Elerin Ward;;B In Gilead Hospital;;;;;
Ojo;Igbo Elerin Ward;;Bismol Medical Centre ;;;;;
Ojo;Igbo Elerin Ward;;New St Louis Hospital;;;;;
Ojo;Ijanikin Ward;;Crown of Glory Specialist Hospital;;;;;
Ojo;Ijanikin Ward;;Ketu Medical Centre;;;;;
Ojo;Ijanikin Ward;;Ijanikin Primary Health Centre;;;;;
Ojo;Ijanikin Ward;;Ever Life Hospital;;;;;
Ojo;Ijanikin Ward;;De New Aiyetoro Medical Centre;;;;;
Ojo;Ijanikin Ward;;Ademola Hospital;;;;;
Ojo;Ilogbo Elegba Ward;;Shibiri Primary Health Centre;;;;;
Ojo;Ilogbo Elegba Ward;;Patmason Convalescent Home;;;;;
Ojo;Ilogbo Elegba Ward;;Goodness Medical Centre;;;;;
Ojo;Ilogbo Elegba Ward;;Oke Ijeun Primary Health Centre;;;;;
Ojo;Ilogbo Elegba Ward;;Edo Convalescent Home;;;;;
Ojo;Ilogbo Elegba Ward;;Muskat Hospital;;;;;
Ojo;Ilogbo Elegba Ward;;Ilogbo Central Hospital;;;;;
Ojo;Ilogbo Elegba Ward;;Miracle Medical Centre;;;;;
Ojo;Ilogbo Elegba Ward;;Nevico Maternity;;;;;
Ojo;Ilogbo Elegba Ward;;God cures Hospital;;;;;
Ojo;Ilogbo Elegba Ward;;Healing Hans Medical Center;;;;;
Ojo;Ilogbo Elegba Ward;;Kunbola Health Centre;;;;;
Ojo;Ira Ward;;Adetunji Memorial Hospital (Annex);;;;;
Ojo;Ira Ward;;Oore Ofe Hospital;;;;;
Ojo;Ira Ward;;Favour & God's Gift Maternity;;;;;
Ojo;Ira Ward;;Locket Medical Center;;;;;
Ojo;Ira Ward;;Femola Hospital (Ojoo);;;;;
Ojo;Ira Ward;;Joycy Nursing Home;;;;;
Ojo;Ira Ward;;Trust in God Medical Centre;;;;;
Ojo;Ira Ward;;Divine Shield Hospital;;;;;
Ojo;Irewe Ward;;Irewe Primary Health Centre;;;;;
Ojo;Ishashi Ward;;Ishashi Primary Health Centre;;;;;
Ojo;Ishashi Ward;;Main Frame Maternity Centre;;;;;
Ojo;Kemberi Ward;;Ancel Hospital;;;;;
Ojo;Kemberi Ward;;Rejoice Maternity Centre;;;;;
Ojo;Kemberi Ward;;Redeemed Medical Centre;;;;;
Ojo;Kemberi Ward;;Kemberi Primary Healthcare Centre;;;;;
Ojo;Ojo Ward;;Graceland  Medical Centre;;;;;
Ojo;Ojo Ward;;Genesis Medical Centre;;;;;
Ojo;Ojo Ward;;Onyems B Hospital;;;;;
Ojo;Ojo Ward;;St Anthony Medical Centre and Maternity Home Ltd;;;;;
Ojo;Ojo Ward;;Ojo Primary Health Centre;;;;;
Ojo;Ojo Ward;;Favour Land Hospital and Maternity;;;;;
Ojo;Ojo Ward;;Calvary Grace Clinic;;;;;
Ojo;Ojo Ward;;Gods Goal Clinic;;;;;
Ojo;Okoko Ward;;Okoko Primary Health Centre;;;;;
Ojo;Okoko Ward;;Jorseh Memorial Maternity Home;;;;;
Ojo;Okoko Ward;;Kena Hospital;;;;;
Ojo;Okoko Ward;;Life Heritage Maternity Centre;;;;;
Ojo;Okoko Ward;;Ala Anu Clinic;;;;;
Ojo;Okoko Ward;;Elphy Hospital;;;;;
Ojo;Otto Ijanikin Ward;;Era Medical Centre;;;;;
Ojo;Otto Ijanikin Ward;;Era Primary Health Centre;;;;;
Ojo;Sabo Oniba;;Gods Mercy Clinic;;;;;
Ojo;Sabo Oniba;;Sabo Crown Hospital;;;;;
Ojo;Sabo Oniba;;Oscar Hospital;;;;;
Ojo;Sabo Oniba;;Igbede Primary Health Centre;;;;;
Ojo;Sabo Oniba;;More Grace Maternity;;;;;
Ojo;Sabo Oniba;;Poly Clinic;;;;;
Ojo;Sabo Oniba;;Shollylad Medical Centre;;;;;
Ojo;Sabo Oniba;;Divine Release Maternity Home;;;;;
Ojo;Sabo Oniba;;Abodunrin Medical Centre;;;;;
Ojo;Sabo Oniba;;Capem Faith Clinic;;;;;
Ojo;Sabo Oniba;;Mutcare Maternity Clinic;;;;;
Oshodi/Isolo;Afariogun Ward;;Chellarams House Clinic;;;;;
Oshodi/Isolo;Afariogun Ward;;Petros Hospital;;;;;
Oshodi/Isolo;Afariogun Ward;;Comfort Nursing and Maternity Home;;;;;
Oshodi/Isolo;Afariogun Ward;;High Rock Clinic;;;;;
Oshodi/Isolo;Aigbaka Ward;;A.S New Covenant ;;;;;
Oshodi/Isolo;Aigbaka Ward;;Dauda Ilo Primary Heatlh Centre;;;;;
Oshodi/Isolo;Aigbaka Ward;;Gladsom Maternity Home;;;;;
Oshodi/Isolo;Aigbaka Ward;;SOS Social Centre;;;;;
Oshodi/Isolo;Aigbaka Ward;;SS Memorial Clinic;;;;;
Oshodi/Isolo;Aigbaka Ward;;Salbos Maternity Home;;;;;
Oshodi/Isolo;Aigbaka Ward;;De Godwin Convalescent Home;;;;;
Oshodi/Isolo;Ailegun Ward;;Ailegun Primary Health Centre;;;;;
Oshodi/Isolo;Ailegun Ward;;Crown Group Hospital;;;;;
Oshodi/Isolo;Ailegun Ward;;Iyana Ejigbo Primary Health Centre;;;;;
Oshodi/Isolo;Ajao Estate Ward;;Heda Hospital;;;;;
Oshodi/Isolo;Ajao Estate Ward;;House of Julius Medical Centre;;;;;
Oshodi/Isolo;Ajao Estate Ward;;Healing Field Clinic;;;;;
Oshodi/Isolo;Ajao Estate Ward;;Goodseed Specialist Clinic;;;;;
Oshodi/Isolo;Ajao Estate Ward;;Ajao Primary Health Centre;;;;;
Oshodi/Isolo;Ajao Estate Ward;;Kupa Medical Centre (Oshodi);;;;;
Oshodi/Isolo;Ajao Estate Ward;;Faith City Hospital (Oshodi/Isola);;;;;
Oshodi/Isolo;Ajao Estate Ward;;Rivet Specialist Hospital;;;;;
Oshodi/Isolo;Akinbaye Ward;;Tinu Hospital;;;;;
Oshodi/Isolo;Akinbaye Ward;;Isolo Primary Health Centre;;;;;
Oshodi/Isolo;Akinbaye Ward;;General Hospital Isolo;;;;;
Oshodi/Isolo;Alagbeji Ward;;Olu Adeyemi Clinic;;;;;
Oshodi/Isolo;Alagbeji Ward;;LSDPC;;;;;
Oshodi/Isolo;Alagbeji Ward;;Newline Hospital;;;;;
Oshodi/Isolo;Alagbeji Ward;;Anointed Christ Power Clinic ;;;;;
Oshodi/Isolo;Alagbeji Ward;;St Emmanuel Hospital;;;;;
Oshodi/Isolo;Apena Ward;;Healing Cross Hospital;;;;;
Oshodi/Isolo;Apena Ward;;Jokodola Hospital;;;;;
Oshodi/Isolo;Apena Ward;;Apena Health Post;;;;;
Oshodi/Isolo;Apena Ward;;Ago Medical Centre;;;;;
Oshodi/Isolo;Ewu tuntun Ward;;Jacob Memorial Hospital;;;;;
Oshodi/Isolo;Ewu tuntun Ward;;Ewutuntun Primary Health Centre;;;;;
Oshodi/Isolo;Ewu tuntun Ward;;Oluwaseun Clinic;;;;;
Oshodi/Isolo;Ewu tuntun Ward;;Azar Plus Hospital;;;;;
Oshodi/Isolo;Fadu Ward;;Tokem Hospital;;;;;
Oshodi/Isolo;Fadu Ward;;Ejigbo Primary Health Centre - Fadu;;;;;
Oshodi/Isolo;Fadu Ward;;Testimony Maternity Home;;;;;
Oshodi/Isolo;Fadu Ward;;Akingbogun Good Hope Maternity;;;;;
Oshodi/Isolo;Fadu Ward;;Faith Convalescent Centre;;;;;
Oshodi/Isolo;Ifoshi Ward;;M.B Ige Clinic;;;;;
Oshodi/Isolo;Ifoshi Ward;;West Care Hospital;;;;;
Oshodi/Isolo;Ifoshi Ward;;Onaiwamimo Primary Health Centre;;;;;
Oshodi/Isolo;Ifoshi Ward;;The Green Pastures Hospital;;;;;
Oshodi/Isolo;Ifoshi Ward;;Bosun Hospital;;;;;
Oshodi/Isolo;Ifoshi Ward;;The Living Spring Hospital;;;;;
Oshodi/Isolo;Ifoshi Ward;;Siloan Medical Centre;;;;;
Oshodi/Isolo;Ifoshi Ward;;Osborn Clinic;;;;;
Oshodi/Isolo;Igbehinadun A Ward;;Grand Progress Medical Clinic;;;;;
Oshodi/Isolo;Igbehinadun A Ward;;Longlife Hospital;;;;;
Oshodi/Isolo;Igbehinadun A Ward;;DI IMOSE Clinic;;;;;
Oshodi/Isolo;Igbehinadun A Ward;;Onelife Hospital Ltd;;;;;
Oshodi/Isolo;Igbehinadun A Ward;;Sofine Nursing Home;;;;;
Oshodi/Isolo;Igbehinadun A Ward;;Oshodi Primary Health Centre;;;;;
Oshodi/Isolo;Igbehinadun A Ward;;Esteem Clinics;;;;;
Oshodi/Isolo;Igbehinadun A Ward;;St Joseph Harmony Clinic;;;;;
Oshodi/Isolo;Igbehinadun A Ward;;Ayoradex Health;;;;;
Oshodi/Isolo;Ilamoshe Ward;;Betmat Maternity Home;;;;;
Oshodi/Isolo;Ilamoshe Ward;;Crownrise Hospital;;;;;
Oshodi/Isolo;Ilamoshe Ward;;Biowu Maternity Centre;;;;;
Oshodi/Isolo;Ilasa (Oshodi LGA) Ward;;New World Clinic;;;;;
Oshodi/Isolo;Ilasa (Oshodi LGA) Ward;;Uduakabasi Clinic;;;;;
Oshodi/Isolo;Ilasa (Oshodi LGA) Ward;;Tabernacle Clinic;;;;;
Oshodi/Isolo;Ilasa (Oshodi LGA) Ward;;Ilasa Primary Health Centre;;;;;
Oshodi/Isolo;Ilasa (Oshodi LGA) Ward;;Tolulope Medical Centre;;;;;
Oshodi/Isolo;Ireakari / Ishaga Ward;;Kola Christwealth Hospital;;;;;
Oshodi/Isolo;Ireakari / Ishaga Ward;;Ishaga Primary Health Centre;;;;;
Oshodi/Isolo;Ireakari / Ishaga Ward;;Good Health Medical Centre;;;;;
Oshodi/Isolo;Ireakari / Ishaga Ward;;Nobility Hospital;;;;;
Oshodi/Isolo;Ireakari / Ishaga Ward;;Balm Clinic;;;;;
Oshodi/Isolo;Ireakari / Ishaga Ward;;Ladi-Mola  Clinic;;;;;
Oshodi/Isolo;Ireakari / Ishaga Ward;;Health Check Consultant Clinic;;;;;
Oshodi/Isolo;Ireakari / Ishaga Ward;;Boyle Medical Centre;;;;;
Oshodi/Isolo;Ireakari / Ishaga Ward;;Emilola Clinic;;;;;
Oshodi/Isolo;Ireakari / Ishaga Ward;;Subtle Maternity Home;;;;;
Oshodi/Isolo;Ireakari / Ishaga Ward;;Heals Specialist Clinic;;;;;
Oshodi/Isolo;Ireakari / Ishaga Ward;;Ramsat Convalescent Home;;;;;
Oshodi/Isolo;Ireakari / Ishaga Ward;;Bose Specialist Hospital;;;;;
Oshodi/Isolo;Ireakari / Ishaga Ward;;Bola Hospital;;;;;
Oshodi/Isolo;Mafoluku Ward;;Gods care Clinic;;;;;
Oshodi/Isolo;Mafoluku Ward;;Pinecrest Specialist Hospital;;;;;
Oshodi/Isolo;Mafoluku Ward;;Holy Saviours Hospital;;;;;
Oshodi/Isolo;Mafoluku Ward;;Divine Grace Medical Centre;;;;;
Oshodi/Isolo;Mafoluku Ward;;New City Clinic;;;;;
Oshodi/Isolo;Mafoluku Ward;;Ayo ni Primary Health Centre;;;;;
Oshodi/Isolo;Mafoluku Ward;;Glory of God Convalescent Home;;;;;
Oshodi/Isolo;Mafoluku Ward;;Dolu Hospital;;;;;
Oshodi/Isolo;Mafoluku Ward;;St Catherine of Siena Medical Centre;;;;;
Oshodi/Isolo;Ogunoloko Ward;;Feloban Alpha Convalescent Home;;;;;
Oshodi/Isolo;Ogunoloko Ward;;St John de Evangelist Parish Health Centre;;;;;
Oshodi/Isolo;Ogunoloko Ward;;Anuolu Clinic;;;;;
Oshodi/Isolo;Ogunoloko Ward;;Redeemed Christian Maternity;;;;;
Oshodi/Isolo;Oke Afa Ward;;Ire Akari Medical Centre;;;;;
Oshodi/Isolo;Oke Afa Ward;;Abizade Source of Joy Hospital;;;;;
Oshodi/Isolo;Oke Afa Ward;;Our Lady Hospital;;;;;
Oshodi/Isolo;Oke Afa Ward;;Jakande Estate Primary Health Centre;;;;;
Oshodi/Isolo;Oke Afa Ward;;Alpha Peace Medical Centre;;;;;
Oshodi/Isolo;Oke Afa Ward;;Medicross Hospital;;;;;
Oshodi/Isolo;Oke Afa Ward;;Sentinel Hospital;;;;;
Oshodi/Isolo;Oke Afa Ward;;St Benedict Medical Centre;;;;;
Oshodi/Isolo;Oke Afa Ward;;His Grace Nursing Home;;;;;
Oshodi/Isolo;Oke Afa Ward;;Isolo Estate Clinic;;;;;
Oshodi/Isolo;Okota Ward;;St Raphael Hospital;;;;;
Oshodi/Isolo;Okota Ward;;Life Spring Hospital;;;;;
Oshodi/Isolo;Okota Ward;;New Evolution Hospital;;;;;
Oshodi/Isolo;Okota Ward;;Blessed Virgin Mary Clinic;;;;;
Oshodi/Isolo;Okota Ward;;Life Care Hospital;;;;;
Oshodi/Isolo;Okota Ward;;Onwusikeva Children Medical Centre;;;;;
Oshodi/Isolo;Okota Ward;;SYD-MONIC HOSPITAL;;;;;
Oshodi/Isolo;Okota Ward;;Live Fountain Maternity Centre;;;;;
Oshodi/Isolo;Okota Ward;;Okota Primary Health Centre;;;;;
Oshodi/Isolo;Okota Ward;;Jersyl Ear, Nose & Throat Clinic;;;;;
Oshodi/Isolo;Okota Ward;;Samaria Hospital;;;;;
Oshodi/Isolo;Okota Ward;;Children Medical Centre;;;;;
Oshodi/Isolo;Okota Ward;;Optimal Medical Centre - Oshodi;;;;;
Oshodi/Isolo;Okota Ward;;Outreach women and Children medical Centre;;;;;
Oshodi/Isolo;Okota Ward;;Chinanza Specialist Clinic;;;;;
Oshodi/Isolo;Okota Ward;;German Friendship Specialist Hospital;;;;;
Oshodi/Isolo;Okota Ward;;Peterhoff Specialist Hospital;;;;;
Oshodi/Isolo;Okota Ward;;Belle Medical Centre;;;;;
Oshodi/Isolo;Okota Ward;;Qualicare Maternity Centre;;;;;
Oshodi/Isolo;Okota Ward;;Grace Valley Medical Centre;;;;;
Oshodi/Isolo;Okota Ward;;Wind of Grace Hospital;;;;;
Oshodi/Isolo;Okota Ward;;Moyub Hospital;;;;;
Oshodi/Isolo;Oluyeye Ward;;Edmac Medical Centre;;;;;
Oshodi/Isolo;Oluyeye Ward;;Mafoluku Primary Health Centre;;;;;
Oshodi/Isolo;Oluyeye Ward;;Ishaq Convalescent Home;;;;;
Oshodi/Isolo;Oluyeye Ward;;Ola-Omoyeni Maternity Home;;;;;
Oshodi/Isolo;Oluyeye Ward;;Jericho Hospital;;;;;
Oshodi/Isolo;Sogunle Ward;;St Stevens Hospital;;;;;
Oshodi/Isolo;Sogunle Ward;;Dialyzer Medical Centre;;;;;
Oshodi/Isolo;Sogunle Ward;;Plato Hospital;;;;;
Oshodi/Isolo;Sogunle Ward;;Fasanmi Clinics and Maternity;;;;;
Oshodi/Isolo;Sogunle Ward;;561 NAF Hospital;;;;;
Oshodi/Isolo;Sogunle Ward;;Fortress Clinics and Maternity;;;;;
Oshodi/Isolo;Sogunle Ward;;Shogunle Primary Health Centre;;;;;
Oshodi/Isolo;Sogunle Ward;;Oluwaga Boladale Health Centre;;;;;
Oshodi/Isolo;Sogunle Ward;;GEO Medical Centre;;;;;
Oshodi/Isolo;Sogunle Ward;;Foly Clinic;;;;;
Shomolu;Akoka/ Anuoluwapo Ward;;Saint Rafelis Medical Clinic;;;;;
Shomolu;Akoka/ Anuoluwapo Ward;;St Sixtus Clinic;;;;;
Shomolu;Akoka/ Anuoluwapo Ward;;Tola Crescent Medical Centre;;;;;
Shomolu;Apelehin Ward;;Clinique-De-Mercy Hospital;;;;;
Shomolu;Apelehin Ward;;St Christopher Hospital;;;;;
Shomolu;Apelehin Ward;;R Jolad Hospital;;;;;
Shomolu;Apelehin Ward;;Aledo Maternity Centre;;;;;
Shomolu;Ayetoro Mafowokun Ward;;Mafowoku Primary Health Centre;;;;;
Shomolu;Bajulaiye Ward;;Solbi Continental Hospital;;;;;
Shomolu;Bajulaiye Ward;;Maranatha Medical Clinic;;;;;
Shomolu;Bajulaiye Ward;;Trustee Specialist Hospital;;;;;
Shomolu;Igbari Ward;;Adeolu Hospital;;;;;
Shomolu;Igbari Ward;;ls Jon Ken Hospital;;;;;
Shomolu;Igbari Ward;;The Peak Mark Clinic;;;;;
Shomolu;Igbari Ward;;DFO Clinic;;;;;
Shomolu;Igbari Ward;;Akoka Primary Health Centre;;;;;
Shomolu;Igbari Ward;;May Central Health Care Centre;;;;;
Shomolu;Igbobi/ Fadeyi Ward;;A.O.M Specialist ;;;;;
Shomolu;Igbobi/ Fadeyi Ward;;Tares Clinic;;;;;
Shomolu;Igbobi/ Fadeyi Ward;;Ohekenu Primary Health Centre;;;;;
Shomolu;Ijebutedo Ward;;Didero Medical Centre;;;;;
Shomolu;Ijebutedo Ward;;Wright Primary Health Centre;;;;;
Shomolu;Ijebutedo Ward;;Tai Oworu Memorial Hospital;;;;;
Shomolu;Ilaje Ward;;Health Foundation Clinic;;;;;
Shomolu;Ilaje Ward;;Blessed Favour Maternity Home;;;;;
Shomolu;Ilaje Ward;;Mike-Bethel Clinic;;;;;
Shomolu;Ilaje Ward;;Ashogbon Primary Health Centre;;;;;
Shomolu;Ilaje Ward;;Mary Ade Specialist Hospital;;;;;
Shomolu;Ilaje Ward;;Booland Hospital;;;;;
Shomolu;Okesuna Ward;;Bajulaye Primary Health Centre;;;;;
Shomolu;Okesuna Ward;;Redeemed ChristIan Church of God Maternity;;;;;
Shomolu;Okesuna Ward;;Sanctuary Hospital;;;;;
Shomolu;Okesuna Ward;;De-Bajo Hospital;;;;;
Shomolu;Okesuna Ward;;Jehova Jireh Hospital;;;;;
Shomolu;Onipanu Ward (Shomolu);;Binzao Medical Centre;;;;;
Shomolu;Onipanu Ward (Shomolu);;Somolu General Hospital;;;;;
Shomolu;Owode Orile Ward;;Cms Primary Health Centre;;;;;
Shomolu;Owode Orile Ward;;Ladi Lak Medical Centre;;;;;
Shomolu;Owode Orile Ward;;Oloja Primary Health Centre;;;;;
Shomolu;Owotutu Ward;;Nevada Maternity Home;;;;;
Shomolu;Owotutu Ward;;FELKEN Maternity Home;;;;;
Shomolu;Owotutu Ward;;Royal Hospital;;;;;
Shomolu;Owotutu Ward;;Adesola Hospital;;;;;
Shomolu;Owotutu Ward;;St Anthony Clinic;;;;;
Shomolu;Owotutu Ward;;Adeyipe Clinic;;;;;
Shomolu;Pedro/Gbagada Ward;;Christana Clinic;;;;;
Shomolu;Pedro/Gbagada Ward;;Osuntuyi Medical Centre;;;;;
Shomolu;Pedro/Gbagada Ward;;We Care Hospital;;;;;
Shomolu;Pedro/Gbagada Ward;;Obanle Aje Hospital;;;;;
Shomolu;Pedro/Gbagada Ward;;Jaiyeola Hospital;;;;;
Shomolu;Pedro/Gbagada Ward;;De Balm Hospital;;;;;
Shomolu;Pedro/Gbagada Ward;;Medol Consultant Clinic;;;;;
Shomolu;Pedro/Gbagada Ward;;Tay Clinic;;;;;
Shomolu;Pedro/Gbagada Ward;;Chisomaga Maternity Home;;;;;
Shomolu;Pedro/Gbagada Ward;;Baptist Medical Centre;;;;;
Shomolu;Pedro/Gbagada Ward;;Renal Dialysis Hospita(Annex);;;;;
Shomolu;Seriki Ward;;Adeeh Davies Convalescent Home;;;;;
Shomolu;Seriki Ward;;Taiwo Convalescent Home;;;;;
Shomolu;Seriki Ward;;Oluwaseun King Maternity Home;;;;;
Shomolu;Seriki Ward;;Capes Hospital;;;;;
Shomolu;Seriki Ward;;New Ore - Ofe Nursing Home;;;;;
Shomolu;Seriki Ward;;Akinbode Clinic;;;;;
Shomolu;Seriki Ward;;Yashua Maternity Home;;;;;
Shomolu;Seriki Ward;;St. John Pual Hospital;;;;;
Shomolu;Seriki Ward;;Theo Lad Hospital and Maternity;;;;;
Shomolu;Seriki Ward;;Crown Convalescent Home;;;;;
Shomolu;Orile Shomolu Ward;;Fortune Health Care Convalescent Home;;;;;
Shomolu;Orile Shomolu Ward;;Akinwunmi Ambode PHC;;;;;
Surulere;Adeniran Ogunsanya Ward;;Ekemode Memorial Hospital;;;;;
Surulere;Adeniran Ogunsanya Ward;;Toki Medical Centre;;;;;
Surulere;Adeniran Ogunsanya Ward;;Kemta Clinic;;;;;
Surulere;Adeniran Ogunsanya Ward;;Lifefort Children Hospital;;;;;
Surulere;Adeniran Ogunsanya Ward;;Parkland Specialist Hospital;;;;;
Surulere;Adeniran Ogunsanya Ward;;Chironna Medical Centre;;;;;
Surulere;Adeniran Ogunsanya Ward;;Jalupon Specialist Clinic;;;;;
Surulere;Adeniran Ogunsanya Ward;;A-Model Hospital ;;;;;
Surulere;Adeniran Ogunsanya Ward;;First Dominican Hospital;;;;;
Surulere;Agunbiade Ward;;Uwemedimo Hospital;;;;;
Surulere;Agunbiade Ward;;St Lukes Medical Centre;;;;;
Surulere;Agunbiade Ward;;Olasunkanmi Clinic;;;;;
Surulere;Agunbiade Ward;;Olukemi Hospital;;;;;
Surulere;Agunbiade Ward;;Firm Convalescent Home;;;;;
Surulere;Agunbiade Ward;;Duntro Clinic;;;;;
Surulere;Airways Ward;;Nomegal Specialist Clinic;;;;;
Surulere;Airways Ward;;Tree of Life Maternity Centre;;;;;
Surulere;Airways Ward;;Iwalewa Nursing Home;;;;;
Surulere;Airways Ward;;New Capstone Specialist Hospital;;;;;
Surulere;Airways Ward;;Airways PHC;;;;;
Surulere;Akinhunmi Cole Ward;;Nusamin Specialist Hospital;;;;;
Surulere;Akinhunmi Cole Ward;;Good Tidings Hospital;;;;;
Surulere;Akinhunmi Cole Ward;;The Word Medical Centre;;;;;
Surulere;Akinhunmi Cole Ward;;Family Health Hospital;;;;;
Surulere;Akinhunmi Cole Ward;;Olaiya Specialist Hospital;;;;;
Surulere;Akinhunmi Cole Ward;;St Claire Specialist Hospital;;;;;
Surulere;Ararile Ward;;Providence Hospital;;;;;
Surulere;Ararile Ward;;Femi Gbajabiamila Clinic;;;;;
Surulere;Baale Ward;;Joedan Hospital;;;;;
Surulere;Baale Ward;;First Faith Medical Centre;;;;;
Surulere;Baale Ward;;De Ever Green Hospital;;;;;
Surulere;Babatunde Ayilara Ward;;Ropheka Convalescent Clinic;;;;;
Surulere;Babatunde Ayilara Ward;;Akerele Primary Health Centre;;;;;
Surulere;Babatunde Ayilara Ward;;Tonez Hospital;;;;;
Surulere;Babatunde Ayilara Ward;;Maritol Medical Centre;;;;;
Surulere;Babatunde Ayilara Ward;;Serenity Hosp;;;;;
Surulere;Babatunde Ayilara Ward;;Jibolu Clinic;;;;;
Surulere;Babatunde Ayilara Ward;;Salus Hospital;;;;;
Surulere;Babatunde Ayilara Ward;;Mount Sinai Clinic;;;;;
Surulere;Babatunde Ayilara Ward;;Ansar-ud-deen Clinic;;;;;
Surulere;Babatunde Ayilara Ward;;Health Safe Clinic;;;;;
Surulere;Babatunde Ayilara Ward;;AB Specialist Hospital;;;;;
Surulere;Babatunde Ayilara Ward;;Adebayo Ogunsanya Memorial Hospital;;;;;
Surulere;Babatunde Ayilara Ward;;Zolace Clinic;;;;;
Surulere;Babatunde Ayilara Ward;;RAO Specialist Hospital;;;;;
Surulere;Babatunde Ayilara Ward;;Sikeoye Hope Clinic;;;;;
Surulere;Coker Ward (Surulere);;Adonai Medical Centre;;;;;
Surulere;Coker Ward (Surulere);;Angel Hospital;;;;;
Surulere;Coker Ward (Surulere);;His Glory Hospital;;;;;
Surulere;Coker Ward (Surulere);;El-Shaddai Clinic;;;;;
Surulere;Coker Ward (Surulere);;El-Femik Hospital;;;;;
Surulere;Coker Ward (Surulere);;Hepzibah Hospital;;;;;
Surulere;Coker Ward (Surulere);;Peculiar Clinic;;;;;
Surulere;Coker Ward (Surulere);;Sarnacs Clinic;;;;;
Surulere;Coker Ward (Surulere);;Adeb Hospital;;;;;
Surulere;Gbaja Ward;;Hatreg Clinic;;;;;
Surulere;Gbaja Ward;;Surulere General Hospital;;;;;
Surulere;Gbaja Ward;;St Anthony Catholic Church Hospital;;;;;
Surulere;Gbaja Ward;;Optmal Specialist Hospital;;;;;
Surulere;Gbaja Ward;;Havana Specialist Hospital;;;;;
Surulere;Iponri/Eric Moore Ward;;Iponri Primary Health Care;;;;;
Surulere;Iponri/Eric Moore Ward;;J. C. Ojini Specialist Hospital;;;;;
Surulere;Iponri/Eric Moore Ward;;Mariamville Clinic;;;;;
Surulere;Iponri/Eric Moore Ward;;Avon Clinic;;;;;
Surulere;Iponri/Eric Moore Ward;;Nigerian Breweries Clinic;;;;;
Surulere;Irone Ward;;Tolida Clinic;;;;;
Surulere;Irone Ward;;SS Simeon Galdinus Medical Centre;;;;;
Surulere;Irone Ward;;Jacobson Nursing Home;;;;;
Surulere;Irone Ward;;Healthy Living Hospital;;;;;
Surulere;Irone Ward;;Mezonel Hospital;;;;;
Surulere;Irone Ward;;Bee Hive Convalescent Home;;;;;
Surulere;Irone Ward;;New Covenant Hospital;;;;;
Surulere;Jinadu Aiyetoro Ward;;Our Lady of Fatimo Clinic;;;;;
Surulere;Jinadu Aiyetoro Ward;;Jalupon Hospital;;;;;
Surulere;Jinadu Aiyetoro Ward;;Coker Aguda Primary Health Centre;;;;;
Surulere;Jinadu Aiyetoro Ward;;St Mary Specialist Centre;;;;;
Surulere;Jinadu Aiyetoro Ward;;Emabal  Hospital;;;;;
Surulere;Jinadu Aiyetoro Ward;;Bey Clinic;;;;;
Surulere;Jinadu Aiyetoro Ward;;Alexander Hospital;;;;;
Surulere;Jinadu Aiyetoro Ward;;Olaniba Memorial Specialist Hospital;;;;;
Surulere;Mosafejo / Ojuelegba Ward;;Oluwani Sikmo Clinic;;;;;
Surulere;Muniru Baruwa Ward;;CAC Oke Iye Maternity;;;;;
Surulere;Muniru Baruwa Ward;;SS Mulumba & David Catholic Clinic;;;;;
Surulere;Muniru Baruwa Ward;;Good Faith Clinic (Annex);;;;;
Surulere;Muniru Baruwa Ward;;Fogas Clinics;;;;;
Surulere;Muniru Baruwa Ward;;O&S Clinic;;;;;
Surulere;Muniru Baruwa Ward;;Lindabel Medical Centre;;;;;
Surulere;Muniru Baruwa Ward;;Royal Pinnacle Clinic;;;;;
Surulere;Muniru Baruwa Ward;;Raheem Memorial Clinic;;;;;
Surulere;Muniru Baruwa Ward;;Anjorin Primary Heatlh Centre;;;;;
Surulere;Muniru Baruwa Ward;;Musterd Seed Maternity Home;;;;;
Surulere;Nuru Oniwo Ward;;The Prime Hospital;;;;;
Surulere;Nuru Oniwo Ward;;Ladkem Eye Clinic;;;;;
Surulere;Nuru Oniwo Ward;;Olivet Clinic;;;;;
Surulere;Nuru Oniwo Ward;;Surulere Medical and Dental Clinic;;;;;
Surulere;Nuru Oniwo Ward;;Fajip Hospital (Annex);;;;;
Surulere;Nuru Oniwo Ward;;Derry Hospital;;;;;
Surulere;Nuru Oniwo Ward;;Aguda Hospital;;;;;
Surulere;Nuru Oniwo Ward;;Hamaab Clinic;;;;;
Surulere;Obele Oniwala Ward;;Topaz Hospital;;;;;
Surulere;Odoolowu Ward;;De-Goodland Hospital;;;;;
Surulere;Odoolowu Ward;;Divine-Covenant Clinic;;;;;
Surulere;Odoolowu Ward;;Primus Hospital;;;;;
Surulere;Ogunsami/Karounmi Ward;;First Cross Clinic;;;;;
Surulere;Ogunsami/Karounmi Ward;;Ejire Primary Health Centre;;;;;
Surulere;Ogunsami/Karounmi Ward;;Funto Hospital;;;;;
Surulere;Ogunsami/Karounmi Ward;;Ayo Classical Health Care Centre;;;;;
Surulere;Ogunsami/Karounmi Ward;;Bimtom Hospital;;;;;
Surulere;Ogunsami/Karounmi Ward;;Waterfall Hospital;;;;;
Surulere;Ogunsami/Karounmi Ward;;Caring Trust Medical Clinic;;;;;
Surulere;Ogunsami/Karounmi Ward;;Family Clinic;;;;;
Surulere;Osho Ward;;Hero Medical Centre;;;;;
Surulere;Osho Ward;;Somadex Nursing Home;;;;;
Surulere;Osho Ward;;First Faith Medical Centre (Surulere);;;;;
Surulere;Osho Ward;;Orile Primary Health Centre;;;;;
Surulere;Osho Ward;;His Mercy Hospital;;;;;
Surulere;Ramoni Ward;;Mustard Seed Maternity;;;;;
Surulere;Ramoni Ward;;Star Clinic;;;;;
Surulere;Ramoni Ward;;New Day Specialist Hospital;;;;;
Surulere;Sanusi Ward;;Ovansa Clinic Annex;;;;;
Surulere;Sanusi Ward;;The Comforter Hospital;;;;;
Surulere;Sanusi Ward;;Mercy Thomas Oredugba Medical Centre;;;;;
Surulere;Sanusi Ward;;Baruwa Primary Health Centre (Surulere);;;;;
Surulere;Sanusi Ward;;Kemson Maternity Home;;;;;
Surulere;Sanusi Ward;;Bobson Nursing Home;;;;;
Surulere;Sanusi Ward;;Great Zion First Hosp;;;;;
Surulere;Sanusi Ward;;Ovansa Hospital;;;;;
Surulere;Savage Ward;;His Stripe Hospital;;;;;
Surulere;Savage Ward;;Morayo Nursing Home;;;;;
Surulere;Shitta/ Bankolemoh Ward;;Eko Hospital (Surulere);;;;;
Surulere;Shitta/ Bankolemoh Ward;;Life Line Hospital;;;;;
Surulere;Shitta/ Bankolemoh Ward;;The Point Specialist Hospital;;;;;
Surulere;Shitta/ Bankolemoh Ward;;Robertson Medical Centre;;;;;
Surulere;Shitta/ Bankolemoh Ward;;Isioma Hospital;;;;;
Surulere;Shitta/ Bankolemoh Ward;;Boots Specialist Hospital;;;;;
