LGA;Ward;Settlement;Facility;Type;Ownership;Address;Longitude;Latitude
Akwanga;Agyaga Ward;;Ashe Primary Health Care Clinic;;;;;
Akwanga;Agyaga Ward;;Ninga Primary Health Centre;;;;;
Akwanga;Agyaga Ward;;Lalle Primary Health Centre;;;;;
Akwanga;Agyaga Ward;;Takpir Primary Health Centre;;;;;
Akwanga;Agyaga Ward;;Buba Clinic Rinze;;;;;
Akwanga;Agyaga Ward;;Akkah Primary Health Care Clinic;;;;;
Akwanga;Agyaga Ward;;Adde Primary Health Centre;;;;;
Akwanga;Agyaga Ward;;Risha Primary Health Care Clinic;;;;;
Akwanga;Agyaga Ward;;Agyaga Primary Health Centre;;;;;
Akwanga;Agyaga Ward;;Dubu Primary Health Centre;;;;;
Akwanga;Agyaga Ward;;Kwandar Primary Health Care Clinic;;;;;
Akwanga;Agyaga Ward;;Rinze Primary Health Centre;;;;;
Akwanga;Agyaga Ward;;Nintabi Primary Health Centre;;;;;
Akwanga;Agyaga Ward;;Koko Primary Health Care Clinic;;;;;
Akwanga;Agyaga Ward;;Tidde Primary Health Care Clinic;;;;;
Akwanga;Agyaga Ward;;Aban Primary Health Centre;;;;;
Akwanga;Akwanga East Ward;;Buku Primary Health Care Clinic;;;;;
Akwanga;Akwanga East Ward;;Nasara Clinic;;;;;
Akwanga;Akwanga East Ward;;Kaigbe Primary Health Care Centre;;;;;
Akwanga;Akwanga East Ward;;Wamba Road Primary Health Centre;;;;;
Akwanga;Akwanga East Ward;;Simaard Sauki Clinic;;;;;
Akwanga;Akwanga East Ward;;Gbunchu Primary Health Care Centre (MDGs);;;;;
Akwanga;Akwanga East Ward;;Akwanga Town Primary Health Centre (MDG);;;;;
Akwanga;Akwanga East Ward;;Nchikpe Primary Health Centre;;;;;
Akwanga;Akwanga East Ward;;Orient Hospital;;;;;
Akwanga;Akwanga East Ward;;Peace Clinic and Maternity (Akwanga);;;;;
Akwanga;Akwanga West Ward;;Akpomoshi Medical Centre;;;;;
Akwanga;Akwanga West Ward;;Trust in God Clinic Akwanga;;;;;
Akwanga;Akwanga West Ward;;Akwanga College of Education Health Centre;;;;;
Akwanga;Akwanga West Ward;;Akwanga Royal Hospital;;;;;
Akwanga;Akwanga West Ward;;Redemption Clinic;;;;;
Akwanga;Akwanga West Ward;;Akwanga General Hospital;;;;;
Akwanga;Akwanga West Ward;;Baptist Clinic Nga;;;;;
Akwanga;Akwanga West Ward;;Cheto Clinic Akwanga;;;;;
Akwanga;Ancho Ward;;Gbuwhen Health Clinic;;;;;
Akwanga;Ancho Ward;;Maven Primary Health Centre;;;;;
Akwanga;Ancho Ward;;Rija Primary Health Centre;;;;;
Akwanga;Ancho Ward;;Awon Primary Health Care Clinic;;;;;
Akwanga;Ancho Ward;;Ancho 'B' Primary Health Centre (MDGs);;;;;
Akwanga;Andaha Ward;;Andaha Primary Health Centre;;;;;
Akwanga;Andaha Ward;;Kantarza Primary Health Care Andaha;;;;;
Akwanga;Andaha Ward;;Bukata Clinic;;;;;
Akwanga;Andaha Ward;;Kpukpawu Comprehensive Health Centre;;;;;
Akwanga;Gudi Ward;;Angwan Habu Primary Health Care Clinic;;;;;
Akwanga;Gudi Ward;;Gudi Primary Health Care Clinic;;;;;
Akwanga;Gudi Ward;;SSC Gudi Primary Health Care Clinic;;;;;
Akwanga;Gudi Ward;;Sudir Clinic Gudi;;;;;
Akwanga;Gwanje Ward;;Gwanje District Health Office Facility;;;;;
Akwanga;Gwanje Ward;;Gwanje Primary Health Centre;;;;;
Akwanga;Gwanje Ward;;Gbuje Primary Health Centre;;;;;
Akwanga;Moroa/Anjida Ward;;Angwan Dariya Primary Health Care Clinic;;;;;
Akwanga;Moroa/Anjida Ward;;Angwan Yara Primary Health Care Clinic (Akwanga);;;;;
Akwanga;Moroa/Anjida Ward;;Bakin Kogi Primary Health Care Clinic (Moroa);;;;;
Akwanga;Moroa/Anjida Ward;;Moroa Primary Health Centre;;;;;
Akwanga;Moroa/Anjida Ward;;Anjida Primary Health Care Clinic;;;;;
Akwanga;Moroa/Anjida Ward;;Mochu Memorial Clinic;;;;;
Akwanga;Ninghaan Ward;;Numa District Health Office Health Facility;;;;;
Akwanga;Ninghaan Ward;;Bayan Dutse Primary Health Care Centre (MDGs);;;;;
Akwanga;Ninghaan Ward;;Nidan Primary Health Care Clinic;;;;;
Akwanga;Ningo/Boher Ward;;Ngaruwa Primary Health Care Clinic;;;;;
Akwanga;Ningo/Boher Ward;;Nghangum Primary Health Care Clinic;;;;;
Akwanga;Ningo/Boher Ward;;Alan Primary Health Centre Clinic;;;;;
Akwanga;Ningo/Boher Ward;;Gbunkpan Primary Health Centre;;;;;
Akwanga;Ningo/Boher Ward;;Ngache Primary Health Centre;;;;;
Akwanga;Ningo/Boher Ward;;Tabu Primary Health Centre (MDGs);;;;;
Akwanga;Nunku Ward;;Angwan Mallam Umaru Primary Health Care Clinic;;;;;
Akwanga;Nunku Ward;;Nunku Primary Health Centre;;;;;
Akwanga;Nunku Ward;;Angwan Jatau Primary Health Care Clinic;;;;;
Akwanga;Nunku Ward;;Angwan Dorawa Health Clinic;;;;;
Akwanga;Nunku Ward;;Nukuchu Primary Health Care Clinic;;;;;
Akwanga;Nunku Ward;;Anku Primary Health Care Clinic;;;;;
Awe;Akiri Ward;;Gwam Primary Health Centre;;;;;
Awe;Akiri Ward;;Akiri Comprehensive Health Centre;;;;;
Awe;Azara Ward;;Jimi Primary Health Care;;;;;
Awe;Azara Ward;;Jatau Memorial Clinic Azara;;;;;
Awe;Azara Ward;;Azara Primary Health Care Centre;;;;;
Awe;Azara Ward;;Azara Model Primary Health Centre;;;;;
Awe;Azara Ward;;Rugwagu Primary Health Centre;;;;;
Awe;Galadima Ward;;Algon Comprehensive Health Centre ;;;;;
Awe;Galadima Ward;;Ampana Primary Health Centre;;;;;
Awe;Galadima Ward;;Mahanga Health Clinic;;;;;
Awe;Galadima Ward;;Awe Old Town Health Clinic;;;;;
Awe;Jangaru Ward;;Jangaru Health Clinic;;;;;
Awe;Kanje/Abuni Ward;;Ihuman Primary Health Centre;;;;;
Awe;Kanje/Abuni Ward;;Abuni Primary Health Centre;;;;;
Awe;Kanje/Abuni Ward;;Kanje Health Clinic (Awe);;;;;
Awe;Madaki Ward;;Awe General Hospital;;;;;
Awe;Madaki Ward;;Jangargari Health Clinic;;;;;
Awe;Madaki Ward;;Akwate Primary Health Care;;;;;
Awe;Madaki Ward;;Nakowa Clinic Awe;;;;;
Awe;Madaki Ward;;Kafin Moyi Health Clinic;;;;;
Awe;Makwangiji Ward;;Baure Health Clinic;;;;;
Awe;Makwangiji Ward;;Gidin Kade Health Clinic;;;;;
Awe;Makwangiji Ward;;Awe Federal Staff Low Cost Health Clinic;;;;;
Awe;Makwangiji Ward;;Kekura Health Clinic;;;;;
Awe;Ribi Ward;;Ibi Alago Health Clinic;;;;;
Awe;Ribi Ward;;Jangwa Health Clinic;;;;;
Awe;Ribi Ward;;Model Primary Health Centre;;;;;
Awe;Ribi Ward;;Ribi Health Clinic;;;;;
Awe;Tunga Ward;;Tunga Health Clinic (Awe);;;;;
Awe;Tunga Ward;;Tsohon Tunga Primary Health Centre;;;;;
Awe;Wuse Ward;;Kumar Primary Health Centre;;;;;
Awe;Wuse Ward;;Wuse Comprehensive Health Centre;;;;;
Doma;Agbashi Ward;;Olegaboge Health Clinic;;;;;
Doma;Agbashi Ward;;Idadu Health Clinic;;;;;
Doma;Agbashi Ward;;Iponu Health Clinic;;;;;
Doma;Agbashi Ward;;Agbashi General Hospital;;;;;
Doma;Agbashi Ward;;Okpatta Health Clinic;;;;;
Doma;Agbashi Ward;;Agbashi Health Clinic;;;;;
Doma;Agbashi Ward;;Agirma Health Clinic;;;;;
Doma;Akpanaja Ward;;Ochepe Primary Health Centre;;;;;
Doma;Akpanaja Ward;;Akure-Basa Primary Health Centre;;;;;
Doma;Akpanaja Ward;;Obendo Primary Health Care Centre;;;;;
Doma;Akpanaja Ward;;Olegopa Primary Health Centre;;;;;
Doma;Akpanaja Ward;;Akpanaja Primary Health Care Centre;;;;;
Doma;Alagye Ward;;Mallamanza Primary Health Care Centre;;;;;
Doma;Alagye Ward;;Alagye Health Clinic;;;;;
Doma;Alagye Ward;;Mudu Primary Health Care Centre;;;;;
Doma;Alagye Ward;;Ruwan Baka Primary Health Care Centre;;;;;
Doma;Alagye Ward;;Burum-Burum Health Clinic;;;;;
Doma;Alagye Ward;;Okutuwa Primary Health Care Centre;;;;;
Doma;Alagye Ward;;Ruttu Primary Health Care Doma;;;;;
Doma;Alagye Ward;;Congo Lemu Primary Health Care Centre;;;;;
Doma;Alagye Ward;;Damba Primary Health Care Centre;;;;;
Doma;Doka Ward;;Ankoma Health Clinic;;;;;
Doma;Doka Ward;;Doka Health Clinic (Doma);;;;;
Doma;Doka Ward;;Gidan Rai Health Clinic;;;;;
Doma;Doka Ward;;Igbabo Health Clinic;;;;;
Doma;Doka Ward;;Ohina Mada Primary Health Care Centre;;;;;
Doma;Doka Ward;;Yelwa Health Clinic (Doma);;;;;
Doma;Galadima Ward (Doma);;Na,Kowa Health Clinic;;;;;
Doma;Galadima Ward (Doma);;Dadu Royal Clinic;;;;;
Doma;Galadima Ward (Doma);;Doma Model Primary Health Centre;;;;;
Doma;Galadima Ward (Doma);;Taimako Clinic Doma;;;;;
Doma;Galadima Ward (Doma);;Kowa Clinic (Doma);;;;;
Doma;Galadima Ward (Doma);;Shallow Clinic;;;;;
Doma;Galadima Ward (Doma);;New Era Clinic;;;;;
Doma;Galadima Ward (Doma);;Gaskiya Clinic (Doma);;;;;
Doma;Galadima Ward (Doma);;Owusoweshi Clinic;;;;;
Doma;Galadima Ward (Doma);;Kwararafa Primary Health centre;;;;;
Doma;Madaki Ward (Doma);;Sabo Clinic;;;;;
Doma;Madaki Ward (Doma);;Alarama Primary Health Care Centre;;;;;
Doma;Madauchi Ward;;Pakasa Clinic;;;;;
Doma;Madauchi Ward;;Ungwa Nupawa Primary Health Centre;;;;;
Doma;Rukubi Ward;;Rukubi Health Clinic;;;;;
Doma;Rukubi Ward;;Agyema Primary Health Centre;;;;;
Doma;Rukubi Ward;;Ondori Health Clinic;;;;;
Doma;Rukubi Ward;;Ijiwo Primary Health Centre;;;;;
Doma;Rukubi Ward;;Otiya Primary Health Centre;;;;;
Doma;Sabongari Ward;;Okpo Doma Health Clinic;;;;;
Doma;Sabongari Ward;;Alwaza Primary Health Care Centre;;;;;
Doma;Sabongari Ward;;Arumagye Health Clinic;;;;;
Doma;Sarki Dawaki Ward;;Doma General Hospital;;;;;
Doma;Sarki Dawaki Ward;;Iwashi Health Clinic;;;;;
Doma;Sarki Dawaki Ward;;Doma Town Clinic and Maternity;;;;;
Doma;Sarki Dawaki Ward;;Attah Royal Clinic;;;;;
Doma;Sarki Dawaki Ward;;Doma New Market Primary Health Care Centre;;;;;
Doma;Sarki Dawaki Ward;;Andoma Palace Primary Health Centre (Doma);;;;;
Doma;Sarki Dawaki Ward;;Owuche Health Clinic;;;;;
Karu;Aso/Kodope Ward;;Divine Favour Clinic & Maternity Karu;;;;;
Karu;Aso/Kodope Ward;;Ebba Health Clinic;;;;;
Karu;Aso/Kodope Ward;;Pijag Clinic;;;;;
Karu;Aso/Kodope Ward;;Nyanya Gwandara Primary Health Care;;;;;
Karu;Aso/Kodope Ward;;Emotal Clinic;;;;;
Karu;Aso/Kodope Ward;;Aso Pada Health Clinic;;;;;
Karu;Aso/Kodope Ward;;Mojilla Hospital Karu;;;;;
Karu;Aso/Kodope Ward;;Jankanwa Primary Health Centre;;;;;
Karu;Aso/Kodope Ward;;Alkwari Hospital;;;;;
Karu;Aso/Kodope Ward;;Aso 2 Primary Health Centre;;;;;
Karu;Aso/Kodope Ward;;Jiba Primary Health Centre;;;;;
Karu;Aso/Kodope Ward;;Beam Clinic;;;;;
Karu;Aso/Kodope Ward;;Messiah Clinic & Maternity Karu;;;;;
Karu;Aso/Kodope Ward;;Koya Health Clinic;;;;;
Karu;Aso/Kodope Ward;;Luvu Madaki Health Clinic;;;;;
Karu;Aso/Kodope Ward;;Zhehu Primary Health Centre;;;;;
Karu;Aso/Kodope Ward;;Beam Clinic and Maternity;;;;;
Karu;Aso/Kodope Ward;;Tudun Wada Health Clinic;;;;;
Karu;Bagaji Agada Ward;;Yellan Soji Health Clinic;;;;;
Karu;Bagaji Agada Ward;;Nawarki Clinic;;;;;
Karu;Bagaji Agada Ward;;Gwara Primary Health Centre;;;;;
Karu;Bagaji Agada Ward;;Gidan Zakara Health Clinic;;;;;
Karu;Bagaji Agada Ward;;Madubi Clinic;;;;;
Karu;Bagaji Agada Ward;;Yelwa Salau Health Post;;;;;
Karu;Bagaji Agada Ward;;A/Tara Primary Health Centre;;;;;
Karu;Bagaji Agada Ward;;Army Barrac Primary Health Centre;;;;;
Karu;Bagaji Agada Ward;;Sauki Clinic (Bagaji Agada);;;;;
Karu;Bagaji Agada Ward;;Dorowa Primary Health Centre;;;;;
Karu;Bagaji Agada Ward;;Angwanpa Primary Health Centre;;;;;
Karu;Bagaji Agada Ward;;Madubi Health Post;;;;;
Karu;Bagaji Agada Ward;;Mary Clinic;;;;;
Karu;Gitata Ward;;Tudun Uku Health Clinic (Karu);;;;;
Karu;Gitata Ward;;Angwan Mangoro Health Clinic;;;;;
Karu;Gitata Ward;;A/Shuaibu Primary Health Centre;;;;;
Karu;Gitata Ward;;Ikon Allah Clinic;;;;;
Karu;Gitata Ward;;Taka Lafiya Primary Health Centre;;;;;
Karu;Gitata Ward;;Kawo Health Clinic;;;;;
Karu;Gurku/Kabusu Ward;;Kuchidna Primary Health Centre;;;;;
Karu;Gurku/Kabusu Ward;;Gurku 2 Health Clinic;;;;;
Karu;Gurku/Kabusu Ward;;Kugwaru Health Clinic;;;;;
Karu;Gurku/Kabusu Ward;;Gurku 1 Health Clinic;;;;;
Karu;Gurku/Kabusu Ward;;Gbaradna Health Clinic;;;;;
Karu;Gurku/Kabusu Ward;;Vengopen Gurku Health Clinic;;;;;
Karu;Gurku/Kabusu Ward;;Gbaradna Primary Health Centre;;;;;
Karu;Karshi 1 Ward;;Karshi Health Clinic;;;;;
Karu;Karshi 2 Ward;;Ara Sabo Primary Health Centre;;;;;
Karu;Karshi 2 Ward;;Bagaji New Market Clinic;;;;;
Karu;Karshi 2 Ward;;Taka Lafiya Primary Health Centre (Karshi2);;;;;
Karu;Karshi 2 Ward;;Gigipe Primary Health Centre;;;;;
Karu;Karshi 2 Ward;;Kwaltama Primary Health Centre;;;;;
Karu;Karshi 2 Ward;;Kowayayarda Primary Health Centre;;;;;
Karu;Karshi 2 Ward;;Kurape Clinic;;;;;
Karu;Karshi 2 Ward;;Rafin Kwara Health Clinic;;;;;
Karu;Karshi 2 Ward;;Rafinkwara Auteri Clinic;;;;;
Karu;Karu Unknown Ward;;Morer Health Clinic;;;;;
Karu;Karu Unknown Ward;;Kauna Clinic and Laboratory;;;;;
Karu;Karu Unknown Ward;;Holy Name Clinic and Maternity;;;;;
Karu;Karu Unknown Ward;;Saka Health Clinic;;;;;
Karu;Karu Unknown Ward;;Kafiya Clinic;;;;;
Karu;Karu Unknown Ward;;New Karu Evangelical Church of West Africa (ECWA) Clinic;;;;;
Karu;Karu Unknown Ward;;Kodoro Koro Health Clinic;;;;;
Karu;Karu Unknown Ward;;Maraba Clinic and Maternity;;;;;
Karu;Karu Unknown Ward;;Myam Hospital;;;;;
Karu;Karu Unknown Ward;;Blessed Trinity Clinic and Maternity;;;;;
Karu;Karu Unknown Ward;;Aso Clinic;;;;;
Karu;Karu Unknown Ward;;Shadalafia Clinic;;;;;
Karu;Karu Ward;;Algon Comprehensive Health Centre Karu;;;;;
Karu;Karu Ward;;Sarkin Clinic and Maternity (Karu);;;;;
Karu;Karu Ward;;Best Clinic (Karu);;;;;
Karu;Karu Ward;;Kujat Clinic;;;;;
Karu;Karu Ward;;Alhari Clinic;;;;;
Karu;Karu Ward;;Kuchkau Health Clinic;;;;;
Karu;Karu Ward;;Masaka Primary Health Care Clinic;;;;;
Karu;Karu Ward;;Kay Hospital (Karu);;;;;
Karu;Karu Ward;;Diza Hospital;;;;;
Karu;Karu Ward;;Mozilla Hospital;;;;;
Karu;Karu Ward;;Bege Clinic & Maternity;;;;;
Karu;Karu Ward;;Total Care Hospital (Karu);;;;;
Karu;Karu Ward;;Kings Maternal and Child Health Clinic;;;;;
Karu;Karu Ward;;Karu Primary Health Care Clinic;;;;;
Karu;Karu Ward;;Mararaba Medical Centre;;;;;
Karu;Karu Ward;;Koroduma Health Clinic;;;;;
Karu;Karu Ward;;May Day Specialist Hospital;;;;;
Karu;Karu Ward;;Karu Hospital (Karu);;;;;
Karu;Karu Ward;;Mararaba Primary Health Centre (Karu);;;;;
Karu;Karu Ward;;Livia Shammah Hospital (Karu);;;;;
Karu;Karu Ward;;Health Link Clinic;;;;;
Karu;Karu Ward;;Anointed Clinic and Maternity Karu ;;;;;
Karu;Karu Ward;;Nyanya Gbagyi Primary Health Care;;;;;
Karu;Karu Ward;;Ado Kasa Primary Health Care Clinic;;;;;
Karu;Karu Ward;;Mozilla Hospital;;;;;
Karu;Karu Ward;;Nissi Hospital;;;;;
Karu;Karu Ward;;St. Philips Clinic  & Maternity Masaka;;;;;
Karu;Karu Ward;;Ado Kasa Clinic;;;;;
Karu;Keffi Shanu Nike Ward;;Praise Clinic & Maternity;;;;;
Karu;Keffi Shanu Nike Ward;;Kowa Primary Health Care Centre;;;;;
Karu;Keffi Shanu Nike Ward;;Gidankoro Primary Health Centre;;;;;
Karu;Keffi Shanu Nike Ward;;Angwan Madugu Clinic (k/Shanu);;;;;
Karu;Keffi Shanu Nike Ward;;Gwagwa Health Clinic;;;;;
Karu;Keffi Shanu Nike Ward;;Keffi Shanu Nike Health Clinic;;;;;
Karu;Keffi Shanu Nike Ward;;Angwan Madugu Clinic (k/Shanu);;;;;
Karu;Panda/Kare Ward;;Kare Primary Health Centre;;;;;
Karu;Panda/Kare Ward;;Gwalaji Primary Health Centre;;;;;
Karu;Panda/Kare Ward;;Aminchi Clinic (Panda/Kare);;;;;
Karu;Panda/Kare Ward;;Sabon Gida Koso Primary Health Care Clinic;;;;;
Karu;Panda/Kare Ward;;Kube Health Clinic;;;;;
Karu;Panda/Kare Ward;;Panda General Hospital;;;;;
Karu;Panda/Kare Ward;;Angwan Pakoro Primary Health Care Clinic;;;;;
Karu;Panda/Kare Ward;;Angwan Jaba Primary Health Care Clinic;;;;;
Karu;Panda/Kare Ward;;Kardi Primary Health Centre;;;;;
Karu;Panda/Kare Ward;;Panda Gwari Primary Health Centre;;;;;
Karu;Panda/Kare Ward;;Ago Primary Health Centre (Panda/Kare);;;;;
Karu;Panda/Kare Ward;;Kukan Primary Health Centre;;;;;
Karu;Panda/Kare Ward;;Ankoma Health Clinic (Panda/Kare);;;;;
Karu;Panda/Kare Ward;;Panda Primary Health Centre;;;;;
Karu;Panda/Kare Ward;;Kenga Primary Health Centre;;;;;
Karu;Panda/Kare Ward;;Angwan Pa-Iche Primary Health Care Clinic;;;;;
Karu;Panda/Kare Ward;;Koso Primary Health Care Clinic (Panda/Kare);;;;;
Karu;Tatara/Kondoro Ward;;Jangali Primary Health Centre;;;;;
Karu;Tatara/Kondoro Ward;;Kuda Health Clinic;;;;;
Karu;Tatara/Kondoro Ward;;Tatara Health Clinic;;;;;
Karu;Tatara/Kondoro Ward;;Godoro Primary Health Centre;;;;;
Karu;Tatara/Kondoro Ward;;S/Ayaba Primary Health Centre;;;;;
Karu;Tatara/Kondoro Ward;;A/Tanko Primary Health Centre;;;;;
Karu;Tatara/Kondoro Ward;;D/Gogo Primary Health Centre;;;;;
Karu;Tatara/Kondoro Ward;;Buzi Primary Health Centre;;;;;
Karu;Tatara/Kondoro Ward;;Angwan Ayaba Health Clinic;;;;;
Karu;Tatara/Kondoro Ward;;Ankuta Primary Health Centre;;;;;
Karu;Tatara/Kondoro Ward;;Edon Primary Health Centre;;;;;
Karu;Uke Ward;;A/Sa'aka Primary Health Centre;;;;;
Karu;Uke Ward;;Alheri Clinic (Uke);;;;;
Karu;Uke Ward;;Uke Primary Health Centre;;;;;
Keana;Agaza Ward;;Owena Health Clinic;;;;;
Keana;Agaza Ward;;Ishoho Primary Health Centre;;;;;
Keana;Agaza Ward;;Agaza Health Clinic;;;;;
Keana;Aloshi Ward;;Pevgah Primary Health Centre;;;;;
Keana;Aloshi Ward;;Aloshi Health Clinic;;;;;
Keana;Amiri Ward;;Uluji Primary Health Centre;;;;;
Keana;Amiri Ward;;Keana Evangelical Reformed Church of Christ (ERCC) Clinic;;;;;
Keana;Amiri Ward;;Amiri National Primary Health Centre;;;;;
Keana;Galadima Ward;;Iwanev Health Clinic;;;;;
Keana;Galadima Ward;;Kpalev Primary Health Centre;;;;;
Keana;Iwagu Ward;;Chahul Primary Health Center;;;;;
Keana;Iwagu Ward;;Kuduku 1 Health Clinic;;;;;
Keana;Iwagu Ward;;Iwagu Health Clinic;;;;;
Keana;Kadarko Ward;;Gidan Dogo Health Clinic;;;;;
Keana;Kadarko Ward;;Sarki Noma Health Clinic;;;;;
Keana;Kadarko Ward;;Ishan-Pepe Clinic;;;;;
Keana;Kadarko Ward;;Kadarko Model Primary Health Centre;;;;;
Keana;Kadarko Ward;;Angwa-Alaku Health Clinic;;;;;
Keana;Kadarko Ward;;Gidan Sule Health Clinic;;;;;
Keana;Kwara Ward;;Angwan Yara Health Clinic (Keana);;;;;
Keana;Kwara Ward;;Kwara Primary Health Centre;;;;;
Keana;Kwara Ward;;Tudu Abu Primary Health Care;;;;;
Keana;Madaki Ward;;Giza Primary Health Centre;;;;;
Keana;Madaki Ward;;Kalachi Primary Health Centre;;;;;
Keana;Madaki Ward;;Ajo Primary Health Centre;;;;;
Keana;Obene Ward;;Demekaa Health Clinic;;;;;
Keana;Obene Ward;;Iorgyere Primary Health Centre;;;;;
Keana;Oki Ward;;Agberagba Primary Health Centre;;;;;
Keana;Oki Ward;;Tachia Health Clinic ;;;;;
Keana;Oki Ward;;Keana General Hospital;;;;;
Keffi;Angwar Rimi Ward;;Amosun Maternal and Child Health Clinic;;;;;
Keffi;Angwar Rimi Ward;;Danbal Hospital;;;;;
Keffi;Angwar Rimi Ward;;Nagari Hospital;;;;;
Keffi;Gangaren Tudu Ward;;Imani Clinic;;;;;
Keffi;Gangaren Tudu Ward;;Al nur maternity;;;;;
Keffi;Goriya Ward;;Nassarawa School of Health Technology Health Clinic;;;;;
Keffi;Goriya Ward;;Nasara Clinic and Maternity;;;;;
Keffi;Goriya Ward;;Keffi Federal Medical Centre;;;;;
Keffi;Goriya Ward;;Nassarawa University Health Clinic;;;;;
Keffi;Goriya Ward;;Ebenezer Maternity Clinic;;;;;
Keffi;Goriya Ward;;Yalwan Soba Primary Health Center;;;;;
Keffi;Goriya Ward;;Jama'a Medical Centre;;;;;
Keffi;Iya 1 Ward;;Shukura Clinic;;;;;
Keffi;Iya 1 Ward;;Keffi Evangelical Reformed Church of Christ (ERCC) Basic Health Clinic;;;;;
Keffi;Iya 1 Ward;;Tsohonkasuma Mai-Kwara Clinic;;;;;
Keffi;Iya 2 Ward;;Tsohon Kasuwa Primary Health Care Clinic;;;;;
Keffi;Iya 2 Ward;;Keffi General Hospital;;;;;
Keffi;Iya 2 Ward;;Kowa Hospital (Keffi);;;;;
Keffi;Iya 2 Ward;;Ruga Primary Health Center;;;;;
Keffi;Iya 2 Ward;;Angwan Waje Health Clinic;;;;;
Keffi;Jigwada Ward;;Angwan Jaba Primary Health Centre;;;;;
Keffi;Jigwada Ward;;Angwan Jaba Health Clinic (Keffi);;;;;
Keffi;Jigwada Ward;;Tila Primary Health Center;;;;;
Keffi;Jigwada Ward;;Angwan Ninzom Primary Health Centre;;;;;
Keffi;Jigwada Ward;;Jigwada Health Clinic;;;;;
Keffi;Jigwada Ward;;Kaibo Mada Health Clinic;;;;;
Keffi;Liman Abaji Ward;;Kasuwa Primary Health Centre;;;;;
Keffi;Liman Abaji Ward;;Zanfara Clinic;;;;;
Keffi;Sabon Gari Ward;;Saura Kiriya Primary Health Centre;;;;;
Keffi;Sabon Gari Ward;;Innovative Biotech Ltd Clinic;;;;;
Keffi;Sabon Gari Ward;;Angwan Maikai Primary Health Center;;;;;
Keffi;Sabon Gari Ward;;Yarkade Health Clinic;;;;;
Keffi;Sabon Gari Ward;;Gauta Health Clinic;;;;;
Keffi;Sabon Gari Ward;;Sabon Gari Health Clinic;;;;;
Keffi;Tudun Kofa Ward;;Tawakali Clinic;;;;;
Keffi;Tudun Kofa Ward;;Kofar Pada Primary Health Centre;;;;;
Keffi;Yara Ward;;Main Market Health Post;;;;;
Keffi;Yara Ward;;Allah Bamu Lafiya Clinic;;;;;
Keffi;Yara Ward;;Sabon Layi Primary Health Center;;;;;
Kokona;Agwada Ward;;Agwada Primary Health Centre;;;;;
Kokona;Agwada Ward;;NMPHC Agwada;;;;;
Kokona;Agwada Ward;;Igwo Primary Health Centre;;;;;
Kokona;Amba Ward;;Sabon Ruwa Primary Health Centre;;;;;
Kokona;Amba Ward;;Amba Primary Health Centre;;;;;
Kokona;Amba Ward;;Kandare Primary Health Centre;;;;;
Kokona;Bassa Ward;;Angiri Primary Health Care;;;;;
Kokona;Bassa Ward;;Bassa North Primary Health Care;;;;;
Kokona;Bassa Ward;;Bassa Primary Health Centre;;;;;
Kokona;Dari Ward;;Angoro Primary Health Centre;;;;;
Kokona;Dari Ward;;Gurgu Primary Health Centre;;;;;
Kokona;Dari Ward;;Mandara Primary Health Centre;;;;;
Kokona;Dari Ward;;Amaha Primary Health Centre;;;;;
Kokona;Dari Ward;;Labana Clinic;;;;;
Kokona;Dari Ward;;Arusu Primary Health Centre;;;;;
Kokona;Dari Ward;;Dari Primary Health Centre;;;;;
Kokona;Garaku Ward;;GGSS Primary Health Centre;;;;;
Kokona;Garaku Ward;;Kurminshinkafa Primary Health Centre;;;;;
Kokona;Garaku Ward;;Garaku 2 Primary Health Centre;;;;;
Kokona;Garaku Ward;;Garaku 1 Primary Health Centre;;;;;
Kokona;Garaku Ward;;Taimako Clinic (Garaku);;;;;
Kokona;Garaku Ward;;Maklin Clinic (Garaku);;;;;
Kokona;Garaku Ward;;Kundami Primary Health Care Clinic;;;;;
Kokona;Garaku Ward;;Garaku General Hospital;;;;;
Kokona;Garaku Ward;;Sauki Clinic (Garaku);;;;;
Kokona;Hadari Ward;;A/Mayo Primary Health Centre;;;;;
Kokona;Hadari Ward;;Sabon Gida Primary Health Centre (Hadari);;;;;
Kokona;Hadari Ward;;Saura Kiriya Primary Health Care Clinic (Kokona);;;;;
Kokona;Hadari Ward;;Bazariye Primary Health Centre;;;;;
Kokona;Hadari Ward;;Marke Primary Health Centre;;;;;
Kokona;Hadari Ward;;Gida Allan Primary Health Centre;;;;;
Kokona;Hadari Ward;;Kurame Primary Health Centre;;;;;
Kokona;Kana Apwu Ward;;Kana Apawu Primary Health Centre;;;;;
Kokona;Kana Apwu Ward;;New Koya Clinic;;;;;
Kokona;kofar Gwari  Ward;;Angwa Tsira Primary Health Centre;;;;;
Kokona;kofar Gwari  Ward;;Kofar Angwary Primary Health Centre;;;;;
Kokona;kofar Gwari  Ward;;Jamaa Gaya Primary Health Centre;;;;;
Kokona;kofar Gwari  Ward;;Alheri Clinic Garaku;;;;;
Kokona;kofar Gwari  Ward;;Bakin Ayini Primary Health Care;;;;;
Kokona;Kokona Ward;;Songo Primary Health Centre;;;;;
Kokona;Kokona Ward;;Kokona Primary Health Centre;;;;;
Kokona;Kokona Ward;;Pambarau Primary Health Centre;;;;;
Kokona;Kokona Ward;;Bokoko Primary Health Centre;;;;;
Kokona;Kokona Ward;;Angwan Doka  Primary Health Centre;;;;;
Kokona;Ninkoro Ward;;Ninkoro Primary Health Centre;;;;;
Kokona;Ninkoro Ward;;Angwa-Barau Primary Health Centre;;;;;
Kokona;Ninkoro Ward;;Yelwa Kodo Primary Health Centre;;;;;
Kokona;Ninkoro Ward;;Angwan Mainasara Primary Health Centre;;;;;
Kokona;Ninkoro Ward;;Moroa Primary Health Centre (Kokona);;;;;
Kokona;Ninkoro Ward;;Ambasi Mada Primary Health Centre;;;;;
Kokona;Ninkoro Ward;;Tatara Mada Primary Health Centre;;;;;
Kokona;Yelwa Ward;;Aforami Primary Health Care;;;;;
Kokona;Yelwa Ward;;Angwan Arume Primary Health Care;;;;;
Kokona;Yelwa Ward;;Sakwato Primary Health Centre;;;;;
Kokona;Yelwa Ward;;Yelwa Bassa Primary Health Centre;;;;;
Lafia;Adogi Ward;;Agyaragu Koro Health Clinic;;;;;
Lafia;Adogi Ward;;Dungu Health Clinic;;;;;
Lafia;Adogi Ward;;Akura Health Clinic;;;;;
Lafia;Adogi Ward;;Gidan Mai Akuya Evangelical Reformed Church of Christ (ERCC) Dispensary;;;;;
Lafia;Adogi Ward;;Gidan Mai Akuya Health Clinic;;;;;
Lafia;Adogi Ward;;Adogi Primary Health Centre;;;;;
Lafia;Adogi Ward;;Agori Health Clinic;;;;;
Lafia;Agyaragu Tofa Ward;;Agyaragu Tofa Health Clinic;;;;;
Lafia;Agyaragu Tofa Ward;;Angwan Yakubu Health Clinic;;;;;
Lafia;Agyaragu Tofa Ward;;Bunkan Burga Health Clinic;;;;;
Lafia;Agyaragu Tofa Ward;;Madagwa Primary Health Centre;;;;;
Lafia;Agyaragu Tofa Ward;;Tudun Ukpu Health Clinic;;;;;
Lafia;Agyaragu Tofa Ward;;Kayarda Health Clinic;;;;;
Lafia;Akurba Ward;;Bukan Sidi Health Clinic;;;;;
Lafia;Akurba Ward;;Kurmin Kiki Health Clinic;;;;;
Lafia;Akurba Ward;;Agabija Health Clinic;;;;;
Lafia;Akurba Ward;;Nasarawa State Poly MDGS Clinic ;;;;;
Lafia;Akurba Ward;;Akurba Health Clinic;;;;;
Lafia;Akurba Ward;;Voice of Islam;;;;;
Lafia;Akurba Ward;;Ungwar Rere Primary Health Clinic;;;;;
Lafia;Arikya/Mankwar Ward;;Agyabawa Primary Health Care Clinic;;;;;
Lafia;Arikya/Mankwar Ward;;Wayo Health Centre;;;;;
Lafia;Arikya/Mankwar Ward;;Mankwar Health Clinic;;;;;
Lafia;Arikya/Mankwar Ward;;Arugbadun Dona Health Centre;;;;;
Lafia;Arikya/Mankwar Ward;;Gallo Primary Health Care;;;;;
Lafia;Arikya/Mankwar Ward;;Agbulagu Kadaura Health Clinic;;;;;
Lafia;Arikya/Mankwar Ward;;Fadama North Primary Health Centre;;;;;
Lafia;Arikya/Mankwar Ward;;Kampani Health Centre;;;;;
Lafia;Arikya/Mankwar Ward;;Arikya Health Clinic;;;;;
Lafia;Arikya/Mankwar Ward;;Jibyel Health Clinic;;;;;
Lafia;Arikya/Mankwar Ward;;Feferuwa Primary Health Care;;;;;
Lafia;Ashige/Ugah Ward;;Ugah Health Centre;;;;;
Lafia;Ashige/Ugah Ward;;Angwa Madaki Health Centre;;;;;
Lafia;Ashige/Ugah Ward;;Alawagana Health Clinic;;;;;
Lafia;Ashige/Ugah Ward;;Fadama B South Primary Health Centre;;;;;
Lafia;Ashige/Ugah Ward;;Kibba Health Clinic;;;;;
Lafia;Ashige/Ugah Ward;;Gidan Buba Health Centre;;;;;
Lafia;Ashige/Ugah Ward;;Alingani Health Clinic;;;;;
Lafia;Ashige/Ugah Ward;;Ashangwa Health Clinic;;;;;
Lafia;Ashige/Ugah Ward;;Gwayaka Health Clinic;;;;;
Lafia;Ashige/Ugah Ward;;Ashige Health Clinic;;;;;
Lafia;Ashige/Ugah Ward;;Adamu Agyo Health Centre;;;;;
Lafia;Assakio Ward;;Assakio Town Health Post;;;;;
Lafia;Assakio Ward;;Assakio Primary Health Centre;;;;;
Lafia;Assakio Ward;;Ashigogo Health Centre;;;;;
Lafia;Assakio Ward;;Kiguna Health Centre;;;;;
Lafia;Assakio Ward;;Sabon Gida Health Clinic;;;;;
Lafia;Assakio Ward;;Tungan Nupawa Health Clinic;;;;;
Lafia;Chiroma Ward;;Kowa Hospital (Lafia);;;;;
Lafia;Chiroma Ward;;Wadata Health Clinic;;;;;
Lafia;Chiroma Ward;;Tudun Abu Primary Health Centre;;;;;
Lafia;Chiroma Ward;;Angwan Mallam Sabo Primary Health Centre;;;;;
Lafia;Chiroma Ward;;Lafia East Health Clinic;;;;;
Lafia;Chiroma Ward;;Angwan Shalele Primary Health Centre;;;;;
Lafia;Chiroma Ward;;Oshyegba Josh Medical Centre;;;;;
Lafia;Chiroma Ward;;Kawari Primary Health Centre;;;;;
Lafia;Gayam Ward;;Dalhatu Araf Specialist Hospital;;;;;
Lafia;Gayam Ward;;Doma Road Primary Health Care Centre;;;;;
Lafia;Gayam Ward;;Hauwawu Clinic (Lafia);;;;;
Lafia;Gayam Ward;;Police Clinic;;;;;
Lafia;Gayam Ward;;Tudun Gwandara Health Clinic;;;;;
Lafia;Kafin-Wambai Ward;;Aridi Ajege Health Clinic;;;;;
Lafia;Kafin-Wambai Ward;;Awuma Health Clinic;;;;;
Lafia;Kafin-Wambai Ward;;Aridin Adage Primary Health Centre;;;;;
Lafia;Kafin-Wambai Ward;;Takpa Primary Health Centre;;;;;
Lafia;Kafin-Wambai Ward;;BAD Comprehensive Health Centre;;;;;
Lafia;Kafin-Wambai Ward;;Randa Attah Primary Health Centre;;;;;
Lafia;Kafin-Wambai Ward;;Rafin Kudi Health Clinic;;;;;
Lafia;Kafin-Wambai Ward;;Awoge Health Clinic;;;;;
Lafia;Kafin-Wambai Ward;;Keffin Wambai Health Clinic;;;;;
Lafia;Kafin-Wambai Ward;;Ambana Health Clinic;;;;;
Lafia;Kafin-Wambai Ward;;Ruwayo Health Clinic;;;;;
Lafia;Kafin-Wambai Ward;;Abuja Koronkuje Primary Health Centre;;;;;
Lafia;Kafin-Wambai Ward;;Awange Primary Health Centre;;;;;
Lafia;Makama Ward;;Igibi Health Clinic;;;;;
Lafia;Makama Ward;;Mana Emirs Palace Health Centre;;;;;
Lafia;Makama Ward;;Agba Health Clinic;;;;;
Lafia;Shabu Kwandare Ward;;Tako Health Centre;;;;;
Lafia;Shabu Kwandare Ward;;Kwandare Health Clinic;;;;;
Lafia;Shabu Kwandare Ward;;Shabu Comprehensive Health Centre;;;;;
Lafia;Shabu Kwandare Ward;;Ungwan Isa Health Clinic;;;;;
Lafia;Shabu Kwandare Ward;;Dankan Bako Health Post;;;;;
Lafia;Shabu Kwandare Ward;;Azuba Centre Primary Health Centre;;;;;
Lafia;Shabu Kwandare Ward;;Ungwan Azara Health Clinic;;;;;
Lafia;Shabu Kwandare Ward;;Azuba Bashayi Primary Health Centre;;;;;
Lafia;Shabu Kwandare Ward;;Doka Health Clinic (Lafia);;;;;
Lafia;Wakwa Ward;;Agudu Health Clinic;;;;;
Lafia;Wakwa Ward;;Wakwa Primary Health Centre;;;;;
Lafia;Wakwa Ward;;Bukan Kwato Primary Health Care;;;;;
Lafia;Wakwa Ward;;Mararaba Akunza Comprehensive Health Centre;;;;;
Lafia;Wakwa Ward;;Akunza MDGS Clinic ;;;;;
Lafia;Zanwa Ward;;Angwan Toni Primary Health Centre;;;;;
Lafia;Zanwa Ward;;Tudun Amba Primary Health Clinic;;;;;
Nasarawa Eggon;Alogani Ward;;Kururuwa Primary Health Centre;;;;;
Nasarawa Eggon;Alogani Ward;;Gidan Waya Health Post;;;;;
Nasarawa Eggon;Alogani Ward;;Nassarawa Eggon General Hospital;;;;;
Nasarawa Eggon;Alogani Ward;;Wogan Health Post;;;;;
Nasarawa Eggon;Alogani Ward;;Gale South Health Post;;;;;
Nasarawa Eggon;Alogani Ward;;Ungwan Chiyawa Primary Health Care;;;;;
Nasarawa Eggon;Alogani Ward;;Alogani South Primary Health Care ;;;;;
Nasarawa Eggon;Alogani Ward;;Alogani Primary Health Care;;;;;
Nasarawa Eggon;Alogani Ward;;Alogani North Primary Health Care;;;;;
Nasarawa Eggon;Alogani Ward;;Gako Primary Health Care;;;;;
Nasarawa Eggon;Alushi/Ginda Ward;;Ginda 2 Health Post;;;;;
Nasarawa Eggon;Alushi/Ginda Ward;;Alushi Wakyuku Health Post;;;;;
Nasarawa Eggon;Alushi/Ginda Ward;;Angbaku 2 Health Post;;;;;
Nasarawa Eggon;Alushi/Ginda Ward;;Ginda 1 Health Post;;;;;
Nasarawa Eggon;Alushi/Ginda Ward;;Washo Health Centre;;;;;
Nasarawa Eggon;Alushi/Ginda Ward;;Alushi Erro Health Post;;;;;
Nasarawa Eggon;Alushi/Ginda Ward;;Alushi Evangelical Reformed Church of Christ (ERCC) Medical Centre;;;;;
Nasarawa Eggon;Alushi/Ginda Ward;;Eva Health Post;;;;;
Nasarawa Eggon;Alushi/Ginda Ward;;Eva-Ngbodo Health Post;;;;;
Nasarawa Eggon;Ende Ward;;Wawyen Health Post;;;;;
Nasarawa Eggon;Ende Ward;;Endehu Health Post;;;;;
Nasarawa Eggon;Ende Ward;;Wulko Health Centre;;;;;
Nasarawa Eggon;Ende Ward;;Kagbu Erro Health Post;;;;;
Nasarawa Eggon;Ende Ward;;Kagbu Endehu Primary Health Centre;;;;;
Nasarawa Eggon;Ende Ward;;Aboshon Health Post;;;;;
Nasarawa Eggon;Ende Ward;;Kagbu Wolko Health Post;;;;;
Nasarawa Eggon;Igga/Burumburum Ward;;Angba Iggah Primary Health Care Clinic;;;;;
Nasarawa Eggon;Igga/Burumburum Ward;;Brumburum Health Post;;;;;
Nasarawa Eggon;Igga/Burumburum Ward;;Igga Health Post;;;;;
Nasarawa Eggon;Igga/Burumburum Ward;;Gada Biyu Health Post;;;;;
Nasarawa Eggon;Igga/Burumburum Ward;;Gbamze Primary Health Centre;;;;;
Nasarawa Eggon;Ikka Wangibi Ward;;D/Ikka Primary Health Centre;;;;;
Nasarawa Eggon;Ikka Wangibi Ward;;Awuza Primary Health Centre;;;;;
Nasarawa Eggon;Ikka Wangibi Ward;;Akun Ejiba Dispensary;;;;;
Nasarawa Eggon;Ikka Wangibi Ward;;Walga Primary Health Centre;;;;;
Nasarawa Eggon;Ikka Wangibi Ward;;Langalanga Primary Health Centre;;;;;
Nasarawa Eggon;Ikka Wangibi Ward;;Ikka Health Centre;;;;;
Nasarawa Eggon;Kagbu Ward;;Angwa Ajege Ebuga Health Post;;;;;
Nasarawa Eggon;Kagbu Ward;;Laraba Health Post;;;;;
Nasarawa Eggon;Kagbu Ward;;Neko Tudu Primary Health Centre;;;;;
Nasarawa Eggon;Kagbu Ward;;Kagbu A Women in Health Clinic;;;;;
Nasarawa Eggon;Kagbu Ward;;Wazhi Health Post;;;;;
Nasarawa Eggon;Kagbu Ward;;Kabgu B Health Centre;;;;;
Nasarawa Eggon;Lambaga/Arikpa Ward;;Arikpa Sabon Gida Health Post;;;;;
Nasarawa Eggon;Lambaga/Arikpa Ward;;Arikpa Mission Primary Health Care;;;;;
Nasarawa Eggon;Lambaga/Arikpa Ward;;Lambaga South Health Post;;;;;
Nasarawa Eggon;Lambaga/Arikpa Ward;;Lambaga North Health Post;;;;;
Nasarawa Eggon;Lambaga/Arikpa Ward;;Randa Arikpa Health Post;;;;;
Nasarawa Eggon;Lizzi/Ezzen Ward;;Eshiagbi Primary Health Care;;;;;
Nasarawa Eggon;Lizzi/Ezzen Ward;;Kwari-eha Primary Health Care;;;;;
Nasarawa Eggon;Lizzi/Ezzen Ward;;Anjiakolo Primary Health Centre;;;;;
Nasarawa Eggon;Lizzi/Ezzen Ward;;Ongezi South Health Post;;;;;
Nasarawa Eggon;Lizzi/Ezzen Ward;;E/Sarki Primary Health Centre;;;;;
Nasarawa Eggon;Lizzi/Ezzen Ward;;Ongezi North Health Post;;;;;
Nasarawa Eggon;Lizzi/Ezzen Ward;;Ogbushinyi Primary Health Centre;;;;;
Nasarawa Eggon;Lizzi/Ezzen Ward;;Lizzin Keffi Health Post;;;;;
Nasarawa Eggon;Mada Station Ward;;Angbashuru Primary Health Centre;;;;;
Nasarawa Eggon;Mada Station Ward;;Mada Station Health Centre;;;;;
Nasarawa Eggon;Mada Station Ward;;Mada Station Town Health Centre;;;;;
Nasarawa Eggon;Mada Station Ward;;Ladi Ende Primary Health Centre;;;;;
Nasarawa Eggon;Mada Station Ward;;Essonge Dispensary Mada Station;;;;;
Nasarawa Eggon;Nassarawa Eggon Ward;;Nasarawa Eggon Health Centre;;;;;
Nasarawa Eggon;Nassarawa Eggon Ward;;Ashumuga Primary Health Centre;;;;;
Nasarawa Eggon;Nassarawa Eggon Ward;;Kagbu Lodo Health Primary Health Centre;;;;;
Nasarawa Eggon;Nassarawa Eggon Ward;;Omadefu Clinic;;;;;
Nasarawa Eggon;Nassarawa Eggon Ward;;Jarmai Primary Health Centre (Nasarawa Eggon);;;;;
Nasarawa Eggon;Nassarawa Eggon Ward;;Ageh Clinic (Nassarawa Eggon);;;;;
Nasarawa Eggon;Nassarawa Eggon Ward;;Nasarawa Town Health Clinic;;;;;
Nasarawa Eggon;Nassarawa Eggon Ward;;Egbukum Primary Health Centre;;;;;
Nasarawa Eggon;Ogba/Ubbe Ward;;Ubbe Health Centre;;;;;
Nasarawa Eggon;Ogba/Ubbe Ward;;Gaji Health Post;;;;;
Nasarawa Eggon;Ogba/Ubbe Ward;;Okachuku Health Post;;;;;
Nasarawa Eggon;Ogba/Ubbe Ward;;Ongre Onde Primary Health Centre;;;;;
Nasarawa Eggon;Ogba/Ubbe Ward;;Ogba Health Centre;;;;;
Nasarawa Eggon;Ogbagi/Agunji Ward;;Ogbagi Health Post;;;;;
Nasarawa Eggon;Ogbagi/Agunji Ward;;Ogbagi Tudu Primary Health Centre;;;;;
Nasarawa Eggon;Ogbagi/Agunji Ward;;Angbaku 1 Health Post;;;;;
Nasarawa Eggon;Ogbagi/Agunji Ward;;Agunji Health Post;;;;;
Nasarawa Eggon;Umme Ward;;Arugbadu Health Post;;;;;
Nasarawa Eggon;Umme Ward;;Fawo Primary Health Centre;;;;;
Nasarawa Eggon;Umme Ward;;Bakyano Health Centre;;;;;
Nasarawa Eggon;Umme Ward;;Umme Health Post;;;;;
Nasarawa Eggon;Umme Ward;;Likyati Primary Health Centre;;;;;
Nasarawa Eggon;Umme Ward;;Errezomo Health Post;;;;;
Nasarawa Eggon;Umme Ward;;Ngbapa Health Post;;;;;
Nasarawa Eggon;Wakama Ward;;Lashe Health Post;;;;;
Nasarawa Eggon;Wakama Ward;;Wakama Akun Primary Health Centre;;;;;
Nasarawa Eggon;Wakama Ward;;Anyi-Walagen Health Post;;;;;
Nasarawa Eggon;Wakama Ward;;Ungwa Tsoko Health Post;;;;;
Nasarawa Eggon;Wakama Ward;;Ezhiba Health Post;;;;;
Nasarawa Eggon;Wakama Ward;;Awayi Health Post;;;;;
Nasarawa Eggon;Wakama Ward;;Akpata Health Post;;;;;
Nasarawa Eggon;Wakama Ward;;Embugu Health Post;;;;;
Nasarawa Eggon;Wakama Ward;;Wakama Health Post;;;;;
Nasarawa Eggon;Wakama Ward;;Walagen Health Post;;;;;
Nasarawa;Akum Ward;;Oseni Primar Health Care;;;;;
Nasarawa;Akum Ward;;Amaku Primary Health Centre;;;;;
Nasarawa;Akum Ward;;Akum Primary Health Centre;;;;;
Nasarawa;Akum Ward;;Apura Ogba Primary Health Centre;;;;;
Nasarawa;Akum Ward;;Agam Primary Health Care;;;;;
Nasarawa;Ara 1 Ward;;Ara 2 Health Clinic;;;;;
Nasarawa;Ara 1 Ward;;Ara 1 Health Clinic;;;;;
Nasarawa;Ara 1 Ward;;Ago Primary Health Clinic;;;;;
Nasarawa;Ara 2 Ward;;Kurudu Primary Health Centre;;;;;
Nasarawa;Ara 2 Ward;;Gudige Sabo Primary Health Centre;;;;;
Nasarawa;Ara 2 Ward;;Danna Health Clinic;;;;;
Nasarawa;Ara 2 Ward;;Pasali Health Clinic;;;;;
Nasarawa;Ara 2 Ward;;Tulluwa Health Clinic;;;;;
Nasarawa;Ara 2 Ward;;Gora Primary Health Clinic;;;;;
Nasarawa;Guto Aisa Ward;;Asia Primary Health Centre;;;;;
Nasarawa;Laminga Ward;;Marmara Primary Health Centre;;;;;
Nasarawa;Laminga Ward;;Amana Clinic;;;;;
Nasarawa;Laminga Ward;;Zakun Bello Health Clinic;;;;;
Nasarawa;Laminga Ward;;G/S Bassa Primary Health Centre;;;;;
Nasarawa;Laminga Ward;;Gunki Primary Health Centre;;;;;
Nasarawa;Laminga Ward;;Sagbagyi Health Clinic;;;;;
Nasarawa;Laminga Ward;;Laminga Primary Health Centre;;;;;
Nasarawa;Laminga Ward;;Nahuche Health Clinic;;;;;
Nasarawa;Laminga Ward;;Shamage Primary Health Centre;;;;;
Nasarawa;Loko Ward;;Loko 2 Health Clinic;;;;;
Nasarawa;Loko Ward;;Ushata Primary Health Centre;;;;;
Nasarawa;Loko Ward;;Ogufa Primary Health Centre;;;;;
Nasarawa;Loko Ward;;Loko 1 Health Clinic;;;;;
Nasarawa;Loko Ward;;Rafin Fita Health Clinic;;;;;
Nasarawa;Nassarawa Central Ward;;Pada Primary Health Care;;;;;
Nasarawa;Nassarawa East Ward;;Angwan Mallam Primary Health Care;;;;;
Nasarawa;Nassarawa East Ward;;Butus Clinic;;;;;
Nasarawa;Nassarawa Main Town Ward;;Nassarawa General Hospital;;;;;
Nasarawa;Nassarawa North Ward;;Federal Polytechnic  Nasarawa Medical Center;;;;;
Nasarawa;Nassarawa North Ward;;Kowa Clinic (Nassarawa North);;;;;
Nasarawa;Nassarawa North Ward;;Henad Medical Centre;;;;;
Nasarawa;Odu Ward;;Mararaba Primary Health Centre;;;;;
Nasarawa;Odu Ward;;M/Udege General Hospital;;;;;
Nasarawa;Odu Ward;;Udege-Mbeki Primary Health Centre;;;;;
Nasarawa;Odu Ward;;Odu Primary Health Centre;;;;;
Nasarawa;Odu Ward;;Adams Clinic;;;;;
Nasarawa;Onda/Kana Ward;;Kana Primary Health Centre (Onda/Kana);;;;;
Nasarawa;Onda/Kana Ward;;Apawu Primary Health Centre;;;;;
Nasarawa;Onda/Kana Ward;;Kwoto Primary Health Centre;;;;;
Nasarawa;Onda/Kana Ward;; Ewa Memorial Clinic;;;;;
Nasarawa;Onda/Kana Ward;;Onda Primary Health Centre;;;;;
Nasarawa;Onda/Kana Ward;;Ogapa Otto Health Clinic;;;;;
Nasarawa;Onda/Kana Ward;;Onduwayo Primary Health Centre ;;;;;
Nasarawa;Tunga-Bakono Ward;;Ajigwara Primary Health Centre;;;;;
Nasarawa;Tunga-Bakono Ward;;Oguba Primary Health Centre;;;;;
Nasarawa;Tunga-Bakono Ward;;Bakono Primary Health Centre (Tunga-Bakono);;;;;
Nasarawa;Tunga-Bakono Ward;;Tunga Primary Health Centre (Tunga-Bakono);;;;;
Nasarawa;Tunga-Bakono Ward;;Ajaga Primary Health Centre;;;;;
Nasarawa;Udeini Gida Ward;;Kuvo Primary Health Centre;;;;;
Nasarawa;Udeini Gida Ward;;Usha-Kadu Primary Health Centre;;;;;
Nasarawa;Udeini Gida Ward;;Ittah Primary Health Centre;;;;;
Nasarawa;Udeini Gida Ward;;Apura Adagba Primary Health Centre;;;;;
Nasarawa;Udeini Gida Ward;;Udeini Gida Primary Health Centre;;;;;
Nasarawa;Udeini Magaji Ward;;Udeini Magaji Primary Health Centre;;;;;
Nasarawa;Udeini Magaji Ward;;Ogeni Primary Health Centre;;;;;
Obi;Adudu Ward;;Adudu Health Clinic;;;;;
Obi;Adudu Ward;;Apurugh Health Clinic;;;;;
Obi;Adudu Ward;;Ibuanikyato Health Clinic;;;;;
Obi;Adudu Ward;;Imon Health Clinic;;;;;
Obi;Adudu Ward;;Abiji Primary Health Care Centre;;;;;
Obi;Agwatashi Ward;;Agwatashi Health Clinic;;;;;
Obi;Agwatashi Ward;;Tsuwan Baba Primary Health Clinic;;;;;
Obi;Agwatashi Ward;;Gidan Agono Primary Health Centre;;;;;
Obi;Agwatashi Ward;;Ovirka Primary Health Centre;;;;;
Obi;Daddere Ward;;Angwan Sule Primary Health Centre;;;;;
Obi;Daddere Ward;;Ankani Health Clinic;;;;;
Obi;Daddere Ward;;Riri Primary Health Clinic;;;;;
Obi;Daddere Ward;;Daddere Primary Health Centre;;;;;
Obi;Daddere Ward;;Agewu Primary Health Centre;;;;;
Obi;Duduguru Ward;;Ashiga Primary Health Centre;;;;;
Obi;Duduguru Ward;;Atabula Primary Health Centre;;;;;
Obi;Duduguru Ward;;Gbodu Primary Health Centre;;;;;
Obi;Duduguru Ward;;Agwade Primary Health Centre;;;;;
Obi;Duduguru Ward;;Ambana Primary Health Cemtre;;;;;
Obi;Duduguru Ward;;Agwade Waya Primary Health Centre;;;;;
Obi;Duduguru Ward;;Akaba Primary Health Centre Duduguru;;;;;
Obi;Duduguru Ward;;Tsamiya Primary Health Centre;;;;;
Obi;Duduguru Ward;;Ome Primary Health Centre;;;;;
Obi;Duduguru Ward;;Akunza Primary Health Centre;;;;;
Obi;Gidan Ausa I Ward;;Gidan Ausa 1 Primary Health Centre;;;;;
Obi;Gidan Ausa I Ward;;Debe Primary Health Centre;;;;;
Obi;Gidan Ausa I Ward;;Agyaragu Primary Health Care (Obi);;;;;
Obi;Gidan Ausa I Ward;;Gidan Ausa 2 Model Primary Health  Centre;;;;;
Obi;Gidan Ausa II Ward;;Dazhogwa Primary Health Centre;;;;;
Obi;Gidan Ausa II Ward;;Ishugu Primary Health Centre;;;;;
Obi;Gidan Ausa II Ward;;Zherugba Primary Health Centre;;;;;
Obi;Gidan Ausa II Ward;;Kpangwa Primary Health Centre;;;;;
Obi;Gidan Ausa II Ward;;Dazhila Primary Health Centre;;;;;
Obi;Gidan Ausa II Ward;;Abioga Primary Health Centre;;;;;
Obi;Gwadenye Ward;;Gwadenye Primary Health Centre;;;;;
Obi;Gwadenye Ward;;Akanga Primary Health Centre;;;;;
Obi;Gwadenye Ward;;Akaleku Sidi Primary Health Centre;;;;;
Obi;Kyakale Ward;;Akaleku Primary Health Centre;;;;;
Obi;Kyakale Ward;;Ichene Primary Health Centre;;;;;
Obi;Kyakale Ward;;Kyakale Primary Health Centre;;;;;
Obi;Kyakale Ward;;Baba Primary Health Centre;;;;;
Obi;Obi Ward;;Obi 1 Primary Health Centre;;;;;
Obi;Obi Ward;;Obi 2 Primary Health Centre;;;;;
Obi;Obi Ward;;Gada Daya Primary Health Centre;;;;;
Obi;Obi Ward;;Obi General Hospital;;;;;
Obi;Tudun Adabu Ward;;Abagu Health Clinic;;;;;
Obi;Tudun Adabu Ward;;Tudun Adabu Primary Health Centre;;;;;
Obi;Tudun Adabu Ward;;Kwaghshiri Primary Health Care;;;;;
Obi;Tudun Adabu Ward;;Akposegye Primary Health Centre;;;;;
Obi;Tudun Adabu Ward;;Akpeka Health Clinic;;;;;
Toto;Dausu Ward;;Ahula Primary Health Centre;;;;;
Toto;Dausu Ward;;Dausu Primary Health Centre (MDG);;;;;
Toto;Dausu Ward;;Uttu Primary Health Centre;;;;;
Toto;Dausu Ward;;Igwapati Primary Health Centre;;;;;
Toto;Garagwa Ward;;Kulo Primary Health Centre;;;;;
Toto;Garagwa Ward;;Araba Primary Health Centre;;;;;
Toto;Garagwa Ward;;Gadabuke Health Centre;;;;;
Toto;Garagwa Ward;;Jawun Primary Health Centre;;;;;
Toto;Garagwa Ward;;Gadabuke Basic Health Clinic;;;;;
Toto;Garagwa Ward;;Gbebasan Primary Health Centre;;;;;
Toto;Gwargwada Ward;;Majaga Primary Health Centre;;;;;
Toto;Gwargwada Ward;;Gombe Primary Health Centre;;;;;
Toto;Kanyehu Ward;;Anda-Fofuru Primary Health Care ;;;;;
Toto;Kanyehu Ward;;Kanyehu Health Clinic;;;;;
Toto;Kanyehu Ward;;Turunku Primary Health Care;;;;;
Toto;Karmo Buga Ward;;Sabo Buga Primary Health Centre;;;;;
Toto;Karmo Buga Ward;;Lokogoma Primary Health Centre;;;;;
Toto;Karmo Buga Ward;;Madeki Primary Health Centre;;;;;
Toto;Karmo Buga Ward;;Tudun Uku Health Centre (Gadabuke);;;;;
Toto;Karmo Buga Ward;;New Rubochi Primary Health Care;;;;;
Toto;Karmo Buga Ward;;Araba Tukura Primary Health Centre;;;;;
Toto;Karmo Buga Ward;;Sunna Clinic;;;;;
Toto;Karmo Buga Ward;;Karmo Ganji Primary Health Centre;;;;;
Toto;Karmo Buga Ward;;Odu Primary Health Centre (Araba);;;;;
Toto;Karmo Buga Ward;;Dazhi  Primary Health Centre (MDGs);;;;;
Toto;Karmo Buga Ward;;Nakuse Primary Health Centre;;;;;
Toto;Katakpa Ward;;Risegu Primary Health Centre;;;;;
Toto;Katakpa Ward;;Katakpa Health Clinic;;;;;
Toto;Katakpa Ward;;Watasa Primary Health Centre(Toto);;;;;
Toto;Shafan Abakpa Ward;;Kuru Health Clinic;;;;;
Toto;Shafan Abakpa Ward;;S/Abakpa Primary Health Centre;;;;;
Toto;Shafan Abakpa Ward;;Yelwa Primary Health Centre;;;;;
Toto;Shafan Abakpa Ward;;Zono Primary Health Centre;;;;;
Toto;Shafan Kwotto Ward;;Gate Primary Health Centre;;;;;
Toto;Shafan Kwotto Ward;;Mateni Primary Health Centre;;;;;
Toto;Shafan Kwotto Ward;;Sardauna Primary Health Centre;;;;;
Toto;Shafan Kwotto Ward;;Shafan Kwatto Health Clinic;;;;;
Toto;Shege Ward;;Shege Primary Health Centre (MDG);;;;;
Toto;Shege Ward;;Kokoto Primary Health Centre;;;;;
Toto;Toto Ward;;Adadu Primary Health Centre;;;;;
Toto;Toto Ward;;Ukya Primary Health Centre;;;;;
Toto;Toto Ward;;Chiji Primary Health Centre;;;;;
Toto;Toto Ward;;Toto Primary Health Centre;;;;;
Toto;Toto Ward;;Toto National Model Primary Health Centre;;;;;
Toto;Toto Ward;;Toto General Hospital;;;;;
Toto;Ugya Ward;;Ugya Health Clinic;;;;;
Toto;Ugya Ward;;Bakate Primary Health Centre;;;;;
Toto;Ugya Ward;;Kolo Primary Health Centre;;;;;
Toto;Ugya Ward;;Kuwa Primary Health Centre;;;;;
Toto;Ugya Ward;;Ugya Lumaluma Primary Health Centre (Bassa Camp);;;;;
Toto;Umaisha Ward;;Dimbeku-Ogusu Primary Health Centre;;;;;
Toto;Umaisha Ward;;Umaisha Cottage Hospital;;;;;
Toto;Umaisha Ward;;Umaisha National Model Primary Health Centre;;;;;
Toto;Umaisha Ward;;Umaisha MDG Primary Health Centre;;;;;
Wamba;Arum Ward;;Chugbu Health Clinic;;;;;
Wamba;Arum Ward;;Arum Chini Primary Health Centre;;;;;
Wamba;Arum Ward;;Arum Tsayo Health Clinic;;;;;
Wamba;Gitta Ward;;Kibeh Memorial Clinic;;;;;
Wamba;Gitta Ward;;Maraba Gongon Health Clinic;;;;;
Wamba;Gitta Ward;;Barmo Cement Health Clinic;;;;;
Wamba;Gitta Ward;;Kango Evangelical Reformed Church of Christ (ERCC) Clinic;;;;;
Wamba;Gitta Ward;;Gbugbu Primary Health Centre;;;;;
Wamba;Gitta Ward;;Sisimbaki Health Clinic;;;;;
Wamba;Gitta Ward;;Angwan Abakwa Health Clinic;;;;;
Wamba;Gitta Ward;;Gimba Primary Health Centre;;;;;
Wamba;Jimiya Ward;;Muttu Primary Health Care Centre;;;;;
Wamba;Jimiya Ward;;Binna Primary Health Centre;;;;;
Wamba;Jimiya Ward;;Jimiya Health Clinic;;;;;
Wamba;Jimiya Ward;;Ambaka Health Clinic;;;;;
Wamba;Jimiya Ward;;Kam-Kire Primary Health Care Centre;;;;;
Wamba;Jimiya Ward;;ERCC Dispensary;;;;;
Wamba;Jimiya Ward;;Kumburu Health Clinic;;;;;
Wamba;Jimiya Ward;;Zalli Health Clinic;;;;;
Wamba;Konvah Ward;;Lago Health Clinic;;;;;
Wamba;Konvah Ward;;Konvah Primary Health Centre;;;;;
Wamba;Konvah Ward;;Kungra Primary Health Centre (Konvah);;;;;
Wamba;Konvah Ward;;Kwabe Primary Health Centre;;;;;
Wamba;Konvah Ward;;Gidda Health Clinic;;;;;
Wamba;Kwarra Ward;;Mama Health Clinic;;;;;
Wamba;Kwarra Ward;;Kanje Health Clinic (Wamba);;;;;
Wamba;Kwarra Ward;;Ukambu Health Clinic;;;;;
Wamba;Kwarra Ward;;Muggu Health Clinic;;;;;
Wamba;Kwarra Ward;;Wunju Health Clinic;;;;;
Wamba;Kwarra Ward;;Marhai Health Clinic;;;;;
Wamba;Kwarra Ward;;Kwara Health Clinic (Kwarra);;;;;
Wamba;Kwarra Ward;;Ukollo Health Clinic;;;;;
Wamba;Kwarra Ward;;Shawai Health Clinic;;;;;
Wamba;Mangar Ward;;Yashi Primary Health Centre;;;;;
Wamba;Mangar Ward;;Yashi Sarki Health Clinic;;;;;
Wamba;Mangar Ward;;Jinibol Health Clinic;;;;;
Wamba;Mangar Ward;;Massenge Health Clinic;;;;;
Wamba;Mangar Ward;;Turkwan Primary Health Centre;;;;;
Wamba;Mangar Ward;;Kanja Health Clinic;;;;;
Wamba;Mangar Ward;;Mangar Health Clinic;;;;;
Wamba;Mangar Ward;;Yashi Madaki Health Clinic;;;;;
Wamba;Nakere Ward;;Nakere Health Clinic;;;;;
Wamba;Nakere Ward;;Gbata Health Clinic;;;;;
Wamba;Nakere Ward;;Ragga Health Clinic;;;;;
Wamba;Wamba East Ward;;Gbombu Health Clinic;;;;;
Wamba;Wamba East Ward;;Wamba Medical Center;;;;;
Wamba;Wamba East Ward;;Nawarki Medical Centre;;;;;
Wamba;Wamba East Ward;;Wamba Model Primary Health  Centre;;;;;
Wamba;Wamba West Ward;;Wamba General Hospital;;;;;
Wamba;Wamba West Ward;;Wamba Kurumi Primary Health Centre;;;;;
Wamba;Wamba West Ward;;Gwagi Health Clinic;;;;;
Wamba;Wayo Ward;;Langi Health Clinic;;;;;
Wamba;Wayo Ward;;Wude Makaranta Primary Health Centre;;;;;
Wamba;Wayo Ward;;Wayo Mati Health Clinic;;;;;
Wamba;Wayo Ward;;Wamba Kurmi Primary Health Centre;;;;;
Wamba;Wayo Ward;;Wude Kurmi Health Clinic;;;;;
Wamba;Wayo Ward;;Kurize Health Clinic;;;;;
Wamba;Wayo Ward;;Wayo Kpine Health Clinic;;;;;
