LGA;Ward;Settlement;Facility;Type;Ownership;Address;Longitude;Latitude
Abeokuta North;Iberekodo Ward 1;;Insha Alahu Eweje;;;;;
Abeokuta North;Iberekodo Ward 1;;Itun Oluwo Health Clinic;;;;;
Abeokuta North;Iberekodo Ward 2;;Ikija Health Post;;;;;
Abeokuta North;Iberekodo Ward 3;;Royal Health Clinic;;;;;
Abeokuta North;Iberekodo Ward 4;;Abiye Clinic and Maternity Home;;;;;
Abeokuta North;Iberekodo Ward 4;;De Vicosa Hospital Limited;;;;;
Abeokuta North;Iberekodo Ward 4;;Elega Health Clinic;;;;;
Abeokuta North;Iberekodo Ward 5;;Shallom Hospital.;;;;;
Abeokuta North;Iberekodo Ward 5;;Charity Clinic and Maternity Home;;;;;
Abeokuta North;Iberekodo Ward 5;;Iberekodo Health Clinic;;;;;
Abeokuta North;Idiya Ward 12;;Olomore Health Centre ;;;;;
Abeokuta North;Idiya Ward 12;;Idiya Community Health Centre;;;;;
Abeokuta North;Idiya Ward 12;;Soyoye Health Post;;;;;
Abeokuta North;Idiya Ward 12;;Ita Oshin Health Clinic;;;;;
Abeokuta North;Idiya Ward 12;;Adeun Health Clinic;;;;;
Abeokuta North;Idiya Ward 12;;Mile2 Health Post;;;;;
Abeokuta North;Ikereku i Ward 15;;Isaga Orile General Hospital;;;;;
Abeokuta North;Ikereku i Ward 15;;Ilewo Orile Health Clinic;;;;;
Abeokuta North;Ikereku i Ward 15;;Fagbenro Health Clinic;;;;;
Abeokuta North;Ikereku i Ward 15;;Ikereku Health Clinic;;;;;
Abeokuta North;Ikereku ii Ward 16;;Ile-Ise Awo Health Clinic;;;;;
Abeokuta North;Ikereku ii Ward 16;;Ibara Orile Health Clinic;;;;;
Abeokuta North;Ikereku ii Ward 16;;Idi-Ori Health Clinic;;;;;
Abeokuta North;Imala Idi-Emi Ward 14;;Idi-Emi Health Clinic;;;;;
Abeokuta North;Imala Idi-Emi Ward 14;;Anigbado Health Clinic;;;;;
Abeokuta North;Imala Idi-Emi Ward 14;;Imala Model Primary Health Care;;;;;
Abeokuta North;Olorunda Ward 13;;Olurunda Health Centre;;;;;
Abeokuta North;Olorunda Ward 13;;Keesan Health Centre;;;;;
Abeokuta North;Sabo i Ward 8;;Lafenwa Health Clinic;;;;;
Abeokuta North;Sabo i Ward 8;;Abraham Clinic and Maternity Home;;;;;
Abeokuta North;Sabo ii Ward 9;;Sabo Health Clinic;;;;;
Abeokuta North;Sabo ii Ward 9;;Oluwaseyi Clinic & Maternity Home;;;;;
Abeokuta North;Sabo ii Ward 9;;Brims Hospital;;;;;
Abeokuta North;Sabo ii Ward 9;;Ayobami Hospital;;;;;
Abeokuta North;Totoro 1 Ward 6;;Ikeye Health Clinic;;;;;
Abeokuta North;Totoro ii Ward 7;;Igosun Health Clinic;;;;;
Abeokuta North;Totoro iii Ward 10;;Enugada Health Clinic;;;;;
Abeokuta North;Totoro iv Ward 11;;Ademuyiwa Clinic Maternity Home;;;;;
Abeokuta South;Abule-Oloni/Lantoro Ward 3;;Omotolase Maternity Home ;;;;;
Abeokuta South;Abule-Oloni/Lantoro Ward 3;;Overcomer's Medical Centre;;;;;
Abeokuta South;Abule-Oloni/Lantoro Ward 3;;Abule-Oloni Health Post;;;;;
Abeokuta South;Ake Ward 1;;Royal Health Post;;;;;
Abeokuta South;Emere Kugba - Ward 8;;Kugba Health Centre;;;;;
Abeokuta South;Erunbe Ward 8;;Erunbe Health Clinic;;;;;
Abeokuta South;Ijaiye Ward 7;;Abeokuta State Hospital;;;;;
Abeokuta South;Ijaiye Ward 7;;Solar Medical and Dental Centre;;;;;
Abeokuta South;Ijaiye Ward 7;;Ijaiye Health Post;;;;;
Abeokuta South;Ijeun Titun Ward 9;;Ijeun Health Centre;;;;;
Abeokuta South;Imo/Kuto Ward;;Egbe Medical Centre;;;;;
Abeokuta South;Imo/Kuto Ward;;First Contact Hospital, Kuto;;;;;
Abeokuta South;Imo/Kuto Ward;;Imo/Kuto Health Centre;;;;;
Abeokuta South;Isale Ijeun Ward;;Isale Ijeun Health Centre;;;;;
Abeokuta South;Isale Ijeun Ward;;Oba Gbadebo Health Clinic;;;;;
Abeokuta South;Keesi/Emere Ward 4;;Keesi Primary Health Centre;;;;;
Abeokuta South;Keesi/Emere Ward 4;;Omotara Memorial Hospital;;;;;
Abeokuta South;Keesi/Emere Ward 4;;Juli-Bam Clinic;;;;;
Abeokuta South;Kemta Ward;;Apataiye Clinic;;;;;
Abeokuta South;Kugba Ward 2;;Olukoye Community Hospital;;;;;
Abeokuta South;Kugba Ward 2;;Omolabake Clinic and Maternity;;;;;
Abeokuta South;Oke Ijemo-Ward 5;;Ijemo Health Centre;;;;;
Abeokuta South;Oke Ijemo-Ward 5;;Oba Ademola Maternity Health Centre;;;;;
Abeokuta South;Oke-Ilewo Ward;;Itunu Clinic;;;;;
Abeokuta South;Oke-Ilewo Ward;;Oke-Mosan Governorâ€™s Office Clinic;;;;;
Abeokuta South;Oke-Ilewo Ward;;Mercy Group Clinic ;;;;;
Abeokuta South;Oke-Ilewo Ward;;Oke Ilewo Family Health Centre;;;;;
Abeokuta South;Oke-Ilewo Ward;;Ijeja Model Clinic;;;;;
Abeokuta South;Saraki/Adigbe Ward;;The Unique Great Shephered Specialist Hospital;;;;;
Ado Odo/Ota;Ado-Odo Ward 1;;Safa Hospital;;;;;
Ado Odo/Ota;Ado-Odo Ward 1;;Ado Odo Primary Health Centre;;;;;
Ado Odo/Ota;Ado-Odo Ward II;;Ado Odo Health Centre;;;;;
Ado Odo/Ota;Agbara Ward;;Agbara Primary Health Centre;;;;;
Ado Odo/Ota;Agbara Ward;;Agbara Nestle Clinic;;;;;
Ado Odo/Ota;Alapoti Ward;;Oloparun Health Clinic ;;;;;
Ado Odo/Ota;Alapoti Ward;;Alapoti Health Centre;;;;;
Ado Odo/Ota;Atan Ward (Ado);;Atan Model Primary Health Centre;;;;;
Ado Odo/Ota;Atan Ward (Ado);;Oluwalogbon medical centre;;;;;
Ado Odo/Ota;Atan Ward (Ado);;Ajegunle Health Centre;;;;;
Ado Odo/Ota;Atan Ward (Ado);;Okeore Health Clinic;;;;;
Ado Odo/Ota;Ejila Awori Ward;;Ikogbo Health Centre;;;;;
Ado Odo/Ota;Ejila Awori Ward;;Mercyland Hospital;;;;;
Ado Odo/Ota;Ejila Awori Ward;;Odan Abuja Health Centre;;;;;
Ado Odo/Ota;Ejila Awori Ward;;God's Grace Hospital;;;;;
Ado Odo/Ota;Ere Ward;;Ikoga Ile Health Centre;;;;;
Ado Odo/Ota;Ere Ward;;Idolehin Health Centre;;;;;
Ado Odo/Ota;Ere Ward;;Ere Primary Health Centre;;;;;
Ado Odo/Ota;Igbesa Ward;;Igbese Health Centre;;;;;
Ado Odo/Ota;Ijoko Ward;;Ijoko Health Post;;;;;
Ado Odo/Ota;Ijoko Ward;;Ijoko Primary Health Centre;;;;;
Ado Odo/Ota;Ijoko Ward;;Ilupeju Community Development Association Health Post;;;;;
Ado Odo/Ota;Ijoko Ward;;Ife Community Health Post;;;;;
Ado Odo/Ota;Ijoko Ward;;Mulib Hospital;;;;;
Ado Odo/Ota;Ijoko Ward;;Iroko Aparadija Health Centre;;;;;
Ado Odo/Ota;Iju Ward;;Itele Heath Centre;;;;;
Ado Odo/Ota;Iju Ward;;Igberen Health Post;;;;;
Ado Odo/Ota;Iju Ward;;Homa Clinic;;;;;
Ado Odo/Ota;Iju Ward;;Iyesi Health Centre;;;;;
Ado Odo/Ota;Iju Ward;;Oluwatosin Maternity Home;;;;;
Ado Odo/Ota;Iju Ward;;Rapha faith clinc;;;;;
Ado Odo/Ota;Iju Ward;;Divine Favour Health Centre ;;;;;
Ado Odo/Ota;Iju Ward;;Iju Health Centre;;;;;
Ado Odo/Ota;Iju Ward;;Josefaith Medical;;;;;
Ado Odo/Ota;Iju Ward;;Aboloyin Health Post;;;;;
Ado Odo/Ota;Iju Ward;;Ejigun Agbede clinic;;;;;
Ado Odo/Ota;Ilogbo Ward;;Diamond Hospitals;;;;;
Ado Odo/Ota;Ilogbo Ward;;Ilogbo Primary Health Centre;;;;;
Ado Odo/Ota;Ilogbo Ward;;De-Twins Clinic;;;;;
Ado Odo/Ota;Ilogbo Ward;;Owode Heatlh Centre;;;;;
Ado Odo/Ota;Ilogbo Ward;;Ewupe Health Post;;;;;
Ado Odo/Ota;Ilogbo Ward;;Eagles Wing Clinic & Maternity Home;;;;;
Ado Odo/Ota;Ketu Ward;;Ketu-Adie Owe Health Centre;;;;;
Ado Odo/Ota;Ketu Ward;;Odugbe Health Centre;;;;;
Ado Odo/Ota;Ketu Ward;;Egudu Baale Health Center;;;;;
Ado Odo/Ota;Ota 1 Ward;;Health Clinic, Ayetuntun;;;;;
Ado Odo/Ota;Ota 1 Ward;;Rehoboth Clinic;;;;;
Ado Odo/Ota;Ota 1 Ward;;Happiness Clinic and Maternity Home;;;;;
Ado Odo/Ota;Ota 1 Ward;;Mercy Land Hospital;;;;;
Ado Odo/Ota;Ota 1 Ward;;Osi Primary Health Centre;;;;;
Ado Odo/Ota;Ota 1 Ward;;Precious Clinic;;;;;
Ado Odo/Ota;Ota 1 Ward;;Otun PHC;;;;;
Ado Odo/Ota;Ota 1 Ward;;Maciland Medical Centre;;;;;
Ado Odo/Ota;Ota 1 Ward;;Ilupewo Health Clinic;;;;;
Ado Odo/Ota;Ota 2 Ward;;Oluwatosin Maternity Home;;;;;
Ado Odo/Ota;Ota 2 Ward;;Arthmos Clinic;;;;;
Ado Odo/Ota;Ota 2 Ward;;State Hospital Ota;;;;;
Ado Odo/Ota;Ota 2 Ward;;Redeem Christian Church of God Maternity;;;;;
Ado Odo/Ota;Ota 2 Ward;;Central Specialist Hospital;;;;;
Ado Odo/Ota;Ota 2 Ward;;First line Clinic;;;;;
Ado Odo/Ota;Ota 2 Ward;;Covenant University Clinic;;;;;
Ado Odo/Ota;Ota 2 Ward;;Faramed Clinic;;;;;
Ado Odo/Ota;Ota 2 Ward;;Sure Mercy Hospital;;;;;
Ado Odo/Ota;Ota 2 Ward;;Power Line Health Clinic;;;;;
Ado Odo/Ota;Ota 2 Ward;;Medicare Clinic;;;;;
Ado Odo/Ota;Ota 3 Ward;;Ilo-Awela Health Post;;;;;
Ado Odo/Ota;Ota 3 Ward;;Og Jericho Hospitals;;;;;
Ado Odo/Ota;Ota 3 Ward;;Anu-Olu Clinic;;;;;
Ado Odo/Ota;Ota 3 Ward;;Ota Primary Health Centre;;;;;
Ado Odo/Ota;Ota 3 Ward;;J-Pillar Clinic;;;;;
Ado Odo/Ota;Ota 3 Ward;;Jon Fem Hospital;;;;;
Ado Odo/Ota;Ota 3 Ward;;Kaytuns Hospital;;;;;
Ado Odo/Ota;Ota 3 Ward;;Optimun Medical Centre;;;;;
Ado Odo/Ota;Ota 3 Ward;;Kolade Specialist Hospital;;;;;
Ado Odo/Ota;Ota 3 Ward;;Fobles Hospital;;;;;
Ado Odo/Ota;Sango Ward;;Beautiful Gate Clinic Maternity Home;;;;;
Ado Odo/Ota;Sango Ward;;Egan Health Centre;;;;;
Ado Odo/Ota;Sango Ward;;Ibukun Oluwa Medicare;;;;;
Ado Odo/Ota;Sango Ward;;St - Shiloh Hospital;;;;;
Ado Odo/Ota;Sango Ward;;Shirish Clinic;;;;;
Ado Odo/Ota;Sango Ward;;Ariset Clinic;;;;;
Ado Odo/Ota;Sango Ward;;Hetta Medical Centre;;;;;
Ado Odo/Ota;Sango Ward;;KSD Flourish Specialist Hospital;;;;;
Ado Odo/Ota;Sango Ward;;Sango Primary Health Centre;;;;;
Ado Odo/Ota;Sango Ward;;Raban Clinic;;;;;
Ado Odo/Ota;Sango Ward;;Shalom Clinic and Maternity Home;;;;;
Ado Odo/Ota;Sango Ward;;Iloye 2 Primary Health Centre ;;;;;
Ado Odo/Ota;Sango Ward;;St Regina Clinic;;;;;
Ado Odo/Ota;Sango Ward;;Iloye Health Post;;;;;
Ado Odo/Ota;Sango Ward;;Goshen Clinic;;;;;
Ado Odo/Ota;Sango Ward;;First Blessing Specialist Clinic;;;;;
Ado Odo/Ota;Sango Ward;;D JAY Clinic and Maternity Home;;;;;
Ado Odo/Ota;Sango Ward;;Promise Hospital;;;;;
Ado Odo/Ota;Sango Ward;;El-Shaddai Medical Centre;;;;;
Ado Odo/Ota;Sango Ward;;Rubee Medical Centre;;;;;
Ewekoro;Abalabi Ward;;Oteyi Health Clinic;;;;;
Ewekoro;Abalabi Ward;;Abalabi Health Clinic;;;;;
Ewekoro;Abalabi Ward;;Olorunda Health Clinic;;;;;
Ewekoro;Abalabi Ward;;Ajegunle Health Post;;;;;
Ewekoro;Abalabi Ward;;Faith Maternity Home;;;;;
Ewekoro;Arigbajo Ward;;Ejio Abese Health Clinic;;;;;
Ewekoro;Arigbajo Ward;;Arigbajo Primary Health Centre;;;;;
Ewekoro;Asa-Yobo Ward;;Asa-Yobo Health Clinic;;;;;
Ewekoro;Elere-Onigbedu Ward;;Abaniseloluwa Clinic and Maternity Home;;;;;
Ewekoro;Elere-Onigbedu Ward;;Christ The Health Clinic and Maternity Home ;;;;;
Ewekoro;Elere-Onigbedu Ward;;Onigbedu Health Clinic;;;;;
Ewekoro;Elere-Onigbedu Ward;;Elere Health Clinic;;;;;
Ewekoro;Itori Ward;;Ope Oluwa Clinic and Maternity Home;;;;;
Ewekoro;Itori Ward;;Egbado Ajegunle Health Centre;;;;;
Ewekoro;Itori Ward;;Beulah Clinic and Maternity Home;;;;;
Ewekoro;Itori Ward;;Philips Maternity Home;;;;;
Ewekoro;Itori Ward;;Itori Health Clinic;;;;;
Ewekoro;Itori Ward;;Itori General Hospital;;;;;
Ewekoro;Mosan Ward;;Mosan Health Clinic;;;;;
Ewekoro;Mosan Ward;;Sigo/Opalola Health Clinic;;;;;
Ewekoro;Obada Ward;;Mechanic Village Health Post;;;;;
Ewekoro;Obada Ward;;Nazareth Maternity Home;;;;;
Ewekoro;Obada Ward;;Obada Primary Health Centre;;;;;
Ewekoro;Owowo Ward;;Owowo Health Clinic;;;;;
Ewekoro;Papalanto Ward;;Ise Oluwa Clinic and Maternity Home;;;;;
Ewekoro;Papalanto Ward;;Papalanto Health Clinic;;;;;
Ewekoro;Papalanto Ward;;Sowunmi Health Clinic;;;;;
Ewekoro;Wasimi Ward;;Wasimi Health Clinic;;;;;
Ifo;Agbado Ward;;Ayoola Edun Health Post;;;;;
Ifo;Agbado Ward;;Jubilee Hospital;;;;;
Ifo;Agbado Ward;;Iju Aga Health Post;;;;;
Ifo;Agbado Ward;;Grace Hospital;;;;;
Ifo;Agbado Ward;;Mobonike Hospital;;;;;
Ifo;Agbado Ward;;Hope Maternity Home;;;;;
Ifo;Agbado Ward;;Agbado  Primary Health Centre;;;;;
Ifo;Agbado Ward;;Aboro Health Clinic;;;;;
Ifo;Agbado Ward;;Pipeline Primary Health Centre;;;;;
Ifo;Agbado Ward;;Adeyemi Clinic and Maternity Home;;;;;
Ifo;Agosi Ward;;Royal Hospital ;;;;;
Ifo;Agosi Ward;;Olusanya Clinic and Maternity Home;;;;;
Ifo;Agosi Ward;;Agosi Health Clinic;;;;;
Ifo;Agosi Ward;;Dairo Clinic;;;;;
Ifo;Agosi Ward;;Amazing Grace Clinic and Maternity Home;;;;;
Ifo;Agosi Ward;;Lakesin Clinic and Maternity Home ;;;;;
Ifo;Agosi Ward;;Kaytuns Hospital;;;;;
Ifo;Agosi Ward;;Garden of Aden Clinic;;;;;
Ifo;Agosi Ward;;Demark Hospital;;;;;
Ifo;Agosi Ward;;Omo Abiyo Hospital;;;;;
Ifo;Agosi Ward;;Ifo General Hospital;;;;;
Ifo;Agosi Ward;;Ona Ara Maternity Home;;;;;
Ifo;Agosi Ward;;Fabma Hospital ;;;;;
Ifo;Ajuwon/Akute Ward;;Mic-Bethel Clinic;;;;;
Ifo;Ajuwon/Akute Ward;;Damicare Clinic and Maternity Home ;;;;;
Ifo;Ajuwon/Akute Ward;;Hope Health Clinic and Maternity Home;;;;;
Ifo;Ajuwon/Akute Ward;;Tayo-Tayo Clinic and Maternity Home;;;;;
Ifo;Ajuwon/Akute Ward;;Ajuwon Primary Health Centre;;;;;
Ifo;Ajuwon/Akute Ward;;Shodes 'B' Clinic and Maternity Home ;;;;;
Ifo;Ajuwon/Akute Ward;;Adedoyin Clinic and Maternity Home ;;;;;
Ifo;Ajuwon/Akute Ward;;Goodluck Hospital and Maternity Home ;;;;;
Ifo;Ajuwon/Akute Ward;;Akute Health Post;;;;;
Ifo;Ajuwon/Akute Ward;;Jomapet Clinic and Maternity Home ;;;;;
Ifo;Ajuwon/Akute Ward;;Kingssmith Medical Centre ;;;;;
Ifo;Ajuwon/Akute Ward;;Bofab Hospital;;;;;
Ifo;Ajuwon/Akute Ward;;Agboola Hospital;;;;;
Ifo;Ajuwon/Akute Ward;;Strong and Mighty Clinic and Maternity Home;;;;;
Ifo;Coker/Ilepa Ward;;Ogungbade Model primary Health Centre;;;;;
Ifo;Coker/Ilepa Ward;;His  Glory Clinic and Maternity;;;;;
Ifo;Coker/Ilepa Ward;;Pakoto Luth Primary Health Centre;;;;;
Ifo;Coker/Ilepa Ward;;Coker Health Centre;;;;;
Ifo;Coker/Ilepa Ward;;Dammy Clinic and Maternity Home;;;;;
Ifo;Ibogun Ward;;Ibogun Model Primary Health Centre;;;;;
Ifo;Ojodu/Ishere Ward;;Ojodu Abiodun Primary Health Centre;;;;;
Ifo;Ojodu/Ishere Ward;;Yakoyo Health Post;;;;;
Ifo;Ojodu/Ishere Ward;;Sparkview Hospital;;;;;
Ifo;Ojodu/Ishere Ward;;Mike Bethel Clinic;;;;;
Ifo;Ojodu/Ishere Ward;;Warewa Primary Health Centre;;;;;
Ifo;Ojodu/Ishere Ward;;Isheri Health Clinic ;;;;;
Ifo;Ojodu/Ishere Ward;;Kingsmith Medical Centre;;;;;
Ifo;Oke-Aro/Ibaragun Ward;;Delat Fair Clinic and Maternity;;;;;
Ifo;Oke-Aro/Ibaragun Ward;;San Hospital and Maternity ;;;;;
Ifo;Oke-Aro/Ibaragun Ward;;Noble Clinic and Maternity Home;;;;;
Ifo;Oke-Aro/Ibaragun Ward;;Al-Hassan Clinic and Maternity Home ;;;;;
Ifo;Oke-Aro/Ibaragun Ward;;Oke Aro Health Clinic;;;;;
Ifo;Oke-Aro/Ibaragun Ward;;Ope Ilu Primary Health Centre;;;;;
Ifo;Oke-Aro/Ibaragun Ward;;Azygus Hospital and Maternity ;;;;;
Ifo;Oke-Aro/Ibaragun Ward;;Jehovah Elohim Medical Centre;;;;;
Ifo;Oke-Aro/Ibaragun Ward;;Hossana Care Hospital ;;;;;
Ifo;Oke-Aro/Ibaragun Ward;;Robiyan Health Clinic ;;;;;
Ifo;Oke-Aro/Ibaragun Ward;;Baale-Ajeji Health Post;;;;;
Ifo;Oke-Aro/Ibaragun Ward;;Divine Faith Clinic and Maternity;;;;;
Ifo;Oke-Aro/Ibaragun Ward;;Dabfek Clinic and Maternity Home ;;;;;
Ifo;Oke-Aro/Ibaragun Ward;;Ilupeju Health Centre;;;;;
Ifo;Oke-Aro/Ibaragun Ward;;Sam Steve Hospital ;;;;;
Ifo;Oke-Aro/Ibaragun Ward;;Adiyan Health Centre;;;;;
Ifo;Oke-Aro/Ibaragun Ward;;Renewed Hope Hospital;;;;;
Ifo;Oke-Aro/Ibaragun Ward;;Hope Medical Clinic and Maternity Home ;;;;;
Ifo;Oke-Aro/Ibaragun Ward;;Itoki Primary Health Centre;;;;;
Ifo;Oke-Aro/Ibaragun Ward;;Okungbolu Primary Health Centre;;;;;
Ifo;Oke-Aro/Ibaragun Ward;;Christ the Saviour Hospital;;;;;
Ifo;Okenla Ward;;Ladbol Maternity Home ;;;;;
Ifo;Okenla Ward;;Ewa Hospital ;;;;;
Ifo;Okenla Ward;;Atinuke Clinic and Maternity Home ;;;;;
Ifo;Okenla Ward;;Okenla Health Clinic;;;;;
Ifo;Okenla Ward;;Mayron-Liz Clinic and Maternity ;;;;;
Ifo;Okenla Ward;;Prince of Peace Clinic;;;;;
Ifo;Okenla Ward;;Hope Clinic and Maternity Home;;;;;
Ifo;Okenla Ward;;Ikorita Health Post;;;;;
Ifo;Olose Ward;;Olose Primary Health Centre;;;;;
Ifo;Olose Ward;;Twins Clinic and Maternity Home;;;;;
Ifo;Olose Ward;;Soremekun Memorial Hospital;;;;;
Ifo;Oyero/Ososun Ward;;Mercy of God Clinic;;;;;
Ifo;Oyero/Ososun Ward;;Oyero Health Centre;;;;;
Ifo;Oyero/Ososun Ward;;Ososun Health Centre;;;;;
Ifo;Sunre Ward;;Olorunsogo Health Post;;;;;
Ifo;Sunre Ward;;Oba Oke Health Center;;;;;
Ijebu East;Ajebandele Ward;;Inside Health Care;;;;;
Ijebu East;Ajebandele Ward;;Ajebamdele Health Centre;;;;;
Ijebu East;Ajebandele Ward;;Orita J 4 Health Clinic;;;;;
Ijebu East;Ife Ward 1;;Ere Ayo Hospital;;;;;
Ijebu East;Ife Ward 1;;Olumayowa Memorial Hospital;;;;;
Ijebu East;Ife Ward 1;;Odoladalepo Health Center;;;;;
Ijebu East;Ife Ward 2;;Tajala Model Health Centre;;;;;
Ijebu East;Ife Ward 2;;Ife Health Clinic;;;;;
Ijebu East;Ikija Ward;;Owu - Ikija Health Centre;;;;;
Ijebu East;Ikija Ward;;Igan Health Clinic;;;;;
Ijebu East;Ikija Ward;;Isomu Health Clinic;;;;;
Ijebu East;Imobi Ward 1;;Fotedo Health Clinic;;;;;
Ijebu East;Imobi Ward 2;;Tonigbo Health Clinic;;;;;
Ijebu East;Imushin  Ward 1;;Igbaga Health Clinic;;;;;
Ijebu East;Imushin  Ward 1;;Ehinade Health Centre;;;;;
Ijebu East;Imushin  Ward 1;;Ike Ola Clinic;;;;;
Ijebu East;Imushin Ward 2;;Imushin Health Centre;;;;;
Ijebu East;Imushin Ward 2;;Ilodo Primary Health Centre;;;;;
Ijebu East;Itele Ward;;Itele Health Centre;;;;;
Ijebu East;Itele Ward;;Atoyo Health Clinic;;;;;
Ijebu East;Itele Ward;;Tigbori Health Clinic;;;;;
Ijebu East;Ogbere Ward ;;Ogbere Genaeral Hospital;;;;;
Ijebu East;Ogbere Ward ;;Ogbere Health Clinic;;;;;
Ijebu East;Ogbere Ward ;;Korede Health Clinic;;;;;
Ijebu East;Owu Ward;;Gbamugbamu Health Clinic;;;;;
Ijebu East;Owu Ward;;Lumafon Health Centre;;;;;
Ijebu East;Owu Ward;;Tojelana Health Clinic;;;;;
Ijebu North East;Atan Ward;;Atan General Hospital;;;;;
Ijebu North East;Atan Ward;;Atan Health Clinic;;;;;
Ijebu North East;Igbeba Ward;;Ogidi Health Centre;;;;;
Ijebu North East;Igbeba Ward;;Erunwon Health Clinic;;;;;
Ijebu North East;Igbeba Ward;;Igbeba Health Clinic;;;;;
Ijebu North East;Igede Ward;;Igede Health Post;;;;;
Ijebu North East;Igede Ward;;Itanarun Health Clinic ;;;;;
Ijebu North East;Ilese Ward;;Ilese Health Clinic;;;;;
Ijebu North East;Ilese Ward;;12 FER MRS Military Clinic  Army Barrack, Ilese;;;;;
Ijebu North East;Ilese Ward;;Odomalasa Health Post;;;;;
Ijebu North East;Ilese Ward;;Idomila Health Post ;;;;;
Ijebu North East;Imewuro Ward;;Oruwa Health Clinic;;;;;
Ijebu North East;Imewuro Ward;;Odedeyo Health Clinic ;;;;;
Ijebu North East;Imewuro Ward;;Imewuro Health Clinic;;;;;
Ijebu North East;Imewuro Ward;;Eyin Oshun Health Post;;;;;
Ijebu North East;Isonyin Ward;;Isoyin Health Clinic;;;;;
Ijebu North East;Iworo Ward;;Iworo Health Clinic;;;;;
Ijebu North East;Odoregbe Ward;;Odoregbe Health Post;;;;;
Ijebu North East;Odosenbora Ward;;Odosebora Health Post;;;;;
Ijebu North East;Odosenbora Ward;;Owu-Gbawojo Health Post;;;;;
Ijebu North East;Odosenbora Ward;;Odosimadegun Health Clinic;;;;;
Ijebu North East;Ogbogbo Ward;;Ijari Model Health Centre;;;;;
Ijebu North East;Ogbogbo Ward;;Gbogojari Health Clinic;;;;;
Ijebu North East;Ogbogbo Ward;;Oke-Eri Health Post;;;;;
Ijebu North East;Ogbogbo Ward;;Mechanic Health Post;;;;;
Ijebu North East;Ogbogbo Ward;;Halajor Clinic;;;;;
Ijebu North;Ago-Iwoye Ward 1;;Oke-Odo Health Clinic;;;;;
Ijebu North;Ago-Iwoye Ward 1;;Best Care Hospital and Maternity Home ;;;;;
Ijebu North;Ago-Iwoye Ward 2;;Ibipe Health Centre;;;;;
Ijebu North;Ago-Iwoye Ward 2;;Ishamuro Health Centre;;;;;
Ijebu North;Ago-Iwoye Ward 2;;I.T Onanuga Memorial Hospital;;;;;
Ijebu North;Akogelete Ward;;Agric Health Centre;;;;;
Ijebu North;Akogelete Ward;;Oke Ogbe Health Centre;;;;;
Ijebu North;Atikori Ward;;Tolulope Maternity Home;;;;;
Ijebu North;Atikori Ward;;Toluwani Maternity Home;;;;;
Ijebu North;Atikori Ward;;Atikori Health Centre;;;;;
Ijebu North;Atikori Ward;;Ijebu Igbo General Hospital;;;;;
Ijebu North;Mamu/Ehinetiri Ward;;Mamu Health Centre;;;;;
Ijebu North;Ojowo/Japara Ward;;Japara Health Centre;;;;;
Ijebu North;Ojowo/Japara Ward;;Ojowo Health Centre;;;;;
Ijebu North;Oke-Agbo Ward;;Oke-Agbo Health Centre;;;;;
Ijebu North;Oke-Sopin Ward;;Dominion Clinic;;;;;
Ijebu North;Oke-Sopin Ward;;Obada Health Clinic;;;;;
Ijebu North;Oke-Sopin Ward;;Olad Hospital;;;;;
Ijebu North;Oke-Sopin Ward;;Life Care Clinic and Maternity Home ;;;;;
Ijebu North;Omen Ward;;Apoje Health Centre;;;;;
Ijebu North;Omen Ward;;Osunbudepo Health Centre;;;;;
Ijebu North;Oru/Awa/Ilaporu Ward;;Motayo Clinic;;;;;
Ijebu North;Oru/Awa/Ilaporu Ward;;Awa Health Centre;;;;;
Ijebu North;Oru/Awa/Ilaporu Ward;;Oru Health Centre;;;;;
Ijebu North;Oru/Awa/Ilaporu Ward;;Blessed Clinic;;;;;
Ijebu North;Oru/Awa/Ilaporu Ward;;Oru/Awa/Alaporu Health Centre;;;;;
Ijebu North;Osun Ward;;Aparaki Health Centre;;;;;
Ijebu North;Osun Ward;;Odoralamo Health Centre;;;;;
Ijebu North;Osun Ward;;Abatitun Health Clinic;;;;;
Ijebu North;Osun Ward;;Imope Health Centre;;;;;
Ijebu ode;Ijade/Imepe Ward;;Jwande-Isale Health Centre;;;;;
Ijebu ode;Ijade/Imepe Ward;;Gbadebo Hospital;;;;;
Ijebu ode;Ijade/Imepe Ward;;Lafia-Kowa Specialist Hospital;;;;;
Ijebu ode;Ijade/Imepe Ward;;Ore-Ofe Specialist Hospital;;;;;
Ijebu ode;Imupa/Yanro Ward;;Olu-OlaSpecialist Hospital;;;;;
Ijebu ode;Imupa/Yanro Ward;;St. Michael Specialist Hospital;;;;;
Ijebu ode;Imupa/Yanro Ward;;Imupa Iyanro Health Clinic;;;;;
Ijebu ode;Isiwo Ward;;Isiwo Model Health Centre;;;;;
Ijebu ode;Isiwo Ward;;Aiyeteju Health Centre;;;;;
Ijebu ode;Isoku/Ishado/Ikanigbo Ward;;Isado/Isoku/Ikanigbo Health Clinic ;;;;;
Ijebu ode;Isoku/Ishado/Ikanigbo Ward;;Oyins Hospital;;;;;
Ijebu ode;Isoku/Ishado/Ikanigbo Ward;;Ola-Olu Medical Centre;;;;;
Ijebu ode;Isoku/Ishado/Ikanigbo Ward;;Wale-Ola Medical Centre;;;;;
Ijebu ode;Itamapako Ward;;Irawo Health Centre;;;;;
Ijebu ode;Itamapako Ward;;Itamapo Health Centre;;;;;
Ijebu ode;Itantebo Itaogbin Ward;;Itaogbin Health Post;;;;;
Ijebu ode;Iwade/Oke Ijasi Ward;;Iwade Oke Health Centre;;;;;
Ijebu ode;Iwade/Oke Ijasi Ward;;Joybell's Hospital;;;;;
Ijebu ode;Iwade/Oke Ijasi Ward;;Amazing Grace Hospital;;;;;
Ijebu ode;Iwade/Oke Ijasi Ward;;Molipa Health Centre;;;;;
Ijebu ode;Iwade/Oke Ijasi Ward;;Akobi Specialist Hospital;;;;;
Ijebu ode;Iwade/Oke Ijasi Ward;;De' royal Hospital;;;;;
Ijebu ode;Odo Esa Ward;;Ogunlade Hospital;;;;;
Ijebu ode;Odo Esa Ward;;Bitola Hospital;;;;;
Ijebu ode;Odo Esa Ward;;Odo Esa Health Clinic;;;;;
Ijebu ode;Odo Esa Ward;;Ebun Ola Hospital ;;;;;
Ijebu ode;Odo Esa Ward;;Ijebu-Ode State Hospital;;;;;
Ijebu ode;Odo-Egbo/Oliworo Ward;;Tolu Specialist Clinic;;;;;
Ijebu ode;Odo-Egbo/Oliworo Ward;;PR-Peterson Medical Centre;;;;;
Ijebu ode;Odo-Egbo/Oliworo Ward;;Ahmadiyya Muslim Hospital;;;;;
Ijebu ode;Odo-Egbo/Oliworo Ward;;Oke-Oyinbo Family Health Centre;;;;;
Ijebu ode;Odo-Egbo/Oliworo Ward;;Ro-ona Dental Clinic;;;;;
Ijebu ode;Odo-Egbo/Oliworo Ward;;Fentob Specialist Hospital;;;;;
Ijebu ode;Oprogun Ward 1;;Ita Osu Health Centre;;;;;
Ijebu ode;Oprogun Ward 1;;Staff clinic;;;;;
Ijebu ode;Oprogun Ward 1;;School Health Services Clinic;;;;;
Ijebu ode;Oprogun Ward 1;;True Vine Clinic;;;;;
Ijebu ode;Porogun Ward 2;;Detomic Hospital;;;;;
Ijebu ode;Porogun Ward 2;;Ayoola Medical centre;;;;;
Ijebu ode;Porogun Ward 2;;Ita-Alapo Health care;;;;;
Ikenne;Ikenne Ward 1;;Itunmoro Health Clinic;;;;;
Ikenne;Ikenne Ward 2;;Bodmaus Specialist Hospital;;;;;
Ikenne;Ikenne Ward 2;;Ikenne ii General Hospital;;;;;
Ikenne;Ilisan Ward  1;;Ilisan i Primary Health Centre;;;;;
Ikenne;Ilisan Ward 2;;Ilisan ii Health Clinic ;;;;;
Ikenne;Ilisan Ward 2;;Babcock University Hospital;;;;;
Ikenne;Ilisan Ward 2;;Great Relievers Clinic;;;;;
Ikenne;Iperu Ward 1;;Healing Sprinng Maternity Home;;;;;
Ikenne;Iperu Ward 1;;Iregun Health Post;;;;;
Ikenne;Iperu Ward 2;;Imobido Health Clinic;;;;;
Ikenne;Iperu Ward 3;;Iperu iii General Hospital;;;;;
Ikenne;Iperu Ward 3;;Iperu Health Clinic;;;;;
Ikenne;Iperu Ward 3;;Og Oluwaseun Maternity Clinic;;;;;
Ikenne;Irolu Ward ;;Irolu Health Clinic;;;;;
Ikenne;Ogere Ward 1;;Ogere i Primary Health Centre;;;;;
Ikenne;Ogere Ward 2;;Ogere Health Clinic;;;;;
Imeko Afon;Agberiodo Ward;;Agboriodo Health Clinic;;;;;
Imeko Afon;Agberiodo Ward;;Abule Peter Health Centre;;;;;
Imeko Afon;Agborogbomo Ward;;Agborogbomo Health Clinic;;;;;
Imeko Afon;Atapele Ward;;Atapele Health Clinic;;;;;
Imeko Afon;Idofa Ward;;Idofa Health Clinic;;;;;
Imeko Afon;Ilara Ward;;Ilara Health Clinic;;;;;
Imeko Afon;Ilara Ward;;Alafia Medical Clinic;;;;;
Imeko Afon;Imeko Ward;;Imeko Primary Health Centre;;;;;
Imeko Afon;Imeko Ward;;Imeko General Hospital;;;;;
Imeko Afon;Iwoye Ward;;Iwoye Health Centre;;;;;
Imeko Afon;Matale Ward;;Matale Model Health Clinic;;;;;
Imeko Afon;Oke Agbede/Moriwi Ward;;Oloro Health Post ;;;;;
Imeko Afon;Oke Agbede/Moriwi Ward;;Oke Agbede Health Clinic;;;;;
Imeko Afon;Oke Agbede/Moriwi Ward;;Okuta Health Clinic;;;;;
Imeko Afon;Owode/Idi Ayin Ward;;Owuwu Health Clinic ;;;;;
Imeko Afon;Owode/Idi Ayin Ward;;Owode Health Clinic;;;;;
Ipokia;Agada Ward;;Agada Health Clinic;;;;;
Ipokia;Agada Ward;;Iguu Health Clinic;;;;;
Ipokia;Agosasa Ward;;Agosasa Health Clinic;;;;;
Ipokia;Agosasa Ward;;Agosasa Model Primary Health Centre ;;;;;
Ipokia;Ajegunle Ward;;Ajigunle Health Clinic;;;;;
Ipokia;Idiroko Ward;;God's Time Specialist Clinic;;;;;
Ipokia;Idiroko Ward;;Idiroko Health Centre;;;;;
Ipokia;Idiroko Ward;;Remi Maternity Home;;;;;
Ipokia;Idiroko Ward;;Idiroko General Hospital;;;;;
Ipokia;Ifonyintedo Ward;;Iropo Health Clinic;;;;;
Ipokia;Ifonyintedo Ward;;Atan-Ota Health Clinic;;;;;
Ipokia;Ifonyintedo Ward;;Wasimi Ikorodo Health Clinic;;;;;
Ipokia;Ihunbo/Ilase Ward;;Ilase Health Clinic;;;;;
Ipokia;Ihunbo/Ilase Ward;;Ihunbo Health Clinic;;;;;
Ipokia;Ijofin Ward;;Olaolu Clinic ;;;;;
Ipokia;Ijofin Ward;;Ijofin Health Clinic;;;;;
Ipokia;Ijofin Ward;;Bode Ase Health Clinic;;;;;
Ipokia;Ipokia 1 Ward;;Alaga Health Clinic;;;;;
Ipokia;Ipokia 1 Ward;;Ipokia General Hospital;;;;;
Ipokia;Ipokia 2 Ward;;Iponran Health Clinic;;;;;
Ipokia;Ipokia 2 Ward;;Odan Ijaiye Health Clinic;;;;;
Ipokia;Maun 1 Ward;;Maun Health Clinic;;;;;
Ipokia;Maun 2 Ward;;Vawhe Tafa Health Centre;;;;;
Ipokia;Tube Ward;;Otito Maternity Home;;;;;
Ipokia;Tube Ward;;Adetola Maternity Home ;;;;;
Ipokia;Tube Ward;;Tube Health Clinic;;;;;
Obafemi-Owode;Ajebo Ward;;Fidiwo Health Clinic;;;;;
Obafemi-Owode;Ajebo Ward;;Ajebo Health Post;;;;;
Obafemi-Owode;Ajura Ward;;Ikanna Balogun Health Clinic;;;;;
Obafemi-Owode;Ajura Ward;;Ajura Health Clinic;;;;;
Obafemi-Owode;Ajura Ward;;Orile Imo Model Health Centre;;;;;
Obafemi-Owode;Ajura Ward;;Siun Health Clinic;;;;;
Obafemi-Owode;Alapako Ward;;Boodo Health Clinic;;;;;
Obafemi-Owode;Alapako Ward;;Alapako Aro Health Clinic;;;;;
Obafemi-Owode;Egbeda Ward;;Adedero Health Clinic;;;;;
Obafemi-Owode;Kajola Ward;;Kajola Health Clinic;;;;;
Obafemi-Owode;Mokoloki Ward;;Ajegbile Health Clinic;;;;;
Obafemi-Owode;Mokoloki Ward;;Iro Model Health Clinic;;;;;
Obafemi-Owode;Mokoloki Ward;;Mokoloki Health Clinic;;;;;
Obafemi-Owode;Moloko-Asipa Ward;;Oba Seriki Health Clinic;;;;;
Obafemi-Owode;Oba Ward;;Oba Health Clinic;;;;;
Obafemi-Owode;Oba Ward;;Hope Hospital ;;;;;
Obafemi-Owode;Oba Ward;;Olu Clinic and Maternity Home;;;;;
Obafemi-Owode;Oba Ward;;First Alpha Medical Centre;;;;;
Obafemi-Owode;Oba Ward;;Tobiloba Clinic and Maternity;;;;;
Obafemi-Owode;Oba Ward;;Adigbe Health Clinic;;;;;
Obafemi-Owode;Oba Ward;;Alayo Twins Health Clinic ;;;;;
Obafemi-Owode;Obafemi Ward;;Baase-Iporo Health Post;;;;;
Obafemi-Owode;Obafemi Ward;;Apena Erunbe Health Clinic;;;;;
Obafemi-Owode;Ofada Ward;;Glory Medical. Centre;;;;;
Obafemi-Owode;Ofada Ward;;Lantos Specialist Hospital;;;;;
Obafemi-Owode;Ofada Ward;;Adebola Clinic & Maternity Home;;;;;
Obafemi-Owode;Ofada Ward;;Ofada Primary Health Centre;;;;;
Obafemi-Owode;Ofada Ward;;Ibafo Health Clinic;;;;;
Obafemi-Owode;Ofada Ward;;Mowe Health Post;;;;;
Obafemi-Owode;Ofada Ward;;Magboro Health Clinic;;;;;
Obafemi-Owode;Owode Ward;;Owode General Hospital;;;;;
Obafemi-Owode;Owode Ward;;Owode Health Clinic;;;;;
Odeda;Alabata ward;;Alabata Heath Clinic;;;;;
Odeda;Alagbagba Ward;;Alagbagba Health Clinic;;;;;
Odeda;Ilugun Ward;;Bakatari Health Clinic ;;;;;
Odeda;Ilugun Ward;;Orile - Ilugun Health Clinic;;;;;
Odeda;Ilugun Ward;;Kugba-Ajagbe Health Clinic;;;;;
Odeda;Obantoko Ward;; og Obatonko Health Clinic ;;;;;
Odeda;Obantoko Ward;;Aja Health Clinic;;;;;
Odeda;Obete Ward;;Obete Health Clinic;;;;;
Odeda;Odeda Ward;;Odeda General Hospital;;;;;
Odeda;Odeda Ward;;Odeda Health Clinic;;;;;
Odeda;Odeda Ward;;Olugbo  Health Clinic;;;;;
Odeda;Odeda Ward;;Omo-Arewa Health Foundation;;;;;
Odeda;Olodo Ward;;Olodo Health Clinic;;;;;
Odeda;Opeji Ward;;Opeji Health Clinic;;;;;
Odeda;Osiele Ward;;Osiele Health Clinic;;;;;
Odeda;Osiele Ward;;Awolola Memorial Hospital ;;;;;
Odogbolu;la Ala/Igbile/Oke-Orundun Ward;;Igbile Health Clinic;;;;;
Odogbolu;la Ala/Igbile/Oke-Orundun Ward;;Ala Health Clinic;;;;;
Odogbolu;la Ibefun Ward;;Ibefun Health Clinic;;;;;
Odogbolu;la Ibido/Jobore/Ikise Ward;;Ibido Health Clinic;;;;;
Odogbolu;la Ilado/Akio Ward;;Ilado Health Centre;;;;;
Odogbolu;la Moraika/Ita-Epo Ward;;Holy Trinity Health Clinic;;;;;
Odogbolu;la Moraika/Ita-Epo Ward;;Mobalufon Model Health Centre;;;;;
Odogbolu;la Moraika/Ita-Epo Ward;;Otunba Tunwase National Paediatric Centre;;;;;
Odogbolu;la Moraika/Ita-Epo Ward;;Imagbon Health Clinic;;;;;
Odogbolu;la Ososa Ward;;Ososa Health Clinic;;;;;
Odogbolu;Aiyepe/Eyinwa Ward;;Aiyepe Health Clinic;;;;;
Odogbolu;Aiyepe/Eyinwa Ward;;Aiyepe General Hospital;;;;;
Odogbolu;Aiyepe/Eyinwa Ward;;Enyinwa Health Centre;;;;;
Odogbolu;Idowa Ward;;Idowa Health Clinic;;;;;
Odogbolu;Idowa Ward;; Ala-Idowa General  Hospital;;;;;
Odogbolu;Imosan Ward;;Imodi Health Clinic;;;;;
Odogbolu;Imosan Ward;;Odogbolu Model Primary Health Centre;;;;;
Odogbolu;Odogbolu 1 Ward;;Community Health Clinic;;;;;
Odogbolu;Odogbolu 2 Ward;;Odogbolu Health Clinic;;;;;
Odogbolu;Odogbolu 2 Ward;;Odogbolu Mercy Clinic and Maternity;;;;;
Odogbolu;Ogbo Ward;;Ogbo Health Clinic;;;;;
Odogbolu;Okunowa/Ijesa Ijebu Ward;;Okunowa Health Clinic;;;;;
Odogbolu;Okunowa/Ijesa Ijebu Ward;;Ijesa Ijebu Health Clinic;;;;;
Odogbolu;Okunowa/Ijesa Ijebu Ward;;Odo-Olowu Model Health Centre;;;;;
Odogbolu;Omu Ward;;Omu General Hospital;;;;;
Odogbolu;Omu Ward;;Omu Health Post;;;;;
Ogun Waterside;la Ilushin/Lukogbe Ward;;Agbure Health Post;;;;;
Ogun Waterside;la Ilushin/Lukogbe Ward;;Lukogbe Health Clinic;;;;;
Ogun Waterside;la Ilushin/Lukogbe Ward;;Agodo Health Post;;;;;
Ogun Waterside;la Ilushin/Lukogbe Ward;;Ilushin Health Clinic;;;;;
Ogun Waterside;la Ilushin/Lukogbe Ward;;Igbafo Health Post;;;;;
Ogun Waterside;Abigi Ward;;Abigi Health Clinic;;;;;
Ogun Waterside;Abigi Ward;;Ita Ogun Health Clinic;;;;;
Ogun Waterside;Abigi Ward;;Ita Otu Health Post;;;;;
Ogun Waterside;Ayede/Lomiro Ward;;Ayede Health Clinic;;;;;
Ogun Waterside;Ayede/Lomiro Ward;;Lomiro Health Clinic;;;;;
Ogun Waterside;Ayila/Itebu Ward;;Okebi Health Clinic;;;;;
Ogun Waterside;Ayila/Itebu Ward;;Ayila Health Clinic;;;;;
Ogun Waterside;Ayila/Itebu Ward;;Itebu Manuwa Health Post;;;;;
Ogun Waterside;Efire Ward;;Bolorunduro Health Post;;;;;
Ogun Waterside;Efire Ward;;Efire Health Clinic;;;;;
Ogun Waterside;Ibiade Ward;;Agric Health Post;;;;;
Ogun Waterside;Imakun/Irokun Ward;;Imakun Omi Health Clinic;;;;;
Ogun Waterside;Iwopin Ward;;Olojumeta Health Clinic;;;;;
Ogun Waterside;Iwopin Ward;;Iwopin Comprehensive Health Centre;;;;;
Ogun Waterside;Odeomi Ward;;Okun Elefon Health Post;;;;;
Ogun Waterside;Odeomi Ward;;Okunilete Health Post;;;;;
Ogun Waterside;Odeomi Ward;;Odeomi Health Clinic;;;;;
Ogun Waterside;Oni Ward;;Alo Health Clinic;;;;;
Ogun Waterside;Oni Ward;;Oni Health Clinic;;;;;
Ogun Waterside;Oni Ward;;Ologbun Health Clinic;;;;;
Remo North;Akaka Ward 6;;Akaka Health Clinic;;;;;
Remo North;Ilara Ward 5;;Ilara Health Centre;;;;;
Remo North;Ipara Ward 7;;Ipara Primary Health Center;;;;;
Remo North;Ipara Ward 7;;Onabanke Memorial Hospital;;;;;
Remo North;Isara Ward 1;;Anu Olu Poly Clinic ;;;;;
Remo North;Isara Ward 1;;Isara Health Clinic, Idi aba ;;;;;
Remo North;Isara Ward 1;;Isara i General Hospital;;;;;
Remo North;Isara Ward 1;;King's Maternity Home;;;;;
Remo North;Isara Ward 1;;El-Shadai Maternity Home;;;;;
Remo North;Isara Ward 2;;Isara ii Health Clinic;;;;;
Remo North;Isara Ward 3;;Afotamodi Health Clinic;;;;;
Remo North;Isara Ward 3;;Omoowo Hospital ;;;;;
Remo North;Isara Ward 3;;K.Janet Medical Centre;;;;;
Remo North;Magbon Iyankan Ward 4;;Local Government Staff Clinic;;;;;
Remo North;Magbon Iyankan Ward 4;;Magbon Iyankan Heath Centre;;;;;
Remo North;Ode Ward 10;;C.A.C Faith Maternity Home;;;;;
Remo North;Ode Ward 10;;Agbero Primary Health Centre;;;;;
Remo North;Ode Ward 10;;Talabi Diabetics Clinics;;;;;
Remo North;Ode Ward 9;;Ode Primary Health Centre;;;;;
Remo North;Ode Ward 9;;Exalted Maternity Home;;;;;
Remo North;Orile Oko Ward 8;;Ajano Health Clinic;;;;;
Remo North;Orile Oko Ward 8;;Isan Health Clinic;;;;;
Shagamu;Agbowa Ward;;Agbowa Health Clinic ;;;;;
Shagamu;Ajaka Ward;;Ajaka Health Post;;;;;
Shagamu;Ajaka Ward;;Idera Hospital Maternity Home ;;;;;
Shagamu;Ajaka Ward;;Ewuhwo Health Clinic;;;;;
Shagamu;Ayegbami Ward;;Idado/Ayegbani Health Clinic;;;;;
Shagamu;Ayegbami Ward;;Alpha Clinic ;;;;;
Shagamu;Batoro Ward;;Ipoji Health Clinic;;;;;
Shagamu;Ijagba Ward;;Tunmise Maternity Hospital;;;;;
Shagamu;Ijagba Ward;;Ijagba Health Post;;;;;
Shagamu;Ijagba Ward;;Meditop Specialist Hospital ;;;;;
Shagamu;Isote Ward;;Isote Health Post;;;;;
Shagamu;Itun Sokun Ward;;Sagamu Community Centre;;;;;
Shagamu;Latawa Ward;;Latawa Health Post ;;;;;
Shagamu;Ode Lemo Ward;;Ode Primary Health Centre;;;;;
Shagamu;Ode Lemo Ward;;Emuren Health Clinic;;;;;
Shagamu;Ogijo Ward;;Micvol Maternity Home;;;;;
Shagamu;Ogijo Ward;;Divine Hospital ;;;;;
Shagamu;Ogijo Ward;;Ogijo Primary Heath Care;;;;;
Shagamu;Ogijo Ward;;Ajegunle Health Clinic ;;;;;
Shagamu;Ogijo Ward;;Likosi Health Centre;;;;;
Shagamu;Ogijo Ward;;Adeoluwa Maternity Home;;;;;
Shagamu;Ogijo Ward;;Afisuru Health Clinic ;;;;;
Shagamu;Ojumele Ward;;Makun/Ojumele Health Clinic;;;;;
Shagamu;Ojumele Ward;;Owokoniran Memorial Clinic;;;;;
Shagamu;Sabo Agura Ward;;Skylak Specialist Hospital;;;;;
Shagamu;Sabo Agura Ward;;Sabo Agura Health Clinic;;;;;
Shagamu;Sabo Agura Ward;;Owode/Epota Health Clinic ;;;;;
Shagamu;Sabo Agura Ward;;Tasan Maternity Home ;;;;;
Shagamu;Sabo Agura Ward;;Moyinoluwa Clinic;;;;;
Shagamu;Sabo G.R.A Ward;;Twnis Specialist Clinic ;;;;;
Shagamu;Sabo G.R.A Ward;;Redemption Hospital;;;;;
Shagamu;Sabo G.R.A Ward;;Ade-Maternity Home;;;;;
Shagamu;Simawa Ward;;Simawa Health Post;;;;;
Shagamu;Soyindo Ward;;Legacy Isale Oko Health ;;;;;
Yewa North;Ayetoro  Ward 3;;Ibile Family Health Centre;;;;;
Yewa North;Ayetoro Ward 1;;Idofoi Health Clinic;;;;;
Yewa North;Ayetoro Ward 1;;Igbo-Ori Health Clinic ;;;;;
Yewa North;Ayetoro Ward 1;;Oke-Akanni Health Clinic ;;;;;
Yewa North;Ayetoro Ward 1;;Opete Health Clinic;;;;;
Yewa North;Ayetoro Ward 1;;Agboro Church Health Clinic ;;;;;
Yewa North;Ayetoro Ward 2;;Isaope Health Clinic ;;;;;
Yewa North;Ebute  Ward;;Ebute Health Clinic ;;;;;
Yewa North;Ebute  Ward;;Owode Balogun Health Centre;;;;;
Yewa North;Ebute  Ward;;Apetu Health Centre;;;;;
Yewa North;Ebute  Ward;;Akinolu Faith Clinic and Maternity (Annex);;;;;
Yewa North;Ebute  Ward;;Oja odan Rural Health Centre;;;;;
Yewa North;Eggua  Ward;;Tata Health Clinic                                          ;;;;;
Yewa North;Igbogila/Ibese  Ward;;Igbogila Primary Health Centre;;;;;
Yewa North;Igbogila/Ibese  Ward;;Ibese Health Clinic;;;;;
Yewa North;Igbogila/Ibese  Ward;;Samuel & Alice Memorial Clinic & Maternity Home ;;;;;
Yewa North;Ijoun  Ward;;Ijoun Model Health Centre;;;;;
Yewa North;Ijoun  Ward;;Aworo Health Clinic;;;;;
Yewa North;Ijoun  Ward;;Tobolo Health Clinic ;;;;;
Yewa North;Imasayi  Ward;;Imasayi Primary Health Centre;;;;;
Yewa North;Joga/Ibooro Ward;;Ibooro Health Post;;;;;
Yewa North;Joga/Ibooro Ward;;Ilujoda Ibooro Health Clinic;;;;;
Yewa North;Joga/Ibooro Ward;;Joga Model Health Centre;;;;;
Yewa North;Joga/Ibooro Ward;;Joga-Orile Health Clinic;;;;;
Yewa North;Joga/Ibooro Ward;;Ijako Orile Health Clinic;;;;;
Yewa North;Ohunbe  Ward;;Agbon-Ojodu Health Clinic;;;;;
Yewa North;Ohunbe  Ward;;Ibeku Health Clinic;;;;;
Yewa North;Ohunbe  Ward;;Iselu Health Clinic;;;;;
Yewa North;Ohunbe  Ward;;Pedepo Health Centre;;;;;
Yewa North;Ohunbe  Ward;;Asa Health Clinic;;;;;
Yewa North;Sunwa  Ward;;Saala-Orile Health Clinic ;;;;;
Yewa North;Sunwa  Ward;;Igan-Okoto Health Clinic;;;;;
Yewa North;Sunwa  Ward;;Sawonjo Health Clinic;;;;;
Yewa North;Sunwa  Ward;;IJaka Isale Health Clinic ;;;;;
Yewa North;Sunwa  Ward;;Jaka-Oke Health Clinic ;;;;;
Yewa South;Ajilete Ward;;Ajilete Health Clinic;;;;;
Yewa South;Ajilete Ward;;Eredo Health Clinic;;;;;
Yewa South;Idogo  Ward;;Idogo Health Clinic;;;;;
Yewa South;Idogo  Ward;;Ipaja Health Clinic ;;;;;
Yewa South;Idogo  Ward;;Igbeji Health Centre;;;;;
Yewa South;Idogo  Ward;;Itoro Health Clinic;;;;;
Yewa South;Ilaro  Ward 1;;Leslie Primary Health Centre;;;;;
Yewa South;Ilaro  Ward 1;;Akin-Olu Faith Clinic and Maternity Home;;;;;
Yewa South;Ilaro  Ward 1;;Kale salvation clinic and maternity home;;;;;
Yewa South;Ilaro  Ward 1;;Ijanna Health Clinic;;;;;
Yewa South;Ilaro  Ward 1;;Ilaro i State Hospital;;;;;
Yewa South;Ilaro  Ward 1;;Queen's Hospital;;;;;
Yewa South;Ilaro  Ward 2;;Toluwani Clinic and Maternity Home;;;;;
Yewa South;Ilaro  Ward 2;;Oke-Ela Health Clinic;;;;;
Yewa South;Ilaro  Ward 3;;Alafiatayo Clinic and Maternity Home;;;;;
Yewa South;Ilaro  Ward 3;;Gbogidi Health Clinic;;;;;
Yewa South;Ilaro  Ward 3;;Hossana Care Hospital ;;;;;
Yewa South;Ilaro  Ward 3;;Ore Ofe Clinic;;;;;
Yewa South;Ilaro  Ward 3;;Biolak Clinic and Maternity Home;;;;;
Yewa South;Ilaro  Ward 3;;Samron Maternity Home;;;;;
Yewa South;Ilaro  Ward 3;;Kamaldeen Memorial Clinic and Maternity Home;;;;;
Yewa South;Ilobi/Erinja Ward;;Oke-Erinja Model Primary Health Care;;;;;
Yewa South;Ilobi/Erinja Ward;;Erinja Health Clinic;;;;;
Yewa South;Ilobi/Erinja Ward;;Alagbon Health Clinic;;;;;
Yewa South;Ilobi/Erinja Ward;;Ilobi Health Clinic;;;;;
Yewa South;Iwoye  Ward;;Fortune Clinic and Maternity Home  ;;;;;
Yewa South;Iwoye  Ward;;Iwoye Health Clinic;;;;;
Yewa South;Iwoye  Ward;;Ijado Health Clinic;;;;;
Yewa South;Oke-Odan  Ward;;on  Owo St. David's Hospital.;;;;;
Yewa South;Oke-Odan  Ward;;Oke-odan Model Health Centre;;;;;
Yewa South;Oke-Odan  Ward;;Isagbo-Ere Health Post;;;;;
Yewa South;Oke-Odan  Ward;;Orisadeyo Health Clinic;;;;;
Yewa South;Oke-Odan  Ward;;Owo Health Clinic;;;;;
Yewa South;Oke-Odan  Ward;;Oke-Odan Health Clinic;;;;;
Yewa South;Owode  Ward 1;;Goodnews Clinic and Maternity Home   ;;;;;
Yewa South;Owode  Ward 1;;Ojuelegba  Health Clinic;;;;;
Yewa South;Owode  Ward 1;;Cornerstone Hospital;;;;;
Yewa South;Owode  Ward 2;;Isaga Owode Health Clinic;;;;;
Yewa South;Owode  Ward 2;;Alaanu Model Primary Health Care Centre;;;;;
