LGA;Ward;Settlement;Facility;Type;Ownership;Address;Longitude;Latitude
Aiyedaade;Ward 1- Balogun;;Oke-Egan Health Post;;;;;
Aiyedaade;Ward 10 - Anlugbua;;Alaguntan Primary Health Centre;;;;;
Aiyedaade;Ward 10 - Anlugbua;;Mokore Primary Health Centre;;;;;
Aiyedaade;Ward 10 - Anlugbua;;Abimbola Primary Health Centre;;;;;
Aiyedaade;Ward 11 -Araromi;;Olorunsogo Clinic;;;;;
Aiyedaade;Ward 2 - Otun Balogun;;Wakajaye Junction Primary Health Centre  ;;;;;
Aiyedaade;Ward 2 - Otun Balogun;;MDG Wakajaye Junction;;;;;
Aiyedaade;Ward 3 - Olufi  ;;Ago Owu model;;;;;
Aiyedaade;Ward 3 - Olufi  ;;Gbongan Comprehensive Health Centre;;;;;
Aiyedaade;Ward 4 - Otun Olufi;;GRACELAND MEDICAL CENTRE;;;;;
Aiyedaade;Ward 4 - Otun Olufi;;TBL Clinic Gbongan;;;;;
Aiyedaade;Ward 4 - Otun Olufi;;DIVINE MERCY HOSPITAL;;;;;
Aiyedaade;Ward 4 - Otun Olufi;;Oke-Elu Primary Health Centre;;;;;
Aiyedaade;Ward 5 - Ijugbe Amola;;Oke Odo Primary Health Centre;;;;;
Aiyedaade;Ward 5 - Ijugbe Amola;;Oja ale Ijugbe Primary Health Centre;;;;;
Aiyedaade;Ward 5 - Ijugbe Amola;;Ode Omu Model Primary Health Centre ;;;;;
Aiyedaade;Ward 6 - Lagere Amola;;Ile-Idi Asa Primary Health Centre;;;;;
Aiyedaade;Ward 6 - Lagere Amola;;Ode-Omu Comprehensive Health Centre;;;;;
Aiyedaade;Ward 7 - Gbongan Rural;;Bembe  Primary Health Centre,;;;;;
Aiyedaade;Ward 7 - Gbongan Rural;;Emmanuel Clinic;;;;;
Aiyedaade;Ward 7 - Gbongan Rural;;Akiriboto 1 Primary Health Centre;;;;;
Aiyedaade;Ward 7 - Gbongan Rural;;Wakajaye Town Primary Health Centre;;;;;
Aiyedaade;Ward 7 - Gbongan Rural;;Mojapa Primary Health Centre;;;;;
Aiyedaade;Ward 7 - Gbongan Rural;;Lagbaka Primary Health Centre;;;;;
Aiyedaade;Ward 7 - Gbongan Rural;;Ogbaaga Health Post;;;;;
Aiyedaade;Ward 7 - Gbongan Rural;;Obebe Primary Health Centre;;;;;
Aiyedaade;Ward 7 - Gbongan Rural;;Akiriboto 2 Primary Health Centre;;;;;
Aiyedaade;Ward 8 - Ode Omu Rural;;Arogundade Primary Health Centre;;;;;
Aiyedaade;Ward 8 - Ode Omu Rural;;Tonkere Primary Health Centre;;;;;
Aiyedaade;Ward 8 - Ode Omu Rural;;Oogi Primary Health Centre;;;;;
Aiyedaade;Ward 8 - Ode Omu Rural;;Ojudo Primary Health Centre;;;;;
Aiyedaade;Ward 8 - Ode Omu Rural;;Ayetoro Comprehensive Health Centre;;;;;
Aiyedaade;Ward 8 - Ode Omu Rural;;Ayetoro Kayejo Primary Health Centre;;;;;
Aiyedaade;Ward 8 - Ode Omu Rural;;Lasole Primary Health Centre;;;;;
Aiyedaade;Ward 9 - Obalufon;;Orile-Owu Primary Health Centre;;;;;
Aiyedaade;Ward 9 - Obalufon;;Motako Primary Health Centre;;;;;
Aiyedaade;Ward 9 - Obalufon;; Orile Owu Model Health Centre;;;;;
Aiyedire;Amobi Kuta Ward II   ;;Amobi Kuta  Primary Health Centre,;;;;;
Aiyedire;Amobi Kuta Ward II   ;; Ile Ogbo /Kuta Railway Station Health Centre,;;;;;
Aiyedire;Amobi Kuta Ward II   ;;Kuta  Model Health Centre,;;;;;
Aiyedire;Gbogbo Ward 4;;Ayitedo Health Centre;;;;;
Aiyedire;Idi-Ape Ileogbo Ward 2;;Okomi Health Centre;;;;;
Aiyedire;Idi-ogun Ileogbo Ward 3;;Idi-Ogun Comprehensive Health Centre;;;;;
Aiyedire;Ilaji Ward 7;;Arijesu Health Centre;;;;;
Aiyedire;Ilaji Ward 7;;Ilaji Primary Health Centre;;;;;
Aiyedire;Isale-Oba Kuta Ward 8;;Isale-Oba Primary Health Centre;;;;;
Aiyedire;Isale-Oba Kuta Ward 8;;Kuta Comprehensive Health Centre;;;;;
Aiyedire;Oke-Osun Ward 10;;Osunwoyin Primary Health Centre;;;;;
Aiyedire;Oke-Osun Ward 10;;Eleji Health Centre,;;;;;
Aiyedire;Oke-Osun Ward 10;;Mamu Abimbola Primary Health Centre;;;;;
Aiyedire;Oke-Osun Ward 10;;Aba Odan Health Centre;;;;;
Aiyedire;Oke-Osun Ward 10;;Onigangan Health Centre;;;;;
Aiyedire;Oke-Osun Ward 10;;Ileeran Health Centre;;;;;
Aiyedire;Omisore Oluponna Ward 6;;Omisore Oluponna Primary Health Centre;;;;;
Aiyedire;Omisore Oluponna Ward 6;;Ejemu Primary Health Centre,;;;;;
Aiyedire;Omisore Oluponna Ward 6;;PHC ALGON;;;;;
Aiyedire;Oosa Ileogbo Ward 1;;Primary Health Centre Secretariat;;;;;
Aiyedire;Oosa Ileogbo Ward 1;;Oke-Odo Primary Health Centre;;;;;
Aiyedire;Popo Oluponna Ward 5;;Popo Oluponna Primary Health Centre;;;;;
Aiyedire;Popo Oluponna Ward 5;;Alaya Health Centre;;;;;
Aiyedire;Popo Oluponna Ward 5;;Adendere Health Centre;;;;;
Aiyedire;Popo Oluponna Ward 5;;Iwo Railway Station Health Centre;;;;;
Atakunmosa East;Ward 1 Iwara;;Ayetoro Health Centre;;;;;
Atakunmosa East;Ward 1 Iwara;;Iwara Health Centre;;;;;
Atakunmosa East;Ward 1 Iwara;;Asuku  Health Centre;;;;;
Atakunmosa East;Ward 1 Iwara;; Iwikun Health Centre;;;;;
Atakunmosa East;Ward 10 Ajebandele;;Ayinrin-Adedeji Health Centre;;;;;
Atakunmosa East;Ward 10 Ajebandele;; Oke Temidayo Health Centre,;;;;;
Atakunmosa East;Ward 10 Ajebandele;;Olorunsogo Primary Health Centre;;;;;
Atakunmosa East;Ward 10 Ajebandele;;Ajebandele Health Centre;;;;;
Atakunmosa East;Ward 10 Ajebandele;;Atorin Health Centre;;;;;
Atakunmosa East;Ward 10 Ajebandele;;Oke-Odo Health Centre;;;;;
Atakunmosa East;Ward 2 Igangan ;;Igangan Health Centre;;;;;
Atakunmosa East;Ward 2 Igangan ;;Owode Health Centre,;;;;;
Atakunmosa East;Ward 3 Ipole ;;Ise-Ijesa Primary Health Centre;;;;;
Atakunmosa East;Ward 3 Ipole ;;Ipole Health Centre;;;;;
Atakunmosa East;Ward 3 Ipole ;;Ikoromoja Health Centre;;;;;
Atakunmosa East;Ward 3 Ipole ;;Odo-Ijesa Primary Health Centre;;;;;
Atakunmosa East;Ward 3 Ipole ;;Irogbo Health Centre;;;;;
Atakunmosa East;Ward 3 Ipole ;;Ajebandele-Aje Health Centre;;;;;
Atakunmosa East;Ward 4 Iperindo;;Oke-eegun Health Centre,;;;;;
Atakunmosa East;Ward 4 Iperindo;;Iperindo Comprehensive Health Centre;;;;;
Atakunmosa East;Ward 4 Iperindo;;Aasa Health Centre;;;;;
Atakunmosa East;Ward 4 Iperindo;;Iperindo Primary Health Centre;;;;;
Atakunmosa East;Ward 4 Iperindo;;Lawaye Health Centre;;;;;
Atakunmosa East;Ward 4 Iperindo;; Kajola Bowaje Health Centre,;;;;;
Atakunmosa East;Ward 5 Eti-oni ;;Itaapa Health Centre,;;;;;
Atakunmosa East;Ward 5 Eti-oni ;; Eti-Oni Primary Health Centre;;;;;
Atakunmosa East;Ward 6 Odogbo;;Aguda Health Centre;;;;;
Atakunmosa East;Ward 6 Odogbo;;Ajido Health Centre;;;;;
Atakunmosa East;Ward 6 Odogbo;;Odogbo  Health Centre;;;;;
Atakunmosa East;Ward 7 Arowojobe;;Arewa Health Centre;;;;;
Atakunmosa East;Ward 7 Arowojobe;;Fajuke Health Centre;;;;;
Atakunmosa East;Ward 7 Arowojobe;; Arowojobe Health Centre;;;;;
Atakunmosa East;Ward 8 Sokoto;;Ogundele Health Centre;;;;;
Atakunmosa East;Ward 8 Sokoto;; Onigbogi Health Centre;;;;;
Atakunmosa East;Ward 8 Sokoto;; Sokoto Health Centre;;;;;
Atakunmosa East;Ward 9 Faforiji ;; Araromi Otokobo Health Centre;;;;;
Atakunmosa East;Ward 9 Faforiji ;;Erinsebija Health Centre;;;;;
Atakunmosa East;Ward 9 Faforiji ;;Ilu-Tuntun Health Centre;;;;;
Atakunmosa East;Ward 9 Faforiji ;;Faforiji Primary Health Centre;;;;;
Atakunmosa West;Atakunmosa West Ward 1;;Osu Comprehensive Health Centre;;;;;
Atakunmosa West;Atakunmosa West Ward 10;;Ifewara Health Centre;;;;;
Atakunmosa West;Atakunmosa West Ward 11;;Ogogo Doja Health Centre;;;;;
Atakunmosa West;Atakunmosa West Ward 11;;Ifewara Comprehensive Health Centre;;;;;
Atakunmosa West;Atakunmosa West Ward 2;;Balogun Health Centre;;;;;
Atakunmosa West;Atakunmosa West Ward 2;;Asawo Health Centre ;;;;;
Atakunmosa West;Atakunmosa West Ward 2;;Iloba Health Centre;;;;;
Atakunmosa West;Atakunmosa West Ward 2;;Iwaro Health Centre, ;;;;;
Atakunmosa West;Atakunmosa West Ward 3;;Osu Health Centre;;;;;
Atakunmosa West;Atakunmosa West Ward 4;;Iyere Health Centre;;;;;
Atakunmosa West;Atakunmosa West Ward 4;;Igila Health Centre;;;;;
Atakunmosa West;Atakunmosa West Ward 4;;Ibodi Health Centre;;;;;
Atakunmosa West;Atakunmosa West Ward 5;;Ijana Health Centre;;;;;
Atakunmosa West;Atakunmosa West Ward 5;;Igun Health Centre;;;;;
Atakunmosa West;Atakunmosa West Ward 5;;Epe Health Centre;;;;;
Atakunmosa West;Atakunmosa West Ward 6;;on Araromi Itagun Health Centre;;;;;
Atakunmosa West;Atakunmosa West Ward 6;;Itagunmodi Health Centre;;;;;
Atakunmosa West;Atakunmosa West Ward 7;;Oke Bode Health Centre;;;;;
Atakunmosa West;Atakunmosa West Ward 7;;Oke-Osin Health Centre;;;;;
Atakunmosa West;Atakunmosa West Ward 7;;Oko Ago Health Centre;;;;;
Atakunmosa West;Atakunmosa West Ward 7;;Laala Health Centre;;;;;
Atakunmosa West;Atakunmosa West Ward 7;;Abebeyun Health Centre;;;;;
Atakunmosa West;Atakunmosa West Ward 7;;Osunjela Health Centre;;;;;
Atakunmosa West;Atakunmosa West Ward 7;;Kajola Health Centre;;;;;
Atakunmosa West;Atakunmosa West Ward 8;;Inisa Health Centre;;;;;
Atakunmosa West;Atakunmosa West Ward 8;;Isotun Health Centre;;;;;
Atakunmosa West;Atakunmosa West Ward 9;;Ipoye Health Centre;;;;;
Atakunmosa West;Atakunmosa West Ward 9;;Ila-Ijesa Health Centre;;;;;
Atakunmosa West;Atakunmosa West Ward 9;;Isolo Health Centre;;;;;
Atakunmosa West;Atakunmosa West Ward 9;;Iloya Health Centre;;;;;
Boluwaduro;Ward 1 - Oke-Omi;;St Nicholas Catholic Hospital;;;;;
Boluwaduro;Ward 1 - Oke-Omi;;Oke-Omi Health Clinic;;;;;
Boluwaduro;Ward 10 - Iresi II;;Ikinfin Health Clinic;;;;;
Boluwaduro;Ward 10 - Iresi II;;Oju Eri Health Post;;;;;
Boluwaduro;Ward 10 - Iresi II;;Iresi II Model Primary Health Centre ;;;;;
Boluwaduro;Ward 2 - Oke-Ode;;Omi Eran Health Facility, Otan Ayegbaju;;;;;
Boluwaduro;Ward 2 - Oke-Ode;;Ile-Aro Health Post;;;;;
Boluwaduro;Ward 3 - Oke-Otan;;Ota-Ayegbaju Comprehensive Health Centre;;;;;
Boluwaduro;Ward 3 - Oke-Otan;;Imojigbon Health Post;;;;;
Boluwaduro;Ward 3 - Oke-Otan;;Staff Clinic;;;;;
Boluwaduro;Ward 4 - Igbajo 1 ;;Igbajo Comprehensive Health Centre;;;;;
Boluwaduro;Ward 4 - Igbajo 1 ;;DIVINE HOSPITAL;;;;;
Boluwaduro;Ward 4 - Igbajo 1 ;;Ayetoro Health Clinic;;;;;
Boluwaduro;Ward 5 - Igbajo 2 ;;Ibudokiriji Health Clinic;;;;;
Boluwaduro;Ward 5 - Igbajo 2 ;;Idoka Health Post;;;;;
Boluwaduro;Ward 6 - Igbajo 3 ;;Igbajo Maternity Centre;;;;;
Boluwaduro;Ward 6 - Igbajo 3 ;;Peete Health Clinic;;;;;
Boluwaduro;Ward 7 - Eripa ;;Eripa Maternity Centre;;;;;
Boluwaduro;Ward 8 - Oke Irun;;Oke-Irun Health Clinic;;;;;
Boluwaduro;Ward 9 - Iresi 1;;Iresi Comprehensive Health Centre;;;;;
Boluwaduro;Ward 9 - Iresi 1;;Iresi Maternity Centre;;;;;
Boripe;Boripe Ward 01;;MDG Health Facility;;;;;
Boripe;Boripe Ward 01;;Iragbiji Comprehensive Health Centre;;;;;
Boripe;Boripe Ward 01;;Abiye Maternity Centre;;;;;
Boripe;Boripe Ward 02;;Isale Ofa Mellinum Development Goal Clinic;;;;;
Boripe;Boripe Ward 03;;Police Clinic(Boripe);;;;;
Boripe;Boripe Ward 03;;Araromi Health Clinic (Boripe);;;;;
Boripe;Boripe Ward 03;;Egbeda MDG Clinic;;;;;
Boripe;Boripe Ward 03;;Idi-Ogungun Health Clinic;;;;;
Boripe;Boripe Ward 03;;Eleesun Health Clinic;;;;;
Boripe;Boripe Ward 03;;Aro Ayedaade Health Centre;;;;;
Boripe;Boripe Ward 03;;Iragbiji Oni-Oba Health Post,;;;;;
Boripe;Boripe Ward 03;;Odebudo Health Post;;;;;
Boripe;Boripe Ward 03;;Ayekale Health Clinic;;;;;
Boripe;Boripe Ward 04;;Oore Primary Health Centre.;;;;;
Boripe;Boripe Ward 04;;Isale Oyo  Primary Health Centre;;;;;
Boripe;Boripe Ward 05;;Aagba Health Clinic;;;;;
Boripe;Boripe Ward 05;;Jesus Power Maternity Home;;;;;
Boripe;Boripe Ward 06;;Ororuwo MDG Clinic;;;;;
Boripe;Boripe Ward 07;;Iso Ege Health Clinic;;;;;
Boripe;Boripe Ward 07;;Mercy Clinic;;;;;
Boripe;Boripe Ward 08;;Oke-Baale Health Post,;;;;;
Boripe;Boripe Ward 08;;Olokere Health Clinic;;;;;
Boripe;Boripe Ward 09;;Ore-Ofe Clinic;;;;;
Boripe;Boripe Ward 09;;Isale Asa Health Clinic;;;;;
Boripe;Boripe Ward 09;;Iree Comprehensive Health Centre;;;;;
Boripe;Boripe Ward 09;;UNICEF Iree;;;;;
Boripe;Boripe Ward 10;;Iree Model Primary Health Centre,;;;;;
Boripe;Boripe Ward 10;;Rainbow Medical Centre;;;;;
Boripe;Boripe Ward 10;;Oke-Ogi Health Clinic;;;;;
Boripe;Boripe Ward 11;;Oke Are Iree Health Clinic;;;;;
Ede North;Alusekere (5) Ward;;Owode Health Centre (Ede North);;;;;
Ede North;Alusekere (5) Ward;;Agodo Health Centre;;;;;
Ede North;Alusekere (5) Ward;;Iso Isu Primary Health Centre;;;;;
Ede North;Alusekere (5) Ward;;Adejuwon Health Centre;;;;;
Ede North;Alusekere (5) Ward;;Kajola Health Centre;;;;;
Ede North;Apaso (9) Ward;;Apaso Primary Health Centre;;;;;
Ede North;Asunmo (10) Ward;;Asunmo Health Clinic;;;;;
Ede North;Asunmo (10) Ward;;Karowosaye Maternity Home;;;;;
Ede North;Buari Isibo (8) Ward;;Oja-Timi Health Centre;;;;;
Ede North;Oloba Atapara (1) Ward;;Isale Oyeku Health Centre;;;;;
Ede North;Ologun Agbaakin (3) Ward;;Adodo Primary Health Centre;;;;;
Ede North;Olusokun (4) Ward;;Abere Health Clinic;;;;;
Ede North;Olusokun (4) Ward;;Olusokun Health Centre;;;;;
Ede North;Sabo Agbongbe 1 (6) Ward;;Osun Agbeni Health Centre;;;;;
Ede North;Sabo Agbongbe 2 (7) Ward;;Oke-Gada Health Centre;;;;;
Ede North;Sabo Agbongbe 2 (7) Ward;;Alaafia Maternity Home;;;;;
Ede North;Sabo Agbongbe 2 (7) Ward;;National Model Primary Health Centre;;;;;
Ede North;Sagba Abogunde (2) Ward;;Sagba Health Centre;;;;;
Ede South;Alajue 1 Ward;;Alpha Hospital;;;;;
Ede South;Alajue 1 Ward;;Ede dimeji Primary Health Centre;;;;;
Ede South;Alajue 1 Ward;;Asi Asifa Hospital;;;;;
Ede South;Alajue 1 Ward;;Agbonran Primary Health Centre;;;;;
Ede South;Alajue 1 Ward;;Peace Cottage Hospital;;;;;
Ede South;Alajue 1 Ward;;Oteda Village  Primary Health Centre;;;;;
Ede South;Alajue 1 Ward;;The Muslim Hospital;;;;;
Ede South;Alajue 1 Ward;;Ede State Hospital;;;;;
Ede South;Alajue 2 Ward;;Aminiwon Primary Health Centre;;;;;
Ede South;Alajue 2 Ward;;Agbinpa Village Primary Health Centre;;;;;
Ede South;Alajue 2 Ward;;Alajue Primary Health Centre;;;;;
Ede South;Babanla Gate Ward 3;;Obada Primary Health Centre;;;;;
Ede South;Babasanya Ward 4;;Babasanya Primary Health Centre;;;;;
Ede South;Jagunjagun Ward;;Ronbay Clinic;;;;;
Ede South;Jagunjagun Ward;;Jagunjagun Primary Health Centre;;;;;
Ede South;Kuye Ward ;;Kuye Primary Health Centre;;;;;
Ede South;Loogun Egbeda Ward;;Loogun Egbeda Primary Health Centre;;;;;
Ede South;Loogun Egbeda Ward;;Loogun Araromi Primary Health Centre;;;;;
Ede South;Olodan Ward 9;;Olodan Primary Health Centre;;;;;
Ede South;Olodan Ward 9;;Idi-Oro Primary Health Centre;;;;;
Ede South;Olodan Ward 9;;Arola Primary Health Centre;;;;;
Ede South;Olodan Ward 9;;Gaga Primary Health Centre;;;;;
Ede South;Oloki/Akoda Ward;;Redeemer Hospital;;;;;
Ede South;Oloki/Akoda Ward;;Oloki Village Primary Health Centre;;;;;
Ede South;Oloki/Akoda Ward;;Akoda Primary Health Centre;;;;;
Ede South;Oloki/Akoda Ward;;Ogobi Village Primary Health Centre;;;;;
Ede South;Sekona Ward;;Egbeda Ereosun Primary Health Centre;;;;;
Ede South;Sekona Ward;;Model Primary Health Centre;;;;;
Ede South;Sekona Ward;;Sekona Primary Health Centre,;;;;;
Egbedore;Ara Ward 1;;Ara Primary Health Centre;;;;;
Egbedore;Ara Ward 2;;Olobu Ara Health Post;;;;;
Egbedore;Ara Ward 2;;Alaasan Health Post;;;;;
Egbedore;Awo 1 Ward;;Awo Comprehensive Health Centre;;;;;
Egbedore;Awo 1 Ward;;Awo Primary Health Centre;;;;;
Egbedore;Egbedore Ward 10;;Oke Sapo Health Post;;;;;
Egbedore;Egbedore Ward 10;;Boripe Health Clinic;;;;;
Egbedore;Egbedore Ward 10;;Woru Health Post;;;;;
Egbedore;Egbedore Ward 10;;Okinni Primary Health Centre;;;;;
Egbedore;Egbedore Ward 10;;Ofatedo Health Clinic;;;;;
Egbedore;Egbedore Ward 10;;Olofa Health Post;;;;;
Egbedore;Egbedore Ward 4;;Ido-Osun Primary Health Centre;;;;;
Egbedore;Egbedore Ward 4;;Egbedi Health Clinic;;;;;
Egbedore;Egbedore Ward 5;;Iragberi Primary Health Centre;;;;;
Egbedore;Egbedore Ward 6;;Iragberi Comprehensive Health Centre;;;;;
Egbedore;Egbedore Ward 7;;Iwoye Health Post;;;;;
Egbedore;Egbedore Ward 7;;Ilawe Health Post;;;;;
Egbedore;Egbedore Ward 7;;Ekuro Health Clinic;;;;;
Egbedore;Egbedore Ward 8;;Ikotun Health Clinic;;;;;
Egbedore;Egbedore Ward 9;;Ojoo Health Centre;;;;;
Egbedore;Iwoye/Ekuro/Ido (7) Ward;;Onward Specialist Hospital;;;;;
Egbedore;Iwoye/Ekuro/Ido (7) Ward;;Ido Health Clinic;;;;;
Ejigbo;Ejigbo Ward 1;;Baptist Hospital;;;;;
Ejigbo;Ejigbo Ward 1;;Sakasaka Health Post;;;;;
Ejigbo;Ejigbo Ward 1;;Ike Olu Hospital;;;;;
Ejigbo;Ejigbo Ward 1;;Life Hospital and Maternity Centre;;;;;
Ejigbo;Ejigbo Ward 1;;Ibukunoluwa Nursing and Maternity Home;;;;;
Ejigbo;Ejigbo Ward 10;;Igbon Primary Health Centre;;;;;
Ejigbo;Ejigbo Ward 10;;Ika Primary Health Centre;;;;;
Ejigbo;Ejigbo Ward 10;;Inisa Primary Health Centre (Ejigbo);;;;;
Ejigbo;Ejigbo Ward 10;;Aato Primary Health Centre;;;;;
Ejigbo;Ejigbo Ward 10;;Ijimoba Primary Health Centre;;;;;
Ejigbo;Ejigbo Ward 11;;Inisha Edoro Health Clinic;;;;;
Ejigbo;Ejigbo Ward 11;;Idi Agba Health Clinic;;;;;
Ejigbo;Ejigbo Ward 11;;Alaba-Meta Health Post;;;;;
Ejigbo;Ejigbo Ward 11;;Olorin Primary Health Care;;;;;
Ejigbo;Ejigbo Ward 11;;Osuntedo Health Post;;;;;
Ejigbo;Ejigbo Ward 11;;Afeake  Health Post,;;;;;
Ejigbo;Ejigbo Ward 11;;Songbe Primary Health Centre;;;;;
Ejigbo;Ejigbo Ward 11;;Ayegunle Health Centre;;;;;
Ejigbo;Ejigbo Ward 2;;Baptist Hospital Ejigbo;;;;;
Ejigbo;Ejigbo Ward 2;;Eku Osolo Health Centre;;;;;
Ejigbo;Ejigbo Ward 2;;Isale osolo Health Post;;;;;
Ejigbo;Ejigbo Ward 2;;Ejigbo  General Health Centre, ;;;;;
Ejigbo;Ejigbo Ward 3;;Popo Primary Health Centre;;;;;
Ejigbo;Ejigbo Ward 3;;Isale Ooye Health Centre;;;;;
Ejigbo;Ejigbo Ward 4;;Bibitayo Hospital;;;;;
Ejigbo;Ejigbo Ward 4;;Oke-Balogun Primary Health Centre;;;;;
Ejigbo;Ejigbo Ward 4;;Oke Odo Primary Health Centre;;;;;
Ejigbo;Ejigbo Ward 5;;Ayegbogbo Primary Health Centre;;;;;
Ejigbo;Ejigbo Ward 5;;Oke Oyo Primary Health Care;;;;;
Ejigbo;Ejigbo Ward 6;;Agurodo Primary Health Centre;;;;;
Ejigbo;Ejigbo Ward 6;;Aye Health Centre;;;;;
Ejigbo;Ejigbo Ward 6;;Olla Primary Health Centre;;;;;
Ejigbo;Ejigbo Ward 7;;Owu-Ile Health Post;;;;;
Ejigbo;Ejigbo Ward 7;;Ifeodan Primary Health Centre;;;;;
Ejigbo;Ejigbo Ward 7;;Oke Afin Health Centre;;;;;
Ejigbo;Ejigbo Ward 8;;Masifa Primary Health Centre;;;;;
Ejigbo;Ejigbo Ward 8;;Oguro Primary Health Centre;;;;;
Ejigbo;Ejigbo Ward 9;;Isoko Primary Health Centre;;;;;
Ejigbo;Ejigbo Ward 9;;Isundurin Primary Health Centre;;;;;
Ejigbo;Ejigbo Ward 9;;Iwata Health Post;;;;;
Ejigbo;Ejigbo Ward 9;;Ilawo Primary Health Centre;;;;;
Ejigbo;Ejigbo Ward 9;;Model Primary Health Centre;;;;;
Ife Central;Akarabata Ward;;Akarabata Primary Health Centre;;;;;
Ife Central;Akarabata Ward;;Seventh Day Advantist;;;;;
Ife Central;Ilare 1 Ward;;Mbabi-nbayo Primary Health Centre;;;;;
Ife Central;Ilare 1 Ward;;Igboya Primary Health Centre;;;;;
Ife Central;Ilare 1 Ward;;Mercyland Clinic;;;;;
Ife Central;Ilare 2 Ward;;Fajuyi Primary Health Centre;;;;;
Ife Central;Ilare 2 Ward;;Sabo Olaoluwa Primary Health Centre;;;;;
Ife Central;Ilare 2 Ward;;Arubiewe Comprehensive Health Centre;;;;;
Ife Central;Ilare 2 Ward;;Oluwalosolape Hospital;;;;;
Ife Central;Ilare 3 Ward;;Enuwa Primary Health Centre;;;;;
Ife Central;Ilare 3 Ward;;Ile Kenani Primary Health Centre;;;;;
Ife Central;Iremo 1 Ward;;Abagbooro Primary Health Centre;;;;;
Ife Central;Iremo 1 Ward;;Olunife Hospital;;;;;
Ife Central;Iremo 1 Ward;;Obafemi Awolowo University Campus;;;;;
Ife Central;Iremo 2 Ward;;Living Hope Hospital;;;;;
Ife Central;Iremo 2 Ward;;Eleyele Primary Health Centre;;;;;
Ife Central;Iremo 2 Ward;;Eleyele OAUTHC;;;;;
Ife Central;Iremo 3 Ward;;Oja Titun Primary Health Centre;;;;;
Ife Central;Iremo 4 Ward;;Oba Aderemi Primary Health Centre;;;;;
Ife Central;Moore Ojaja Ward;;Judors Specialist Hospital;;;;;
Ife Central;Moore Ojaja Ward;;Seminary Primary Health Centre;;;;;
Ife Central;Moore Ojaja Ward;;Police Clinic;;;;;
Ife Central;Moore Ojaja Ward;;Papa Osofa Hospital;;;;;
Ife Central;Moore Ojaja Ward;;Iredapo Primary Health Centre;;;;;
Ife Central;Moore Ojaja Ward;;Gbalefefe Primary Health Centre;;;;;
Ife East;Ilode 1 Ward;;Odowara Health Centre;;;;;
Ife East;Ilode 2 Ward;;Omitoto Health Centre;;;;;
Ife East;Modakeke 1 Ward;;Akala Village Primary Health Centre;;;;;
Ife East;Modakeke 1 Ward;;Boosa Health Centre;;;;;
Ife East;Modakeke 1 Ward;;Ade-Owo Health Centre;;;;;
Ife East;Modakeke 1 Ward;;The Merciful Hospital;;;;;
Ife East;Modakeke 1 Ward;;Egbedore Health Centre;;;;;
Ife East;Modakeke 1 Ward;;Oke Bola Primary Health Centre;;;;;
Ife East;Modakeke 2 Ward;;Oke-Bode Health Centre (Ife East);;;;;
Ife East;Modakeke 2 Ward;;Itasin Health Centre;;;;;
Ife East;Modakeke 2 Ward;;Oloyede Health Centre;;;;;
Ife East;Modakeke 2 Ward;;Koola Village Primary Health Centre;;;;;
Ife East;Modakeke 3 Ward;;Olorunsogo Primary Health Centre;;;;;
Ife East;Modakeke 3 Ward;;Oke-Otubu Health Centre;;;;;
Ife East;Modakeke 3 Ward;;Akarabata Health Centre;;;;;
Ife East;Moore Ward;;Ajigbore Health Centre;;;;;
Ife East;Moore Ward;;Agric. Opa Primary Health Centre;;;;;
Ife East;Moore Ward;;Oja Ife Primary Health Centre;;;;;
Ife East;Moore Ward;;Moore Health Centre;;;;;
Ife East;Moore Ward;;Titilope Model Health Centre;;;;;
Ife East;Moore Ward;;Oluwaloni Hospital;;;;;
Ife East;Okerewe 1 Ward;;Iloro Health Centre;;;;;
Ife East;Okerewe 1 Ward;;State Hospital;;;;;
Ife East;Okerewe 2 Ward;;Gbodo Health Centre;;;;;
Ife East;Okerewe 3 Ward;;Mosafejo Primary Health Centre;;;;;
Ife East;Okerewe 3 Ward;;Ifelodun Health Centre;;;;;
Ife East;Yekemi Ward;;Abata Egba Health Centre;;;;;
Ife East;Yekemi Ward;;Iyanfoworogi Health Centre;;;;;
Ife East;Yekemi Ward;;Wanikin Health Centre;;;;;
Ife East;Yekemi Ward;;Yekemi Health Centre;;;;;
Ife North;Asipa/Akin Ward;;Eyentanle Health Post;;;;;
Ife North;Asipa/Akin Ward;;Asipa Health Centre;;;;;
Ife North;Asipa/Akin Ward;;Akinlalu Primary Health Centre;;;;;
Ife North;Edun 1 Ward;;Edunabon Health Centre;;;;;
Ife North;Edun 1 Ward;;Model Primary Health Centre Edunabon;;;;;
Ife North;Edun 2 Ward;;Edunabon Comprehensive Health Centre;;;;;
Ife North;Famia Ward;;Famia Health Centre;;;;;
Ife North;Ipetu 1 Ward;;FGGC HEALTH CENTRE;;;;;
Ife North;Ipetu 1 Ward;;Our Lady of Lourders Hospital;;;;;
Ife North;Ipetu 1 Ward;;Sooko Health Centre;;;;;
Ife North;Ipetu 1 Ward;;Model Primary Health Centre Ipetumodu;;;;;
Ife North;Ipetu 2 Ward;;JIM STEVE HOSPITAL;;;;;
Ife North;Ipetu 2 Ward;;Baaku Health Centre;;;;;
Ife North;Ipetu 2 Ward;;Okooko Primary Health Centre;;;;;
Ife North;Ipetu 2 Ward;;Ipetumodu General Hospital;;;;;
Ife North;Moro Ward;;Eleweran Primary Health Centre;;;;;
Ife North;Moro Ward;;Eleso Health Post;;;;;
Ife North;Moro Ward;;Orita Moro Tuberculosis and Leprosy Control Unit;;;;;
Ife North;Moro Ward;;Olukotun Health Post;;;;;
Ife North;Moro Ward;;Moro Health Centre;;;;;
Ife North;Oyere 1 Ward;;Sagi Health Centre;;;;;
Ife North;Oyere 1 Ward;;Onibambu Health Centre;;;;;
Ife North;Oyere 1 Ward;;Adukeesi Health Centre;;;;;
Ife North;Oyere 2 Ward;;Oyere Aborisade Health Post;;;;;
Ife North;Oyere 2 Ward;;Atowo Health Centre;;;;;
Ife North;Oyere 2 Ward;;Salami Health Centre;;;;;
Ife North;Oyere 2 Ward;;Amukegun Health Post;;;;;
Ife North;Yakooyo Ward;;Yakooyo Primary Health Centre;;;;;
Ife South;Aare Ward;;Ifetedo Primary Health Centre;;;;;
Ife South;Aare Ward;;Amula Primary Health Centre;;;;;
Ife South;Aare Ward;;General Hospital Ifetedo;;;;;
Ife South;Aare Ward;;Owode Primary Health Centre;;;;;
Ife South;Aare Ward;;Ose Arowolo Primary Health Centre;;;;;
Ife South;Abiri Ogudu Ward;;Aba Ooni Primary Health Centre;;;;;
Ife South;Abiri Ogudu Ward;;Agborogboro Primary Health Centre;;;;;
Ife South;Aye Ward;;Ogbaagba Primary Health Centre;;;;;
Ife South;Aye Ward;;Aye-Oba Community Health Centre;;;;;
Ife South;Ayesan Ward;;Egbejoda Primary Health Centre;;;;;
Ife South;Ayesan Ward;;Idi-Obi Health Centre;;;;;
Ife South;Ikija 1 Ward;;Mosafejo Primary Health Centre;;;;;
Ife South;Ikija 2 Ward;;Ominla Primary Health Centre;;;;;
Ife South;Ikija 2 Ward;;Rabiu Primary Health Centre;;;;;
Ife South;Kere Ward;;Amu Ogunlade Primary Health Centre;;;;;
Ife South;Kere Ward;;Araromi Oke-Odo Primary Health Centre;;;;;
Ife South;Kere Ward;;Alabakan Primary Health Centre;;;;;
Ife South;Kere Ward;;Camp Ogunleye Primary Health Centre;;;;;
Ife South;Kere Ward;;Olomu Oja Primary Health Centre;;;;;
Ife South;Mefoworade Ward;;Araromi Primary Health Centre (Ife South);;;;;
Ife South;Mefoworade Ward;;Omifunfun Primary Health Centre;;;;;
Ife South;Mefoworade Ward;;Agbaje Obajoda Primary Health Centre;;;;;
Ife South;Mefoworade Ward;;Onigbodogi Community Health Centre;;;;;
Ife South;Mefoworade Ward;;Mefoworade Primary Health Centre;;;;;
Ife South;Oke Owena Ward;;Yinmi Oja Primary Health Centre;;;;;
Ife South;Oke Owena Ward;;Odesan Primary Health Centre;;;;;
Ife South;Olode Ward;;Odemuiwa Primary Health Centre;;;;;
Ife South;Olode Ward;;Olusaanu Hospital;;;;;
Ife South;Olode Ward;;Adeolu Nursing and Maternity;;;;;
Ife South;Olode Ward;;Olode Primary Health Centre;;;;;
Ife South;Olode Ward;;Olode Comprehensive Health Centre;;;;;
Ife South;Osi Ward;;Ara-Joshua Primary Health Centre;;;;;
Ife South;Osi Ward;;Osi Community Health Centre;;;;;
Ife South;Osi Ward;;Isoya Community Health Centre;;;;;
Ifedayo;Ifedayo Ward 1;;Asaoye Primary Health Centre;;;;;
Ifedayo;Ifedayo Ward 1;;Os Ayegunle Pry Health Centre;;;;;
Ifedayo;Ifedayo Ward 1;;Elemoogun Primary Health Centre;;;;;
Ifedayo;Ifedayo Ward 1;;Oyi-Adio Primary Health Centre;;;;;
Ifedayo;Ifedayo Ward 1;;Obasinkin Primary Health Centre;;;;;
Ifedayo;Ifedayo Ward 1;;Oyi-Adunni Primary Health Centre;;;;;
Ifedayo;Ifedayo Ward 1;;Abalagemo Primary Health Centre;;;;;
Ifedayo;Ifedayo Ward 10;;Ora Comprehensive Health Centre;;;;;
Ifedayo;Ifedayo Ward 10;;Temidire Primary Health Centre;;;;;
Ifedayo;Ifedayo Ward 2;;Ayetoro Primary Health Centre;;;;;
Ifedayo;Ifedayo Ward 2;;Idi-Odan Primary Health Centre (Ifedayo);;;;;
Ifedayo;Ifedayo Ward 2;;Jagilegbo Primary Health Centre (Ifedayo);;;;;
Ifedayo;Ifedayo Ward 2;;Alagbede Primary Health Centre;;;;;
Ifedayo;Ifedayo Ward 2;;Ada-Obalumo Primary Health Centre;;;;;
Ifedayo;Ifedayo Ward 3;;Isinmi-Olootu Primary Health Centre;;;;;
Ifedayo;Ifedayo Ward 3;;Isinmi Enle;;;;;
Ifedayo;Ifedayo Ward 3;;Oteu Primary Health Centre;;;;;
Ifedayo;Ifedayo Ward 4;;Ila-Orangun Primary Health Centre;;;;;
Ifedayo;Ifedayo Ward 6;;Idi-Awewe Primary Health Centre;;;;;
Ifedayo;Ifedayo Ward 6;;Ayedaade Primary Health Centre;;;;;
Ifedayo;Ifedayo Ward 6;;Oke-Ila Comprehensive Health Centre;;;;;
Ifedayo;Ifedayo Ward 6;;Ejifunmi Primary Health Centre;;;;;
Ifedayo;Ifedayo Ward 6;;Ilupeju Primary Health Centre;;;;;
Ifedayo;Ifedayo Ward 7;;Ora Primary Health Centre;;;;;
Ifedayo;Ifedayo Ward 7;;Asaoni MDGs;;;;;
Ifedayo;Obale Ward 5;;Oke Osun Primary Health Centre;;;;;
Ifelodun;Ward 1 - Oke-Iroko;;Oke-Iroko Primary Health Centre;;;;;
Ifelodun;Ward 10 - Iba 2;;Iba Primary Health Centre (Ijabe Rd);;;;;
Ifelodun;Ward 11 - Obaagun;;Omotayo Clinic;;;;;
Ifelodun;Ward 11 - Obaagun;;Obaagun Primary Health Centre;;;;;
Ifelodun;Ward 11 - Obaagun;;Ibukun-Olu Hospital;;;;;
Ifelodun;Ward 11 - Obaagun;;Anu-Olu Maternity;;;;;
Ifelodun;Ward 12 - Eko-Ende;;Araromi Hospital;;;;;
Ifelodun;Ward 12 - Eko-Ende;;Eko Ajala Health Post;;;;;
Ifelodun;Ward 12 - Eko-Ende;;Okoye Kola Hospital, Ikirun;;;;;
Ifelodun;Ward 12 - Eko-Ende;;Eko ende Primary Health Centre;;;;;
Ifelodun;Ward 2 - Oke Amala;;Ayo Olu Hospital;;;;;
Ifelodun;Ward 2 - Oke Amala;;Ope-Olu Maternity Home;;;;;
Ifelodun;Ward 2 - Oke Amala;;Oke Amola Health Post;;;;;
Ifelodun;Ward 3 - Alududun;;Orisa Elejin Primary Health Centre;;;;;
Ifelodun;Ward 3 - Alududun;;Owode-Idiose Primary Health Centre;;;;;
Ifelodun;Ward 3 - Alududun;;Ikirun State Hospital;;;;;
Ifelodun;Ward 4 - Oke-Afo;;Oke Afo Health Clinic;;;;;
Ifelodun;Ward 5 - Dagbolu;;Barika Mat. Home;;;;;
Ifelodun;Ward 5 - Dagbolu;;Dagbolu Health Clinic;;;;;
Ifelodun;Ward 5 - Dagbolu;;Shifa Medical Centre;;;;;
Ifelodun;Ward 6 - Isale-Ikirun;;Moboreje Primary Health Centre;;;;;
Ifelodun;Ward 6 - Isale-Ikirun;;Central OPD Health Facility;;;;;
Ifelodun;Ward 6 - Isale-Ikirun;;Mobolaji Hospital;;;;;
Ifelodun;Ward 6 - Isale-Ikirun;;Akinorun Primary Health Centre;;;;;
Ifelodun;Ward 6 - Isale-Ikirun;;Titilope Hospital (Ifelodun);;;;;
Ifelodun;Ward 7 - Oke-Ba;;Emiloju Primary Health Centre;;;;;
Ifelodun;Ward 7 - Oke-Ba;;Eweta Health Clinic;;;;;
Ifelodun;Ward 8 - Olonde;;Olonde Primary Health Centre;;;;;
Ifelodun;Ward 9 - Iba 1;;Iba Health Clinic and Maternity;;;;;
Ila;Ila Ward 1;;Igbonubi Health Post;;;;;
Ila;Ila Ward 1;;Gaa Obalumo Health Facility;;;;;
Ila;Ila Ward 1;;Oluwaseun Nursing and Maternity Home;;;;;
Ila;Ila Ward 1;;Ita Sapon Health Facility;;;;;
Ila;Ila Ward 10;;Isaac Adebayo Health Facility;;;;;
Ila;Ila Ward 11;;Ajaba Primary Health Centre;;;;;
Ila;Ila Ward 11;;Idi Ogbagbara Primary Health Centre;;;;;
Ila;Ila Ward 11;;Ejigbo Orangun Primary Health Centre;;;;;
Ila;Ila Ward 11;;Edemosi Primary Health Centre;;;;;
Ila;Ila Ward 2;;Adekunle Primary Health Centre;;;;;
Ila;Ila Ward 3;;Late Oyinlola Primary Health Centre;;;;;
Ila;Ila Ward 3;;Dindin Obaloja Primary Health Centre;;;;;
Ila;Ila Ward 5;;Ore-Ofe Health Facility;;;;;
Ila;Ila Ward 5;;Stadium Primary Health Centre;;;;;
Ila;Ila Ward 5;;Obasinkin Primary Health Centre;;;;;
Ila;Ila Ward 6;;Olorunda Primary Health Centre;;;;;
Ila;Ila Ward 6;;Idi-Agbon Health Facility;;;;;
Ila;Ila Ward 6;;Iperin Dagbolu Health Centre;;;;;
Ila;Ila Ward 8;;Adebisi Jayeola Primary Health Centre;;;;;
Ila;Ila Ward 9;;Oke Ede Primary Health Centre;;;;;
Ilesha East;Anaye Ward;;Anaye Health Centre;;;;;
Ilesha East;Bolorunduro Ward;;Adenle Memorial Hospital;;;;;
Ilesha East;Bolorunduro Ward;;Oke Iro Primary Health Centre;;;;;
Ilesha East;Bolorunduro Ward;;Wesley Guild Hospital;;;;;
Ilesha East;Igbaye Ward;;Igbaiye Maternity Centre;;;;;
Ilesha East;Ijamo Ward;;Ijamo Maternity Centre;;;;;
Ilesha East;Ijoka Ward;;Ijoka Health Post;;;;;
Ilesha East;Ijoka Ward;;Multipurpose Primary Health Centre;;;;;
Ilesha East;Ijoka Ward;;Abiola Avenue Maternity Clinic;;;;;
Ilesha East;Imo Ward;;Halleluyah Health Centre;;;;;
Ilesha East;Imo Ward;;Omi Asoro Health Post;;;;;
Ilesha East;Imo Ward;;Imo Primary Health Centre;;;;;
Ilesha East;Irojo Ward;;St. Anthony Clinic;;;;;
Ilesha East;Irojo Ward;;Ilerin Health Post;;;;;
Ilesha East;Irojo Ward;;Irojo Primary Health Centre;;;;;
Ilesha East;Irojo Ward;;Sabo Primary Health Centre;;;;;
Ilesha East;Irojo Ward;;TBL Clinic Irojo;;;;;
Ilesha East;Irojo Ward;;Orisunbare MDG;;;;;
Ilesha East;Itisin/Ilemo Ward;;Ilemo/Itisin Health Post;;;;;
Ilesha East;Oke-Ooye Ward;;Oke Ooye Maternity Centre;;;;;
Ilesha East;Oke-Opo Ward;;Ido Ijesha Primary Health Care;;;;;
Ilesha West;Adeti (8) Ward;;Adeti Dispensary;;;;;
Ilesha West;Aragan (6) Ward;;Ikoyi Primary Health Centre;;;;;
Ilesha West;Aragan (6) Ward;;Oromu Primary Health Centre;;;;;
Ilesha West;Aragan (6) Ward;;Ikoti Primary Health Centre;;;;;
Ilesha West;Egbe-idi (2) Ward;;Egbeidi Maternity Centre;;;;;
Ilesha West;Egbe-idi (2) Ward;;Ajanaku Primary Health Centre;;;;;
Ilesha West;Egbe-idi (2) Ward;;Ireti Ayo Primary Health Centre;;;;;
Ilesha West;Ereja (9) Ward;;Ereja Primary Health Care;;;;;
Ilesha West;Ereja (9) Ward;;Chest Clinic;;;;;
Ilesha West;Igbogi (3) Ward;;Isinkin Primary Health Centre;;;;;
Ilesha West;Igbogi (3) Ward;;Holy Trinity Hospital;;;;;
Ilesha West;Igbogi (3) Ward;;Igbogi Health Centre;;;;;
Ilesha West;Ilaje (7) Ward;;Babatolu Clinic;;;;;
Ilesha West;Ilaje (7) Ward;;Ilesa State Hospital;;;;;
Ilesha West;Ilaje (7) Ward;;Rottoy Maternity Home;;;;;
Ilesha West;Ilaje (7) Ward;;Irebami Health Centre;;;;;
Ilesha West;Ilaje (7) Ward;;Ilaje-Ile MDGs;;;;;
Ilesha West;Ilaje (7) Ward;;Ilaje Maternity Centre;;;;;
Ilesha West;Ilaje (7) Ward;;Imadin Primary Health Centre;;;;;
Ilesha West;Ilaje (7) Ward;;Oke Omiru MDGs;;;;;
Ilesha West;Isokun (5) Ward;;Onala Primary Health Centre;;;;;
Ilesha West;Isokun (5) Ward;;Ogo-Oluwa Maternity Home;;;;;
Ilesha West;Isokun (5) Ward;;ALGON Hospital;;;;;
Ilesha West;Isokun (5) Ward;;Isokun Maternity Centre;;;;;
Ilesha West;Isokun (5) Ward;;Concord Primary Health Centre;;;;;
Ilesha West;Isokun (5) Ward;;Victoria Nursing Home;;;;;
Ilesha West;Isokun (5) Ward;;Mojisola Maternity Centre;;;;;
Ilesha West;Itaakogun - Ward 1;;Orinkinran Primary Health Centre;;;;;
Ilesha West;Itaakogun - Ward 1;;Olive Medical Centre;;;;;
Ilesha West;Ita-Ofa (4) Ward;;Idasa Primary Health Centre;;;;;
Ilesha West;Oke-Iyin (10) Ward;;Oke-Iyin Maternity Centre;;;;;
Irepodun;Irepodun Ward 1;;Olobu Ilobu Primary Health Centre;;;;;
Irepodun;Irepodun Ward 10;;Oloyan Primary Health Centre;;;;;
Irepodun;Irepodun Ward 11;;Oke-Ila Primary Health Centre;;;;;
Irepodun;Irepodun Ward 2;;Anwo Primary Health Centre;;;;;
Irepodun;Irepodun Ward 2;;MDG;;;;;
Irepodun;Irepodun Ward 3;;Anu-Olu Hospital;;;;;
Irepodun;Irepodun Ward 3;;Kuelu Primary Health Centre;;;;;
Irepodun;Irepodun Ward 4;;Gbobamu Primary Health Centre;;;;;
Irepodun;Irepodun Ward 4;;Ayepe PHC;;;;;
Irepodun;Irepodun Ward 4;;Aromiwe Primary Health Centre;;;;;
Irepodun;Irepodun Ward 5;;Konda Comprehensive Health Centre;;;;;
Irepodun;Irepodun Ward 6;;Oke-Eran Primary Health Centre;;;;;
Irepodun;Irepodun Ward 6;;Apiponroro Primary Health Centre;;;;;
Irepodun;Irepodun Ward 6;;Opapa PHC;;;;;
Irepodun;Irepodun Ward 7;;Afolu Primary Health Centre;;;;;
Irepodun;Irepodun Ward 7;;Oke Awesin Primary Health Centre;;;;;
Irepodun;Irepodun Ward 8;;Eyingbo Osun Primary Health Centre;;;;;
Irepodun;Irepodun Ward 9;;Alamo Primary Health Centre;;;;;
Irepodun;Irepodun Ward 9;;Arije Primary Health Centre;;;;;
Irewole;Irewole Ward 1;;Moringbere;;;;;
Irewole;Irewole Ward 1;;Jagun Health Centre;;;;;
Irewole;Irewole Ward 1;;Oluofinrin Primary Health Care;;;;;
Irewole;Irewole Ward 10;;Majeroku Health Post;;;;;
Irewole;Irewole Ward 10;;Balogun Health Post;;;;;
Irewole;Irewole Ward 10;;Wasinmi Health Post;;;;;
Irewole;Irewole Ward 11;;Ayetoro Health Post (Irewole);;;;;
Irewole;Irewole Ward 11;;Odeyinka Model;;;;;
Irewole;Irewole Ward 11;;Ayedaade Oko Primary Health Centre;;;;;
Irewole;Irewole Ward 11;;Atabintin Health Centre;;;;;
Irewole;Irewole Ward 11;;Odeyinka Health Centre;;;;;
Irewole;Irewole Ward 11;;Akinropo Health Post;;;;;
Irewole;Irewole Ward 11;;Moro Primary Health Care;;;;;
Irewole;Irewole Ward 11;;Omu-Olohunde Primary Health Centre;;;;;
Irewole;Irewole Ward 11;;Alaha Health Post;;;;;
Irewole;Irewole Ward 3;;Sagba Oluofin Maternity Centre;;;;;
Irewole;Irewole Ward 3;;Agbora Primary Health Centre;;;;;
Irewole;Irewole Ward 5;;Ako Primary Health Centre;;;;;
Irewole;Irewole Ward 5;;Ikire General Hospital;;;;;
Irewole;Irewole Ward 6;;Fidiwo Health Centre;;;;;
Irewole;Irewole Ward 6;;Emmanuel Hospital;;;;;
Irewole;Irewole Ward 7;;Oke Ada Health Centre;;;;;
Irewole;Irewole Ward 7;;Islamoyat Health Post;;;;;
Irewole;Irewole Ward 7;;Omoda Health Centre;;;;;
Irewole;Irewole Ward 8;;Igiidu Health Centre;;;;;
Irewole;Irewole Ward 8;;Ayedaade Health Centre;;;;;
Irewole;Irewole Ward 8;;Ebunla Health Post;;;;;
Irewole;Irewole Ward 8;;Molarere Health Centre;;;;;
Irewole;Irewole Ward 9;;Marakoitan Maternity Home;;;;;
Irewole;Irewole Ward 9;;Atile Health Post;;;;;
Isokan;Ward 02- Oloke;;Ikoyi Primary Health Centre;;;;;
Isokan;Ward 03 - Abiri;;Asejire Primary Health Centre;;;;;
Isokan;Ward 03 - Abiri;;Adesina Primary Health Centre;;;;;
Isokan;Ward 03 - Abiri;;Ife-olu Maternity Home;;;;;
Isokan;Ward 03 - Abiri;;Oluseun Hospital;;;;;
Isokan;Ward 04 - Oranran Ward;;Mowooba Health Post;;;;;
Isokan;Ward 04 - Oranran Ward;;Oranran Primary Health Centre;;;;;
Isokan;Ward 04 - Oranran Ward;;Mugo Health Post;;;;;
Isokan;Ward 04 - Oranran Ward;;Olooro Health Post;;;;;
Isokan;Ward 04 - Oranran Ward;;Abidemi Health Post;;;;;
Isokan;Ward 05 - Idogun Ward;;Olokuta Health Post;;;;;
Isokan;Ward 05 - Idogun Ward;;Lasegba Health Post;;;;;
Isokan;Ward 06 - Alapomu 1 Ward;;Modupe Medical Centre;;;;;
Isokan;Ward 06 - Alapomu 1 Ward;;Apomu Primary Health Centre;;;;;
Isokan;Ward 07 - Alapomu 2 Ward;;Oke-Oko Health Centre;;;;;
Isokan;Ward 08 - Mongimangi Ward;;Oluyoro Catholic Hospital;;;;;
Isokan;Ward 08 - Mongimangi Ward;;Modupe Model Health Centre;;;;;
Isokan;Ward 08 - Mongimangi Ward;;Oke-Alfa Primary Health Centre;;;;;
Isokan;Ward 09 - Oosa Adifa Ward;;Apomu Comprehensive Health Centre;;;;;
Isokan;Ward 09 - Oosa Adifa Ward;;Olubisi Maternity Centre;;;;;
Isokan;Ward 10 - Awala 1;;Olode Ayope Mat. Centre;;;;;
Isokan;Ward 10 - Awala 1;;Agba Ogun Health Centre;;;;;
Isokan;Ward 10 - Awala 1;;Egbeda-Oko Primary Health Centre;;;;;
Isokan;Ward 10 - Awala 1;;Okodowo Primary Health Centre;;;;;
Isokan;Ward 10 - Awala 1;;Awala 1 Primary Health Centre;;;;;
Isokan;Ward 11 - Awala 2;;Ayepe Primary Health Centre;;;;;
Isokan;Ward 11 - Awala 2;;Oosa Primary Health Centre;;;;;
Isokan;Ward 11 - Awala 2;;Abatisa Primary Health Centre;;;;;
Iwo;Gidigbo 1 Ward;;Monsinola Health Clinic;;;;;
Iwo;Gidigbo 2 Ward;;MDG Olobeere PHC;;;;;
Iwo;Gidigbo 3 Ward;;Alaye Health Clinic;;;;;
Iwo;Gidigbo 3 Ward;;Alaye Primary Health Centre;;;;;
Iwo;Gidigbo 3 Ward;;Oyo Rd Model Primary Health Centre;;;;;
Iwo;Isale-Oba 1 Ward;;Daodu Agba Primary Health Centre;;;;;
Iwo;Isale-Oba 2 Ward;;MDG Aafin PHC;;;;;
Iwo;Isale-Oba 3 Ward;;Iwo State hospital;;;;;
Iwo;Isale-Oba 3 Ward;;MOT Hospital;;;;;
Iwo;Isale-Oba 3 Ward;;BOWEN Hospital;;;;;
Iwo;Isale-Oba 3 Ward;;Ajangbala Eleha Health Centre ;;;;;
Iwo;Isale-Oba 3 Ward;;Ibukunolu Maternity Home;;;;;
Iwo;Isale-Oba 3 Ward;;Adullam Medical Centre;;;;;
Iwo;Isale-Oba 4 Ward;;Victory Hospital Annex;;;;;
Iwo;Isale-Oba 4 Ward;;Obatedo Health Clinic;;;;;
Iwo;Molete 1 Ward;;Moseru Primary Health Centre;;;;;
Iwo;Molete 2 Ward;;Yidi-Oba Primary Health Centre;;;;;
Iwo;Molete 3 Ward;;Ike-Oluwa Maternity Centre;;;;;
Iwo;Molete 3 Ward;;Ago-Ogunde MDGs;;;;;
Iwo;Molete 3 Ward;;Agbogbo Primary Health Centre;;;;;
Iwo;Molete 3 Ward;;Toluwani Medical Centre;;;;;
Iwo;Molete 3 Ward;;Kajoye Medical Centre;;;;;
Iwo;Oke-Adan 1 Ward;;Jagun ilu Health Clinic;;;;;
Iwo;Oke-Adan 2 Ward;;Eesiki Health Centre;;;;;
Iwo;Oke-Adan 2 Ward;;Victory Hospital (Iwo);;;;;
Iwo;Oke-Adan 3 Ward;;Feesu Primary Health Centre;;;;;
Iwo;Oke-Adan 3 Ward;;KLM Hospital;;;;;
Iwo;Oke-Adan 3 Ward;;Okebode Health Clinic;;;;;
Iwo;Oke-Oba 1 Ward;;Agberire Primary Health Centre;;;;;
Iwo;Oke-Oba 1 Ward;;Olosi 1 Primary Health Centre;;;;;
Iwo;Oke-Oba 1 Ward;;Olosi 2 Health Clinic;;;;;
Iwo;Oke-Oba 2 Ward;;Adana Primary Health Centre;;;;;
Iwo;Oke-Oba 2 Ward;;Obajoko Health Clinic;;;;;
Iwo;Oke-Oba 2 Ward;;ST ZENO CATHOLIC HOSPITAL;;;;;
Iwo;Oke-Oba 2 Ward;;Idiroko Health Clinic;;;;;
Iwo;Oke-Oba 2 Ward;;Ogburo Health Clinic;;;;;
Iwo;Oke-Oba 2 Ward;;Oyediran Health Clinic;;;;;
Iwo;Oke-Oba 2 Ward;;Ayede Health Clinic;;;;;
Iwo;Oke-Oba 2 Ward;;Fapo Primary Health Centre;;;;;
Iwo;Oke-Oba 2 Ward;;Idi Araba Health Clinic;;;;;
Iwo;Oke-Oba 2 Ward;;Foritaje Health Clinic;;;;;
Iwo;Oke-Oba 2 Ward;;Agoro Health Clinic;;;;;
Iwo;Oke-Oba 2 Ward;;Anarun Health Clinic;;;;;
Iwo;Oke-Oba 2 Ward;;Papa Health Clinic;;;;;
Obokun;Esa-Odo Ward 9;;Esa-Odo Primary Health Centre;;;;;
Obokun;Esa-Oke Ward 7;;Crown Faith Medical Hospital;;;;;
Obokun;Esa-Oke Ward 7;;Esa-Oke Primary Health Centre;;;;;
Obokun;Esa-Oke Ward 7;;Kajola Health Clinic;;;;;
Obokun;Esa-Oke Ward 7;;Ayo ade Clinic;;;;;
Obokun;Esa-Oke Ward 7;;Esa-Oke Model;;;;;
Obokun;Esa-Oke Ward 7;;Hossana Hospital;;;;;
Obokun;Esa-Oke Ward 7;;Esa-Oke Comprehensive Health Centre;;;;;
Obokun;Ibala Ward 5;;Ibala Primary Health Centre;;;;;
Obokun;Ibala Ward 5;;Eesu Primary Health Centre;;;;;
Obokun;Ibala Ward 5;;Ido-Oko Primary Health Centre;;;;;
Obokun;Ibala Ward 5;;Ijaregbe Maternity Centre;;;;;
Obokun;Ibokun Ward 1;;Emitomo Clinic and Maternity;;;;;
Obokun;Ibokun Ward 1;;Ibokun Primary Health Centre;;;;;
Obokun;Ibokun Ward 1;;Royal Blessing Hospital;;;;;
Obokun;Ibokun Ward 1;;Ibokun Comprehensive Health Centre;;;;;
Obokun;Ilahun Ward 3;;Ilahun Primary Health Centre;;;;;
Obokun;Ilahun Ward 3;;Ikinyinwa Health Centre;;;;;
Obokun;Ilare Ward 10;;Iketewi Health Post;;;;;
Obokun;Ilare Ward 10;;Ilare Primary Health Centre;;;;;
Obokun;Ilase Ward 4;;Olorunda Health Post;;;;;
Obokun;Ilase Ward 4;;Iregun Primary Health Centre;;;;;
Obokun;Ilase Ward 4;;Idoka Primary Health Centre;;;;;
Obokun;Ilase Ward 4;;Ilowa Health Post;;;;;
Obokun;Ilase Ward 4;;Ilase Primary Health Centre;;;;;
Obokun;Ilase Ward 4;;Iponda Primary Health Centre;;;;;
Obokun;Ilase Ward 4;;Idominasi Primary Health Centre;;;;;
Obokun;Ilase Ward 4;;Alafon Health Centre;;;;;
Obokun;Imesi-Ile Ward 6;;OAU Comprehensive Health Centre;;;;;
Obokun;Imesi-Ile Ward 6;;Imesi-Ile Primary Health Centre;;;;;
Obokun;Ipetu-Ile Ward 2;;Ada Owode Primary Health Centre;;;;;
Obokun;Ipetu-Ile Ward 2;;Ibontoro Health Centre;;;;;
Obokun;Ipetu-Ile Ward 2;;Itiya Health Post;;;;;
Obokun;Ipetu-Ile Ward 2;;Ipetu-Ile Primary Health Centre;;;;;
Obokun;Ipetu-Ile Ward 2;;Olomu Health Post;;;;;
Obokun;Otan Ile Ward 8;;Otan-Ile Primary Health Centre;;;;;
Odo-Otin;Odo-Otin Ward 01;;Okuku General Hospital;;;;;
Odo-Otin;Odo-Otin Ward 01;;MDG Okuku;;;;;
Odo-Otin;Odo-Otin Ward 01;;Okuku Primary Health Centre;;;;;
Odo-Otin;Odo-Otin Ward 02;;Okuku Primary Health Centre II;;;;;
Odo-Otin;Odo-Otin Ward 02;;Elesinfunfun Primary Health Centre;;;;;
Odo-Otin;Odo-Otin Ward 03;;Imuleke Primary Health Centre;;;;;
Odo-Otin;Odo-Otin Ward 03;;Igbaye Primary Health Centre;;;;;
Odo-Otin;Odo-Otin Ward 04;;Faji Primary Health Centre;;;;;
Odo-Otin;Odo-Otin Ward 04;;Opete Primary Health Centre;;;;;
Odo-Otin;Odo-Otin Ward 05;;Ekosin Primary Health Centre;;;;;
Odo-Otin;Odo-Otin Ward 05;;Iyeku Primary Health Centre;;;;;
Odo-Otin;Odo-Otin Ward 06;;Agbeye Primary Health Centre;;;;;
Odo-Otin;Odo-Otin Ward 06;;Ore Primary Health Centre;;;;;
Odo-Otin;Odo-Otin Ward 07;;Ila-Odo Primary Health Centre;;;;;
Odo-Otin;Odo-Otin Ward 07;;Alapata Primary Health Centre;;;;;
Odo-Otin;Odo-Otin Ward 07;;Ijabe Model;;;;;
Odo-Otin;Odo-Otin Ward 07;;Ijabe Primary Health Centre;;;;;
Odo-Otin;Odo-Otin Ward 08;;Okua Primary Health Centre;;;;;
Odo-Otin;Odo-Otin Ward 08;;Ekusa Primary Health Centre;;;;;
Odo-Otin;Odo-Otin Ward 09;;Ashi Primary Health Centre;;;;;
Odo-Otin;Odo-Otin Ward 09;;Asaba Primary Health Centre;;;;;
Odo-Otin;Odo-Otin Ward 10;;Inisa Comprehensive Health Centre;;;;;
Odo-Otin;Odo-Otin Ward 10;;Olunisa Primary Health Centre;;;;;
Odo-Otin;Odo-Otin Ward 11;;Jagun-osi Primary Health Centre;;;;;
Odo-Otin;Odo-Otin Ward 12;;Eesa Otun Primary Health Centre;;;;;
Odo-Otin;Odo-otin Ward 13;;Olukotun Primary Health Centre;;;;;
Odo-Otin;Odo-Otin Ward 14;;Aganju Primary Health Centre;;;;;
Odo-Otin;Odo-Otin Ward 14;;Oloyan Primary Health Centre;;;;;
Odo-Otin;Odo-Otin Ward 15;;Osolo / Oparin Primary Health Centre;;;;;
Ola-Oluwa;Ward 1 - Telemu;;Telemu 11 Model;;;;;
Ola-Oluwa;Ward 1 - Telemu;;Telemu 1 Primary Health Centre;;;;;
Ola-Oluwa;Ward 10 - Asa/Ajagunlase;;Asa Primary Health Centre;;;;;
Ola-Oluwa;Ward 10 - Asa/Ajagunlase;;Yanganmu Primary Health Centre;;;;;
Ola-Oluwa;Ward 10 - Asa/Ajagunlase;;Ajagunlase Primary Health Centre;;;;;
Ola-Oluwa;Ward 2 - Ile-Mowu / Asamu ;;Asamu Primary Health Centre;;;;;
Ola-Oluwa;Ward 2 - Ile-Mowu / Asamu ;;Model Ilemowu;;;;;
Ola-Oluwa;Ward 2 - Ile-Mowu / Asamu ;;Ilemowu Primary Health Centre;;;;;
Ola-Oluwa;Ward 3 - Ogbaagba I;;Ogbaagba Primary Health Centre;;;;;
Ola-Oluwa;Ward 3 - Ogbaagba I;;Toto / Igege Primary Health Centre;;;;;
Ola-Oluwa;Ward 4 - Ogbaagba II;;Fagbaibi Primary Health Centre;;;;;
Ola-Oluwa;Ward 4 - Ogbaagba II;;Ogbaagba Comprehensive Health Centre;;;;;
Ola-Oluwa;Ward 4 - Ogbaagba II;;Papa Primary Health Centre;;;;;
Ola-Oluwa;Ward 5 - Ikire-Ile / Iwara;;Iwara Primary Health Centre;;;;;
Ola-Oluwa;Ward 5 - Ikire-Ile / Iwara;;Ikire-Ile Primary Health Centre;;;;;
Ola-Oluwa;Ward 6 - Ikonifin Isero;;Ikonifin Primary Health Centre;;;;;
Ola-Oluwa;Ward 6 - Ikonifin Isero;;Isero Primary Health Centre;;;;;
Ola-Oluwa;Ward 7 - Ile-Ogo / Obamoro;;Ile Ogo Primary Health Centre;;;;;
Ola-Oluwa;Ward 7 - Ile-Ogo / Obamoro;;Odo-Oran Primary Health Centre;;;;;
Ola-Oluwa;Ward 7 - Ile-Ogo / Obamoro;;Obamoro Primary Health Centre;;;;;
Ola-Oluwa;Ward 8 - Bode Osi;;Bode Osi Comprehensive Health Centre;;;;;
Ola-Oluwa;Ward 8 - Bode Osi;;Bode-Osi Primary Health Centre;;;;;
Ola-Oluwa;Ward 8 - Bode Osi;;Eleru Primary Health Centre;;;;;
Ola-Oluwa;Ward 9 - Ajagba / Iwo Oke;;Iwo-Oke Primary Health Centre;;;;;
Ola-Oluwa;Ward 9 - Ajagba / Iwo Oke;;Ajagba Primary Health Centre;;;;;
Olorunda;Olorunda Ward 1;;Oroki Hospital;;;;;
Olorunda;Olorunda Ward 1;;Alpha Post Hospital;;;;;
Olorunda;Olorunda Ward 1;;Kelebe Primary Health Centre;;;;;
Olorunda;Olorunda Ward 1;;NIGERIA POLICE STAFF HOSPITAL;;;;;
Olorunda;Olorunda Ward 1;;Oluwatoyin Maternity Home;;;;;
Olorunda;Olorunda Ward 1;;Olude Maternity Centre;;;;;
Olorunda;Olorunda Ward 1;;Olorunda Secretariat Staff Clinic;;;;;
Olorunda;Olorunda Ward 10;;Idi-Amu Primary Health Centre;;;;;
Olorunda;Olorunda Ward 10;;Idi-Emi Primary Health Centre;;;;;
Olorunda;Olorunda Ward 10;;Oba-oke Health Centre;;;;;
Olorunda;Olorunda Ward 11;;Aba-Eesa Health Centre;;;;;
Olorunda;Olorunda Ward 11;;Illie Primary Health Centre;;;;;
Olorunda;Olorunda Ward 11;;Illie Comprehensive Health Centre;;;;;
Olorunda;Olorunda Ward 2;;LAUTECH Teaching Hospital;;;;;
Olorunda;Olorunda Ward 2;;Ogbon-Oluwa Hospital;;;;;
Olorunda;Olorunda Ward 3;;Enikan-Oyun Primary Health Centre;;;;;
Olorunda;Olorunda Ward 4;;Atelewo Primary Health Centre;;;;;
Olorunda;Olorunda Ward 5;;Sabo Health Post;;;;;
Olorunda;Olorunda Ward 5;;Gbonjubola Hospital;;;;;
Olorunda;Olorunda Ward 7;;Sabo Primary Health Centre;;;;;
Olorunda;Olorunda Ward 8;;Kelebe Primary Health Centre;;;;;
Olorunda;Olorunda Ward 8;;Phonix Hospital;;;;;
Olorunda;Olorunda Ward 8;;Homocare Hospital;;;;;
Olorunda;Olorunda Ward 8;;Biiro Primary Health Centre;;;;;
Olorunda;Olorunda Ward 8;;Omogbolahan Hospital;;;;;
Olorunda;Olorunda Ward 8;;Biket Hospital;;;;;
Olorunda;Olorunda Ward 8;;Boluwaduro Hospital;;;;;
Olorunda;Olorunda Ward 8;;Dagbolu Health Post;;;;;
Olorunda;Olorunda Ward 8;;Ayekale Health Centre;;;;;
Olorunda;Olorunda Ward 8;;Ota-Efun Health Centre;;;;;
Olorunda;Olorunda Ward 9;;Oba Ile Primary Health Centre;;;;;
Olorunda;Olorunda Ward 9;;Iwo-Oke Primary Health Centre;;;;;
Olorunda;Olorunda Ward 9;;Oba-ile Comprehensive Health Centre;;;;;
Olorunda;Olorunda Ward 9;;Ajagba Primary Health Centre;;;;;
Oriade;Oriade Ward 1;;Akola Primary Health Centre;;;;;
Oriade;Oriade Ward 1;;Erin-Oke Primary Health Centre;;;;;
Oriade;Oriade Ward 10;;Obalende Primary Health Centre;;;;;
Oriade;Oriade Ward 11;;Ijeda Comprehensive Health Centre;;;;;
Oriade;Oriade Ward 11;;Iloko Ijesa Primary Health Centre;;;;;
Oriade;Oriade Ward 11;;Iloko-Ijesa Comprehensive Health Centre;;;;;
Oriade;Oriade Ward 11;;Ijeda Primary Health Centre;;;;;
Oriade;Oriade Ward 12;;Erinmo Primary Health Centre;;;;;
Oriade;Oriade Ward 12;;Iwaraja Primary Health Centre;;;;;
Oriade;Oriade Ward 12;;Oke Ana Primary Health Centre;;;;;
Oriade;Oriade Ward 12;;Araromi Primary Health Centre (Oriade);;;;;
Oriade;Oriade Ward 12;;Ijimo Primary Health Centre;;;;;
Oriade;Oriade Ward 12;;Medayese Primary Health Centre;;;;;
Oriade;Oriade Ward 12;;Omo Ijesa Primary Health Centre;;;;;
Oriade;Oriade Ward 2;;Erin-ijesa Primary Health Centre;;;;;
Oriade;Oriade Ward 3;;Odogo Primary Health Centre;;;;;
Oriade;Oriade Ward 3;;Oke Nisa Primary Health Centre;;;;;
Oriade;Oriade Ward 3;;Ijebu Ijesa General Hospital;;;;;
Oriade;Oriade Ward 3;;Ijebu-Ijesa Primary Health Centre;;;;;
Oriade;Oriade Ward 4;;Eti-Oni Primary Health Centre (Eti-Oni Esa-Oke Rd);;;;;
Oriade;Oriade Ward 4;;Iwoye-Ijesa Primary Health Centre;;;;;
Oriade;Oriade Ward 4;;Ere Primary Health Centre;;;;;
Oriade;Oriade Ward 4;;Ilo Primary Health Centre;;;;;
Oriade;Oriade Ward 5;;Ikeji-Ile Primary Health Centre;;;;;
Oriade;Oriade Ward 5;;Ikeji Ile Comprehensive Health Centre;;;;;
Oriade;Oriade Ward 7;;Owena Primary Health Centre;;;;;
Oriade;Oriade Ward 7;;Oniga Health Post;;;;;
Oriade;Oriade Ward 7;;Ikeji Arakeji Primary Health Centre;;;;;
Oriade;Oriade Ward 8;;Eti-oni Primary Health Centre (Eti-Oni);;;;;
Oriade;Oriade Ward 8;;Apoti Primary Health Centre;;;;;
Oriade;Oriade Ward 8;;Ilupeju Ejinmo Primary Health Centre;;;;;
Oriade;Oriade Ward 8;;Sawe Primary Health Centre;;;;;
Oriade;Oriade Ward 8;;Dagbaja Primary Health Centre;;;;;
Oriade;Oriade Ward 8;;Orisunbare Primary Health Centre;;;;;
Oriade;Oriade Ward 8;;Bolorunduro Primary Health Centre;;;;;
Oriade;Oriade Ward 8;;Afinbiokin Primary Health Centre;;;;;
Oriade;Oriade Ward 8;;Onikoko Primary Health Centre;;;;;
Oriade;Oriade Ward 8;;Fiade Onigba Primary Health Centre;;;;;
Oriade;Oriade Ward 8;;Idi Araba Primary Health Centre;;;;;
Oriade;Oriade Ward 9;;State Hospital Ipetu-Ijesa;;;;;
Oriade;Oriade Ward 9;;Ipetu-Ijesa Primary Health Centre;;;;;
Orolu;Bolorunduro (4) Ward;;Ifon/Erin Comprehensive Health Centre;;;;;
Orolu;Bolorunduro (4) Ward;;Bolorunduro 1 Primary Health Centre;;;;;
Orolu;Egan Aje (8) Ward;;Egan Aaje Primary Health Centre;;;;;
Orolu;Eleesi (7) Ward;;Eleesi Ifon 3 Primary Health Centre;;;;;
Orolu;Eleesi (7) Ward;;Basorun Odo-Oje Health Centre.;;;;;
Orolu;Jaleyemi (6) Ward;;Jaleyemi Health Centre;;;;;
Orolu;Okiti/Molufon (10) Ward;;Bolorunduro Vill. Health Centre;;;;;
Orolu;Okiti/Molufon (10) Ward;;Idi-Iroko Health Centre;;;;;
Orolu;Okiti/Molufon (10) Ward;;Okiti Primary Health Centre;;;;;
Orolu;Okiti/Molufon (10) Ward;;Ikimo Health Centre;;;;;
Orolu;Okiti/Molufon (10) Ward;;Molufon Health Centre;;;;;
Orolu;Okiti/Molufon (10) Ward;;Ologele Primary Health Centre;;;;;
Orolu;Osun Eesa (9) Ward;;Osun Eesa Health Centre;;;;;
Orolu;Osun Eesa (9) Ward;;Owode Primary Health Centre;;;;;
Osogbo;Osogbo Ward 1;;Ajenisua Primary Health Centre;;;;;
Osogbo;Osogbo Ward 1;;Oke-Osun Primary Health Centre;;;;;
Osogbo;Osogbo Ward 11;;Oke-Abesu Primary Health Centre;;;;;
Osogbo;Osogbo Ward 11;;Akede Primary Health Centre;;;;;
Osogbo;Osogbo Ward 14;;Mubarak Primary Health Centre;;;;;
Osogbo;Osogbo Ward 14;;Oke Baale Primary Health Centre;;;;;
Osogbo;Osogbo Ward 14;;Aniyan Maternity Home;;;;;
Osogbo;Osogbo Ward 14;;Fiwasaye Hospital;;;;;
Osogbo;Osogbo Ward 14;;Iludun Primary Health Centre;;;;;
Osogbo;Osogbo Ward 3;;Asubiaro State Hospital;;;;;
Osogbo;Osogbo Ward 3;;Jaleyemi Catholic Hospital;;;;;
Osogbo;Osogbo Ward 4;;Phoenix Clinic;;;;;
Osogbo;Osogbo Ward 4;;Ogo-Oluwa Model Primary Health Centre;;;;;
Osogbo;Osogbo Ward 4;;Odi-Olowo Primary Health Centre;;;;;
Osogbo;Osogbo Ward 5;;Secretariat Staff Clinic;;;;;
Osogbo;Osogbo Ward 5;;Osogbo Muslim Hospital;;;;;
Osogbo;Osogbo Ward 5;;Emmanuel Hospital;;;;;
Osogbo;Osogbo Ward 5;;Alekuwodo Primary Health Centre;;;;;
Osogbo;Osogbo Ward 6;;Faith Hospital;;;;;
Osogbo;Osogbo Ward 8;;Ayepe Comprehesive Health Centre;;;;;
Osogbo;Osogbo Ward 8;;Isale Agbara Comprehensive Health Centre;;;;;
Osogbo;Osogbo Ward 8;;Owode Primary Health Cetre;;;;;
Osogbo;Osogbo Ward 9;;Oluguna Primary Health Centre;;;;;
