LGA;Ward;Settlement;Facility;Type;Ownership;Address;Longitude;Latitude
Afijio;Ilora I;;Akinlolu Mat Centre;PRIMARY;PRIVATE;;;
Afijio;Ilora Ii;;Okediji Mat Center;PRIMARY;PUBLIC;;;
Afijio;Ilora Ii;;Ilora Maternity Center;PRIMARY;PUBLIC;;;
Afijio;Ilora Ii;;Emmanuel Excel Maternity;SECONDARY;PRIVATE;;;
Afijio;Ilora Ii;;Ilora Primary Health Centre;PRIMARY;PUBLIC;;;
Afijio;Ilora Ii;;Ilora General Hospital;SECONDARY;PUBLIC;;;
Afijio;Ilora Iii;;Idi Igba Health Post;PRIMARY;PUBLIC;;;
Afijio;Ilora Iii;;Asaju Health Post;PRIMARY;PUBLIC;;;
Afijio;Ilora Iii;;Bisol Medical Centre;SECONDARY;PRIVATE;;;
Afijio;Ilora Iii;;Aribombo Health Post;PRIMARY;PUBLIC;;;
Afijio;Ilora Iii;;Farm Settlement Health Post;PRIMARY;PUBLIC;;;
Afijio;Ilora Iii;;Onofa Health Post;PRIMARY;PUBLIC;;;
Afijio;Ilora Iii;;Ajayi Memorial Hospital;SECONDARY;PRIVATE;;;
Afijio;Fiditi I;;Ayetoro Health Post;PRIMARY;PUBLIC;;;
Afijio;Fiditi Ii;;Fiditi General Hospital;SECONDARY;PUBLIC;;;
Afijio;Fiditi Ii;;Fiditi Primary Health Center;PRIMARY;PUBLIC;;;
Afijio;Fiditi Ii;;Isioye Health Post;PRIMARY;PRIVATE;;;
Afijio;Awe I;;Ijaye Ojutaye Maternity Center;PRIMARY;PUBLIC;;;
Afijio;Awe Ii;;Awe Maternity Center;PRIMARY;PUBLIC;;;
Afijio;Awe Ii;;Sheperde Mat & Clinic Welfare;SECONDARY;PRIVATE;;;
Afijio;Awe Ii;;Oke Ofin Health Post;PRIMARY;PUBLIC;;;
Afijio;Akinmorin;;Oniwasi Health Post;PRIMARY;PUBLIC;;;
Afijio;Akinmorin;;Akinmorin Ecc;PRIMARY;PUBLIC;;;
Afijio;Iware;;Jobele  Maternity Center;PRIMARY;PUBLIC;;;
Afijio;Iware;;Iware Maternity Center;PRIMARY;PUBLIC;;;
Afijio;Imini ;;Aba Adio Maternity Center;PRIMARY;PUBLIC;;;
Afijio;Imini ;;Imini Maternity Center;PRIMARY;PUBLIC;;;
Afijio;Imini ;;Obanako Health Post;PRIMARY;PUBLIC;;;
Afijio;Imini ;;Iluaje Health Post;PRIMARY;PUBLIC;;;
Afijio;Imini ;;Araromi Health Post;PRIMARY;PUBLIC;;;
Akinyele;Ikereku;;Ikereku Primary Health Centre;PRIMARY;PUBLIC;;;
Akinyele;Alade;;Alade Health Centre;PRIMARY;PUBLIC;;;
Akinyele;Alade;;Pade Health Centre;PRIMARY;PUBLIC;;;
Akinyele;Aroro;;Aroro Health Centre;PRIMARY;PUBLIC;;;
Akinyele;Aroro;;Adegbite Cut Hospital;SECONDARY;PRIVATE;;;
Akinyele;Onidundun;;Onidundu Health Post;PRIMARY;PUBLIC;;;
Akinyele;Onidundun;;Ileba Health Post;PRIMARY;PUBLIC;;;
Akinyele;Moniya;;Moniya Primary Health Centre;PRIMARY;PUBLIC;;;
Akinyele;Akinyele;;Akinyele Health Centre;PRIMARY;PUBLIC;;;
Akinyele;Akinyele;;Alagba Haelth Centre;PRIMARY;PUBLIC;;;
Akinyele;Akinyele;;Kraal Health Post;PRIMARY;PUBLIC;;;
Akinyele;Iwokoto;;Iwokoto Health Post;PRIMARY;PUBLIC;;;
Akinyele;Iwokoto;;Fasola Health Post;PRIMARY;PUBLIC;;;
Akinyele;Iwokoto;;Apapa Odan Primary Health Centre;PRIMARY;PUBLIC;;;
Akinyele;Ojoo;;Ojoo Primary Health Centre;PRIMARY;PUBLIC;;;
Akinyele;Ojoo;;Ajibode Health Centre;PRIMARY;PUBLIC;;;
Akinyele;Ojoo;;Orogun Health Centre;PRIMARY;PUBLIC;;;
Akinyele;Ojoo;;Sasa Office Health Centre;PRIMARY;PUBLIC;;;
Akinyele;Ojoo;;Owe Kankan Health Post;PRIMARY;PUBLIC;;;
Akinyele;Ojoo;;Orogin H/C;PRIMARY;PUBLIC;;;
Akinyele;Ojoo;;Odoogbo Mh;PRIMARY;PUBLIC;;;
Akinyele;Ojoo;;Owekenkun H/P;PRIMARY;PUBLIC;;;
Akinyele;Ojoo;;Adebel Clinic;PRIMARY;PRIVATE;;;
Akinyele;Ojoo;;Alfred Clinic;PRIMARY;PRIVATE;;;
Akinyele;Ojoo;;Fajimi Hospital,Ojoo;SECONDARY;PRIVATE;;;
Akinyele;Ojoo;;Hamdala Hospital;SECONDARY;PRIVATE;;;
Akinyele;Ojoo;;Mosolape Clinic;PRIMARY;PRIVATE;;;
Akinyele;Ojoo;;Olive Hospital;SECONDARY;PRIVATE;;;
Akinyele;Ojoo;;Olufunmilayo Hospital;SECONDARY;PRIVATE;;;
Akinyele;Ojoo;;Ore Ofe Hospital;SECONDARY;PRIVATE;;;
Akinyele;Ojoo;;Royal Crown Specialist Hosp;SECONDARY;PRIVATE;;;
Akinyele;Ojoo;;Al Salaam Medical Center;SECONDARY;PRIVATE;;;
Akinyele;Ojoo;;Unity Hospital;SECONDARY;PRIVATE;;;
Akinyele;Ojoo;;Fajimi Hosp;SECONDARY;PRIVATE;;;
Akinyele;Ijaye;;Ijaye Primary Health Centre;PRIMARY;PUBLIC;;;
Akinyele;Ijaye;;Iware Primary Health Centre;PRIMARY;PUBLIC;;;
Akinyele;Ijaye;;Jarija Health Centre;PRIMARY;PUBLIC;;;
Akinyele;Alabata;;Alabata Health Centre;PRIMARY;PUBLIC;;;
Akinyele;Alabata;;Elekuru Health Centre;PRIMARY;PUBLIC;;;
Akinyele;Alabata;;Oloosa Health Post;PRIMARY;PUBLIC;;;
Akinyele;Alabata;;Ajibade Health Centre;PRIMARY;PUBLIC;;;
Akinyele;Olorisa Oko/Mele;;Mele Health Centre;PRIMARY;PUBLIC;;;
Akinyele;Olorisa Oko/Mele;;Olorisaoko Health Centre;PRIMARY;PUBLIC;;;
Akinyele;Iroko;;Iroko Primary Health Centre;PRIMARY;PUBLIC;;;
Akinyele;Iroko;;Iroko Ii Health Centre;PRIMARY;PUBLIC;;;
Akinyele;Iroko;;Oretu Health Post;PRIMARY;PUBLIC;;;
Atiba;Aafin I;;Aafin Primary Health Centre;PRIMARY;PUBLIC;;;
Atiba;Aafin Ii ;;Aafin Health Clinic;PRIMARY;PUBLIC;;;
Atiba;Basorun;;Bcos Clinic;PRIMARY;PUBLIC;;;
Atiba;Agunpopo I;;Oke Olola Phc;PRIMARY;PUBLIC;;;
Atiba;Agunpopo Ii;;Ajiroba H/Centre;PRIMARY;PUBLIC;;;
Atiba;Agunpopo Ii;;Onire Bara H/Centre;PRIMARY;PUBLIC;;;
Atiba;Agunpopo Ii;;Ijawaya H/Centre;PRIMARY;PUBLIC;;;
Atiba;Agunpopo Iii;;Boroboro H/Centre;PRIMARY;PUBLIC;;;
Atiba;Agunpopo Iii;;Agunpopo State;PRIMARY;PUBLIC;;;
Atiba;Agunpopo Iii;;Ejire Hosp;PRIMARY;PUBLIC;;;
Atiba;Agunpopo Iii;;Abiwere Hosp;PRIMARY;PUBLIC;;;
Atiba;Asipa I;;Isale Oyo;PRIMARY;PUBLIC;;;
Atiba;Asipa I;;Oroki Phc;PRIMARY;PUBLIC;;;
Atiba;Asipa I;;Oroki Medical;PRIMARY;PUBLIC;;;
Atiba;Asipa Ii;;Koso Phc;PRIMARY;PUBLIC;;;
Atiba;Asipa Ii;;Olokonla Hosp;PRIMARY;PUBLIC;;;
Atiba;Asipa Ii;;Holy Micheal;PRIMARY;PUBLIC;;;
Atiba;Asipa Ii;;Grace Hosp;PRIMARY;PUBLIC;;;
Atiba;Asipa Ii;;Bamidupe Hosp;PRIMARY;PUBLIC;;;
Atiba;Asipa Iii;;Igbonla H/Centre;PRIMARY;PUBLIC;;;
Atiba;Asipa Iii;;Otefon Health Clinic;PRIMARY;PUBLIC;;;
Atiba;Asipa Iii;;Ilowagbade Health Clinic;PRIMARY;PUBLIC;;;
Atiba;Asipa Iii;;Igbonla Health Clinic;PRIMARY;PUBLIC;;;
Atiba;Asipa Iii;;Arinkinkin H/Centre;PRIMARY;PUBLIC;;;
Atisbo;Oyada;;General Hospital Tede;SECONDARY;PUBLIC;;;
Atisbo;Oyada;;Tede Phcc;PRIMARY;PUBLIC;;;
Atisbo;Oyada;;Adeoye Phcc;PRIMARY;PUBLIC;;;
Atisbo;Oyada;;Adeola Memorial Hospital;SECONDARY;PRIVATE;;;
Atisbo;Oyada;;Youth Friendly Clinic Tede;PRIMARY;PUBLIC;;;
Atisbo;Ofiki;;Ofiki Phcc;PRIMARY;PUBLIC;;;
Atisbo;Owo;;Phcc Agunrege;PRIMARY;PUBLIC;;;
Atisbo;Sabe;;Sabe Phc Center;PRIMARY;PUBLIC;;;
Atisbo;Sabe;;Owo Phcc;PRIMARY;PUBLIC;;;
Atisbo;Ago Are;;Phc Ago Are;PRIMARY;PUBLIC;;;
Atisbo;Ago Are;;Model Phcc Ago Are;PRIMARY;PUBLIC;;;
Atisbo;Ago Are;;Ago Are General Hospital;SECONDARY;PUBLIC;;;
Atisbo;Ago Are;;Basi Phcc;PRIMARY;PUBLIC;;;
Atisbo;Ofiki;;Abugudu Phcc;PRIMARY;PUBLIC;;;
Atisbo;Irawo;;Adeoye Phcc;PRIMARY;PUBLIC;;;
Atisbo;Irawo;;Irawo Phcc;PRIMARY;PUBLIC;;;
Atisbo;Irawo;;Ori Okoo Phcc;PRIMARY;PUBLIC;;;
Atisbo;Irawo;;Irawo Owode Phcc;PRIMARY;PUBLIC;;;
Egbeda;Erunmu;;Erunmu Phc Center;PRIMARY;PUBLIC;;;
Egbeda;Erunmu;;Ataari Phc Center;PRIMARY;PUBLIC;;;
Egbeda;Erunmu;;Akinlayo Maternity Home;PRIMARY;PUBLIC;;;
Egbeda;Erunmu;;Dominican Catholic Hospital;SECONDARY;PRIVATE;;;
Egbeda;Erunmu;;Idera Oluwa Hospital;SECONDARY;PRIVATE;;;
Egbeda;Erunmu;;In His Grace Mat & Welfare;SECONDARY;PRIVATE;;;
Egbeda;Ayede;;Ayede Health Clinic;PRIMARY;PUBLIC;;;
Egbeda;Owobale;;Owobaale Health Clinic;PRIMARY;PUBLIC;;;
Egbeda;Ajiwogbo;;Ajiwogbo Health Clinic;PRIMARY;PUBLIC;;;
Egbeda;Olodo;;Olodo Health Clinic;PRIMARY;PUBLIC;;;
Egbeda;Olodo;;Kumapayi Health Clinic;PRIMARY;PUBLIC;;;
Egbeda;Olodo;;Odan Elekan Health Clinic;PRIMARY;PUBLIC;;;
Egbeda;Olodo;;Abikie Clinic &Mat Center;SECONDARY;PRIVATE;;;
Egbeda;Olodo;;Ar-Rahman Clinic & Maternity;SECONDARY;PRIVATE;;;
Egbeda;Olodo;;Christus Specialist Hospital;SECONDARY;PRIVATE;;;
Egbeda;Olodo;;Dunni Clinic;PRIMARY;PRIVATE;;;
Egbeda;Olodo;;Fadebi Hospital;SECONDARY;PRIVATE;;;
Egbeda;Olodo;;Hamdala Maternity Hospital;SECONDARY;PRIVATE;;;
Egbeda;Olodo;;Ideal Clinic;SECONDARY;PRIVATE;;;
Egbeda;Olodo;;Motulayo Clinic;SECONDARY;PRIVATE;;;
Egbeda;Olodo;;Temitope Clinic;SECONDARY;PRIVATE;;;
Egbeda;Monatan;;Apete Health Clinic;PRIMARY;PUBLIC;;;
Egbeda;Monatan;;Adogba Phc Center;PRIMARY;PUBLIC;;;
Egbeda;Monatan;;Anu Oluwa Clinic;PRIMARY;PUBLIC;;;
Egbeda;Monatan;;Alafia Tayo Health Centre;PRIMARY;PRIVATE;;;
Egbeda;Monatan;;Ayokemi Maternity Home;PRIMARY;PRIVATE;;;
Egbeda;Monatan;;Divine Favour Hospital;SECONDARY;PRIVATE;;;
Egbeda;Monatan;;God'S Favour Clinic;SECONDARY;PRIVATE;;;
Egbeda;Monatan;;Ibilade Memorial Hospital;SECONDARY;PRIVATE;;;
Egbeda;Monatan;;Iyanu Medical Centre Deeking Bus Stop;SECONDARY;PRIVATE;;;
Egbeda;Monatan;;Relive Hospital;SECONDARY;PRIVATE;;;
Egbeda;Monatan;;Abosede Maternity Center;SECONDARY;PRIVATE;;;
Egbeda;Wakajaye;;Wakajaye Phcc;PRIMARY;PUBLIC;;;
Egbeda;Wakajaye;;Health Fol Clinic;PRIMARY;PUBLIC;;;
Egbeda;Wakajaye;;Idera De Clinic;PRIMARY;PUBLIC;;;
Egbeda;Wakajaye;;Kaylik Clinic;PRIMARY;PRIVATE;;;
Egbeda;Wakajaye;;Roll Clinic;PRIMARY;PRIVATE;;;
Egbeda;Wakajaye;;Oloya Phcc;PRIMARY;PUBLIC;;;
Egbeda;Osengare;;Osengare Health Clinic;PRIMARY;PUBLIC;;;
Egbeda;Osengare;;Awaye Health Clinic;PRIMARY;PUBLIC;;;
Egbeda;Osengare;;Idogun Health Clinic;PRIMARY;PUBLIC;;;
Egbeda;Osengare;;Olukeye Health Clinic;PRIMARY;PUBLIC;;;
Egbeda;Egbeda;;Egbeda Phcc;PRIMARY;PUBLIC;;;
Egbeda;Egbeda;;His Mercy Clinic;SECONDARY;PRIVATE;;;
Egbeda;Egbeda;;Ife Olu Clinic;PRIMARY;PRIVATE;;;
Egbeda;Egbeda;;Nbc Asejire Plant Clinic;PRIMARY;PRIVATE;;;
Egbeda;Alakia;;Alakia Phcc;PRIMARY;PUBLIC;;;
Egbeda;Alakia;;Olode Phc Center;PRIMARY;PUBLIC;;;
Egbeda;Alakia;;Ayodele Specialist Hospital ;SECONDARY;PRIVATE;;;
Egbeda;Alakia;;Asvon Hospital;SECONDARY;PRIVATE;;;
Egbeda;Alakia;;Divine Victory Medical Centre;SECONDARY;PRIVATE;;;
Egbeda;Alakia;;Elshaddai Medical Hospital;SECONDARY;PRIVATE;;;
Egbeda;Alakia;;New Ife Medical Centre;SECONDARY;PRIVATE;;;
Egbeda;Alakia;;Emmanuel Hospital;SECONDARY;PRIVATE;;;
Egbeda;Alakia;;Hosana Hospital;SECONDARY;PRIVATE;;;
Egbeda;Alakia;;Ileri Clinic;PRIMARY;PRIVATE;;;
Egbeda;Alakia;;Ilkas Hospital;SECONDARY;PRIVATE;;;
Egbeda;Alakia;;Macedonia Hospital;SECONDARY;PRIVATE;;;
Egbeda;Alakia;;Mercyland Hospital;SECONDARY;PRIVATE;;;
Egbeda;Alakia;;Nigeria Brewries Plc Clinic;SECONDARY;PRIVATE;;;
Egbeda;Alakia;;Olufunbi Clinic;SECONDARY;PRIVATE;;;
Egbeda;Alakia;;Olukemi Maternity & Inf Welfare;SECONDARY;PRIVATE;;;
Egbeda;Alakia;;Omolewa Mat Clinic;SECONDARY;PRIVATE;;;
Egbeda;Alakia;;Ona Iye Clinic;SECONDARY;PRIVATE;;;
Egbeda;Alakia;;Pamock Clinic;SECONDARY;PRIVATE;;;
Egbeda;Alakia;;Peace Foundation Mat& Welfare Clinic;SECONDARY;PRIVATE;;;
Egbeda;Alakia;;Providence Clinic;SECONDARY;PRIVATE;;;
Egbeda;Alakia;;Strong Tower Mat & Child Welfare;SECONDARY;PRIVATE;;;
Egbeda;Alakia;;Surulere Mat & Child Welfare;SECONDARY;PRIVATE;;;
Egbeda;Alakia;;Temilehin Maternity Home Alakia;SECONDARY;PRIVATE;;;
Egbeda;Alakia;;Tolani Hospital;SECONDARY;PRIVATE;;;
Egbeda;Alakia;;Tosin Clinic;SECONDARY;PRIVATE;;;
Egbeda;Alakia;;Toun Memorial Hospital;SECONDARY;PRIVATE;;;
Egbeda;Olubadan;;Ogo Oluwa Clinic;PRIMARY;PUBLIC;;;
Egbeda;Olubadan;;Tbl Clinic Sdp Secretariat;PRIMARY;PUBLIC;;;
Egbeda;Olubadan;;Yfc Sdp Secretariat;PRIMARY;PUBLIC;;;
Ibadan North;Oke Are;;Oke-Aremu Bere Phc;PRIMARY;PUBLIC;;;
Ibadan North;Yemetu;;Gold Cross Hospital;SECONDARY;PRIVATE;;;
Ibadan North;Yemetu;;Yemetu Gold Cross;SECONDARY;PRIVATE;;;
Ibadan North;Yemetu;;Yemetu Aladorin Phc;PRIMARY;PUBLIC;;;
Ibadan North;Yemetu;;Abiola Mem Hospital;SECONDARY;PRIVATE;;;
Ibadan North;Yemetu;;Acelab Diagnostic Center;SECONDARY;PRIVATE;;;
Ibadan North;Yemetu;;Aggrey Hospital;SECONDARY;PRIVATE;;;
Ibadan North;Yemetu;;Alfa Specialist Clinic;SECONDARY;PRIVATE;;;
Ibadan North;Yemetu;;Ebenezer Clinic;SECONDARY;PRIVATE;;;
Ibadan North;Yemetu;;Highland Specialist Hospital;SECONDARY;PRIVATE;;;
Ibadan North;Yemetu;;St Gregory Hospital;SECONDARY;PRIVATE;;;
Ibadan North;Yemetu;;While Medical Cross;SECONDARY;PRIVATE;;;
Ibadan North;Yemetu;;Yintol Christ The King Maternity;SECONDARY;PRIVATE;;;
Ibadan North;Yemetu;;Oluwamayowa Hospital;SECONDARY;PRIVATE;;;
Ibadan North;Idi Ogungun;;Idi-Ogungun Primary Health Centre Agodi Gate;PRIMARY;PUBLIC;;;
Ibadan North;Idi Ogungun;;Agodi-Gate Staff Clinic;PRIMARY;PUBLIC;;;
Ibadan North;Idi Ogungun;;Secretariat Staff Clinic;PRIMARY;PUBLIC;;;
Ibadan North;Idi Ogungun;;Comfort Medical Centre;PRIMARY;PRIVATE;;;
Ibadan North;Idi Ogungun;;Fountain Consultant Hospital;SECONDARY;PRIVATE;;;
Ibadan North;Idi Ogungun;;Idera De Clinic;PRIMARY;PUBLIC;;;
Ibadan North;Basorun;;Bashorun Oluwonla Phc;PRIMARY;PUBLIC;;;
Ibadan North;Basorun;;Ashi Bodija Health Post;PRIMARY;PUBLIC;;;
Ibadan North;Basorun;;Glory Terb Clinic;PRIMARY;PRIVATE;;;
Ibadan North;Basorun;;Rccg Maternity Center;PRIMARY;PRIVATE;;;
Ibadan North;Basorun;;Healing Cross Hospital;PRIMARY;PRIVATE;;;
Ibadan North;Sabo;;Sabo Phc;PRIMARY;PUBLIC;;;
Ibadan North;Mokola;;Badejoko Mokola Oremeji;SECONDARY;PRIVATE;;;
Ibadan North;Mokola;;Aanu Oluwa Hospital;SECONDARY;PRIVATE;;;
Ibadan North;Mokola;;Ayoade Memorial Clinic;SECONDARY;PRIVATE;;;
Ibadan North;Mokola;;Bofas Orthopaedics;SECONDARY;PRIVATE;;;
Ibadan North;Mokola;;Day Kay Dental Services;SECONDARY;PRIVATE;;;
Ibadan North;Mokola;;Envalley Medical Services;SECONDARY;PRIVATE;;;
Ibadan North;Mokola;;Folami Memorial Hospital;SECONDARY;PRIVATE;;;
Ibadan North;Mokola;;Group Medical Mokola;SECONDARY;PRIVATE;;;
Ibadan North;Mokola;;Jay Kay Physiotherapy Clinics;SECONDARY;PRIVATE;;;
Ibadan North;Mokola;;Lernox Specialist Hospital;SECONDARY;PRIVATE;;;
Ibadan North;Mokola;;Oremeji Mat Home;SECONDARY;PRIVATE;;;
Ibadan North;Mokola;;Royal Clinic Vertenary;SECONDARY;PRIVATE;;;
Ibadan North;Mokola;;St Christopher Hospital;SECONDARY;PRIVATE;;;
Ibadan North;Mokola;;Sobande Avenue Specialist Clinic;SECONDARY;PRIVATE;;;
Ibadan North;Mokola;;Wumi Maternity Center;SECONDARY;PRIVATE;;;
Ibadan North;Mokola;;Vision House Medical Clinic;SECONDARY;PRIVATE;;;
Ibadan North;Mokola;;Oriowo Mat And Child Welfare;SECONDARY;PRIVATE;;;
Ibadan North;Sango;;Omolola Home Sango;PRIMARY;PRIVATE;;;
Ibadan North;Ward 8;;Jubilee Clinic;SECONDARY;PRIVATE;;;
Ibadan North;Ward 8;;Sango Patako Phc;PRIMARY;PUBLIC;;;
Ibadan North;Ward 8;;Ayo Funmi Hospital;SECONDARY;PRIVATE;;;
Ibadan North;Ward 8;;Almen Hospital And Mat;SECONDARY;PRIVATE;;;
Ibadan North;Ward 8;;Bethel Specialist Clinic;SECONDARY;PRIVATE;;;
Ibadan North;Ward 8;;Castol Hospital And Maternity;SECONDARY;PRIVATE;;;
Ibadan North;Ward 8;;Faith Medical Center;SECONDARY;PRIVATE;;;
Ibadan North;Ward 8;;Showab Medical Center;SECONDARY;PRIVATE;;;
Ibadan North;Ward 8;;Sheperd Medical Center;SECONDARY;PRIVATE;;;
Ibadan North;Ward 8;;St Micheal Specialist Hospital;SECONDARY;PRIVATE;;;
Ibadan North;Ward 8;;Temitayo Maternity;SECONDARY;PRIVATE;;;
Ibadan North;Ward 8;;The Klinic ;SECONDARY;PRIVATE;;;
Ibadan North;Oke Itunu;;Dominion Specialist Hospital;SECONDARY;PRIVATE;;;
Ibadan North;Oke Itunu;;Best Care Hospital;SECONDARY;PRIVATE;;;
Ibadan North;Oke Itunu;;Life Maternity &Child Welfare;SECONDARY;PRIVATE;;;
Ibadan North;Oke Itunu;;Mercyland Child Welfare;SECONDARY;PRIVATE;;;
Ibadan North;Oke Itunu;;St Raphel Clinic;SECONDARY;PRIVATE;;;
Ibadan North;Ago Tapa;;Vine Branch;SECONDARY;PRIVATE;;;
Ibadan North;Old Bodija;;University College Hospital;TERTIARY;PUBLIC;;;
Ibadan North;Old Bodija;;Inst.Child Health;PRIMARY;PUBLIC;;;
Ibadan North;Old Bodija;;Bodija Health Centre;PRIMARY;PUBLIC;;;
Ibadan North;Old Bodija;;Cerehad Health Post;PRIMARY;PRIVATE;;;
Ibadan North;Old Bodija;;Barika U.I Phc;PRIMARY;PUBLIC;;;
Ibadan North;Old Bodija;;Agbowo Express Phc;PRIMARY;PUBLIC;;;
Ibadan North;Old Bodija;;Bodija Olive Phc;PRIMARY;PUBLIC;;;
Ibadan North;Old Bodija;;Jaja Health Center(Uch Annex);PRIMARY;PUBLIC;;;
Ibadan North;Old Bodija;;The Polythechnic;PRIMARY;PUBLIC;;;
Ibadan North;Old Bodija;;Bisan Clinic And Maternity;SECONDARY;PRIVATE;;;
Ibadan North;Old Bodija;;Bodija Diagnostic Center;SECONDARY;PRIVATE;;;
Ibadan North;Old Bodija;;Brimmo Central Medical Center;SECONDARY;PRIVATE;;;
Ibadan North;Old Bodija;;Cerehad Bodija;SECONDARY;PRIVATE;;;
Ibadan North;Old Bodija;;Danis Specialist  Clinic;SECONDARY;PRIVATE;;;
Ibadan North;Old Bodija;;Dorjil Hospital;SECONDARY;PRIVATE;;;
Ibadan North;Old Bodija;;Good Samaritan Hosp;SECONDARY;PRIVATE;;;
Ibadan North;Old Bodija;;J Rapha Hospital;SECONDARY;PRIVATE;;;
Ibadan North;Old Bodija;;Kunfayenku Clin Ic;SECONDARY;PRIVATE;;;
Ibadan North;Old Bodija;;Mercy And Grace Maternity;SECONDARY;PRIVATE;;;
Ibadan North;Old Bodija;;Omolola Convalscent Home;PRIMARY;PRIVATE;;;
Ibadan North;Old Bodija;;Restoration Hospital;SECONDARY;PRIVATE;;;
Ibadan North;Old Bodija;;Sola Grace Physiotherapy Clinic;SECONDARY;PRIVATE;;;
Ibadan North;Old Bodija;;St David Medical Center;SECONDARY;PRIVATE;;;
Ibadan North;Old Bodija;;St Thomas Specialist Hospital;SECONDARY;PRIVATE;;;
Ibadan North;Old Bodija;;St Vincent  Medical Center;SECONDARY;PRIVATE;;;
Ibadan North;Old Bodija;;Spemiracle  Eye Clinic;SECONDARY;PRIVATE;;;
Ibadan North East;Odo Osun 1;;Odo Osun Health Centre;PRIMARY;PUBLIC;;;
Ibadan North East;Oja Gbo 3;;Ajobo Health Centre;PRIMARY;PUBLIC;;;
Ibadan North East;Oja Gbo 3;;Afodunrinbin Maternity Oja Gbo;PRIMARY;PRIVATE;;;
Ibadan North East;Oja Gbo 3;;Sheu Aladura Maternity;SECONDARY;PRIVATE;;;
Ibadan North East;Aperin 4;;Along St Peter Church Aremo;SECONDARY;PRIVATE;;;
Ibadan North East;Aperin 4;;Peace Way Maternity;SECONDARY;PRIVATE;;;
Ibadan North East;Aperin 4;;Aremo Phc;PRIMARY;PUBLIC;;;
Ibadan North East;Aperin 4;;St Peter Aremo;SECONDARY;PUBLIC;;;
Ibadan North East;Aperin 4;;Benbow Hospital;SECONDARY;PRIVATE;;;
Ibadan North East;Alafara 5;;Alafara Health Centre;PRIMARY;PUBLIC;;;
Ibadan North East;Alafara 5;;Khalifat Hospital Atipe;SECONDARY;PRIVATE;;;
Ibadan North East;Alafara 5;;Tbl Alafara Health Centre;PRIMARY;PUBLIC;;;
Ibadan North East;Oje 6;;Ohe Health Post;PRIMARY;PUBLIC;;;
Ibadan North East;Oje 6;;Orunmiyan Ogboriefun;PRIMARY;PUBLIC;;;
Ibadan North East;Atipe 7;;Atipe Health Post;PRIMARY;PUBLIC;;;
Ibadan North East;Atipe 7;;Khalifat Hospital ;SECONDARY;PRIVATE;;;
Ibadan North East;Ode Aje 8;;Ode Aje Health Post;PRIMARY;PUBLIC;;;
Ibadan North East;Ode Aje 8;;St Mary Health Post;PRIMARY;PUBLIC;;;
Ibadan North East;Agugu 9;;Agugu Aiyekale Health Centre;PRIMARY;PUBLIC;;;
Ibadan North East;Agugu 9;; Ilupeju Health Centre;PRIMARY;PUBLIC;;;
Ibadan North East;Agugu 9;;Oreseni Hospital;SECONDARY;PRIVATE;;;
Ibadan North East;Agugu 9;;Lagelu Youth Friendly;PRIMARY;PUBLIC;;;
Ibadan North East;Agugu 9;;Agugu Health Post;PRIMARY;PUBLIC;;;
Ibadan North East;Agugu 9;;Koloko Health Centre;PRIMARY;PUBLIC;;;
Ibadan North East;Agugu 9;;Bemel Medical Centre;SECONDARY;PRIVATE;;;
Ibadan North East;Agugu 9;;An-Nur Omosebi Hospital;SECONDARY;PRIVATE;;;
Ibadan North East;Agugu 9;;Gbelekale Hospital;SECONDARY;PRIVATE;;;
Ibadan North East;Irefin 10;;Jobi Memorial Hospital Paadi;SECONDARY;PRIVATE;;;
Ibadan North East;Irefin 10;;Peace Way Maternity;SECONDARY;PRIVATE;;;
Ibadan North East;Irefin 10;;Irefin Health Post;PRIMARY;PUBLIC;;;
Ibadan North East;Basorun 11;;Iwo Road Health Centre;PRIMARY;PUBLIC;;;
Ibadan North East;Basorun 11;;Akeke Health Centre;PRIMARY;PUBLIC;;;
Ibadan North East;Basorun 11;;Tbl Iwo Road;PRIMARY;PUBLIC;;;
Ibadan North East;Basorun 11;;Jolade Hospital;SECONDARY;PRIVATE;;;
Ibadan North East;Basorun 11;;Molly Specialist Hospital;SECONDARY;PRIVATE;;;
Ibadan North East;Basorun 11;;Oluwaseun Maternity Hospital;SECONDARY;PRIVATE;;;
Ibadan North East;Basorun 11;;Kola Adekola Hospital;SECONDARY;PRIVATE;;;
Ibadan North East;Basorun 11;;Jolamade Hospital;SECONDARY;PRIVATE;;;
Ibadan North East;Basorun 11;;Amazing Grace Hospital;SECONDARY;PRIVATE;;;
Ibadan North East;Basorun 11;;Beatrice Hospital;SECONDARY;PRIVATE;;;
Ibadan North East;Basorun 11;;Evangel Medical Idi Ape;SECONDARY;PRIVATE;;;
Ibadan North East;Basorun 11;;Alawaye Hospital Iwo Road;SECONDARY;PRIVATE;;;
Ibadan North East;Oke Adu 12;;Oke Adu Health Centre;PRIMARY;PUBLIC;;;
Ibadan North East;Oke Adu 12;;Oke Badan Health Centre;PRIMARY;PUBLIC;;;
Ibadan North East;Oke Adu 12;;Ogundipe Health Post;PRIMARY;PUBLIC;;;
Ibadan North East;Oke Adu 12;;Ibadan Central Hospital Aromolaran;SECONDARY;PRIVATE;;;
Ibadan North East;Oke Adu 12;;Oluyoro Catholic Hospital Oke Offa;TERTIARY;PRIVATE;;;
Ibadan North East;Oke Adu 12;;Mobolaji Hospital Oluyoro;SECONDARY;PRIVATE;;;
Ibadan North East;Oke Adu 12;;Tenibola Hospital;SECONDARY;PRIVATE;;;
Ibadan South West;Ayeye;;Ayeye Health Centre;PRIMARY;PUBLIC;;;
Ibadan South West;Ayeye;;Bolatife  Maternity & Child;PRIMARY;PRIVATE;;;
Ibadan South West;Opoyeosa;;Opoyesa Health Centre;PRIMARY;PUBLIC;;;
Ibadan South West;Agbaje;;Phc &Outreach ;PRIMARY;PUBLIC;;;
Ibadan South West;Orieru;;Ori Eru Health Centre Idi Kan;PRIMARY;PUBLIC;;;
Ibadan South West;Idikan;;Uch Annex Idi Kan;PRIMARY;PUBLIC;;;
Ibadan South West;Alawo;;Comprehensive Health Centre;PRIMARY;PUBLIC;;;
Ibadan South West;Ekotedo;;Ogunpa Health Center;PRIMARY;PUBLIC;;;
Ibadan South West;Ekotedo;;Army Barrack Mokola;SECONDARY;PUBLIC;;;
Ibadan South West;Ekotedo;;Adeoye Memorial Specialist Hospital Ekotedo;SECONDARY;PRIVATE;;;
Ibadan South West;Ekotedo;;Alafia Hospital Adamasigba;SECONDARY;PRIVATE;;;
Ibadan South West;Ekotedo;;St. Joseph Hospital Akinola;SECONDARY;PRIVATE;;;
Ibadan South West;Ekotedo;;St. Martinas Hospital Ekotedo;SECONDARY;PRIVATE;;;
Ibadan South West;Ekotedo;;Holy Ghost Maternity &Child Welf Queens Cinema;SECONDARY;PRIVATE;;;
Ibadan South West;Ekotedo;;Skyline Hospital Salvation Army;SECONDARY;PRIVATE;;;
Ibadan South West;Ekotedo;;Naomi Hospital;SECONDARY;PRIVATE;;;
Ibadan South West;Ekotedo;;Christus Hospital;SECONDARY;PRIVATE;;;
Ibadan South West;Ekotedo;;Bestcire Hospital;SECONDARY;PRIVATE;;;
Ibadan South West;Oniyanrin;;Oniyanrin Health Center;PRIMARY;PUBLIC;;;
Ibadan South West;Afonta;;Dental Clinic Afonta;PRIMARY;PUBLIC;;;
Ibadan South West;Afonta;;Onireke Health Centre Afonta;PRIMARY;PUBLIC;;;
Ibadan South West;Eleyele;;Police Health Clinic Eleyele;PRIMARY;PUBLIC;;;
Ibadan South West;Eleyele;;Eleyele Health Centre Eleyele;PRIMARY;PUBLIC;;;
Ibadan South West;Eleyele;;Health Clinic School Of Hygiene;PRIMARY;PUBLIC;;;
Ibadan South West;Eleyele;;Unity Medical Eleyele;PRIMARY;PRIVATE;;;
Ibadan South West;Eleyele;;Grace Hospital Eleyele;PRIMARY;PRIVATE;;;
Ibadan South West;Eleyele;;Fumilade Mat Home Eleyele;PRIMARY;PRIVATE;;;
Ibadan South West;Eleyele;;Folmak Clinic $ Child Welfare;PRIMARY;PRIVATE;;;
Ibadan South West;Olopomewa;;Victory Hospital Olopomewa;SECONDARY;PRIVATE;;;
Ibadan South West;Olopomewa;;Shepherd Hospital Olopomewa;SECONDARY;PRIVATE;;;
Ibadan South West;Olopomewa;;Kosehunti H.C;PRIMARY;PRIVATE;;;
Ibadan South West;Olopomewa;;Lilly Hospital;SECONDARY;PRIVATE;;;
Ibadan South West;Omitowoju;;Queen Specialist Hospital Queen Cinema;SECONDARY;PRIVATE;;;
Ibadan South West;Omitowoju;;Kejide Hospital Annex Omitowoju;SECONDARY;PRIVATE;;;
Ibadan South West;Omitowoju;;Solomon Hospital Omitowoju;SECONDARY;PRIVATE;;;
Ibadan South West;Omitowoju;;Tony Clinic Omitowoju;PRIMARY;PRIVATE;;;
Ibadan South East;Eleta;;St Mary Catholic Hospital;SECONDARY;PUBLIC;;;
Ibadan South East;Elekuro;;Elekuro Health Post;PRIMARY;PUBLIC;;;
Ibadan South East;Elekuro;;Awoye Ajike Clinic;PRIMARY;PUBLIC;;;
Ibadan South East;Molete;;Molete Health Center;PRIMARY;PUBLIC;;;
Ibadan South East;Molete;;Ore Ofe Maternity Center;PRIMARY;PRIVATE;;;
Ibadan South East;Iyana Express;;Beloved Hospital;SECONDARY;PUBLIC;;;
Ibadan South East;Iyana Express;;First Life Hospital;SECONDARY;PRIVATE;;;
Ibadan South East;Oranyan;;Oranyan Primary Health Center;PRIMARY;PUBLIC;;;
Ibadan South East;Oranyan;;Jofet Maternity Center;PRIMARY;PRIVATE;;;
Ibadan South East;Agbongbon;;Agbongbon Health Center;PRIMARY;PUBLIC;;;
Ibadan South East;Agbongbon;;Precious Life Maternity Center;SECONDARY;PRIVATE;;;
Ibadan South East;Adesola;;Aperin Health Center;PRIMARY;PUBLIC;;;
Ibadan South East;Adesola;;Beloved Hospital,Orita Aperin;SECONDARY;PRIVATE;;;
Ibadan South East;Adesola;;Emmaculate Hospital;SECONDARY;PRIVATE;;;
Ibadan South East;Boluwayi;;Boluwayi Pry Health Center;PRIMARY;PUBLIC;;;
Ibadan South East;Boluwayi;;Mola Clinic &Mat Center;PRIMARY;PUBLIC;;;
Ibadan South East;Boluwayi;;Gods Power Maternity Center;SECONDARY;PRIVATE;;;
Ibadan South East;Bere /Mapo;;Mapo Health Center;PRIMARY;PUBLIC;;;
Ibadan South East;Bere /Mapo;;Abiyelomo Maternity Center;PRIMARY;PRIVATE;;;
Ibadan South East;Felele;;Felele Health Post;PRIMARY;PUBLIC;;;
Ibadan South East;Felele;;Lad Medical Center;PRIMARY;PRIVATE;;;
Ibadan South East;Felele;;Nasirulahi Hospital;SECONDARY;PRIVATE;;;
Ibadan South East;Felele;;Shallom Medical Center;SECONDARY;PRIVATE;;;
Ibadan South East;Owode Academy;;Abdulahi Medical Center;SECONDARY;PRIVATE;;;
Ibadan South East;Owode Academy;;New Day Hospital;SECONDARY;PRIVATE;;;
Ibadan South East;Owode Academy;;Molisa Special Hospital;SECONDARY;PRIVATE;;;
Ibadan South East;Odinjo;;Odinjo Comprehensive Healthcenter;PRIMARY;PUBLIC;;;
Ibadan South East;Odinjo;;Oyesesan Maternity Center;SECONDARY;PRIVATE;;;
Ibadan South East;Odinjo;;Adeitan Maternity Center;SECONDARY;PRIVATE;;;
Ibadan South West;Orita Merin;;Akere Primary Health ;PRIMARY;PUBLIC;;;
Ibadan South West;Isale Osi;;Oja Oba Primary Health Centre;PRIMARY;PUBLIC;;;
Ibadan South West;Isale Osi;;Bornphoto Primary Health Centre;PRIMARY;PUBLIC;;;
Ibadan South West;Ita Aregbemo-3;;Kososi Primary Health Centre;PRIMARY;PUBLIC;;;
Ibadan South West;Popoyemoja;;Bode Primary Health Centre;PRIMARY;PUBLIC;;;
Ibadan South West;Popoyemoja;;Bolutife Maternity Center;SECONDARY;PUBLIC;;;
Ibadan South West;Foko /Ologede;;Akuro Primary Health Centre;PRIMARY;PUBLIC;;;
Ibadan South West;Amule / Atere;;Foko Primary Health Centre;PRIMARY;PUBLIC;;;
Ibadan South West;Amule / Atere;;Premier Health Clinic;SECONDARY;PRIVATE;;;
Ibadan South West;Agbokojo-7;;Agbokojo Primary Health Centre;PRIMARY;PUBLIC;;;
Ibadan South West;Agbokojo-7;;St Lucia Hospital;SECONDARY;PRIVATE;;;
Ibadan South West;Alesinloye-8;;Nigerian Railway Clinic;SECONDARY;PUBLIC;;;
Ibadan South West;Alesinloye-8;;Cholera Unit;SECONDARY;PUBLIC;;;
Ibadan South West;Alesinloye-8;;Chest Hospital Jericho;SECONDARY;PUBLIC;;;
Ibadan South West;Alesinloye-8;;State Health Office;PRIMARY;PUBLIC;;;
Ibadan South West;Alesinloye-8;;General Hospital Jericho;SECONDARY;PUBLIC;;;
Ibadan South West;Alesinloye-8;;Alesinloye Health Clinic;PRIMARY;PUBLIC;;;
Ibadan South West;Alesinloye-8;;Okebola Primary Health Centre;PRIMARY;PUBLIC;;;
Ibadan South West;Alesinloye-8;;Sharp Corner Primary Health Centre;PRIMARY;PUBLIC;;;
Ibadan South West;Alesinloye-8;;7Th Day Hospital;SECONDARY;PRIVATE;;;
Ibadan South West;Alesinloye-8;;Okeadeo Hospital;SECONDARY;PRIVATE;;;
Ibadan South West;Molete /Okeado 9;;Molete Primary Health Centre;PRIMARY;PUBLIC;;;
Ibadan South West;Molete /Okeado 9;;Molete Tuberculosis Unit;PRIMARY;PUBLIC;;;
Ibadan South West;Molete /Okeado 9;;Christ Way Hospital;SECONDARY;PRIVATE;;;
Ibadan South West;Molete /Okeado 9;;Christ Gospel Salvation;SECONDARY;PRIVATE;;;
Ibadan South West;Molete /Okeado 9;;Crescent Hospital;SECONDARY;PRIVATE;;;
Ibadan South West;Molete /Okeado 9;;Dorjil Hospital;SECONDARY;PRIVATE;;;
Ibadan South West;Molete /Okeado 9;;Evans Vision Center;SECONDARY;PRIVATE;;;
Ibadan South West;Molete /Okeado 9;;Fifty-Fifty Maternity Center;SECONDARY;PRIVATE;;;
Ibadan South West;Molete /Okeado 9;;First Life Hospital;SECONDARY;PRIVATE;;;
Ibadan South West;Molete /Okeado 9;;Icy Medical Clinic;SECONDARY;PRIVATE;;;
Ibadan South West;Molete /Okeado 9;;Immaculate Hospital;SECONDARY;PRIVATE;;;
Ibadan South West;Molete /Okeado 9;;Jvm Hospital;SECONDARY;PRIVATE;;;
Ibadan South West;Molete /Okeado 9;;Jokotola Mem Inf;SECONDARY;PRIVATE;;;
Ibadan South West;Molete /Okeado 9;;Joy Medical Center;SECONDARY;PRIVATE;;;
Ibadan South West;Molete /Okeado 9;;Kam Hospital;SECONDARY;PRIVATE;;;
Ibadan South West;Molete /Okeado 9;;Miracle Maternity Hospital;SECONDARY;PRIVATE;;;
Ibadan South West;Molete /Okeado 9;;New World Specialist Hospital;SECONDARY;PRIVATE;;;
Ibadan South West;Molete /Okeado 9;;Oke Ado Specialis Hosp;SECONDARY;PRIVATE;;;
Ibadan South West;Molete /Okeado 9;;Olaoluwa Medical Center;SECONDARY;PRIVATE;;;
Ibadan South West;Molete /Okeado 9;;Olaojubu Nursing Home;SECONDARY;PRIVATE;;;
Ibadan South West;Molete /Okeado 9;;Olubi Mem Hospital;SECONDARY;PRIVATE;;;
Ibadan South West;Molete /Okeado 9;;Omotayo Maternityhome;SECONDARY;PRIVATE;;;
Ibadan South West;Molete /Okeado 9;;Omowunmi Hospital;SECONDARY;PRIVATE;;;
Ibadan South West;Molete /Okeado 9;;Ponle Mem Hospital;SECONDARY;PRIVATE;;;
Ibadan South West;Molete /Okeado 9;;Planned Parenthood;SECONDARY;PRIVATE;;;
Ibadan South West;Molete /Okeado 9;;Sodun Hospital;SECONDARY;PRIVATE;;;
Ibadan South West;Molete /Okeado 9;;St Claver Hospital;SECONDARY;PRIVATE;;;
Ibadan South West;Molete /Okeado 9;;St  Paul Anglican Church;SECONDARY;PRIVATE;;;
Ibadan South West;Molete /Okeado 9;;Stadium Dental Services;SECONDARY;PRIVATE;;;
Ibadan South West;Molete /Okeado 9;;Toun Memorial Hospital;SECONDARY;PRIVATE;;;
Ibadan South West;Molete /Okeado 9;;Victory Hospital;SECONDARY;PRIVATE;;;
Ibadan South West;Molete /Okeado 9;;White Cross Medical Center;SECONDARY;PRIVATE;;;
Ibadan South West;Molete /Okeado 9;;Ore Oluwa Mat Hospital;SECONDARY;PRIVATE;;;
Ibadan South West;Oke Ado/ Liberty;;Sharp Corner;SECONDARY;PRIVATE;;;
Ibadan South West;Oke Ado/ Liberty;;Ibadan Central Medical Center;SECONDARY;PRIVATE;;;
Ibadan South West;Challenege-11;;Ring Road State Hospital;SECONDARY;PUBLIC;;;
Ibadan South West;Challenege-11;;Oni Memorial Child Hospital;SECONDARY;PUBLIC;;;
Ibadan South West;Challenege-11;;Maxilofacial Unit Ring Road;SECONDARY;PUBLIC;;;
Ibadan South West;Challenege-11;;Oluyole Health Clinic;PRIMARY;PUBLIC;;;
Ibadan South West;Challenege-11;;Apata Health Clinic;PRIMARY;PUBLIC;;;
Ibadan South West;Challenege-11;;Elewure Health Clinic;PRIMARY;PUBLIC;;;
Ibadan South West;Challenege-11;;Awodife Primary Health Centre;PRIMARY;PUBLIC;;;
Ibadan South West;Challenege-11;;Teju Specialist Hospital;SECONDARY;PRIVATE;;;
Ibadan South West;Challenege-11;;Afrk Specialist Hospital;SECONDARY;PRIVATE;;;
Ibadan South West;Challenege-11;;Christ Embassy Gospel Peace;SECONDARY;PRIVATE;;;
Ibadan South West;Challenege-11;;Trinity Hospital &Mat Center;SECONDARY;PRIVATE;;;
Ibadan South West;Challenege-11;;Samaritan Hospital Adeoyo;SECONDARY;PRIVATE;;;
Ibadan South West;Challenege-11;;New Convenant Hospital;SECONDARY;PRIVATE;;;
Ibadan South West;Challenege-11;;New Life Hospital;SECONDARY;PRIVATE;;;
Ibadan South West;Challenege-11;;Monarch Hospital;SECONDARY;PRIVATE;;;
Ibadan South West;Challenege-11;;Metropolitan Specialist Hosp;SECONDARY;PRIVATE;;;
Ibadan South West;Challenege-11;;Medicare Specialist Clinic;SECONDARY;PRIVATE;;;
Ibadan South West;Challenege-11;;May Day Clinic Maternity;SECONDARY;PRIVATE;;;
Ibadan South West;Challenege-11;;Life Care Hospital;SECONDARY;PRIVATE;;;
Ibadan South West;Challenege-11;;Lanark Specialist Hospital;SECONDARY;PRIVATE;;;
Ibadan South West;Challenege-11;;Kings Specialist Hospital;SECONDARY;PRIVATE;;;
Ibadan South West;Challenege-11;;Kejide Specialist Hospital;SECONDARY;PRIVATE;;;
Ibadan South West;Challenege-11;;Kefas Clinic;SECONDARY;PRIVATE;;;
Ibadan South West;Challenege-11;;Jordan Medical Center;SECONDARY;PRIVATE;;;
Ibadan South West;Challenege-11;;Jolaleke Medical Center;SECONDARY;PRIVATE;;;
Ibadan South West;Challenege-11;;Idayat Medical Center;SECONDARY;PRIVATE;;;
Ibadan South West;Challenege-11;;Full House Medical Center;SECONDARY;PRIVATE;;;
Ibadan South West;Challenege-11;;Shiloh Medical Center;SECONDARY;PRIVATE;;;
Ibadan South West;Apata / Odoona;;Mch Apata;PRIMARY;PUBLIC;;;
Ibadan South West;Apata / Odoona;;Adifase Primary Health Clinic;PRIMARY;PUBLIC;;;
Ibadan South West;Apata / Odoona;;Okeayo Primary Health Centre Odo Ona;PRIMARY;PUBLIC;;;
Ibadan South West;Apata / Odoona;;Odo Ona Primary Health Centre;PRIMARY;PUBLIC;;;
Ibadan South West;Apata / Odoona;;Gci Health Center;PRIMARY;PUBLIC;;;
Ibadan South West;Apata / Odoona;;Jola Oluwa;SECONDARY;PRIVATE;;;
Ibadan South West;Apata / Odoona;;Alaafiatayo Mh;SECONDARY;PRIVATE;;;
Ibadan South West;Apata / Odoona;;Adeniji Mat Home;SECONDARY;PRIVATE;;;
Ibadan South West;Apata / Odoona;;World Harvest Ministry;SECONDARY;PRIVATE;;;
Ibadan South West;Apata / Odoona;;St Jacob Mat Center;SECONDARY;PRIVATE;;;
Ibadan South West;Apata / Odoona;;Segun Adeniji Mem Hospital;SECONDARY;PRIVATE;;;
Ibadan South West;Apata / Odoona;;Ore Ofe Clinic Maternity;SECONDARY;PRIVATE;;;
Ibadan South West;Apata / Odoona;;Omowunmi Hospital;SECONDARY;PRIVATE;;;
Ibadan South West;Apata / Odoona;;Cac Opelope Jesu;SECONDARY;PRIVATE;;;
Ibadan South West;Apata / Odoona;;Jaleyemi Hospital ;SECONDARY;PRIVATE;;;
Ibadan South West;Apata / Odoona;;Lafia Hospital;SECONDARY;PRIVATE;;;
Ibadan South West;Apata / Odoona;;Last Hour Message Church Mat;SECONDARY;PRIVATE;;;
Ibadan South West;Apata / Odoona;;Oluwaseun Emilagba Maternity;SECONDARY;PRIVATE;;;
Ibarapa Central;Idere;;Idere Phcc;PRIMARY;PUBLIC;;;
Ibarapa Central;Idere;;Origi Abola Phcc;PRIMARY;PUBLIC;;;
Ibarapa Central;Idere;;Idere Model Phccc;PRIMARY;PUBLIC;;;
Ibarapa Central;Oke Agogo;;Oke Agogo Tuberculosis;PRIMARY;PUBLIC;;;
Ibarapa Central;Oke Agogo;;Igbo Ora Phc;PRIMARY;PUBLIC;;;
Ibarapa Central;Oke Agogo;;Oke Agogo Environment ;PRIMARY;PUBLIC;;;
Ibarapa Central;Igbo Ora;; Phc Igbo Ora;PRIMARY;PUBLIC;;;
Ibarapa Central;Igbo Ora;;Dr Pearson Memorial Hospital;SECONDARY;PRIVATE;;;
Ibarapa Central;Igbo Ora;;Mak Mercy Hospital;SECONDARY;PRIVATE;;;
Ibarapa Central;Igbo Ora;;Adura Clinic&Maternity;SECONDARY;PRIVATE;;;
Ibarapa Central;Igbo Ora;;Aanu Oluwa Mat Center;SECONDARY;PRIVATE;;;
Ibarapa Central;Isale Oba;;Igbo Ora Phc Isale Oba;PRIMARY;PUBLIC;;;
Ibarapa Central;Isale Oba;; Uni Teaching Hospital Annex;SECONDARY;PUBLIC;;;
Ibarapa Central;Isale Oba;;Igbo Ora General Hospital;SECONDARY;PUBLIC;;;
Ibarapa Central;Isale Oba;;Olugbon Maternity Center;SECONDARY;PRIVATE;;;
Ibarapa Central;Oke Ado;;Oke Ado Phcc;PRIMARY;PUBLIC;;;
Ibarapa East;Afuye;;Oke Oba Primary Health Centre Eruwa;PRIMARY;PUBLIC;;;
Ibarapa East;Afuye;;Afuye Primary Health Centre;PRIMARY;PUBLIC;;;
Ibarapa East;Anko;;Anko Primary Health Centre;PRIMARY;PUBLIC;;;
Ibarapa East;Anko;;Anko Health Clinic Eruwa;PRIMARY;PUBLIC;;;
Ibarapa East;Anko;;Tuberculosis Clinic Eruwa;PRIMARY;PUBLIC;;;
Ibarapa East;Temidire;;Temidire Primary Health Centre;PRIMARY;PUBLIC;;;
Ibarapa East;Eruwa I;;Okeola Primary Health Centre Eruwa;PRIMARY;PUBLIC;;;
Ibarapa East;Eruwa I;;Awojobi Clinic;SECONDARY;PRIVATE;;;
Ibarapa East;Eruwa I;;Daily Health Clinic;SECONDARY;PRIVATE;;;
Ibarapa East;Eruwa I;;Rehoboth Hospital;SECONDARY;PRIVATE;;;
Ibarapa East;Eruwaii;;New Primary Health Centre Eruwa;PRIMARY;PUBLIC;;;
Ibarapa East;Eruwaii;;Okoto Primary Health Centre Eruwa;PRIMARY;PUBLIC;;;
Ibarapa East;Eruwaii;;Tooki Maternity And Child Clinic;SECONDARY;PRIVATE;;;
Ibarapa East;Eruwaii;;New Health Clinic;PRIMARY;PUBLIC;;;
Ibarapa East;Okeimale;;Oke Imale Primary Health Centre Lanlate;PRIMARY;PUBLIC;;;
Ibarapa East;Lanlate;;Lanlate Health Clinic;PRIMARY;PUBLIC;;;
Ibarapa East;Lanlate;;Janet Memorial Clinic;SECONDARY;PRIVATE;;;
Ibarapa East;Lanlate;;Omodokun Mat And Child Clinic;SECONDARY;PRIVATE;;;
Ibarapa East;Maya;;Maya Primary Health Centre Lanlate;PRIMARY;PUBLIC;;;
Ibarapa East;Owode;;Owode Primary Health Centre Lanlate;PRIMARY;PUBLIC;;;
Ibarapa East;Alapa;;Ogbodudu Health Clinic Lanlate;PRIMARY;PUBLIC;;;
Ibarapa East;Alapa;;Alapa Health Clinic Lanlate;PRIMARY;PUBLIC;;;
Ibarapa East;Alapa;;Itabo Health Clinic Lanlate;PRIMARY;PUBLIC;;;
Ibarapa North;Tapa-9;;Funmilayo Clinic;PRIMARY;PUBLIC;;;
Ibarapa North;Tapa-9;;Tapa Primary Health Centre;PRIMARY;PUBLIC;;;
Ibarapa North;Tapa-9;;Akindele Clinics;PRIMARY;PUBLIC;;;
Ibarapa North;Tapa-9;;New Estate Clinics;PRIMARY;PUBLIC;;;
Ibarapa North;Ofiki 7;;Alabi Primary Health Centre;PRIMARY;PUBLIC;;;
Ibarapa North;Ofiki 7;;Alagba Phcc;PRIMARY;PUBLIC;;;
Ibarapa North;Idiyun-8;;Akoya Primary Health Centre;PRIMARY;PUBLIC;;;
Ibarapa North;Idiyun-8;;Idiyun Primary Health Centre;PRIMARY;PUBLIC;;;
Ibarapa North;Idiyun-8;;Bello Phcc;PRIMARY;PUBLIC;;;
Ibarapa North;Igangan;;Holly Saviours;SECONDARY;PRIVATE;;;
Ibarapa North;Igangan;;Blessed Clinic ,Igangan;PRIMARY;PUBLIC;;;
Ibarapa North;Igangan;;Phc Oke Ola;PRIMARY;PUBLIC;;;
Ibarapa North;Igangan;;Adio Clinic;PRIMARY;PRIVATE;;;
Ibarapa North;Ayete 2;;Phc Ayete;PRIMARY;PUBLIC;;;
Ibarapa North;Ayete 2;;New Estate Health Center;PRIMARY;PUBLIC;;;
Ibarapa North;Ayete 2;;Layo Clinic;SECONDARY;PRIVATE;;;
Ibarapa North;Ayete 2;;Victory Foundation Clinic;SECONDARY;PRIVATE;;;
Ibarapa North;Ayete;;General Hospital;SECONDARY;PUBLIC;;;
Ibarapa North;Ayete;;Agbala Itunu Health Center;PRIMARY;PUBLIC;;;
Ibarapa North;Asunara;;Asunara Phcc;PRIMARY;PUBLIC;;;
Ibarapa North;Asunara;;Six Bed Hospital. Gangan;PRIMARY;PUBLIC;;;
Ibarapa North;Asunara;;Iseoluwa Clinic;PRIMARY;PRIVATE;;;
Ido;Ilaju;;Ilaju Health Centre;PRIMARY;PUBLIC;;;
Ido;Akufo;;Akufo Health Centre;PRIMARY;PUBLIC;;;
Ido;Akinware/ Akindele;;Akinware Health Centre;PRIMARY;PUBLIC;;;
Ido;Akinware/ Akindele;;Akindele Health Centre;PRIMARY;PUBLIC;;;
Ido;Apete;;Apete Health Centre;PRIMARY;PUBLIC;;;
Ido;Apete;;Hope Medical Center;SECONDARY;PRIVATE;;;
Ido;Apete;;Formok Hospital;SECONDARY;PRIVATE;;;
Ido;Apete;;Durotolu Clinic;SECONDARY;PRIVATE;;;
Ido;Apete;;Alwajud Clinic;SECONDARY;PRIVATE;;;
Ido;Apete;;Lilly Hospital & Mat;SECONDARY;PRIVATE;;;
Ido;Apete;;Movin Hospital;SECONDARY;PRIVATE;;;
Ido;Apete;;Sherifdeen Olaadua Mat;SECONDARY;PRIVATE;;;
Ido;Apete;;Rehoboth Clinic;SECONDARY;PRIVATE;;;
Ido;Apete;;Real Light Mission Home;SECONDARY;PRIVATE;;;
Ido;Apete;;Triumphant Mission Mat Home;SECONDARY;PRIVATE;;;
Ido;Apete;;Ologuneru Health Post;PRIMARY;PUBLIC;;;
Ido;Ladunin;;Ladunni Health Centre;PRIMARY;PUBLIC;;;
Ido;Araromi;;Araromi Idowu Health Centre;PRIMARY;PUBLIC;;;
Ido;Araromi;;Odetola Health Centre;PRIMARY;PUBLIC;;;
Ido;Araromi;;Erinwusi Health Post;PRIMARY;PUBLIC;;;
Ido;Araromi;;Koguo Health Post;PRIMARY;PUBLIC;;;
Ido;Gbekuba;;Gbekuba Health Centre;PRIMARY;PUBLIC;;;
Ido;Gbekuba;;Ebun Hospital;SECONDARY;PRIVATE;;;
Ido;Ido;;Ido Health Centre;PRIMARY;PUBLIC;;;
Ido;Omi Adio;;Omi Adio Health Centre;PRIMARY;PUBLIC;;;
Ido;Omi Adio;;Abiye Mat Home;SECONDARY;PRIVATE;;;
Ido;Omi Adio;;Aisha Hospital;SECONDARY;PRIVATE;;;
Ido;Omi Adio;;Baptist Cottage Hospital;SECONDARY;PRIVATE;;;
Ido;Omi Adio;;Christ Foundation Mat ;SECONDARY;PRIVATE;;;
Ido;Omi Adio;;Durotoluwa Clinic;SECONDARY;PRIVATE;;;
Ido;Omi Adio;;Emiloju Clinic;SECONDARY;PRIVATE;;;
Ido;Omi Adio;;Halleluyah Mat Home;SECONDARY;PRIVATE;;;
Ido;Omi Adio;;Ibukun Olu Maternity Home;SECONDARY;PRIVATE;;;
Ido;Omi Adio;;Nissi  Mat Home;SECONDARY;PRIVATE;;;
Ido;Omi Adio;;Odere Mat Home;SECONDARY;PRIVATE;;;
Ido;Omi Adio;;Tinuade Mat Home;SECONDARY;PRIVATE;;;
Ido;Omi Adio;;Titilope Health Care;SECONDARY;PRIVATE;;;
Ido;Omi Adio;;Twins Clinic And Maternity;SECONDARY;PRIVATE;;;
Ido;Omi Adio;;Oluwaseun Clinic & Maternity ;SECONDARY;PRIVATE;;;
Ido;Omi Adio;;Ranti Maternity Home;SECONDARY;PRIVATE;;;
Ido;Omi Adio;;Lafia Hospital;SECONDARY;PRIVATE;;;
Ido;Oloya;;Leo Health Centre;PRIMARY;PUBLIC;;;
Ido;Oloya;;Oloya Health Post;PRIMARY;PUBLIC;;;
Ido;Oloya;;Alaho Health Post;PRIMARY;PUBLIC;;;
Ido;Oloya;;Agbopa Health Post;PRIMARY;PUBLIC;;;
Irepo;Agoro;;Ajangba Phc;PRIMARY;PUBLIC;;;
Irepo;Ajagana;;Molete Phc;PRIMARY;PUBLIC;;;
Irepo;Ajagana;;Ronke Clinic;PRIMARY;PRIVATE;;;
Irepo;Atipa;;Atipa Phc;PRIMARY;PUBLIC;;;
Irepo;Iba I ;;Agede Phc;PRIMARY;PUBLIC;;;
Irepo;Iba I ;;Mayokun Hospital;SECONDARY;PRIVATE;;;
Irepo;Iba I ;;Alikidam Clinic;PRIMARY;PRIVATE;;;
Irepo;Iba Ii;;Olorunsogo Model Phc;PRIMARY;PUBLIC;;;
Irepo;Iba Iii  ;;Koso Phc ;PRIMARY;PUBLIC;;;
Irepo;Iba Iii  ;;Alafia Tayo Hospital;SECONDARY;PRIVATE;;;
Irepo;Iba Iv ;;Mapo Phc;PRIMARY;PUBLIC;;;
Irepo;Iba V Tege;;Tege Phc;PRIMARY;PUBLIC;;;
Irepo;Iba V Tege;;Kisi General Hospital;SECONDARY;PUBLIC;;;
Irepo;Iba V Tege;;Arapanojo Clinic;PRIMARY;PRIVATE;;;
Irepo;Iba V Tege;;Muslem Hospital;SECONDARY;PRIVATE;;;
Irepo;Ikolaba;;Adagbangba Phc;PRIMARY;PUBLIC;;;
Irepo;Laha Ajana;;Kisi District Hospital;SECONDARY;PUBLIC;;;
Irepo;Laha Ajana;;Opeolu Clinic;PRIMARY;PRIVATE;;;
Irepo;Laha Ajana;;Sooro Phc;PRIMARY;PUBLIC;;;
Irepo;Laha Ajana;;Ope Olu Maternity Home;SECONDARY;PRIVATE;;;
Irepo;Laha Ajana;;Ejire Maternity Child Welfare;SECONDARY;PRIVATE;;;
Iseyin;Ado Awaye;;Ado Awaye General Hospital;SECONDARY;PUBLIC;;;
Iseyin;Ado Awaye;;Ado Awaye Maternity Center;PRIMARY;PUBLIC;;;
Iseyin;Ado Awaye;;Odo Ogun Maternity Center;PRIMARY;PUBLIC;;;
Iseyin;Ado Awaye;;Ore Ofe Home Clinic;PRIMARY;PRIVATE;;;
Iseyin;Akinwumi/ Osoogun;;Bishop Ajayi Crowther Mat Center;PRIMARY;PUBLIC;;;
Iseyin;Akinwumi/ Osoogun;;Ogboolasa Maternity Center;PRIMARY;PUBLIC;;;
Iseyin;Akinwumi/ Osoogun;;Aba Baale Health Clinic;PRIMARY;PUBLIC;;;
Iseyin;Ekunle 1;;Ode Oba Maternity Center;PRIMARY;PUBLIC;;;
Iseyin;Ekunle 1;;Iseyin General Hospital;SECONDARY;PUBLIC;;;
Iseyin;Ekunle 1;;Fsp Maternity Center, Iseyin;PRIMARY;PUBLIC;;;
Iseyin;Ekunle 1;;Tbl Clinic , Ode Oba;PRIMARY;PUBLIC;;;
Iseyin;Ekunle 1;;Hope Rising Hospital;SECONDARY;PRIVATE;;;
Iseyin;Ekunle 1;;Fadok Hospital, Iseyin;SECONDARY;PRIVATE;;;
Iseyin;Ekunle 1;;Mojoyinola Mat & Child Welf Clinic;PRIMARY;PRIVATE;;;
Iseyin;Ekunle Ii;;Ekunle Maternity Center Ago Mokeye;PRIMARY;PUBLIC;;;
Iseyin;Ekunle Ii;;Apenpe Health Clinic Apenpe;PRIMARY;PUBLIC;;;
Iseyin;Ekunle Ii;;Bishop Ajayi Crowther Mat Center;PRIMARY;PUBLIC;;;
Iseyin;Faramola;;Faramola Maternity Center;PRIMARY;PUBLIC;;;
Iseyin;Faramola;;Mahjuah Mat Home Clinic Faramora;SECONDARY;PRIVATE;;;
Iseyin;Okeola/ Oke Oja;;Oke Ola Maternity Center;PRIMARY;PUBLIC;;;
Iseyin;Okeola/ Oke Oja;;Ayesebotan Maternity & Child Center;PRIMARY;PRIVATE;;;
Iseyin;Isalu I;;Isalu Maternity Center Isalu;PRIMARY;PUBLIC;;;
Iseyin;Isalu I;;Otiri Health Center Otiri;PRIMARY;PUBLIC;;;
Iseyin;Isalu I;;Our Lady Catholic Hospital,Iseyin;SECONDARY;PRIVATE;;;
Iseyin;Isalu I;;Anwarul Islam Hospital Omoloju;SECONDARY;PRIVATE;;;
Iseyin;Isalu I;;Ogo Oluwa Maternity Home;PRIMARY;PRIVATE;;;
Iseyin;Isalu I;;Opeloyeru Maternity &Child Welfare;PRIMARY;PRIVATE;;;
Iseyin;Isalu I;;Agbejemate Hospital Ode Lalubi;PRIMARY;PRIVATE;;;
Iseyin;Isalu Ii;;Gboro Maternity Center, Gboro;PRIMARY;PUBLIC;;;
Iseyin;Isalu Ii;;Alayin Health Clinic;PRIMARY;PUBLIC;;;
Iseyin;Isalu Ii;;Gbokoyin Health Clinic;PRIMARY;PUBLIC;;;
Iseyin;Koso I;;Koso Maternity Center;PRIMARY;PUBLIC;;;
Iseyin;Koso I;;Asiawu Adesina Mem Hospital Iseyin;PRIMARY;PUBLIC;;;
Iseyin;Koso I;;Ogundele Mem Hospital Oja Agbe;SECONDARY;PRIVATE;;;
Iseyin;Koso Ii;;Ilado Maternity Center Oke Gbegi;PRIMARY;PUBLIC;;;
Iseyin;Koso Ii;;Funmi Yemi Welfare Center Malete;SECONDARY;PRIVATE;;;
Iseyin;Koso Ii;;Gbemi Well Maternity Center, Malete;SECONDARY;PRIVATE;;;
Iseyin;Koso Ii;;Blessed Maternity Home Clinic;PRIMARY;PRIVATE;;;
Iseyin;Koso Ii;;Ojeke Maternity Home;PRIMARY;PRIVATE;;;
Iseyin;Ladogan/Oke Eyin;;Olugbade Maternity Center , Olugbade;PRIMARY;PUBLIC;;;
Iseyin;Ladogan/Oke Eyin;;Faith Foundation Hosp. Oremoje;SECONDARY;PRIVATE;;;
Iseyin;Ladogan/Oke Eyin;;Alebiosun Mat &Child Welfare Oremoje;SECONDARY;PRIVATE;;;
Iseyin;Ladogan/Oke Eyin;;Awidere Maternity Center Ladogan;PRIMARY;PRIVATE;;;
Iseyin;Ladogan/Oke Eyin;;Anu Oluwa Po Mat Center;PRIMARY;PRIVATE;;;
Iseyin;Ladogan/Oke Eyin;;Teju Specialist Hosp Oluwole;SECONDARY;PRIVATE;;;
Iseyin;Ladogan/Oke Eyin;;Mercy Land Maternity Home Clinic;SECONDARY;PRIVATE;;;
Itesiwaju;Babaode;;Babaode Phc Center;PRIMARY;PUBLIC;;;
Itesiwaju;Babaode;;Ajetumobi Clinic Out;PRIMARY;PRIVATE;;;
Itesiwaju;Igbojaye;;Ajelanwa Phc;PRIMARY;PUBLIC;;;
Itesiwaju;Igbojaye;;Igbojaye Phcc;PRIMARY;PUBLIC;;;
Itesiwaju;Ipapo;;Gaa Roga Fulani Phcc;PRIMARY;PUBLIC;;;
Itesiwaju;Ipapo;;Ipapo Phcc;PRIMARY;PUBLIC;;;
Itesiwaju;Ipapo;;Holy Way Bethel Hosp;SECONDARY;PRIVATE;;;
Itesiwaju;Ipapo;;Sepherhed Health Mission Center;PRIMARY;PRIVATE;;;
Itesiwaju;Komu;;Ibise Komu Phcc;PRIMARY;PUBLIC;;;
Itesiwaju;Komu;;Npi;PRIMARY;PUBLIC;;;
Itesiwaju;Komu;;Ilesan Komu Phcc;PRIMARY;PUBLIC;;;
Itesiwaju;Okaka I;;Adegbodu Kusa Phcc;PRIMARY;PUBLIC;;;
Itesiwaju;Okaka I;;Okaka General Hospital;SECONDARY;PRIVATE;;;
Itesiwaju;Okaka Ii;;Okaka Phcc;PRIMARY;PUBLIC;;;
Itesiwaju;Oke Amu;;Opoo Phcc;PRIMARY;PUBLIC;;;
Itesiwaju;Oke Amu;;Oke Amu Phcc;PRIMARY;PUBLIC;;;
Itesiwaju;Oke Amu;;Cottage Clinic Oke Omu;PRIMARY;PUBLIC;;;
Itesiwaju;Oke Amu;;Dental Clinic;PRIMARY;PUBLIC;;;
Itesiwaju;Out Ilesan;;Leemp Health Clinic;PRIMARY;PUBLIC;;;
Itesiwaju;Out Ilesan;;Out Comprehensive Health Center;PRIMARY;PUBLIC;;;
Itesiwaju;Out Ibise;;Praise Medical Center;SECONDARY;PRIVATE;;;
Itesiwaju;Owode Ipapo;;Holyland Hospital Out;SECONDARY;PRIVATE;;;
Itesiwaju;Owode Ipapo;;Ifelodun Phcc;PRIMARY;PUBLIC;;;
Itesiwaju;Owode Ipapo;;Owode Phcc;PRIMARY;PUBLIC;;;
Itesiwaju;Owode Ipapo;;Temidire Phcc;PRIMARY;PUBLIC;;;
Iwajowa;Sabiganna;;Lam Adesina Phc Centre Sabigannna;PRIMARY;PUBLIC;;;
Iwajowa;Sabiganna;;Iya Abiye Mat &Child Clinic;SECONDARY;PRIVATE;;;
Iwajowa;Ofeegun;;Egbonron Health Clinic;PRIMARY;PUBLIC;;;
Iwajowa;Ofeegun;;Ofeegun Health Centre;PRIMARY;PUBLIC;;;
Iwajowa;Ofeegun;;Oluwatobi Clinic;SECONDARY;PRIVATE;;;
Iwajowa;Ofeegun;;Eleru Health Centre;PRIMARY;PUBLIC;;;
Iwajowa;Iwereile;;Iwereile Phc;PRIMARY;PUBLIC;;;
Iwajowa;Iwereile;;Iwereile Secretariat Clinic;PRIMARY;PUBLIC;;;
Iwajowa;Iwereile;;Iwereile Model Phc;PRIMARY;PUBLIC;;;
Iwajowa;Iwereile;;Gbemide Hospital Mat;SECONDARY;PRIVATE;;;
Iwajowa;Iwereile;;Our Lady Hospital;SECONDARY;PRIVATE;;;
Iwajowa;Itasa Idikoayo;;Itasa Health Centre;PRIMARY;PUBLIC;;;
Iwajowa;Itasa Idikoayo;;Idikoayo Health Centre;PRIMARY;PUBLIC;;;
Iwajowa;Ilaji-Idiko;;Ilajiile Health Centre;PRIMARY;PUBLIC;;;
Iwajowa;Ilaji-Idiko;;Idikoile Health Centre;PRIMARY;PUBLIC;;;
Iwajowa;Ijio Ayegun;;Ijio Primary Health Centre;PRIMARY;PUBLIC;;;
Iwajowa;Ijio Ayegun;;Ayegun Health Centre;PRIMARY;PUBLIC;;;
Iwajowa;Balogunjoloko;;Joloko Health Centre;PRIMARY;PUBLIC;;;
Iwajowa;Elekokan;;Olokunola Health Centre;PRIMARY;PUBLIC;;;
Iwajowa;Elekokan;;Karimu Health Centre;PRIMARY;PUBLIC;;;
Iwajowa;Elekokan;;Elekokan Health Centre;PRIMARY;PUBLIC;;;
Iwajowa;Elekokan;;Abule Tapa Health Centre;PRIMARY;PUBLIC;;;
Kajola;Ayetoro;;Ayetoro Oke Phcc;PRIMARY;PUBLIC;;;
Kajola;Agbagi Ilero ;;Agbagi Ilero Phc;PRIMARY;PUBLIC;;;
Kajola;Agbagi Ilero ;;Adekunle Phc Clinic;PRIMARY;PUBLIC;;;
Kajola;Agbagi Ilero ;;Bode Okeho Phc;PRIMARY;PUBLIC;;;
Kajola;Ijio;;Elewure ;PRIMARY;PUBLIC;;;
Kajola;Ilaji;;Ilaji Phc;PRIMARY;PUBLIC;;;
Kajola;Ilua/Isemiile;;Ilua Phcc;PRIMARY;PUBLIC;;;
Kajola;Ilua/Isemiile;;Igbogaa Phc;PRIMARY;PUBLIC;;;
Kajola;Ilua/Isemiile;;Isemi Ile Phcc;PRIMARY;PUBLIC;;;
Kajola;Okeho;;Gbonje Okeho Primary Health Centre;PRIMARY;PUBLIC;;;
Kajola;Okeho;;Okeho General Hospital;PRIMARY;PUBLIC;;;
Kajola;Okeho;;Npi Office Okeho;PRIMARY;PUBLIC;;;
Kajola;Okeho;;Tuberculosis And Leprosy Clinic;PRIMARY;PUBLIC;;;
Kajola;Okeho;;Ijio Okeho Phcc;PRIMARY;PUBLIC;;;
Kajola;Okeho;;Isia Okeho Phcc;PRIMARY;PUBLIC;;;
Kajola;Okeho;;Yemi Clinic;SECONDARY;PRIVATE;;;
Kajola;Okeho;;Wuraola Hospital;SECONDARY;PRIVATE;;;
Kajola;Okeho;;Baptist Medical Center Okeho;SECONDARY;PRIVATE;;;
Kajola;Ilero;;Ilero Phc Center;PRIMARY;PUBLIC;;;
Kajola;Ilero;;Baptist Medical Center Ilero;SECONDARY;PRIVATE;;;
Kajola;Ilero;;Balogun Royal Clinic;SECONDARY;PRIVATE;;;
Kajola;Ilero;;Oluwa Tomi Medical Center;SECONDARY;PRIVATE;;;
Lagelu;Iyana Church-5;;Ayokemi Hospital;SECONDARY;PRIVATE;;;
Lagelu;Iyana Church-5;;Adonai Hospital;SECONDARY;PRIVATE;;;
Lagelu;Iyana Church-5;;Elewi Odo Phcc;PRIMARY;PUBLIC;;;
Lagelu;Iyana Church-5;;Iyana Church Phcc;PRIMARY;PUBLIC;;;
Lagelu;Kutayi;;Kutayi, General Hospital;SECONDARY;PRIVATE;;;
Lagelu;Offa Igbo;;Offa Igbo Phc;PRIMARY;PUBLIC;;;
Lagelu;Offa Igbo;;Akinsawe Phcc;PRIMARY;PUBLIC;;;
Lagelu;Olorunda -I;;Olorunda Phcc;PRIMARY;PUBLIC;;;
Lagelu;Olorunda Ii;;Alegongo Phcc;PRIMARY;PUBLIC;;;
Lagelu;Monatan;;Monatan Phcc;PRIMARY;PUBLIC;;;
Lagelu;Monatan;;Elewuodo Phcc;PRIMARY;PUBLIC;;;
Lagelu;Monatan;;Akitiko Health Center;PRIMARY;PUBLIC;;;
Lagelu;Monatan;;Idera Maternity ;PRIMARY;PUBLIC;;;
Lagelu;Monatan;;Ayokemi Hospital;SECONDARY;PRIVATE;;;
Lagelu;Monatan;;Okiki Ayabiye Mat Center;PRIMARY;PUBLIC;;;
Lagelu;Ogunremi;;Ogunremi Phcc;PRIMARY;PUBLIC;;;
Lagelu;Ore Ii;;Lagun General Hospital;SECONDARY;PUBLIC;;;
Lagelu;Lalupon-7;;Lalupon Phcc;PRIMARY;PUBLIC;;;
Lagelu;Ore 1;;Ore Phcc;PRIMARY;PUBLIC;;;
Lagelu;Oyedeji;;Oyedeji Phcc;PRIMARY;PUBLIC;;;
Lagelu;Oyedeji;;Adeoto Mem Hospital;SECONDARY;PRIVATE;;;
Lagelu;Oyedeji;;Bamby Specialist Hospital;SECONDARY;PRIVATE;;;
Lagelu;Oyedeji;;Chrisbo Medical Center ;SECONDARY;PRIVATE;;;
Lagelu;Ejioku -4;;Ejioku Phcc;PRIMARY;PUBLIC;;;
Lagelu;Ejioku -4;;Elegbada Phcc;PRIMARY;PUBLIC;;;
Lagelu;Ejioku -4;;Fakeye Mat Center;PRIMARY;PUBLIC;;;
Lagelu;Ejioku -4;;Alafia Mat And Welfare;SECONDARY;PRIVATE;;;
Lagelu;Ejioku -4;;Idera Maternity Home;SECONDARY;PRIVATE;;;
Lagelu;Sagbe 14;;Sagbe Health Clinic;PRIMARY;PUBLIC;;;
Ogbomoso North;Abogunde/ Alasa;;Baaki Health Centre;PRIMARY;PUBLIC;;;
Ogbomoso North;Abogunde/ Alasa;;Abogunde/Alasa Health Centre;PRIMARY;PUBLIC;;;
Ogbomoso North;Abogunde/ Alasa;;Oluwaseun Hospita;SECONDARY;PRIVATE;;;
Ogbomoso North;Masifa;;Masifa Health Centre;PRIMARY;PUBLIC;;;
Ogbomoso North;Masifa;;Oyenihun Clinic And Mat;SECONDARY;PRIVATE;;;
Ogbomoso North;Masifa;;Olayonu Hospital;SECONDARY;PRIVATE;;;
Ogbomoso North;Isale Afon;;Ibrahim Taiwo Primary Health Centre;PRIMARY;PUBLIC;;;
Ogbomoso North;Isale Afon;;Florence Hospital;PRIMARY;PRIVATE;;;
Ogbomoso North;Isale Afon;;Damilare Maternity ;SECONDARY;PRIVATE;;;
Ogbomoso North;Isale Afon;;Providence Hospital;SECONDARY;PRIVATE;;;
Ogbomoso North;Saja/ Isale Ora;;Oladeji Hosp;SECONDARY;PRIVATE;;;
Ogbomoso North;Saja/ Isale Ora;;Olaoluwa Hosp;SECONDARY;PRIVATE;;;
Ogbomoso North;Saja/ Isale Ora;;Blue Cross Hosp;SECONDARY;PRIVATE;;;
Ogbomoso North;Jagun;;Jagun Phc;SECONDARY;PUBLIC;;;
Ogbomoso North;Okelerin;;Okelerin Primary Health Centre;PRIMARY;PUBLIC;;;
Ogbomoso North;Osupa;;Osupa Health Centre;PRIMARY;PUBLIC;;;
Ogbomoso North;Osupa;;Aje Ikose Health Centre;PRIMARY;PUBLIC;;;
Ogbomoso North;Osupa;;Ikose Health Centre;PRIMARY;PUBLIC;;;
Ogbomoso North;Osupa;;Baptist Medical Center;TERTIARY;PRIVATE;;;
Ogbomoso North;Osupa;;Bethel Hospital;SECONDARY;PRIVATE;;;
Ogbomoso North;Osupa;;Calvary Hospital;SECONDARY;PRIVATE;;;
Ogbomoso North;Osupa;;Ebunoluwa Hospital;SECONDARY;PRIVATE;;;
Ogbomoso North;Osupa;;Formwan Maternity;SECONDARY;PRIVATE;;;
Ogbomoso North;Osupa;;Ireti Olu Hospital;SECONDARY;PRIVATE;;;
Ogbomoso North;Osupa;;Living Spring Medical Hospital;SECONDARY;PRIVATE;;;
Ogbomoso North;Osupa;;Orilonise Conv. Home;SECONDARY;PRIVATE;;;
Ogbomoso North;Osupa;;Elizabeth Hospital;SECONDARY;PRIVATE;;;
Ogbomoso North;Sabo/Tafaa;;Ladoke Akintola University Teaching Hospital;TERTIARY;PUBLIC;;;
Ogbomoso North;Sabo/Tafaa;;Tafaa Health Centre;PRIMARY;PUBLIC;;;
Ogbomoso North;Sabo/Tafaa;;Shalom Medical Hospital;SECONDARY;PRIVATE;;;
Ogbomoso North;Sabo/Tafaa;;Olatorera Hospital;SECONDARY;PRIVATE;;;
Ogbomoso North;Sabo/Tafaa;;Jubilee Hospital;SECONDARY;PRIVATE;;;
Ogbomoso North;Sabo/Tafaa;;Iretiolu Hospital;SECONDARY;PRIVATE;;;
Ogbomoso North;Sabo/Tafaa;;Jolaade Hospital;SECONDARY;PRIVATE;;;
Ogbomoso South;Alapata;;Alapata Health Post;PRIMARY;PUBLIC;;;
Ogbomoso South;Alapata;;Ladutan Hospital;SECONDARY;PRIVATE;;;
Ogbomoso South;Alapata;;Olaolu Welfare Health Center;PRIMARY;PRIVATE;;;
Ogbomoso South;Alapata;;Ayo Oluwa Child & Welfare Center;PRIMARY;PRIVATE;;;
Ogbomoso South;Alapata;;Ife Oluwa Clinics;PRIMARY;PRIVATE;;;
Ogbomoso South;Alapata;;Titilayo Oluwa Mat Center;PRIMARY;PRIVATE;;;
Ogbomoso South;Oke Ola;;Oke Ola Health Post ;PRIMARY;PUBLIC;;;
Ogbomoso South;Akata ;;Akata Health Post;PRIMARY;PUBLIC;;;
Ogbomoso South;Akata ;;Anu Oluwapo Clinics;SECONDARY;PRIVATE;;;
Ogbomoso South;Akata ;;Ogo Oluwa Hosiptal;SECONDARY;PRIVATE;;;
Ogbomoso South;Arowomole;;Arowomole Model Health Center;PRIMARY;PUBLIC;;;
Ogbomoso South;Arowomole;;Yinka Clinics;SECONDARY;PRIVATE;;;
Ogbomoso South;Arowomole;;Miracle Clinics;SECONDARY;PRIVATE;;;
Ogbomoso South;Ibapon;;Agric Health Post;PRIMARY;PUBLIC;;;
Ogbomoso South;Ibapon;;Lagbedu Health Post;PRIMARY;PUBLIC;;;
Ogbomoso South;Ibapon;;Surulere Health Post;PRIMARY;PUBLIC;;;
Ogbomoso South;Ibapon;;Iyawo Ogun Health Post;PRIMARY;PUBLIC;;;
Ogbomoso South;Ibapon;;Adebayo Alata Health Post;PRIMARY;PUBLIC;;;
Ogbomoso South;Ibapon;;Ayetoro Phcc;PRIMARY;PUBLIC;;;
Ogbomoso South;Ibapon;;Randa Health Center;PRIMARY;PUBLIC;;;
Ogbomoso South;Ijeru;;Ijeru Health Post;PRIMARY;PUBLIC;;;
Ogbomoso South;Isoko;;Isoko Health Post;PRIMARY;PUBLIC;;;
Ogbomoso South;Ilogbo;;Ilogbo Phcc;PRIMARY;PUBLIC;;;
Ogo Oluwa;Ajaawa;;Ajaawa Model Health Center;PRIMARY;PUBLIC;;;
Ogo Oluwa;Ajaawa;;Ajaawa Tbl Clinic;PRIMARY;PUBLIC;;;
Ogo Oluwa;Ajaawa;;Idi -Ori Health Clinic;PRIMARY;PUBLIC;;;
Ogo Oluwa;Ajaawa;;Agboola Clinic &Maternity Ajaawa;PRIMARY;PRIVATE;;;
Ogo Oluwa;Ajaawa;;Omu Iya Dun Clinic  &Maternity Ajaawa;PRIMARY;PRIVATE;;;
Ogo Oluwa;Osupa;;Ojutaye Phc Center;PRIMARY;PUBLIC;;;
Ogo Oluwa;Osupa;;Obanisua  Phc Center;PRIMARY;PUBLIC;;;
Ogo Oluwa;Ayede;;Ayede Phc Center;PRIMARY;PUBLIC;;;
Ogo Oluwa;Ayede;;Odofo Phc Center;PRIMARY;PUBLIC;;;
Ogo Oluwa;Ayetoro;;Olokoo Phc Center;PRIMARY;PUBLIC;;;
Ogo Oluwa;Ayetoro;;Iroo Phc Center;PRIMARY;PUBLIC;;;
Ogo Oluwa;Idewure;;Idewure Phc Center;PRIMARY;PUBLIC;;;
Ogo Oluwa;Idewure;;Hephzibah Clinic & Mat Idewure;PRIMARY;PRIVATE;;;
Ogo Oluwa;Idewure;;Ajoke Clinic & Maternity;PRIMARY;PRIVATE;;;
Ogo Oluwa;Iwo Ate;;Iwo Ate Phc Center;PRIMARY;PUBLIC;;;
Ogo Oluwa;Iwo Ate;;Mowolowo Phc Center;PRIMARY;PUBLIC;;;
Ogo Oluwa;Iwo Ate;;Ike Olu Clinic & Maternity Iwo Ate;PRIMARY;PRIVATE;;;
Ogo Oluwa;Lagbedu;;Lagbedu Phc Center;PRIMARY;PUBLIC;;;
Ogo Oluwa;Lagbedu;;Pontela Akinola Phc Center;PRIMARY;PUBLIC;;;
Ogo Oluwa;Lagbedu;;Pontela Olode Phc Center;PRIMARY;PUBLIC;;;
Ogo Oluwa;Lagbedu;;Karaole Clinic & Maternity Pontela Akinola;PRIMARY;PRIVATE;;;
Ogo Oluwa;Odo Oba;;Odo Oba Health Clinic;PRIMARY;PUBLIC;;;
Ogo Oluwa;Odo Oba;;Safeway Clinic Maternity;SECONDARY;PRIVATE;;;
Ogo Oluwa;Odo Oba;;Omoade Maternity &Child;SECONDARY;PRIVATE;;;
Ogo Oluwa;Odo Oba;;Ona Ara Clinic & Maternity;SECONDARY;PRIVATE;;;
Ogo Oluwa;Odo Oba;;Mayowa Clinic;SECONDARY;PRIVATE;;;
Ogo Oluwa;Opete;;Opete Phc Center;PRIMARY;PUBLIC;;;
Ogo Oluwa;Opete;;Ayegun Yemetu Phcc;PRIMARY;PUBLIC;;;
Ogo Oluwa;Opete;;Igbole Oje Health Clinic;PRIMARY;PUBLIC;;;
Ogo Oluwa;Opete;;Ife Oluwa Clinic &Mat Idi Araba;PRIMARY;PRIVATE;;;
Ogo Oluwa;Otamokun;;Otamokun Phcc;PRIMARY;PUBLIC;;;
Ogo Oluwa;Otamokun;;Elega Phcc;PRIMARY;PUBLIC;;;
Ogo Oluwa;Otamokun;;Elesade Phcc;PRIMARY;PUBLIC;;;
Ogo Oluwa;Otamokun;;Ibere Phcc;PRIMARY;PUBLIC;;;
Ogo Oluwa;Otamokun;;Alaruru Health Clinic;PRIMARY;PUBLIC;;;
Olorunsogo;Aboke Iii;;Igbeti General Hospital;SECONDARY;PUBLIC;;;
Olorunsogo;Aboke I;;Owode Phcc;PRIMARY;PUBLIC;;;
Olorunsogo;Aboke Ii;;Dogo Leemp Health Centre;PRIMARY;PUBLIC;;;
Olorunsogo;Aboke Ii;;Anu Olu Clinic Dogo;PRIMARY;PRIVATE;;;
Olorunsogo;Aboke Ii;;Bethsaida Hospital;PRIMARY;PRIVATE;;;
Olorunsogo;Aboke Ii;;Ronke Clinic;PRIMARY;PRIVATE;;;
Olorunsogo;Ikolaba;;Ogunte Nla Phc Centre;PRIMARY;PUBLIC;;;
Olorunsogo;Ikolaba;;Omotayo Clinic;SECONDARY;PRIVATE;;;
Olorunsogo;Ikolaba;;Ogunte  Nla Omolayo Hospital;SECONDARY;PRIVATE;;;
Olorunsogo;Onigbeti;;Oke Aree Phc Centre;PRIMARY;PUBLIC;;;
Olorunsogo;Agoro;;Asunmode Phc Centre;PRIMARY;PUBLIC;;;
Olorunsogo;Agoro;;Tbl/Leprosy Unit $ Central Pharmacy Store;PRIMARY;PUBLIC;;;
Olorunsogo;Agbeni;;Oke-Ibukun Phc Centre;PRIMARY;PUBLIC;;;
Olorunsogo;Agbeni;;Adelowo Clinic/Maternity,Kisi Road;SECONDARY;PRIVATE;;;
Olorunsogo;Agbeni;;Ashfau Convelescent Home,Boni Road;SECONDARY;PRIVATE;;;
Olorunsogo;Opa Ogundiran;;Ogundiran Phc Centre;PRIMARY;PUBLIC;;;
Olorunsogo;Opa Ogundiran;;Tesi Garuba Phc Centre;PRIMARY;PUBLIC;;;
Olorunsogo;Opa Ogundiran;;Gaa Alh.Saliu Phc Centre;PRIMARY;PUBLIC;;;
Olorunsogo;Opa Ogundiran;;Gaa Tairu Phc Centre;PRIMARY;PUBLIC;;;
Olorunsogo;Opa Ogundiran;;Tesi Garuba Leemp H/Centre;PRIMARY;PUBLIC;;;
Olorunsogo;Opa Ogundiran;;Alawa Leemp H/Centre;PRIMARY;PUBLIC;;;
Olorunsogo;Seriki;;Oju-Oja Phc Centre;PRIMARY;PUBLIC;;;
Olorunsogo;Agbele;;Ologbon Phc Centre;PRIMARY;PUBLIC;;;
Olorunsogo;Agbele;;Ibukun Olu Hospital Igboho/Kisi Road;SECONDARY;PRIVATE;;;
Olorunsogo;Waro Apata-Alaje ;;Apata-Alaje Phc Centre;PRIMARY;PUBLIC;;;
Olorunsogo;Waro Apata-Alaje ;;Ojo Aro Phc Centre;PRIMARY;PUBLIC;;;
Olorunsogo;Waro Apata-Alaje ;;Moti Phc Centre;PRIMARY;PUBLIC;;;
Oluyole;Onipe-9;;Busogboro Health Center;PRIMARY;PUBLIC;;;
Oluyole;Mosfala;;Mosfala Phcc;PRIMARY;PUBLIC;;;
Oluyole;Mosfala;;Abeo Mem Clinic;PRIMARY;PUBLIC;;;
Oluyole;Mosfala;;Ojaibadan Phccc;PRIMARY;PUBLIC;;;
Oluyole;Bare 10;;Odo Ona Kekere Phcc;PRIMARY;PUBLIC;;;
Oluyole;Bare 10;;Taiyelolu Mat Home;PRIMARY;PUBLIC;;;
Oluyole;Bare 10;;Sanwo Medical Center;PRIMARY;PUBLIC;;;
Oluyole;Bare 10;;Odo Ona Elewe Phc;PRIMARY;PUBLIC;;;
Oluyole;Bare 10;;Bare Phcc;PRIMARY;PUBLIC;;;
Oluyole;Bare 10;;Odo Okun Phcc;PRIMARY;PUBLIC;;;
Oluyole;Bare 10;;Falomo Maternity And Child Welf;SECONDARY;PRIVATE;;;
Oluyole;Latunde;;Latunde Phcc;PRIMARY;PUBLIC;;;
Oluyole;Olomi;;Life Hospital;SECONDARY;PRIVATE;;;
Oluyole;Olomi;;Lola Maternity;SECONDARY;PRIVATE;;;
Oluyole;Olomi;;Solid Rock Maternity;SECONDARY;PRIVATE;;;
Oluyole;Oluyole-1;;Apadi Phcc;PRIMARY;PUBLIC;;;
Oluyole;Oluyole-1;;Olude Maternity Center;SECONDARY;PRIVATE;;;
Oluyole;Oluyole-1;;St Marello Clinic;SECONDARY;PRIVATE;;;
Oluyole;Oluyole-1;;Zoe Specialist Hospital;SECONDARY;PRIVATE;;;
Oluyole;Oluyole-1;;Zard Tech Clinic;SECONDARY;PRIVATE;;;
Oluyole;Oluyole-1;;Ladapo Mat And Child Welfare;SECONDARY;PRIVATE;;;
Oluyole;Oluyole-1;;Ifelodun Phcc;PRIMARY;PUBLIC;;;
Oluyole;Oluyole-1;;Irepodun Phcc;PRIMARY;PUBLIC;;;
Oluyole;Oluyole-1;;Oleyo Phcc;PRIMARY;PUBLIC;;;
Oluyole;Oluyole-1;;Olubi Phcc;PRIMARY;PUBLIC;;;
Oluyole;Oluyole-1;;Onipe Phcc;PRIMARY;PUBLIC;;;
Oluyole;Oluyole-1;;Pegba Phcc;PRIMARY;PUBLIC;;;
Oluyole;Oluyole-1;;Temidayo Mat News;SECONDARY;PRIVATE;;;
Oluyole;Orile Odo;;General Hospital Orile Odo;SECONDARY;PUBLIC;;;
Oluyole;Orile Odo;;Aba Alfa Phcc;PRIMARY;PUBLIC;;;
Oluyole;Orile Odo;;Aba Ige Phc Clinic;PRIMARY;PUBLIC;;;
Oluyole;Orile Odo;;Aba Nla Phcc;PRIMARY;PUBLIC;;;
Oluyole;Orile Odo;;Adaramagbo Phcc;PRIMARY;PUBLIC;;;
Oluyole;Orile Odo;;Adewole Idi Iroko Phcc;PRIMARY;PUBLIC;;;
Oluyole;Orile Odo;;Alaba Phcc;PRIMARY;PUBLIC;;;
Oluyole;Orile Odo;;Alata Phcc;PRIMARY;PUBLIC;;;
Oluyole;Orile Odo;;Ayegun Phcc;PRIMARY;PUBLIC;;;
Ona Ara;Olunloyo-7;;Olunloyo Maternity Center;PRIMARY;PUBLIC;;;
Ona Ara;Olunloyo-7;;Lonpe Medical Center;SECONDARY;PRIVATE;;;
Ona Ara;Olunloyo-7;;Lifegate Hospital;SECONDARY;PRIVATE;;;
Ona Ara;Olunloyo-7;;Oyindolapo;PRIMARY;PUBLIC;;;
Ona Ara;Olunloyo-7;;Atinuke Clinic And Maternity;PRIMARY;PUBLIC;;;
Ona Ara;Olunloyo-7;;Asiyanbi Memorial Hosp;SECONDARY;PRIVATE;;;
Ona Ara;Olunloyo-7;;Tee Jay Hospital;SECONDARY;PRIVATE;;;
Ona Ara;Olunloyo-7;;Emilagba Maternity Center;PRIMARY;PUBLIC;;;
Ona Ara;Olunloyo-7;;Alapafon Health Center;PRIMARY;PUBLIC;;;
Ona Ara;Olorunsogo-9;;Arinola Memorial Mat Hosp;SECONDARY;PRIVATE;;;
Ona Ara;Olorunsogo-9;;Ajao Memrial Hospital;SECONDARY;PRIVATE;;;
Ona Ara;Olorunsogo-9;;Olosunde Phcc;PRIMARY;PUBLIC;;;
Ona Ara;Olorunsogo-9;;Al Mueed Mat Center;PRIMARY;PUBLIC;;;
Ona Ara;Olorunsogo-9;;Tolulope Hospital;SECONDARY;PRIVATE;;;
Ona Ara;Olorunsogo-9;;Motilayo Medical Center;SECONDARY;PRIVATE;;;
Ona Ara;Olorunsogo-9;;Asiyanbi Clinic;SECONDARY;PRIVATE;;;
Ona Ara;Olorunsogo-9;;Atinuke Mat Center;SECONDARY;PRIVATE;;;
Ona Ara;Olorunsogo-9;;Lonpe Medical Center;SECONDARY;PRIVATE;;;
Ona Ara;Olorunsogo-9;;Titilope Hospital;SECONDARY;PRIVATE;;;
Ona Ara;Olorunsogo-9;;Adebisib Mat Center;SECONDARY;PRIVATE;;;
Ona Ara;Olorunsogo-9;;Exodus Maternity;SECONDARY;PRIVATE;;;
Ona Ara;Olorunsogo-9;;Genesis Clinic;SECONDARY;PRIVATE;;;
Ona Ara;Olorunsogo-9;;God Mercy Maternity Clinic;SECONDARY;PRIVATE;;;
Ona Ara;Olorunsogo-9;;Idera Maternity Clinic;SECONDARY;PRIVATE;;;
Ona Ara;Olorunsogo-9;;Mobolaji Hospital;SECONDARY;PRIVATE;;;
Ona Ara;Olorunsogo-9;;Oluwafemijubelo Maternity;SECONDARY;PRIVATE;;;
Ona Ara;Olorunsogo-9;;Peju Maternity Home ;SECONDARY;PRIVATE;;;
Ona Ara;Olorunsogo-9;;Smaria Hospital;SECONDARY;PRIVATE;;;
Ona Ara;Araro;;Araro Health Center;PRIMARY;PUBLIC;;;
Ona Ara;Idi Ose -5;;Ifeolu Maternity Center;PRIMARY;PUBLIC;;;
Ona Ara;Idi Ose -5;;Genesis Clinic;PRIMARY;PUBLIC;;;
Ona Ara;Idi Ose -5;;Aba Emu Phcc;PRIMARY;PUBLIC;;;
Ona Ara;Idi Ose -5;;Blessing Mat Center;PRIMARY;PUBLIC;;;
Ona Ara;Idi Osan -6;;Gbaremu  Model Phc;PRIMARY;PUBLIC;;;
Ona Ara;Idi Osan -6;;Oyin Specialist Hospital Idi Obi;SECONDARY;PRIVATE;;;
Ona Ara;Idi Osan -6;;Mercyland Maternity Center;PRIMARY;PRIVATE;;;
Ona Ara;Idi Osan -6;;Fawole Idi Osan Phcc;PRIMARY;PUBLIC;;;
Ona Ara;Badeku-3;;Badeku Phc;PRIMARY;PUBLIC;;;
Ona Ara;Badeku-3;;Butu Phcc;PRIMARY;PUBLIC;;;
Ona Ara;Gbada;;Gbada Health Center;PRIMARY;PUBLIC;;;
Ona Ara;Gbada;;Gbada Adigun Health Center;PRIMARY;PUBLIC;;;
Ona Ara;Akanran-1;;Akanran Phccn;PRIMARY;PUBLIC;;;
Ona Ara;Akanran-1;;Tee Jay Hospital;SECONDARY;PRIVATE;;;
Ona Ara;Gbedun-10;;Gbedun Health Center;PRIMARY;PUBLIC;;;
Ona Ara;Ajia;;Ajia Health Center;PRIMARY;PUBLIC;;;
Ona Ara;Ajia;;Bioku Araba Health Center;PRIMARY;PUBLIC;;;
Ona Ara;Ajia;;Ojoku Health Center;PRIMARY;PUBLIC;;;
Ona Ara;Oremeji 11;;Sarat Health Clinic;PRIMARY;PUBLIC;;;
Ona Ara;Oremeji 11;;Adun Medical Center;PRIMARY;PUBLIC;;;
Ona Ara;Oremeji 11;;Titilope Maternity Center;PRIMARY;PRIVATE;;;
Ona Ara;Oremeji 11;;Kaoyuk Hospital;SECONDARY;PRIVATE;;;
Ona Ara;Oremeji 11;;Oluwafemi Jubelo;PRIMARY;PRIVATE;;;
Ona Ara;Oremeji 11;;Kehinsi Health Center;PRIMARY;PUBLIC;;;
Orire;Ikoyi-Ile ;;Ikoyi Ile Maternity Health Centre;PRIMARY;PUBLIC;;;
Orire;Ikoyi-Ile ;;Iluju Maternity Health Centre;PRIMARY;PUBLIC;;;
Orire;Ikoyi-Ile ;;Ibukun Olu Hospital;SECONDARY;PRIVATE;;;
Orire;Ikoyi-Ile ;;Orisun Iye Mat Center;SECONDARY;PRIVATE;;;
Orire;Ikoyi-Ile ;;Oyelami Mem Clinic;SECONDARY;PRIVATE;;;
Orire;Ikoyi-Ile ;;Rastomus Clinic;SECONDARY;PRIVATE;;;
Orire;Ikoyi-Ile ;;Emmadok Hospital;SECONDARY;PRIVATE;;;
Orire;Ikoyi-Ile ;;Antete Health Center;PRIMARY;PUBLIC;;;
Orire;Tewure;;Tewure Maternity Health Centre;PRIMARY;PUBLIC;;;
Orire;Tewure;;Elewura Maternity Health Centre;PRIMARY;PUBLIC;;;
Orire;Tewure;;Olose Primary Health Center;PRIMARY;PUBLIC;;;
Orire;Olorunda;;Olorunda Maternity Health Centre;PRIMARY;PUBLIC;;;
Orire;Olorunda;;Ajinapa Maternity Health Centre;PRIMARY;PUBLIC;;;
Orire;Olorunda;;Ipekun Maternity Health Centre;PRIMARY;PUBLIC;;;
Orire;Adafila;;Adafila Maternity Health Centre;PRIMARY;PUBLIC;;;
Orire;Adafila;;Kajola Maternity Health Centre;PRIMARY;PUBLIC;;;
Orire;Adafila;;Elerukanala Maternity Health Centre;PRIMARY;PUBLIC;;;
Orire;Oloka;;Oloka Maternity Health Centre;PRIMARY;PUBLIC;;;
Orire;Oloka;;Obamo Maternity Health Centre;PRIMARY;PUBLIC;;;
Orire;Oloka;;Daodu Maternity Health Centre;PRIMARY;PUBLIC;;;
Orire;Igbori;;Igbori Maternity Health Centre;PRIMARY;PUBLIC;;;
Orire;Igbori;;Eseke Primary Health Centre;PRIMARY;PUBLIC;;;
Orire;Igbori;;Onlali Maternity Health Centre;PRIMARY;PUBLIC;;;
Orire;Oloo;;Oolo Maternity Health Centre;PRIMARY;PUBLIC;;;
Orire;Oloo;;Maya Child Health Clinic;PRIMARY;PUBLIC;;;
Orire;Oloo;;Ipeba Health Centre;PRIMARY;PUBLIC;;;
Orire;Oloo;;Elega Maternity Center;PRIMARY;PUBLIC;;;
Orire;Ahoro Dada;;Moleyo Maternity Health Centre;PRIMARY;PUBLIC;;;
Orire;Ahoro Dada;;Dada Maternity Health Centre;PRIMARY;PUBLIC;;;
Orire;Ahoro Dada;;Biiro Health Centre;PRIMARY;PUBLIC;;;
Orire;Esinele;;Esinele Primary Health Centre;PRIMARY;PUBLIC;;;
Orire;Esinele;;Oko Ile Maternity Health Centre;PRIMARY;PUBLIC;;;
Orire;Esinele;;Alaroponla Maternity Health Centre;PRIMARY;PUBLIC;;;
Orire;Elesun Adeoaun;;Elesun Adelosun Primary Health Centre;PRIMARY;PUBLIC;;;
Orire;Elesun Adeoaun;;Bosunla Maternity Health Centre;PRIMARY;PUBLIC;;;
Orire;Elesun Adeoaun;;Adetunji Phcc;PRIMARY;PUBLIC;;;
Oorelope;Obaago;;Iya Phc Centre;PRIMARY;PUBLIC;;;
Oorelope;Obaago;;Opoo Health Centre;PRIMARY;PUBLIC;;;
Oorelope;Oke Afin;;Kem Clinic;PRIMARY;PRIVATE;;;
Oorelope;Bonni;;Bonni Phc Centre;PRIMARY;PUBLIC;;;
Oorelope;Igbope 1;;Owode Memorial Clinic;PRIMARY;PRIVATE;;;
Oorelope;Igbope 1;;Alaguntan Health Clinic;PRIMARY;PRIVATE;;;
Oorelope;Igbope 2;;Igbope Phcc;PRIMARY;PUBLIC;;;
Oorelope;Igbope 2;;Modupe Clinic;PRIMARY;PRIVATE;;;
Oorelope;Ago Igi Isubu;;General Hospital;SECONDARY;PUBLIC;;;
Oorelope;Ago Igi Isubu;;Oloko Health Clinic;PRIMARY;PUBLIC;;;
Oorelope;Ago Igi Isubu;;Mercy Of God Mat Center;PRIMARY;PRIVATE;;;
Oorelope;Molete;;Molete Health Clinic;PRIMARY;PUBLIC;;;
Oorelope;Ayetoro;;Ayetoro Health Clinic;PRIMARY;PUBLIC;;;
Oorelope;Modeke;;Modeke Phc Centre;PRIMARY;PUBLIC;;;
Oorelope;Oke Igboho;;Owode Phc Centre;PRIMARY;PUBLIC;;;
Oyo East;Araromi 10;;Muslim Hospital;SECONDARY;PRIVATE;;;
Oyo East;Araromi 10;;Araromi Phcc;PRIMARY;PUBLIC;;;
Oyo East;Araromi 10;;Oba Adeyemi Phcc;PRIMARY;PUBLIC;;;
Oyo East;Araromi 10;;State Hospital Oyo;SECONDARY;PUBLIC;;;
Oyo East;Araromi 10;;Teju Specialist Hospital;SECONDARY;PRIVATE;;;
Oyo East;Araromi 10;;Olivet Baptist High School Clinic;PRIMARY;PRIVATE;;;
Oyo East;Araromi 10;;Ayo Ades Hospital;SECONDARY;PRIVATE;;;
Oyo East;Araromi 10;;Shekinat Medical Center;SECONDARY;PRIVATE;;;
Oyo East;Apaara 4;;Ayedoyin Health Center;PRIMARY;PUBLIC;;;
Oyo East;Apaara 4;;Araromi Health Centre;PRIMARY;PUBLIC;;;
Oyo East;Oluajo 9;;Idi Iya Health Center;PRIMARY;PUBLIC;;;
Oyo East;Balogun 6;;Alawusa Phc;PRIMARY;PUBLIC;;;
Oyo East;Ajagba 2;;Methodist Maternity Ajagba;SECONDARY;PRIVATE;;;
Oyo East;Ajagba 2;;Imeleke Phcc;PRIMARY;PUBLIC;;;
Oyo East;Ajagba 2;;Olori Health Centre;PRIMARY;PUBLIC;;;
Oyo East;Ajagba 2;;Ajagba Health Center;PRIMARY;PUBLIC;;;
Oyo East;Alaodi 3;;Alaodi/Modeke Phc;PRIMARY;PUBLIC;;;
Oyo East;Alaodi 3;;Alaodi Health Center;PRIMARY;PUBLIC;;;
Oyo East;Alaodi 3;;Orisun Iye Maternity Home;SECONDARY;PRIVATE;;;
Oyo East;Jabata  7;;Ago Oyo Health Center;PRIMARY;PUBLIC;;;
Oyo East;Jabata  7;;Jabata Phcc;PRIMARY;PUBLIC;;;
Oyo East;Apinni 5;;Idode Memorial Centre;PRIMARY;PUBLIC;;;
Oyo East;Apinni 5;;Owode Elete Phc;PRIMARY;PUBLIC;;;
Oyo East;Apinni 5;;Ona Aka Phc;PRIMARY;PUBLIC;;;
Oyo East;Apinni 5;;Anfani Hospital;SECONDARY;PRIVATE;;;
Oyo East;Oke Apo 8;;Alabi Olorunda Model Phc;PRIMARY;PUBLIC;;;
Oyo East;Oke Apo 8;;Oke Apo Health Center;PRIMARY;PUBLIC;;;
Oyo East;Agboye/ Molete-1;;Oloyin Hospital Baago;SECONDARY;PRIVATE;;;
Oyo West;Akeetan;;Akeetan Baale Health Centre;PRIMARY;PUBLIC;;;
Oyo West;Akeetan;;Momoh Hospital,Idi Ope;PRIMARY;PRIVATE;;;
Oyo West;Ajokidero;;Staff Clinic;PRIMARY;PUBLIC;;;
Oyo West;Fasola;;Fasola Primary Health Centre;PRIMARY;PUBLIC;;;
Oyo West;Fasola;;Olorunda Fsp Slinic;PRIMARY;PUBLIC;;;
Oyo West;Fasola;;Aladie Health Centre;PRIMARY;PUBLIC;;;
Oyo West;Fasola;;Iyabeji Health Clinic;PRIMARY;PUBLIC;;;
Oyo West;Fasola;;Olaiya Health Clinic;PRIMARY;PUBLIC;;;
Oyo West;Fasola;;Lakonu Health Centre;PRIMARY;PUBLIC;;;
Oyo West;Fasola;;Soku Health Centre;PRIMARY;PUBLIC;;;
Oyo West;Iseke;;Iseke Primary Health Centre;PRIMARY;PUBLIC;;;
Oyo West;Isokun;;Isokun Health Centre;PRIMARY;PUBLIC;;;
Oyo West;Isokun;;Primary Health Center Low Cost;PRIMARY;PUBLIC;;;
Oyo West;Iyaji;;Iyaji Health Clinic;PRIMARY;PUBLIC;;;
Oyo West;Iyaji;;Peamark Hospital And Mat;SECONDARY;PRIVATE;;;
Oyo West;Iyaji;;Ife Olu Hospital;SECONDARY;PRIVATE;;;
Oyo West;Iyaji;;Kikelomo Mat And Child Center;SECONDARY;PRIVATE;;;
Oyo West;Ojongbodu;;Idiyalode Health Clinic;PRIMARY;PUBLIC;;;
Oyo West;Ojongbodu;;Oluwatedo Health Centre;PRIMARY;PUBLIC;;;
Oyo West;Ojongbodu;;Laagbe Health Centre;PRIMARY;PUBLIC;;;
Oyo West;Ojongbodu;;Owalode Health Centre;PRIMARY;PUBLIC;;;
Oyo West;Ojongbodu;;Onikoko Health Centre;PRIMARY;PUBLIC;;;
Oyo West;Ojongbodu;;Aruna Health Centre;PRIMARY;PUBLIC;;;
Oyo West;Ojongbodu;;Adeyemi Clinic;SECONDARY;PRIVATE;;;
Oyo West;Ojongbodu;;Ojongbondu Health Post;PRIMARY;PUBLIC;;;
Oyo West;Ojongbodu;;Oroki Medical Center;SECONDARY;PRIVATE;;;
Oyo West;Ojongbodu;;Local Government Health Clinic;PRIMARY;PUBLIC;;;
Oyo West;Opapa/ Fatuke;;Kolobo Phcc;PRIMARY;PUBLIC;;;
Oyo West;Opapa/ Fatuke;;Alafia Mat Center;SECONDARY;PRIVATE;;;
Oyo West;Opapa/ Fatuke;;Anu Olu Clinic Opapa;SECONDARY;PRIVATE;;;
Oyo West;Opapa/ Fatuke;;Ejire Maternal And Child Health;SECONDARY;PRIVATE;;;
Oyo West;Owode/Odo Eran;;Odo Eran Health Clinic;PRIMARY;PUBLIC;;;
Oyo West;Owode/Odo Eran;;Ladigbolu Health Center;PRIMARY;PUBLIC;;;
Oyo West;Pakoyi/Idode;;Idode Health Post;PRIMARY;PUBLIC;;;
Saki East;Alamodu;;Ago Amodu Phc Center;PRIMARY;PUBLIC;;;
Saki East;Arolu;;Arolu Phc Center;PRIMARY;PUBLIC;;;
Saki East;Isale Igbagbo;;Ogbooro Phc Center;PRIMARY;PUBLIC;;;
Saki East;Isale Igbagbo;;Isale Igbagbo Pry Health Center;PRIMARY;PUBLIC;;;
Saki East;Isale Igbagbo;;Olufemi Clinic Ogbooro;SECONDARY;PRIVATE;;;
Saki East;Oke Ola;;Model Phcc Oke Ola;PRIMARY;PUBLIC;;;
Saki East;Oke Sabe;;Oje Owode Phcc Center;PRIMARY;PUBLIC;;;
Saki East;Oke Sabe;;Jesus Is Lord Clinic Oje Owode;SECONDARY;PRIVATE;;;
Saki East;Oke Tasi ;;Sepeteri Phc Center Oke Tasi;PRIMARY;PUBLIC;;;
Saki East;Oke Yidi;;Sepeteri General Hospital;SECONDARY;PUBLIC;;;
Saki East;Oke Yidi;;Oke Yidi Phcc;PRIMARY;PUBLIC;;;
Saki East;Oke Yidi;;Oke Sebe Phcc;PRIMARY;PUBLIC;;;
Saki East;Oke Agoro;;Lukutu Phc Center;PRIMARY;PUBLIC;;;
Saki East;Oke Agoro;;Oke Agoro Pry Health Center;PRIMARY;PUBLIC;;;
Saki East;Oke Agoro;;Araromi Phcc;PRIMARY;PUBLIC;;;
Saki West;Aganmu;;Kooko Primary Health Centre;PRIMARY;PUBLIC;;;
Saki West;Aganmu;;Igbo-Oologun Primary Health Centre;PRIMARY;PUBLIC;;;
Saki West;Aganmu;;Ayekale Primary Health Centre;PRIMARY;PUBLIC;;;
Saki West;Aganmu;;Destiny Clinic;SECONDARY;PRIVATE;;;
Saki West;Ajegunle;;Koomi Primary Health Centre;PRIMARY;PUBLIC;;;
Saki West;Ajegunle;;Ajegunle Health Post;PRIMARY;PUBLIC;;;
Saki West;Ajegunle;;Albarika Clinic & Maternity;PRIMARY;PRIVATE;;;
Saki West;Ajegunle;;Ti Oluwani Maternity;SECONDARY;PRIVATE;;;
Saki West;Ajegunle;;Olukemi Clinic;SECONDARY;PRIVATE;;;
Saki West;Ajegunle;;Baptist Medical Centre;SECONDARY;PRIVATE;;;
Saki West;Ajegunle;;Oluwatoyin ;SECONDARY;PRIVATE;;;
Saki West;Ajegunle;;Koomi Primary Health Centre;PRIMARY;PUBLIC;;;
Saki West;Ajegunle;;Ajegunle Primary Health Centre;PRIMARY;PUBLIC;;;
Saki West;Ajegunle;;Olomopupo Maternity;SECONDARY;PRIVATE;;;
Saki West;Otun;;Otun Primary Health Centre;PRIMARY;PUBLIC;;;
Saki West;Otun;;Olukemi Clinic;SECONDARY;PRIVATE;;;
Saki West;Otun;;Tunmise Clinic;SECONDARY;PRIVATE;;;
Saki West;Otun;;Isia Primary Health Centre;PRIMARY;PUBLIC;;;
Saki West;Otun;;Ola Oluwa Nursin Home & Maternity;SECONDARY;PRIVATE;;;
Saki West;Eko Kan;;Eko Kan Primary Health Centre;PRIMARY;PUBLIC;;;
Saki West;Eko Kan;;Wasangare Primary Health Centre;PRIMARY;PUBLIC;;;
Saki West;Eko Kan;;Onigbongbo Primary Health Centre;PRIMARY;PUBLIC;;;
Saki West;Eko Kan;;Dannisala Primary Health Centre;PRIMARY;PUBLIC;;;
Saki West;Eko Kan;;Okeret Primary Health Centre;PRIMARY;PUBLIC;;;
Saki West;Iya;;Iya Primary Health Centre;PRIMARY;PUBLIC;;;
Saki West;Iya;;As Bello Maternity ;SECONDARY;PRIVATE;;;
Saki West;Iya;;Ireti Ayo Maternity;SECONDARY;PRIVATE;;;
Saki West;Iya;;Mokola Primary Health Centre;PRIMARY;PUBLIC;;;
Saki West;Ogidigbo;;Ogidigbo Primary Health Centre;PRIMARY;PUBLIC;;;
Saki West;Ogidigbo;;Kinnikini Health Post;PRIMARY;PUBLIC;;;
Saki West;Ogidigbo;;Ogo Oluwabi Health Post;PRIMARY;PUBLIC;;;
Saki West;Oke Oro;;Isale Taba Maternity Centre;PRIMARY;PUBLIC;;;
Saki West;Adabo;;Adabo Primary Health Centre;PRIMARY;PUBLIC;;;
Saki West;Adabo;;Tbl Unit;PRIMARY;PUBLIC;;;
Saki West;Sango;;Sango Primary Health Centre;PRIMARY;PUBLIC;;;
Saki West;Sango;;Honesty Hospital ;SECONDARY;PRIVATE;;;
Saki West;Sango;;Muslim Hospital;SECONDARY;PRIVATE;;;
Saki West;Sango;;Mercyland Hospital;SECONDARY;PRIVATE;;;
Saki West;Sango;;Divine Love Hospital ;SECONDARY;PRIVATE;;;
Saki West;Sango;;Omowunmi Clinic;SECONDARY;PRIVATE;;;
Saki West;Sango;;Moye Clinic;SECONDARY;PRIVATE;;;
Saki West;Sango;;Faith Foundation Maternity Clinic;SECONDARY;PRIVATE;;;
Saki West;Sango;;Abeje Clinic;PRIMARY;PRIVATE;;;
Saki West;Baabo;;Baabo Primary Health Centre;PRIMARY;PUBLIC;;;
Saki West;Baabo;;Ilua Primary Health Centre;PRIMARY;PUBLIC;;;
Saki West;Baabo;;Olamide Clinics;PRIMARY;PRIVATE;;;
Saki West;Baabo;;Ajelanua;SECONDARY;PRIVATE;;;
Saki West;Isale Efin;;State Hospital;SECONDARY;PUBLIC;;;
Saki West;Isale Efin;;Isale Efin Primary Health Centre;PRIMARY;PUBLIC;;;
Saki West;Isale Efin;;Isale Efu Primary Health Centre;PRIMARY;PUBLIC;;;
Saki West;Isale Efin;;Ajelanwa Primary Health Centre;PRIMARY;PUBLIC;;;
Saki West;Isale Efin;;Medikam Clinic;SECONDARY;PRIVATE;;;
Saki West;Isale Efin;;Rasmul Clinic;SECONDARY;PRIVATE;;;
Surulere;Baya Oje;;Baayaoje Primary Health Centre;PRIMARY;PUBLIC;;;
Surulere;Baya Oje;;Ajase Health Clinic;PRIMARY;PUBLIC;;;
Surulere;Baya Oje;;Jabata Health Post;PRIMARY;PUBLIC;;;
Surulere;Baya Oje;;Budo Jesu Health Post;PRIMARY;PUBLIC;;;
Surulere;Baya Oje;;Kojomonu Health Post;PRIMARY;PUBLIC;;;
Surulere;Baya Oje;;Ogojo Health Clinic;PRIMARY;PUBLIC;;;
Surulere;Gambari;;Gambari Health Clinic;PRIMARY;PUBLIC;;;
Surulere;Gambari;;Gbede Health Clinic;PRIMARY;PUBLIC;;;
Surulere;Gambari;;Igbon Haelth Clinic;PRIMARY;PUBLIC;;;
Surulere;Gambari;;Abogunde Health Post;PRIMARY;PUBLIC;;;
Surulere;Gambari;;Egbeda Health Post;PRIMARY;PUBLIC;;;
Surulere;Gambari;;Iyelu Health Post;PRIMARY;PUBLIC;;;
Surulere;Gambari;;Alate Health Post;PRIMARY;PUBLIC;;;
Surulere;Gambari;;Hope Matrenity Home Gambari;PRIMARY;PRIVATE;;;
Surulere;Gambari;;Ige Memorial Convalescent &Maternity Home;PRIMARY;PRIVATE;;;
Surulere;Gambari;;Funso Maternity Home;PRIMARY;PRIVATE;;;
Surulere;Maya;;Iresaapa Primary Health Centre;PRIMARY;PUBLIC;;;
Surulere;Maya;;Maya Health Post;PRIMARY;PUBLIC;;;
Surulere;Maya;;Ogala Health Post;PRIMARY;PUBLIC;;;
Surulere;Maya;;Poro Health Post;PRIMARY;PUBLIC;;;
Surulere;Maya;;Adudu Health Post;PRIMARY;PUBLIC;;;
Surulere;Maya;;Akatapa Health Post;PRIMARY;PUBLIC;;;
Surulere;Maya;;Asangbomole Health Post;PRIMARY;PUBLIC;;;
Surulere;Maya;;Baba Egbe Health Post;PRIMARY;PUBLIC;;;
Surulere;Maya;;Ofa Sekete Health Post;PRIMARY;PUBLIC;;;
Surulere;Arolu;;Ikunsin Health Clinic;PRIMARY;PUBLIC;;;
Surulere;Arolu;;Arolu Health Post;PRIMARY;PUBLIC;;;
Surulere;Arolu;;Iranyin Health Post;PRIMARY;PUBLIC;;;
Surulere;Arolu;;Sapati Health Post;PRIMARY;PUBLIC;;;
Surulere;Arolu;;Alayin Health Post;PRIMARY;PUBLIC;;;
Surulere;Arolu;;Idi Opele Health Post;PRIMARY;PUBLIC;;;
Surulere;Arolu;;Elebekebe Health Post;PRIMARY;PUBLIC;;;
Surulere;Arolu;;Madeola Maternity Home Arolu;PRIMARY;PRIVATE;;;
Surulere;Iresaadu;;General Hospital Iresadu;SECONDARY;PUBLIC;;;
Surulere;Iresaadu;;Comprehensive Health Centre;PRIMARY;PUBLIC;;;
Surulere;Iresaadu;;Atowoda Health Post;PRIMARY;PUBLIC;;;
Surulere;Iresaadu;;Olose Health Post;PRIMARY;PUBLIC;;;
Surulere;Iresaadu;;Sekengbede Health Post;PRIMARY;PUBLIC;;;
Surulere;Iresaadu;;Idigba Onikoko Health Post;PRIMARY;PUBLIC;;;
Surulere;Iresaadu;;Olukosi Health Post;PRIMARY;PUBLIC;;;
Surulere;Iresaadu;;Ile Odu Health Post;PRIMARY;PUBLIC;;;
Surulere;Iresaadu;;Atapa Health Post;PRIMARY;PUBLIC;;;
Surulere;Iregba;;Iregba Health Post;PRIMARY;PUBLIC;;;
Surulere;Iregba;;Olowosokedile Health Post;PRIMARY;PUBLIC;;;
Surulere;Iregba;;Sadiwin Health Post;PRIMARY;PUBLIC;;;
Surulere;Iregba;;Olairo Health Post;PRIMARY;PUBLIC;;;
Surulere;Iregba;;Oowe Health Post;PRIMARY;PUBLIC;;;
Surulere;Iregba;;Yakoyo Health Post;PRIMARY;PUBLIC;;;
Surulere;Iregba;;Gbena Health Post;PRIMARY;PUBLIC;;;
Surulere;Iregba;;Baasa Health Post;PRIMARY;PUBLIC;;;
Surulere;Iregba;;Fasina Health [Post;PRIMARY;PUBLIC;;;
Surulere;Iregba;;Idi Ori Health Post;PRIMARY;PRIVATE;;;
Surulere;Iregba;;Florence Clinic;SECONDARY;PRIVATE;;;
Surulere;Iregba;;Olaoluwa Iregbe Oja Maternity;SECONDARY;PRIVATE;;;
Surulere;Iwofin;;Iwofin Health Clinic;PRIMARY;PUBLIC;;;
Surulere;Iwofin;;Orisa Health Post;PRIMARY;PUBLIC;;;
Surulere;Iwofin;;Ori Eran Health Post;PRIMARY;PUBLIC;;;
Surulere;Iwofin;;Babanifa Health Post;PRIMARY;PUBLIC;;;
Surulere;Oko;;Oko Model Primary Health Centre;PRIMARY;PUBLIC;;;
Surulere;Oko;;Oko Health Clinic;PRIMARY;PUBLIC;;;
Surulere;Oko;;Aagba Health Post;PRIMARY;PUBLIC;;;
Surulere;Oko;;Ajagusi Health Post;PRIMARY;PUBLIC;;;
Surulere;Oko;;Ijado Health Post;PRIMARY;PUBLIC;;;
Surulere;Oko;;Origi Health Post;PRIMARY;PUBLIC;;;
Surulere;Oko;;Onikeke Health Post;PRIMARY;PUBLIC;;;
Surulere;Oko;;Madeola Maternity & Clinic Oko;PRIMARY;PRIVATE;;;
Surulere;Oko;;Alaafia Maternity Clinic;PRIMARY;PRIVATE;;;
Surulere;Oko;;Adeola Maternity Home;PRIMARY;PRIVATE;;;
Surulere;Ilajue;;Baale Oba Primary Hyealth Centre;PRIMARY;PUBLIC;;;
Surulere;Ilajue;;Aserawo Health Post;PRIMARY;PUBLIC;;;
Surulere;Ilajue;;Oosu Ikole Health Post;PRIMARY;PUBLIC;;;
Surulere;Ilajue;;Laege Health Post;PRIMARY;PUBLIC;;;
Surulere;Mayin;;Ogele Health Clinic;PRIMARY;PUBLIC;;;
Surulere;Mayin;;Okin Health Clinic;PRIMARY;PUBLIC;;;
Surulere;Mayin;;Olodanban Health Post;PRIMARY;PUBLIC;;;
Surulere;Mayin;;Iware Health Post;PRIMARY;PUBLIC;;;
Surulere;Mayin;;Mayin Health Post;PRIMARY;PUBLIC;;;
Surulere;Mayin;;Ilogbo Health Post;PRIMARY;PUBLIC;;;
