LGA;Ward;Settlement;Facility;Type;Ownership;Address;Longitude;Latitude
Abua/Odual;Abua/Odual Ward 1                            ;;Ogbema Model Primary Health Centre;;;;;
Abua/Odual;Abua/Odual Ward 10   ;;Okolomade Health Post;;;;;
Abua/Odual;Abua/Odual Ward 11  ;;Emago Health Post;;;;;
Abua/Odual;Abua/Odual Ward 12  ;;Amuruto Health Post;;;;;
Abua/Odual;Abua/Odual Ward 12  ;;Akani Health Post;;;;;
Abua/Odual;Abua/Odual Ward 13  ;;Anyu Model Primary Health Centre;;;;;
Abua/Odual;Abua/Odual Ward 13  ;;Emirikpoko Health Post;;;;;
Abua/Odual;Abua/Odual Ward 13  ;;Odau Health Post;;;;;
Abua/Odual;Abua/Odual Ward 2   ;;Arukwo Primary Health Clinic;;;;;
Abua/Odual;Abua/Odual Ward 3   ;;Abua General Hospital;;;;;
Abua/Odual;Abua/Odual Ward 4   ;;Ayama PHC;;;;;
Abua/Odual;Abua/Odual Ward 5   ;;Obarany Primary Health Centre;;;;;
Abua/Odual;Abua/Odual Ward 5   ;;Okoboh Primary Health Centre;;;;;
Abua/Odual;Abua/Odual Ward 5   ;;Emesu Primary Health Centre;;;;;
Abua/Odual;Abua/Odual Ward 6   ;;Aminigboko Cottage Hospital;;;;;
Abua/Odual;Abua/Odual Ward 6   ;;Aminiowere Primary Health Clinic;;;;;
Abua/Odual;Abua/Odual Ward 7   ;;Otapha Comprehensive Primary Health Centre;;;;;
Abua/Odual;Abua/Odual Ward 8   ;;Emoh Health Post;;;;;
Abua/Odual;Abua/Odual Ward 8   ;;Egbolom PHC;;;;;
Abua/Odual;Abua/Odual Ward 8   ;;Ogonokom Primary Health Centre;;;;;
Abua/Odual;Abua/Odual Ward 8   ;;Elok Primary Health Centre;;;;;
Abua/Odual;Abua/Odual Ward 8   ;;Iyak Primary Health Centre;;;;;
Abua/Odual;Abua/Odual Ward 8   ;;Agada MPHC;;;;;
Abua/Odual;Abua/Odual Ward 9   ;;Ogboloma Health Post;;;;;
Abua/Odual;Abua/Odual Ward 9   ;;Adada PHC;;;;;
Ahoada East;Ahoada East  Ward 6;;Ochigba Primary Health Centre;;;;;
Ahoada East;Ahoada East Ward 10;;Ihuama MPHC;;;;;
Ahoada East;Ahoada East Ward 10;;Ihuowo PHC;;;;;
Ahoada East;Ahoada East Ward 10;;Ihuaba Primary Health Centre;;;;;
Ahoada East;Ahoada East Ward 11;;Odhiaje Primary Health Centre;;;;;
Ahoada East;Ahoada East Ward 11;;Odiemudie Primary Health Centre;;;;;
Ahoada East;Ahoada East Ward 12;;Ihugbogo Model Primary Health Centre;;;;;
Ahoada East;Ahoada East Ward 12;;Okporomini Primary Health Centre;;;;;
Ahoada East;Ahoada East Ward 13;;Ogbo Primary Health Centre;;;;;
Ahoada East;Ahoada East Ward 13;;Ula-Ehuda Primary Health Centre;;;;;
Ahoada East;Ahoada East Ward 13;;Ihuaje Model Primary Health Centre;;;;;
Ahoada East;Ahoada East Ward 13;;Abarikpo Primary Health Centre;;;;;
Ahoada East;Ahoada East Ward 3;;Ahoada MPHC;;;;;
Ahoada East;Ahoada East Ward 4;;Ahoada General Hospital;;;;;
Ahoada East;Ahoada East Ward 4;;Okpeden Medical Centre;;;;;
Ahoada East;Ahoada East Ward 5;;Edeoha Primary Health Centre;;;;;
Ahoada East;Ahoada East Ward 7;;Ula-Upata MPHC;;;;;
Ahoada East;Ahoada East Ward 8;;Odiabidi Primary Health Centre;;;;;
Ahoada East;Ahoada East Ward 8;;Okporowo Primary Health Centre;;;;;
Ahoada East;Ahoada East Ward 9;;Ogbele Primary Health Centre;;;;;
Ahoada West;Ahoada West  Ward 1;;Akinima Model Primary Health Centre;;;;;
Ahoada West;Ahoada West  Ward 1;;Oshie PHC;;;;;
Ahoada West;Ahoada West  Ward 11;;Oyigba Primary Health Centre;;;;;
Ahoada West;Ahoada West  Ward 11;;Ubarama  Health Post;;;;;
Ahoada West;Ahoada West  Ward 11;;Ubio Health Centre;;;;;
Ahoada West;Ahoada West  Ward 12;;Ula-Ubie Health Post;;;;;
Ahoada West;Ahoada West  Ward 2;;Mbiama Primary Health Centre;;;;;
Ahoada West;Ahoada West  Ward 3;;Odawu Primary Health Centre;;;;;
Ahoada West;Ahoada West  Ward 3;;Joinkrama General Hospital;;;;;
Ahoada West;Ahoada West  Ward 4;;Ogbogolo Health Post;;;;;
Ahoada West;Ahoada West  Ward 4;;Udoda Health Post;;;;;
Ahoada West;Ahoada West  Ward 4;;Okarki Model Primary Health Centre;;;;;
Ahoada West;Ahoada West  Ward 4;;Okparaki Primary Health Centre;;;;;
Ahoada West;Ahoada West  Ward 4;;Igovia Primary Health Centre;;;;;
Ahoada West;Ahoada West  Ward 4;;Ikodi-Engeni Model Primary Health Centre;;;;;
Ahoada West;Ahoada West  Ward 4;;Akiogbologbolo Health Post;;;;;
Ahoada West;Ahoada West  Ward 5;;Ogbolobogbo Health Centre;;;;;
Ahoada West;Ahoada West  Ward 5;;Ogbede PrimaryHealth Centre;;;;;
Ahoada West;Ahoada West  Ward 5;;Okogbe Primary Health Centre;;;;;
Ahoada West;Ahoada West  Ward 6;;Ukpelede Primary Health Centre;;;;;
Ahoada West;Ahoada West  Ward 6;;Idu-Ekpeye Health Centre;;;;;
Ahoada West;Ahoada West  Ward 7;;Emezi 1 Primary Health Centre ;;;;;
Ahoada West;Ahoada West  Ward 8;;Upatabo PHC;;;;;
Ahoada West;Ahoada West  Ward 9;;Odiereke- Ubie MPHC;;;;;
Akuku Toru;Akuku Toru Ward 1;;Abonnema MPHC;;;;;
Akuku Toru;Akuku Toru Ward 13;;Abonnema General Hospital;;;;;
Akuku Toru;Akuku Toru Ward 14;;Obonoma Model Primary Health Centre;;;;;
Akuku Toru;Akuku Toru Ward 15;;Kula Comprehensive Primary Health Centre;;;;;
Akuku Toru;Akuku Toru Ward 17;;Elem-Sangama PHC;;;;;
Akuku Toru;Akuku Toru Ward 17;;Idama Primary Health Centre;;;;;
Akuku Toru;Akuku Toru Ward 17;;Abissa Primary Health Centre;;;;;
Andoni;Andoni Ward 1;;Ngo Primary Health Centre;;;;;
Andoni;Andoni Ward 1;;Ngo General Hospital;;;;;
Andoni;Andoni Ward 10;;Ataba Comprehensive Health Centre;;;;;
Andoni;Andoni Ward 2;;Egwede Health Centre;;;;;
Andoni;Andoni Ward 2;;Akaradi Health Centre;;;;;
Andoni;Andoni Ward 2;;Unyengala Comprehensive Health Centre;;;;;
Andoni;Andoni Ward 2;;Oron-Ija Health Clinic;;;;;
Andoni;Andoni Ward 3;;Oyorokoto Health Centre;;;;;
Andoni;Andoni Ward 3;;Ilotombi Health Centre;;;;;
Andoni;Andoni Ward 3;;Agwut-Obolo Health Clinic;;;;;
Andoni;Andoni Ward 4;;Ebukuma Health Centre;;;;;
Andoni;Andoni Ward 4;;Agbalama Health Clinic;;;;;
Andoni;Andoni Ward 4;;Ekede Health Centre;;;;;
Andoni;Andoni Ward 5;;Okorobo-Ile Health Centre;;;;;
Andoni;Andoni Ward 5;;Ikuru Town Health Centre;;;;;
Andoni;Andoni Ward 5;;Asuk-Ama Health Centre;;;;;
Andoni;Andoni Ward 6;;Unyeada Model Primary Health Centre;;;;;
Andoni;Andoni Ward 7;;Egberumug Health Centre;;;;;
Andoni;Andoni Ward 7;;ri.Isiodum Health Centre;;;;;
Andoni;Andoni Ward 7;;Otuafu/Otunria Health Clinic ;;;;;
Andoni;Andoni Ward 8;;Ibotirem Primary Health Centre;;;;;
Andoni;Andoni Ward 8;;Ajakajak Health Clinic;;;;;
Andoni;Andoni Ward 9;;Iwoma Health Clinic;;;;;
Andoni;Andoni Ward 9;;Asarama-ija Health Centre;;;;;
Andoni;Andoni Ward 9;;Inyon-Orong Health Centre;;;;;
Andoni;Andoni Ward 9;;Asarama Health Centre;;;;;
Andoni;Andoni Ward 9;;Egendem Health Centre;;;;;
Asari-Toru;Asari-Toru 13;;Krakrama Model Primary Health Centre;;;;;
Asari-Toru;Asari-Toru 13;;Omekwe-Ama Health Centre;;;;;
Asari-Toru;Asari-Toru 13;;Sangama Health Centre;;;;;
Asari-Toru;Asari-Toru 13;;Minama Health Centre;;;;;
Asari-Toru;Asari-Toru 13;;Angulama Primary Health Centre;;;;;
Asari-Toru;Asari-Toru Ward 10;;Sick Bay (Asari-Toru);;;;;
Asari-Toru;Asari-Toru Ward 11;;Abalama Model Primary Health Centre;;;;;
Asari-Toru;Asari-Toru Ward 11;;Oproama Primary Health Centre;;;;;
Asari-Toru;Asari-Toru Ward 11;;Ifoko Primary Health Centre (Asari-Toru);;;;;
Asari-Toru;Asari-Toru Ward 11;;Ilelema Primary Health Centre (Asari-Toru);;;;;
Asari-Toru;Asari-Toru Ward 11;;Teme Health Centre;;;;;
Asari-Toru;Asari-Toru Ward 12;;Ido Model Primary Health Centre (Asari-Toru);;;;;
Asari-Toru;Asari-Toru Ward 12;;Vasty Clinic;;;;;
Asari-Toru;Asari-Toru Ward 12;;Sama Health Centre (Asari-Toru);;;;;
Asari-Toru;Asari-Toru Ward 2;;Buguma General Hospital (Asari-Toru);;;;;
Asari-Toru;Asari-Toru Ward 2;;Buguma Model Primary Health Centre;;;;;
Asari-Toru;Asari-Toru Ward 3;;Buguma Maternal and Child Health/Family Planning Clinic;;;;;
Asari-Toru;Asari-Toru Ward 3;;Mbiakafiarro Health Centre;;;;;
Bonny;Bonny Ward 10;;Burukiri Health Centre;;;;;
Bonny;Bonny Ward 10;;Oloma Health Centre;;;;;
Bonny;Bonny Ward 11;;Peterside Health Centre;;;;;
Bonny;Bonny Ward 11;;Bonny Hospital (NLNG );;;;;
Bonny;Bonny Ward 2;;Bonny  Comprehesive Health Centre;;;;;
Bonny;Bonny Ward 2;;Bonny Health Centre;;;;;
Bonny;Bonny Ward 3;;Infant Welfare Clinic;;;;;
Bonny;Bonny Ward 3;;Bonny General Hospital;;;;;
Bonny;Bonny Ward 3;;Delta Specialist Hospital ;;;;;
Bonny;Bonny Ward 3;;Channel Consultant Clinic;;;;;
Bonny;Bonny Ward 5;;Finima Health Centre;;;;;
Bonny;Bonny Ward 6;;Abalamabie Health Centre;;;;;
Bonny;Bonny Ward 7;;Dema -Abbey Health Centre;;;;;
Bonny;Bonny Ward 7;;Banigo Model Health Centre;;;;;
Bonny;Bonny Ward 8;;Green Iwoma Health Centre;;;;;
Bonny;Bonny Ward 9;;Halliday Primary Health Centre;;;;;
Degema;Degema Ward 11;;Degema General Hospital;;;;;
Degema;Degema Ward 11;;Degema Dental Clinic ;;;;;
Degema;Degema Ward 11;;Degema  Primary Health Centre;;;;;
Degema;Degema Ward 12;;Degema Comprehensive Health Centre;;;;;
Degema;Degema Ward 13;;Usokun Primary Health Centre;;;;;
Degema;Degema Ward 14;;Obuama Model Primary Health Centre;;;;;
Degema;Degema Ward 15;;Bukuma Primary Health Centre;;;;;
Degema;Degema Ward 16;;Bile Primary Health Centre;;;;;
Degema;Degema Ward 17;;Ke Primary Health Centre ;;;;;
Degema;Degema Ward 17;;Old Bakana (Oguruama) Comprehensive Health Centre;;;;;
Degema;Degema Ward 6;;Bakana Model Primary Health Centre;;;;;
Degema;Degema Ward 7;;Tombia Comprehensive Health Centre;;;;;
Eleme;Eleme Unknown Ward;;Socton Clinic;;;;;
Eleme;Eleme Unknown Ward;;Duval Clinic;;;;;
Eleme;Eleme Unknown Ward;;Adadawin Clinic;;;;;
Eleme;Eleme Unknown Ward;;Adadawu Clinic and Maternity;;;;;
Eleme;Eleme Unknown Ward;;Arrowline Clinic;;;;;
Eleme;Eleme Unknown Ward;;Christus Royal Clinic;;;;;
Eleme;Eleme Unknown Ward;;Sampi Maternity Home;;;;;
Eleme;Eleme Unknown Ward;;Sickbay Clinic;;;;;
Eleme;Eleme Unknown Ward;;Patience Medical Centre;;;;;
Eleme;Eleme Unknown Ward;;Nigeria Port Authority Clinic (Eleme);;;;;
Eleme;Eleme Unknown Ward;;Omas Clinic;;;;;
Eleme;Eleme Unknown Ward;;Annme Clinic;;;;;
Eleme;Eleme Unknown Ward;;Eleme Mission Clinic;;;;;
Eleme;Eleme Unknown Ward;;Churewu Clinic;;;;;
Eleme;Eleme Ward 1;;Alesa Primary Health Centre;;;;;
Eleme;Eleme Ward 1;;Famo Clinic;;;;;
Eleme;Eleme Ward 10;;Aleto  Primary Health Centre;;;;;
Eleme;Eleme Ward 2;;Alode Primary  Health Centre ;;;;;
Eleme;Eleme Ward 3;;Ogale Primary Health Centre;;;;;
Eleme;Eleme Ward 3;;Nchia General Hospital;;;;;
Eleme;Eleme Ward 4;;Ebubu Comprehensive Health Centre;;;;;
Eleme;Eleme Ward 4;;Dorkson Clinic Ebubu;;;;;
Eleme;Eleme Ward 5;;Ekporo Primary Health Centre;;;;;
Eleme;Eleme Ward 6;;Eteo Primary Health Centre;;;;;
Eleme;Eleme Ward 7;;Naval Medical Centre;;;;;
Eleme;Eleme Ward 7;;Oune Health Centre;;;;;
Eleme;Eleme Ward 7;;Onne Model Primary Health Centre;;;;;
Eleme;Eleme Ward 7;;Ekara Primary Health Centre;;;;;
Eleme;Eleme Ward 8;;Agbonchia Model Primary Health Centre;;;;;
Eleme;Eleme Ward 9;;EPCL Clinic;;;;;
Eleme;Eleme Ward 9;;Akpajo Model Primary Health Centre;;;;;
Emuoha;Emohua Ward 12;;Ubimini Health Centre;;;;;
Emuoha;Emuoha Ward 10;;Omudioga Health Centre;;;;;
Emuoha;Emuoha Ward 10;;Akpabu Health Centre;;;;;
Emuoha;Emuoha Ward 10;;Akpabu Health Centre ;;;;;
Emuoha;Emuoha Ward 11;;Egbeda Health Centre (Emuoha);;;;;
Emuoha;Emuoha Ward 13;;Ovogo Health Centre;;;;;
Emuoha;Emuoha Ward 13;;Rumuji Health Centre;;;;;
Emuoha;Emuoha Ward 13;;Rumuodogo Health Centre;;;;;
Emuoha;Emuoha Ward 14;;Rumuewhor Health Centre;;;;;
Emuoha;Emuoha Ward 2;;Ogbakiri Health Centre;;;;;
Emuoha;Emuoha Ward 3;;Elibrada Health Centre;;;;;
Emuoha;Emuoha Ward 3;;Oduoha Health Centre;;;;;
Emuoha;Emuoha Ward 3;;Isiodu Health Centre;;;;;
Emuoha;Emuoha Ward 3;;Emohua Infant Welfare Clinic;;;;;
Emuoha;Emuoha Ward 4;;Emohua Chest Hospital;;;;;
Emuoha;Emuoha Ward 4;;Emohua General Hospital;;;;;
Emuoha;Emuoha Ward 5;;Obelle Health Centre;;;;;
Emuoha;Emuoha Ward 6;;Ibaa Cottage Hospital;;;;;
Emuoha;Emuoha Ward 6;;Ahia Elenwo Medical Clinic;;;;;
Emuoha;Emuoha Ward 6;;Ibaa Health Centre;;;;;
Emuoha;Emuoha Ward 7;;Ndele Health Centre;;;;;
Emuoha;Emuoha Ward 8;;Rumuekpe Health Centre;;;;;
Emuoha;Emuoha Ward 8;;Ubimini Health Centre;;;;;
Emuoha;Emuoha Ward 8;;Ekwurehe Health Centre ;;;;;
Emuoha;Emuoha Ward 8;;Ovelle-Odeoha Health Centre;;;;;
Emuoha;Emuoha Ward 9;;Elele-Alimini General Hospital;;;;;
Emuoha;Emuoha Ward 9;;Mobile Team 1 Elele Alimini;;;;;
Etche;Etche Unknown Ward;;Divine Grace Mission Hospital (Etche);;;;;
Etche;Etche Unknown Ward;;Chibuzor Clinic;;;;;
Etche;Etche Unknown Ward;;Golden Ronny Royal Specialist Hospital;;;;;
Etche;Etche Unknown Ward;;Chimanya Nursing and Maternity Home;;;;;
Etche;Etche Unknown Ward;;Glosco Clinic and Maternity;;;;;
Etche;Etche Ward 1;;Afara Health Centre;;;;;
Etche;Etche Ward 10;;Obite Health Centre;;;;;
Etche;Etche Ward 11;;Okehi General Hospital;;;;;
Etche;Etche Ward 11;;Grassroot Health Centre;;;;;
Etche;Etche Ward 12;;Ozuzu Health Centre;;;;;
Etche;Etche Ward 13;;Ulakwo Health Centre;;;;;
Etche;Etche Ward 13;;Infant  Welfare Clinic (Okpodim);;;;;
Etche;Etche Ward 14;;Umohie Health Centre ;;;;;
Etche;Etche Ward 14;;Egbeke Health Centre;;;;;
Etche;Etche Ward 15;;Akwa Model Primary Health Centre;;;;;
Etche;Etche Ward 16;;Umuoye Health Centre ;;;;;
Etche;Etche Ward 17;;Ndashi Health Centre;;;;;
Etche;Etche Ward 17;;Umudele Health Centre ;;;;;
Etche;Etche Ward 18;;Umudeuba Health Centre;;;;;
Etche;Etche Ward 18;;Umuede Health Centre;;;;;
Etche;Etche Ward 18;;Umuaturu Health Centre;;;;;
Etche;Etche Ward 19;;Orwulogide Health Centre;;;;;
Etche;Etche Ward 19;;Egbu Cottage Hospital;;;;;
Etche;Etche Ward 2;;Ihie Health Centre;;;;;
Etche;Etche Ward 2;;Ihie Health Centre ;;;;;
Etche;Etche Ward 3;;Imeh Health Centre ;;;;;
Etche;Etche Ward 3;;Umuebulu Cottage Hospital;;;;;
Etche;Etche Ward 3;;Umuakuru Health Centre;;;;;
Etche;Etche Ward 4;;Abara Health Centre;;;;;
Etche;Etche Ward 4;;Umuechem Health Centre;;;;;
Etche;Etche Ward 4;;Chokocho Health Facility;;;;;
Etche;Etche Ward 4;;Elele Health Centre ;;;;;
Etche;Etche Ward 5;;Okoroagu Health Centre;;;;;
Etche;Etche Ward 5;;Okomoko General Hospital;;;;;
Etche;Etche Ward 6;;Egwi Maternity/Health Centre;;;;;
Etche;Etche Ward 6;;Opiro Health Centre;;;;;
Etche;Etche Ward 7;;Nihi Health Centre;;;;;
Etche;Etche Ward 8;;Odufor Model Primary Health Centre;;;;;
Etche;Etche Ward 9;;Umuogerem Health Centre ;;;;;
Etche;Etche Ward 9;;Umuola Health Centre;;;;;
Gokana;Gokana Ward 1;;Bodo General Hospital;;;;;
Gokana;Gokana Ward 1;;Bodo Primary Health Centre;;;;;
Gokana;Gokana Ward 10;;Mogho Health Centre;;;;;
Gokana;Gokana Ward 11;;Barako Model Primary Health Centre;;;;;
Gokana;Gokana Ward 11;;Nweol Primary Health Centre;;;;;
Gokana;Gokana Ward 12;;Biara Comprehensive Health Centre;;;;;
Gokana;Gokana Ward 13;;Nwebiara Primary Health Centre;;;;;
Gokana;Gokana Ward 13;;Deeyor Primary Health Centre;;;;;
Gokana;Gokana Ward 13;;Deken Comprehensive Health Centre;;;;;
Gokana;Gokana Ward 15;;Yeghe Model Primary Health Centre;;;;;
Gokana;Gokana Ward 16;;Terabor General Hospital;;;;;
Gokana;Gokana Ward 16;;Terabor Primary Health Centre;;;;;
Gokana;Gokana Ward 16;;Bera Primary Health Centre;;;;;
Gokana;Gokana Ward 4;;B-Dere Model Primary Health Centre;;;;;
Gokana;Gokana Ward 5;;K-Dere Comprehensive Health Centre;;;;;
Gokana;Gokana Ward 7;;Bomu Model Primary Health Centre;;;;;
Gokana;Gokana Ward 9;;Kpor Health Centre;;;;;
Gokana;Gokana Ward 9;;Dumkil Clinic and Maternity;;;;;
Gokana;Gokana Ward 9;;Lewe Primary Health Centre;;;;;
Gokana;Gokana Ward 9;;Gbe Primary Health Centre;;;;;
Ikwerre;Ikwerre Ward 1;;Adanta Model Health Centre;;;;;
Ikwerre;Ikwerre Ward 10;;Ipo Health Centre;;;;;
Ikwerre;Ikwerre Ward 10;;Omademe Health Centre;;;;;
Ikwerre;Ikwerre Ward 11;;Ozuaha Model Primary Health Centre;;;;;
Ikwerre;Ikwerre Ward 12;;Igwuruta Health Centre;;;;;
Ikwerre;Ikwerre Ward 13;;Aluu (UPTH) Primary Health Centre;;;;;
Ikwerre;Ikwerre Ward 13;;Aluu Health Centre;;;;;
Ikwerre;Ikwerre Ward 2;;Isiokpo General Hospital;;;;;
Ikwerre;Ikwerre Ward 2;;Pa-Ikechi Memorial Clinic;;;;;
Ikwerre;Ikwerre Ward 2;;Pamax Memorial Clinic;;;;;
Ikwerre;Ikwerre Ward 2;;Isiokpo Infant Welfare Clinic;;;;;
Ikwerre;Ikwerre Ward 3;;Madonna University Teaching Hospital;;;;;
Ikwerre;Ikwerre Ward 3;;Chioma Maternity Home (Ikwerre);;;;;
Ikwerre;Ikwerre Ward 3;;Ikwerre Prison Clinic;;;;;
Ikwerre;Ikwerre Ward 3;;Elele Primary Health Centre;;;;;
Ikwerre;Ikwerre Ward 3;;The Saviour Hospital;;;;;
Ikwerre;Ikwerre Ward 3;;Ubima General Hospital;;;;;
Ikwerre;Ikwerre Ward 4;;Elele Army Barracks MRS Clinic;;;;;
Ikwerre;Ikwerre Ward 4;;Emmanuel Memorial Clinic;;;;;
Ikwerre;Ikwerre Ward 4;;El-Spiral Clinic;;;;;
Ikwerre;Ikwerre Ward 4;;St Anthony Clinic;;;;;
Ikwerre;Ikwerre Ward 5;;Omerelu Health Centre;;;;;
Ikwerre;Ikwerre Ward 6;;Apani Health Centre;;;;;
Ikwerre;Ikwerre Ward 7;;Omuanwu Health Centre;;;;;
Ikwerre;Ikwerre Ward 8;;Ubima Model Primary Health Centre;;;;;
Ikwerre;Ikwerre Ward 9;;Omagwa Health Centre;;;;;
Ikwerre;Ikwerre Ward 9;;Ikwerri FAAN Clinic;;;;;
Khana;Khana  Ward 1 & 2;;Sovereign Clinic;;;;;
Khana;Khana  Ward 1 & 2;;Bori Infant Welfare Clinic;;;;;
Khana;Khana  Ward 10;;Bane Model Primary Health Centre;;;;;
Khana;Khana  Ward 11;;Kwawa Primary Health Centre;;;;;
Khana;Khana  Ward 12;;Wiiyaakara Model Primary Health Centre;;;;;
Khana;Khana  Ward 14;;Uegwere Bo-ue Primary Health Centre;;;;;
Khana;Khana  Ward 15;;Eeken Primary Health Centre;;;;;
Khana;Khana  Ward 15;;Bori General Hospital;;;;;
Khana;Khana  Ward 15;;Luawii Model Primary Health Centre;;;;;
Khana;Khana  Ward 15;;Gwara Primary Health Centre;;;;;
Khana;Khana  Ward 15;;Kaa Health Post;;;;;
Khana;Khana  Ward 16;;Opuok Model primary Health Centre;;;;;
Khana;Khana  Ward 16;;Luuwa Model Primary Health Centre;;;;;
Khana;Khana  Ward 17;;Betem Primary Health Centre;;;;;
Khana;Khana  Ward 18;;Kpean Model Primary Health Centre;;;;;
Khana;Khana  Ward 19;;Lorre Health Post;;;;;
Khana;Khana  Ward 19;;Luebe Primary Health Centre;;;;;
Khana;Khana  Ward 19;;Yae  Health Post;;;;;
Khana;Khana  Ward 3;;Lueku Health Post;;;;;
Khana;Khana  Ward 4;;Zor-Sogho Health Post;;;;;
Khana;Khana  Ward 4;;Teka Sogho Primary Health Centre;;;;;
Khana;Khana  Ward 5;;Okwale Model Primary Health Centre;;;;;
Khana;Khana  Ward 6;;Kaani 11 Primary Health Centre;;;;;
Khana;Khana  Ward 6;;Kaani 1 Health Post;;;;;
Khana;Khana  Ward 7;;Luumene Primary Health Centre;;;;;
Khana;Khana  Ward 7;;Kabangha  Health Post;;;;;
Khana;Khana  Ward 8;;Taabaa Model Primary Health Centre;;;;;
Khana;Khana  Ward 8;;Kpong Health Post;;;;;
Khana;Khana  Ward 9;;Beeri Model Primary Health Centre;;;;;
Khana;Khana  Ward 9;;Beeri- Beakogoro Primary Health Centre;;;;;
Obio/Akpor;Obio/Akpor Ward 1;;ir Eliozu Model Primary Health Centre;;;;;
Obio/Akpor;Obio/Akpor Ward 1;;Pristine Medical Consultants;;;;;
Obio/Akpor;Obio/Akpor Ward 10;;Rumueme College of Health Science/Technology Demonstration Clinic;;;;;
Obio/Akpor;Obio/Akpor Ward 10;;St. Catherine Specialist Hospital (Woji);;;;;
Obio/Akpor;Obio/Akpor Ward 10;;NAOC Clinic;;;;;
Obio/Akpor;Obio/Akpor Ward 11;;Rumueme Model Primary Health Centre;;;;;
Obio/Akpor;Obio/Akpor Ward 12;;Rumuigbo Neuro-Psychiatric Hospital;;;;;
Obio/Akpor;Obio/Akpor Ward 12;;Rumuigbo Model Primary Health Centre;;;;;
Obio/Akpor;Obio/Akpor Ward 13;;Rumuokwuta Primary Health Centre;;;;;
Obio/Akpor;Obio/Akpor Ward 14;;Rukpokwu Primary Health Centre;;;;;
Obio/Akpor;Obio/Akpor Ward 14;;ir Eneka Primary Health Centre;;;;;
Obio/Akpor;Obio/Akpor Ward 14;;International Medical Centre;;;;;
Obio/Akpor;Obio/Akpor Ward 14;;People's Health Centre;;;;;
Obio/Akpor;Obio/Akpor Ward 15;;St. Elizabeth Hospital;;;;;
Obio/Akpor;Obio/Akpor Ward 15;;Rumuekini Health Centre;;;;;
Obio/Akpor;Obio/Akpor Ward 15;;University of Port-Harcourt Teaching Hospital;;;;;
Obio/Akpor;Obio/Akpor Ward 15;;Lulu Briggs Health Centre;;;;;
Obio/Akpor;Obio/Akpor Ward 16;;Ozuoba Model Primary Health Centre;;;;;
Obio/Akpor;Obio/Akpor Ward 17;;University of Education Medical Centre;;;;;
Obio/Akpor;Obio/Akpor Ward 17;;Rumuolumeni Primary Health Centre;;;;;
Obio/Akpor;Obio/Akpor Ward 2;;ir Iriebe Primary Health Centre;;;;;
Obio/Akpor;Obio/Akpor Ward 3;;Rumukrushi Model Primary Health Centre;;;;;
Obio/Akpor;Obio/Akpor Ward 4;;ir Rumuodomaya Model Primary Health Centre;;;;;
Obio/Akpor;Obio/Akpor Ward 4;;Star Maternity Home;;;;;
Obio/Akpor;Obio/Akpor Ward 5;;Amegain Family Health Services Clinic;;;;;
Obio/Akpor;Obio/Akpor Ward 5;;St Jude's Clinic;;;;;
Obio/Akpor;Obio/Akpor Ward 5;;Elelenwo Primary Health Centre Family Support Programme ;;;;;
Obio/Akpor;Obio/Akpor Ward 6;;ir Woji Model Primary Health Centre;;;;;
Obio/Akpor;Obio/Akpor Ward 6;;Prime Medical Consultants;;;;;
Obio/Akpor;Obio/Akpor Ward 6;;Rivon Clinic;;;;;
Obio/Akpor;Obio/Akpor Ward 6;;Anchor Clinic;;;;;
Obio/Akpor;Obio/Akpor Ward 6;;St Mary's Clinic (Obio/Akpor);;;;;
Obio/Akpor;Obio/Akpor Ward 6;;Woji Cottage Hospital ;;;;;
Obio/Akpor;Obio/Akpor Ward 7;;Rumuobiakani Shell .P.D.C ;;;;;
Obio/Akpor;Obio/Akpor Ward 7;;St Judes Catholic Primary Health Centre;;;;;
Obio/Akpor;Obio/Akpor Ward 7;;Charity Memorial Clinic;;;;;
Obio/Akpor;Obio/Akpor Ward 8;;God's Will Medical Centre;;;;;
Obio/Akpor;Obio/Akpor Ward 8;;River's Clinic;;;;;
Obio/Akpor;Obio/Akpor Ward 8;;Pamo Clinic;;;;;
Obio/Akpor;Obio/Akpor Ward 8;;Obio Cottage Hospital;;;;;
Obio/Akpor;Obio/Akpor Ward 9;;Queen's Clinic;;;;;
Obio/Akpor;Obio/Akpor Ward 9;;Springs Medical Centre;;;;;
Obio/Akpor;Obio/Akpor Ward 9;;ir Rumuepirikom Model Primary Health Centre;;;;;
Ogba/Egbema/Ndoni;Ogba/Egbema/Ndon Ward 12;;Aggah Health Centre;;;;;
Ogba/Egbema/Ndoni;Ogba/Egbema/Ndon Ward 15;;Ase-Azaga Health Centre;;;;;
Ogba/Egbema/Ndoni;Ogba/Egbema/Ndon Ward 17;;Akabta Health Centre ;;;;;
Ogba/Egbema/Ndoni;Ogba/Egbema/Ndon Ward 17;;Obiyebe Primary Health Centre;;;;;
Ogba/Egbema/Ndoni;Ogba/Egbema/Ndon Ward 2;;Omoku Model Primary Health Centre;;;;;
Ogba/Egbema/Ndoni;Ogba/Egbema/Ndon Ward 2;;Omoku General Hospital;;;;;
Ogba/Egbema/Ndoni;Ogba/Egbema/Ndoni Ward 1;;Gbeye Clinic;;;;;
Ogba/Egbema/Ndoni;Ogba/Egbema/Ndoni Ward 1;;Akabuka Central Hospital and Maternity;;;;;
Ogba/Egbema/Ndoni;Ogba/Egbema/Ndoni Ward 1;;Oje Clinic;;;;;
Ogba/Egbema/Ndoni;Ogba/Egbema/Ndoni Ward 10;;Erema Health Centre;;;;;
Ogba/Egbema/Ndoni;Ogba/Egbema/Ndoni Ward 11;;Okwuzi Model Primary Health Centre;;;;;
Ogba/Egbema/Ndoni;Ogba/Egbema/Ndoni Ward 11;;Ebocha Model Primary Health Centre;;;;;
Ogba/Egbema/Ndoni;Ogba/Egbema/Ndoni Ward 11;;Mgbede Health Centre ;;;;;
Ogba/Egbema/Ndoni;Ogba/Egbema/Ndoni Ward 14;;Ndoni Health Centre;;;;;
Ogba/Egbema/Ndoni;Ogba/Egbema/Ndoni Ward 5;;Ebogoro Primary Health Centre;;;;;
Ogba/Egbema/Ndoni;Ogba/Egbema/Ndoni Ward 5;;Obrikom Health Centre;;;;;
Ogba/Egbema/Ndoni;Ogba/Egbema/Ndoni Ward 5;;Obor Health Centre ;;;;;
Ogba/Egbema/Ndoni;Ogba/Egbema/Ndoni Ward 6;;Idu-Ogba Health Centre;;;;;
Ogba/Egbema/Ndoni;Ogba/Egbema/Ndoni Ward 7;;Ikiri Health Centre;;;;;
Ogba/Egbema/Ndoni;Ogba/Egbema/Ndoni Ward 7;;Amah Health Centre;;;;;
Ogba/Egbema/Ndoni;Ogba/Egbema/Ndoni Ward 7;;Egbada Primary Health Centre;;;;;
Ogba/Egbema/Ndoni;Ogba/Egbema/Ndoni Ward 7;;Elieta Primary Health Centre ;;;;;
Ogba/Egbema/Ndoni;Ogba/Egbema/Ndoni Ward 7;;Ohaiauga Health Centre;;;;;
Ogba/Egbema/Ndoni;Ogba/Egbema/Ndoni Ward 7;;Obigwe Health Centre;;;;;
Ogba/Egbema/Ndoni;Ogba/Egbema/Ndoni Ward 7;;Okposi Health Centre;;;;;
Ogba/Egbema/Ndoni;Ogba/Egbema/Ndoni Ward 8;;Abubuka Health Centre;;;;;
Ogba/Egbema/Ndoni;Ogba/Egbema/Ndoni Ward 8;;Ogbogu Health Centre;;;;;
Ogba/Egbema/Ndoni;Ogba/Egbema/Ndoni Ward 8;;Obite Health Centre;;;;;
Ogba/Egbema/Ndoni;Ogba/Egbema/Ndoni Ward 9;;Oboburu Primary Health Centre;;;;;
Ogba/Egbema/Ndoni;Ogba/Egbema/Ndoni Ward 9;;Egi Primary Health Centre;;;;;
Ogba/Egbema/Ndoni;Ogba-Egbema-Ndoni ward 13;;Ndoni Comprehensive Health Centre;;;;;
Ogu/Bolo;Ogu/Bolo Ward 10;;Bolo Comprehensive Health Centre;;;;;
Ogu/Bolo;Ogu/Bolo Ward 11;;Wakama-Ama Health Centre;;;;;
Ogu/Bolo;Ogu/Bolo Ward 3;;Chuku-Ama Health Centre;;;;;
Ogu/Bolo;Ogu/Bolo Ward 4;;Ogu Model Primary Health Centre;;;;;
Ogu/Bolo;Ogu/Bolo Ward 5;;Ogu General Hospital;;;;;
Ogu/Bolo;Ogu/Bolo Ward 6;;Opu-Ama Health Centre;;;;;
Ogu/Bolo;Ogu/Bolo Ward 6;;Owuogono Health Centre;;;;;
Ogu/Bolo;Ogu/Bolo Ward 6;;Ikpo-Ama Health Centre;;;;;
Okrika;Okrika Ward 12;;Ogoloma Model Primary Health Centre;;;;;
Okrika;Okrika Ward 12;;Ofiomina-Ama Health Centre;;;;;
Okrika;Okrika Ward 2;;Anyungubiri Health Centre;;;;;
Okrika;Okrika Ward 3;;Almal Health Clinic ;;;;;
Okrika;Okrika Ward 4;;Island Maternity;;;;;
Okrika;Okrika Ward 5 ;;Kalio-Ama Health Centre;;;;;
Okrika;Okrika Ward 5 ;;Okirika General Hospital;;;;;
Okrika;Okrika Ward 5 ;;Dumo Clinic, Ekerekana-Ama;;;;;
Okrika;Okrika Ward 5 ;;Okochiri Health Centre;;;;;
Okrika;Okrika Ward 5 ;;Daka-Ama Mainland Clinic ;;;;;
Okrika;Okrika Ward 6;;Ogbogbo Health Centre;;;;;
Okrika;Okrika Ward 7;;Isaka Health Centre;;;;;
Okrika;Okrika Ward 7;;Ibaka Health Centre;;;;;
Okrika;Okrika Ward 8;;George-Ama Health Centre;;;;;
Okrika;Okrika Ward 8;;Ogan-Ama Model primary Health Centre;;;;;
Okrika;Okrika Ward 9;;Okujagu Health Centre;;;;;
Okrika;Okrika Ward 9;;Oba-Ama Health Centre;;;;;
Omumma;Omumma Ward 10;;Umuajuloke Primary Health Centre;;;;;
Omumma;Omumma Ward 10;;Umuoke Health Centre;;;;;
Omumma;Omumma Ward 3;;Obiohia Health Centre;;;;;
Omumma;Omumma Ward 4;;Ohimoyoro Primary Health Centre;;;;;
Omumma;Omumma Ward 5;;Oyoro Model Health Centre;;;;;
Omumma;Omumma Ward 6;;Ofeh Health Centre;;;;;
Omumma;Omumma Ward 7;;Umuogba Health Centre;;;;;
Omumma;Omumma Ward 8;;Umu-Eze Health Centre;;;;;
Omumma;Omumma Ward 9;;Umuokwa Primary Health Centre;;;;;
Opobo/Nkoro;Opobo Nkoro ward 9;;Nkoro  Model Primary  Health Centre;;;;;
Opobo/Nkoro;Opobo/Nkoro Ward 1;;Kalaibiama Primary Health Centre;;;;;
Opobo/Nkoro;Opobo/Nkoro Ward 1;;Minimah Primary Health Centre;;;;;
Opobo/Nkoro;Opobo/Nkoro ward 2;;Opobo General Hospital;;;;;
Opobo/Nkoro;Opobo/Nkoro ward 2;;Epellema Primary Health Centre;;;;;
Opobo/Nkoro;Opobo/Nkoro ward 7;;Opobo Comprehensive Health Centre;;;;;
Opobo/Nkoro;Opobo/Nkoro ward 8;;Queen's Town Model Primary Health Centre;;;;;
Oyigbo;Oyigbo Ward 1;;Okoloma Health Post;;;;;
Oyigbo;Oyigbo Ward 1;;PHCN STAFF Clinic;;;;;
Oyigbo;Oyigbo Ward 10;;Royal Clinic and Maternity;;;;;
Oyigbo;Oyigbo Ward 10;;Heritage Hospital;;;;;
Oyigbo;Oyigbo Ward 10;;Ogechi Maternity Home;;;;;
Oyigbo;Oyigbo Ward 10;;Umusia Model Primary Health Centre;;;;;
Oyigbo;Oyigbo Ward 2;;Obeakpu Model Primary Health Centre;;;;;
Oyigbo;Oyigbo Ward 3;;Egberu Health Post;;;;;
Oyigbo;Oyigbo Ward 4;;Umuagbai Model Primary Health Centre;;;;;
Oyigbo;Oyigbo Ward 5;;Marihu Health Post;;;;;
Oyigbo;Oyigbo Ward 6;;Obete Model Primary Health Health;;;;;
Oyigbo;Oyigbo Ward 7;;Mirinwanyi Model Primary Health Centre;;;;;
Oyigbo;Oyigbo Ward 8;;Oyigbo Comprehensive Health Centre;;;;;
Oyigbo;Oyigbo Ward 8;;Christus Royal Hospital;;;;;
Oyigbo;Oyigbo Ward 8;;Divine Grace Hospital;;;;;
Oyigbo;Oyigbo Ward 8;;Location Health Post;;;;;
Oyigbo;Oyigbo Ward 9;;Uchechukwu Maternity;;;;;
Oyigbo;Oyigbo Ward 9;;Peace Clinic;;;;;
Port-Harcourt;Port Harcourt Ward 1;;Morning Star Clinic;;;;;
Port-Harcourt;Port Harcourt Ward 1;;Meridian Hospital;;;;;
Port-Harcourt;Port Harcourt Ward 1;;Pearl Clinic;;;;;
Port-Harcourt;Port Harcourt Ward 1;;Military Hospital;;;;;
Port-Harcourt;Port Harcourt Ward 1;;Ponyx Clinic;;;;;
Port-Harcourt;Port Harcourt Ward 1;;Port-Harcourt Military Hospital;;;;;
Port-Harcourt;Port-Harcourt Unknown Ward;;Lord of Mercy Hospital (Annex);;;;;
Port-Harcourt;Port-Harcourt Unknown Ward;;Tristar Clinic;;;;;
Port-Harcourt;Port-Harcourt Unknown Ward;;HMS Clinic;;;;;
Port-Harcourt;Port-Harcourt Unknown Ward;;Silver Valley Clinic;;;;;
Port-Harcourt;Port-Harcourt Unknown Ward;;Shalom Medical Clinic;;;;;
Port-Harcourt;Port-Harcourt Unknown Ward;;Tonema Medical Services Clinic;;;;;
Port-Harcourt;Port-Harcourt Unknown Ward;;Yae Primary Health Centre ;;;;;
Port-Harcourt;Port-Harcourt Unknown Ward;;Rohoboth Specialist Clinic;;;;;
Port-Harcourt;Port-Harcourt Unknown Ward;;Sondel Clinic and Maternity;;;;;
Port-Harcourt;Port-Harcourt Unknown Ward;;Phoenix Clinic;;;;;
Port-Harcourt;Port-Harcourt Unknown Ward;;Riverside 1 Clinic;;;;;
Port-Harcourt;Port-Harcourt Unknown Ward;;Maritex Maternity Home;;;;;
Port-Harcourt;Port-Harcourt Unknown Ward;;St Nicholas Clinic;;;;;
Port-Harcourt;Port-Harcourt Unknown Ward;;Diobu Health Centre;;;;;
Port-Harcourt;Port-Harcourt Unknown Ward;;Bereton Clinic;;;;;
Port-Harcourt;Port-Harcourt Unknown Ward;;Balm W Gilead Medical Services;;;;;
Port-Harcourt;Port-Harcourt Unknown Ward;;Batubonye Clinic;;;;;
Port-Harcourt;Port-Harcourt Unknown Ward;;CEE Clinic and Maternity;;;;;
Port-Harcourt;Port-Harcourt Unknown Ward;;Tari-Bed Consult Clinic;;;;;
Port-Harcourt;Port-Harcourt Unknown Ward;;Biedomo Clinic;;;;;
Port-Harcourt;Port-Harcourt Unknown Ward;;Ivory Clinic and Maternity;;;;;
Port-Harcourt;Port-Harcourt Unknown Ward;;Life Clinic;;;;;
Port-Harcourt;Port-Harcourt Unknown Ward;;St Luke's Clinic;;;;;
Port-Harcourt;Port-Harcourt Unknown Ward;;Port-Harcourt Immunisation Centre;;;;;
Port-Harcourt;Port-Harcourt Unknown Ward;;Afini Clinic and Maternity;;;;;
Port-Harcourt;Port-Harcourt Unknown Ward;;Ndoki Waterside Clinic;;;;;
Port-Harcourt;Port-Harcourt Unknown Ward;;Mandy Specialist Clinic;;;;;
Port-Harcourt;Port-Harcourt Unknown Ward;;Christian Help Hospital;;;;;
Port-Harcourt;Port-Harcourt Unknown Ward;;Bon Clinic;;;;;
Port-Harcourt;Port-Harcourt Unknown Ward;;New Life Clinic and Maternity;;;;;
Port-Harcourt;Port-Harcourt Unknown Ward;;Gafe Eye Hospital;;;;;
Port-Harcourt;Port-Harcourt Unknown Ward;;Mac Johnson Nursing Home;;;;;
Port-Harcourt;Port-Harcourt Unknown Ward;;Borikiri Specialist Clinic;;;;;
Port-Harcourt;Port-Harcourt Unknown Ward;;Rokyaina Clinic;;;;;
Port-Harcourt;Port-Harcourt Unknown Ward;;Chevron Clinic;;;;;
Port-Harcourt;Port-Harcourt Unknown Ward;;Kenov Clinic;;;;;
Port-Harcourt;Port-Harcourt Unknown Ward;;Summit Clinic;;;;;
Port-Harcourt;Port-Harcourt Unknown Ward;;Aggrey Clinic;;;;;
Port-Harcourt;Port-Harcourt Unknown Ward;;Harley Clinic and Maternity;;;;;
Port-Harcourt;Port-Harcourt Unknown Ward;;Grace Medical Centre;;;;;
Port-Harcourt;Port-Harcourt Unknown Ward;;Port-Harcourt Critical Rescue International Medical Clinic;;;;;
Port-Harcourt;Port-Harcourt Unknown Ward;;New Era Clinic (Port-Harcourt);;;;;
Port-Harcourt;Port-Harcourt Unknown Ward;;Amba Hospital;;;;;
Port-Harcourt;Port-Harcourt Unknown Ward;;Sato Nursing and Maternity Home;;;;;
Port-Harcourt;Port-Harcourt Unknown Ward;;Princewill Maternity Home;;;;;
Port-Harcourt;Port-Harcourt Unknown Ward;;El-Shaddai Medical Centre;;;;;
Port-Harcourt;Port-Harcourt Unknown Ward;;Asford and Patricia Clinic;;;;;
Port-Harcourt;Port-Harcourt Unknown Ward;;Maggie Memorial Clinic;;;;;
Port-Harcourt;Port-Harcourt Unknown Ward;;Madonna Maternity Home;;;;;
Port-Harcourt;Port-Harcourt Unknown Ward;;St Valentine's Clinic and Maternity;;;;;
Port-Harcourt;Port-Harcourt Unknown Ward;;Satori Nursing Home;;;;;
Port-Harcourt;Port-Harcourt Unknown Ward;;Atini Medical Centre;;;;;
Port-Harcourt;Port-Harcourt Unknown Ward;;Irigha Maternity Home;;;;;
Port-Harcourt;Port-Harcourt Unknown Ward;;Heart Health Medical Services;;;;;
Port-Harcourt;Port-Harcourt Unknown Ward;;Gbalipere Clinic and Maternity;;;;;
Port-Harcourt;Port-Harcourt Unknown Ward;;Ibidabo Clinic;;;;;
Port-Harcourt;Port-Harcourt Unknown Ward;;Royal Clinic;;;;;
Port-Harcourt;Port-Harcourt Unknown Ward;;Letitia Maternity Home;;;;;
Port-Harcourt;Port-Harcourt Unknown Ward;;St Vincent Clinic;;;;;
Port-Harcourt;Port-Harcourt Unknown Ward;;Foundation Medical Centre;;;;;
Port-Harcourt;Port-Harcourt Unknown Ward;;Ideal Maternity Home;;;;;
Port-Harcourt;Port-Harcourt Unknown Ward;;Hilton Clinic;;;;;
Port-Harcourt;Port-Harcourt Unknown Ward;;Astra Clinic;;;;;
Port-Harcourt;Port-Harcourt Unknown Ward;;Providence Clinic and Maternity;;;;;
Port-Harcourt;Port-Harcourt Unknown Ward;;Amama Clinic;;;;;
Port-Harcourt;Port-Harcourt Unknown Ward;;Nosams Clinic;;;;;
Port-Harcourt;Port-Harcourt Unknown Ward;;Barvic Maternity Home;;;;;
Port-Harcourt;Port-Harcourt Unknown Ward;;Fener Clinic;;;;;
Port-Harcourt;Port-Harcourt Unknown Ward;;Rex Medical Centre;;;;;
Port-Harcourt;Port-Harcourt Unknown Ward;;Dayspring Top Choice Dental Clinic;;;;;
Port-Harcourt;Port-Harcourt Unknown Ward;;Ibifubara Clinic;;;;;
Port-Harcourt;Port-Harcourt Unknown Ward;;Lavo Clinic and Maternity;;;;;
Port-Harcourt;Port-Harcourt Unknown Ward;;Healthwise Hospital;;;;;
Port-Harcourt;Port-Harcourt Unknown Ward;;Union Specialist Clinic;;;;;
Port-Harcourt;Port-Harcourt Unknown Ward;;Amity Specialist Medical Eye Clinic;;;;;
Port-Harcourt;Port-Harcourt Unknown Ward;;Bleson Medical Centre;;;;;
Port-Harcourt;Port-Harcourt Unknown Ward;;Beckon Dental Clinic;;;;;
Port-Harcourt;Port-Harcourt Unknown Ward;;Mercy Clinic (Port-Harcourt);;;;;
Port-Harcourt;Port-Harcourt Unknown Ward;;Seaside Surgery Clinic;;;;;
Port-Harcourt;Port-Harcourt Unknown Ward;;Ibitamuno Maternity Home;;;;;
Port-Harcourt;Port-Harcourt Unknown Ward;;Grace Maternity Home;;;;;
Port-Harcourt;Port-Harcourt Unknown Ward;;Family Health Centre;;;;;
Port-Harcourt;Port-Harcourt Unknown Ward;;Shamakop Clinic;;;;;
Port-Harcourt;Port-Harcourt Unknown Ward;;Bariveda Maternity Home;;;;;
Port-Harcourt;Port-Harcourt Unknown Ward;;Triomas Nursing Home;;;;;
Port-Harcourt;Port-Harcourt Unknown Ward;;Tam-Wari Clinic and Maternity;;;;;
Port-Harcourt;Port-Harcourt Unknown Ward;;Yima Hospital;;;;;
Port-Harcourt;Port-Harcourt Unknown Ward;;Peniel Clinic;;;;;
Port-Harcourt;Port-Harcourt Unknown Ward;;Juaris Med Clinic and Maternity;;;;;
Port-Harcourt;Port-Harcourt Unknown Ward;;Image Diagnostics Centre;;;;;
Port-Harcourt;Port-Harcourt Unknown Ward;;Wilhelm Nyssen Medical Centre;;;;;
Port-Harcourt;Port-Harcourt Unknown Ward;;Creek Orthopaedic Hospital;;;;;
Port-Harcourt;Port-Harcourt Unknown Ward;;Ritz Clinic;;;;;
Port-Harcourt;Port-Harcourt Unknown Ward;;Babro Clinic and Maternity;;;;;
Port-Harcourt;Port-Harcourt Unknown Ward;;Port-Harcourt Environment Sanitation Staff Clinic;;;;;
Port-Harcourt;Port-Harcourt Unknown Ward;;NOSCO Hospital;;;;;
Port-Harcourt;Port-Harcourt Unknown Ward;;Riverside 2 Clinic;;;;;
Port-Harcourt;Port-Harcourt Unknown Ward;;Our Lord's Medical Centre;;;;;
Port-Harcourt;Port-Harcourt Unknown Ward;;St Mary's Clinic (Port-Harcourt);;;;;
Port-Harcourt;Port-Harcourt Unknown Ward;;Mary Land Health Centre;;;;;
Port-Harcourt;Port-Harcourt Unknown Ward;;Herbgreen Dental Clinic;;;;;
Port-Harcourt;Port-Harcourt Unknown Ward;;Port-Harcourt Government Home Clinic;;;;;
Port-Harcourt;Port-Harcourt Unknown Ward;;Nasara Medical Clinic;;;;;
Port-Harcourt;Port-Harcourt Unknown Ward;;BMS Hospital;;;;;
Port-Harcourt;Port-Harcourt Unknown Ward;;Concel Specialist Hospital;;;;;
Port-Harcourt;Port-Harcourt Unknown Ward;;Ikokwu Maternity Home;;;;;
Port-Harcourt;Port-Harcourt Unknown Ward;;Funtain Hospital and Maternity;;;;;
Port-Harcourt;Port-Harcourt Unknown Ward;;Triomas Clinic and Maternity;;;;;
Port-Harcourt;Port-Harcourt Unknown Ward;;Port-Harcourt Dental Maxillo-Facial Hospital;;;;;
Port-Harcourt;Port-Harcourt Unknown Ward;;Standard Clinic;;;;;
Port-Harcourt;Port-Harcourt Unknown Ward;;Hossanna Clinic and Maternity;;;;;
Port-Harcourt;Port-Harcourt Unknown Ward;;Immaculate 1 Clinic and Maternity;;;;;
Port-Harcourt;Port-Harcourt Unknown Ward;;Port-Harcourt Nigeria National Petroleum Corporation Clinic;;;;;
Port-Harcourt;Port-Harcourt Unknown Ward;;St Mary's Maternity Home;;;;;
Port-Harcourt;Port-Harcourt Unknown Ward;;St Hellen Medical Centre and Maternity;;;;;
Port-Harcourt;Port-Harcourt Unknown Ward;;Teme Hospital;;;;;
Port-Harcourt;Port-Harcourt Unknown Ward;;Life Care Medical Centre;;;;;
Port-Harcourt;Port-Harcourt Unknown Ward;;Marina Hope Clinic and Maternity;;;;;
Port-Harcourt;Port-Harcourt Unknown Ward;;Eti Medical Centre;;;;;
Port-Harcourt;Port-Harcourt Unknown Ward;;Samaritan Medical Centre;;;;;
Port-Harcourt;Port-Harcourt Unknown Ward;;Ibidabo Clinic (Annex);;;;;
Port-Harcourt;Port-Harcourt Unknown Ward;;Santana Medical Centre;;;;;
Port-Harcourt;Port-Harcourt Unknown Ward;;Bebe Clinic;;;;;
Port-Harcourt;Port-Harcourt Unknown Ward;;Johnson Memorial Nursing Home;;;;;
Port-Harcourt;Port-Harcourt Unknown Ward;;Supreme Optics Clinic;;;;;
Port-Harcourt;Port-Harcourt Unknown Ward;;Rumueme Primary Health Centre;;;;;
Port-Harcourt;Port-Harcourt Unknown Ward;;Odessa Medical Services;;;;;
Port-Harcourt;Port-Harcourt Unknown Ward;;Mini Health Centre;;;;;
Port-Harcourt;Port-Harcourt Unknown Ward;;Jecomial Children Specialist Clinic;;;;;
Port-Harcourt;Port-Harcourt Unknown Ward;;Garden City Clinic and Maternity;;;;;
Port-Harcourt;Port-Harcourt Unknown Ward;;Odessa Medical Centre;;;;;
Port-Harcourt;Port-Harcourt Unknown Ward;;Immaculate 2 Clinic and Maternity;;;;;
Port-Harcourt;Port-Harcourt Unknown Ward;;Mile One Clinic;;;;;
Port-Harcourt;Port-Harcourt Unknown Ward;;Odadiki Eye Hospital;;;;;
Port-Harcourt;Port-Harcourt Unknown Ward;;Pilot Medical Centre;;;;;
Port-Harcourt;Port-Harcourt Unknown Ward;;Mount Zion Clinic and Maternity;;;;;
Port-Harcourt;Port-Harcourt Unknown Ward;;Daba Clinic;;;;;
Port-Harcourt;Port-Harcourt Unknown Ward;;Opus Clinic;;;;;
Port-Harcourt;Port-Harcourt Unknown Ward;;Wellington Medical Centre;;;;;
Port-Harcourt;Port-Harcourt Unknown Ward;;Manasseh Memorial Maternity Home;;;;;
Port-Harcourt;Port-Harcourt Unknown Ward;;Port-Harcourt Emergency Medical Centre;;;;;
Port-Harcourt;Port-Harcourt Unknown Ward;;Jonal Clinic;;;;;
Port-Harcourt;Port-Harcourt Unknown Ward;;Grasona Clinic;;;;;
Port-Harcourt;Port-Harcourt Unknown Ward;;Otokini Maternity Home;;;;;
Port-Harcourt;Port-Harcourt Unknown Ward;;Coronation Clinic;;;;;
Port-Harcourt;Port-Harcourt Unknown Ward;;St John's Clinic;;;;;
Port-Harcourt;Port-Harcourt Unknown Ward;;Notes Women Clinic;;;;;
Port-Harcourt;Port-Harcourt Unknown Ward;;Port-Harcourt Critical Rescue International Clinic;;;;;
Port-Harcourt;Port-Harcourt Unknown Ward;;Mada Infirmary Clinic;;;;;
Port-Harcourt;Port-Harcourt Unknown Ward;;Korene Eye Clinic;;;;;
Port-Harcourt;Port-Harcourt Unknown Ward;;Christal Medical Services;;;;;
Port-Harcourt;Port-Harcourt Unknown Ward;;Garrison Clinic;;;;;
Port-Harcourt;Port-Harcourt Unknown Ward;;Eldona Clinic;;;;;
Port-Harcourt;Port-Harcourt Unknown Ward;;ER Chinyere Maternity Home;;;;;
Port-Harcourt;Port-Harcourt Unknown Ward;;Eeken Primary Health Centre ;;;;;
Port-Harcourt;Port-Harcourt Unknown Ward;;Saviour's Maternity Home;;;;;
Port-Harcourt;Port-Harcourt Unknown Ward;;May Maternity Home;;;;;
Port-Harcourt;Port-Harcourt Unknown Ward;;Chidima Maternity Home;;;;;
Port-Harcourt;Port-Harcourt Unknown Ward;;Diacore Clinic;;;;;
Port-Harcourt;Port-Harcourt Unknown Ward;;Marina Clinic;;;;;
Port-Harcourt;Port-Harcourt Unknown Ward;;Creek Hospital and Clinic;;;;;
Port-Harcourt;Port-Harcourt Unknown Ward;;Global Clinic;;;;;
Port-Harcourt;Port-Harcourt Unknown Ward;;Westend Clinic;;;;;
Port-Harcourt;Port-Harcourt Unknown Ward;;Oliver Clinic;;;;;
Port-Harcourt;Port-Harcourt Unknown Ward;;Moses Memorial Clinic;;;;;
Port-Harcourt;Port-Harcourt Unknown Ward;;Morning Star Clinic (Annex);;;;;
Port-Harcourt;Port-Harcourt Unknown Ward;;Faith City Hospital;;;;;
Port-Harcourt;Port-Harcourt Unknown Ward;;Solo Medical Services;;;;;
Port-Harcourt;Port-Harcourt Unknown Ward;;Unity Clinic and Surgery;;;;;
Port-Harcourt;Port-Harcourt Unknown Ward;;Oluwa Medical Centre;;;;;
Port-Harcourt;Port-Harcourt Unknown Ward;;Queen Esther Specialist Hospital;;;;;
Port-Harcourt;Port-Harcourt Unknown Ward;;Oceanic Medical Centre;;;;;
Port-Harcourt;Port-Harcourt Unknown Ward;;Benes Dental Clinic;;;;;
Port-Harcourt;Port-Harcourt Ward 14;;ri,Mgbundukwu  Model Primary Health Centre;;;;;
Port-Harcourt;Port-Harcourt Ward 7;;Sterling Specialist Hospital;;;;;
Port-Harcourt;Port-Harcourt Ward 7;;Seiyefa Clinic;;;;;
Port-Harcourt;Port-Harcourt Ward 7;;Churchill Road Model Primary Health Centre,;;;;;
Port-Harcourt;Port-Harcourt Ward 7;;Naval Medical Centre;;;;;
Port-Harcourt;Port-Hartcourt Ward 10;;, Nkpolu Oroworukwo Health Centre;;;;;
Port-Harcourt;Port-Hartcourt Ward 10;;Mini Health Centre;;;;;
Port-Harcourt;Port-Hartcourt Ward 11;;Vita Medical Centre;;;;;
Port-Harcourt;Port-Hartcourt Ward 13 ;;New Mile One Clinic;;;;;
Port-Harcourt;Port-Hartcourt Ward 13 ;;Okija (Mgbundukwu) Primary Health Centre,;;;;;
Port-Harcourt;Port-Hartcourt Ward 13 ;;Prof. Kelsey Harrison Hospital;;;;;
Port-Harcourt;Port-Hartcourt Ward 16;;Chiji-Man Clinic;;;;;
Port-Harcourt;Port-Hartcourt Ward 16;;F.S.P. Mile 3 Market Clinic;;;;;
Port-Harcourt;Port-Hartcourt Ward 16;;Zion Maternity Home;;;;;
Port-Harcourt;Port-Hartcourt Ward 18;;RS UST Health Centre;;;;;
Port-Harcourt;Port-Hartcourt Ward 19;;Elekahia Primary Health centre,;;;;;
Port-Harcourt;Port-Hartcourt Ward 19;;Paragon Clinic;;;;;
Port-Harcourt;Port-Hartcourt Ward 19;;Health of The Sick;;;;;
Port-Harcourt;Port-Hartcourt Ward 2;;Adatam Clinic;;;;;
Port-Harcourt;Port-Hartcourt Ward 2;;Franca Memorial Maternity Home;;;;;
Port-Harcourt;Port-Hartcourt Ward 2;;St. Patrick's Hospital;;;;;
Port-Harcourt;Port-Hartcourt Ward 2;;Orogbum F.S.P Health Centre;;;;;
Port-Harcourt;Port-Hartcourt Ward 20;;Abuloma Primary Health Centre,;;;;;
Port-Harcourt;Port-Hartcourt Ward 20;;Ozuboko Primary Health Centre,;;;;;
Port-Harcourt;Port-Hartcourt Ward 20;;Dental/Maxillo-Facial Hospital;;;;;
Port-Harcourt;Port-Hartcourt Ward 20;;Sonabel Medical Centre;;;;;
Port-Harcourt;Port-Hartcourt Ward 20;;Azubie Model Primary Health Centre,;;;;;
Port-Harcourt;Port-Hartcourt Ward 20;;Just Hope Nursing and Maternity Home;;;;;
Port-Harcourt;Port-Hartcourt Ward 20;;Laurel Clinic;;;;;
Port-Harcourt;Port-Hartcourt Ward 20;;Amadi-Ama Primary Health Centre,;;;;;
Port-Harcourt;Port-Hartcourt Ward 20;;Port Harcourt  Military Hospital,;;;;;
Port-Harcourt;Port-Hartcourt Ward 20;;Okuru-Ama Primary Health centre,;;;;;
Port-Harcourt;Port-Hartcourt Ward 20;;Ultimate Specialist Hospital;;;;;
Port-Harcourt;Port-Hartcourt Ward 20;;Borikiri Primary Health Centre,;;;;;
Port-Harcourt;Port-Hartcourt Ward 20;;Paiyebor Maternity and Clinic;;;;;
Port-Harcourt;Port-Hartcourt Ward 20;;St. Elizabeth Clinic;;;;;
Port-Harcourt;Port-Hartcourt Ward 20;;Princess Medical Center;;;;;
Port-Harcourt;Port-Hartcourt Ward 3;;Orije Health Post;;;;;
Port-Harcourt;Port-Hartcourt Ward 4;;Sick Bay City Council;;;;;
Port-Harcourt;Port-Hartcourt Ward 4;;Government House Clinic;;;;;
Port-Harcourt;Port-Hartcourt Ward 4;;Police Clinic (Bank Road) Primary Health centre;;;;;
Port-Harcourt;Port-Hartcourt Ward 4;;Port-Harcourt Civil Servants Clinic;;;;;
Port-Harcourt;Port-Hartcourt Ward 4;;Braithwaite Memorial (Specialist) Hospital;;;;;
Port-Harcourt;Port-Hartcourt Ward 4;;Government House Clinic;;;;;
Port-Harcourt;Port-Hartcourt Ward 4;;Civil Servants Clinic;;;;;
Port-Harcourt;Port-Hartcourt Ward 5;;Bundu-Ama Primary Health Centre,;;;;;
Port-Harcourt;Port-Hartcourt Ward 5;; Pott's Johnson  Primary Health Centre,;;;;;
Port-Harcourt;Port-Hartcourt Ward 5;;St. Patric's Hospital;;;;;
Port-Harcourt;Port-Hartcourt Ward 6;;Marine Base Every Woman Clinic,;;;;;
Port-Harcourt;Port-Hartcourt Ward 8;;Mercy Clinic;;;;;
Tai;Tai Ward 1;;Gbene - Ue Primary Health Centre;;;;;
Tai;Tai Ward 1;;Botem Health Centre;;;;;
Tai;Tai Ward 10;;Ban-Ogoi Health Centre;;;;;
Tai;Tai Ward 2;;Kpite Model Primary Health Centre;;;;;
Tai;Tai Ward 3;;Ueke Health Centre;;;;;
Tai;Tai Ward 3;;Korokoro Health Centre;;;;;
Tai;Tai Ward 4;;Koroma Primary Health Centre;;;;;
Tai;Tai Ward 5;;Kira Health Centre;;;;;
Tai;Tai Ward 5;;Borobarar Primary Health Centre;;;;;
Tai;Tai Ward 6;;Gio Health Centre;;;;;
Tai;Tai Ward 6;;Kporghor Health Centre;;;;;
Tai;Tai Ward 6;;Gbam Health Centre;;;;;
Tai;Tai Ward 7;;Nonwa Model Primary Health Centre;;;;;
Tai;Tai Ward 8;;Bara-Ale Health Centre;;;;;
Tai;Tai Ward 9;;Bunu Health Centre;;;;;
