LGA;Ward;Settlement;Facility;Type;Ownership;Address;Longitude;Latitude
Ardo-Kola;Alingora Ward;;Sibre Maternal and Child Health Center;;;;;
Ardo-Kola;Alingora Ward;;Sebri United Methodist Church of Nigeria Clinic;;;;;
Ardo-Kola;Alingora Ward;;Aligora Maternal Child Health;;;;;
Ardo-Kola;Alingora Ward;;Gongo Ibbi Dispensary;;;;;
Ardo-Kola;Ardo-Kola Ward;;Ardo-Kola Maternal and Child Health Clinic;;;;;
Ardo-Kola;Ardo-Kola Ward;;Kondo MDG Clinic;;;;;
Ardo-Kola;Ardo-Kola Ward;;Barka .A. Dispensary;;;;;
Ardo-Kola;Ardo-Kola Ward;;Kachalla Kanku clinic;;;;;
Ardo-Kola;Bekin Duste Ward;;Kasuwan Ladi MDG Clinic;;;;;
Ardo-Kola;Bekin Duste Ward;;Danji Dispensary;;;;;
Ardo-Kola;Bekin Duste Ward;;Bakin Duste MDG Clinic;;;;;
Ardo-Kola;Bekin Duste Ward;;Bekin Dutse Town Clinic;;;;;
Ardo-Kola;Bekin Duste Ward;;Ubandoma Clinic;;;;;
Ardo-Kola;Bekin Duste Ward;;Sunkani Maternal Child Health;;;;;
Ardo-Kola;Bekin Duste Ward;;Sunkani Town Clinic;;;;;
Ardo-Kola;Bekin Duste Ward;;Garin Ayuba Dispensary;;;;;
Ardo-Kola;Bekin Duste Ward;;sunkani First Referral Hospital;;;;;
Ardo-Kola;Iware Ward;;Miyeti Allah Clinic;;;;;
Ardo-Kola;Iware Ward;;Iware Maternal and Child Health Clinic;;;;;
Ardo-Kola;Iware Ward;;Garin Jatau Dispensary;;;;;
Ardo-Kola;Iware Ward;;Jama'a Clinic;;;;;
Ardo-Kola;Jauro Yinu Ward;;Nathy Zion Clinic;;;;;
Ardo-Kola;Jauro Yinu Ward;;Murbai Dispensary;;;;;
Ardo-Kola;Jauro Yinu Ward;;Jauro Yinu Saint Peter Clinic;;;;;
Ardo-Kola;Jauro Yinu Ward;;Kofai Maternal Child Health;;;;;
Ardo-Kola;Jauro Yinu Ward;;Lafiya Clinic and Maternity;;;;;
Ardo-Kola;Lamido Borno Ward;;Ladde Dispensary;;;;;
Ardo-Kola;Lamido Borno Ward;;Cheudo Dispensary;;;;;
Ardo-Kola;Lamido Borno Ward;;Chakawo Dispensary;;;;;
Ardo-Kola;Lamido Borno Ward;;Wuro Yolde Dispensary;;;;;
Ardo-Kola;Lamido Borno Ward;;Wuro Baka 'B' Clinic;;;;;
Ardo-Kola;Lamido Borno Ward;;Lamido Borno Maternal Child Health;;;;;
Ardo-Kola;Mallum Ward  ;;Jemi Health Post;;;;;
Ardo-Kola;Mayo Renewo Ward;;Mayo-Ranewo Maternal and Child Health Clinic;;;;;
Ardo-Kola;Mayo Renewo Ward;;Munchi Health Post;;;;;
Ardo-Kola;Mayo Renewo Ward;;Gaskiya Clinic;;;;;
Ardo-Kola;Mayo Renewo Ward;;Jiru Dispensary;;;;;
Ardo-Kola;Tau Ward;;Shomogali Dispensary;;;;;
Ardo-Kola;Tau Ward;;Tau Maternal Child Health Clinic;;;;;
Ardo-Kola;Tau Ward;;Bansuwe Dispensary;;;;;
Ardo-Kola;Tau Ward;;Karin Laze Dispensary;;;;;
Ardo-Kola;Zango Kombi Ward;;Makanu Millennium Development Goal Clinic;;;;;
Ardo-Kola;Zango Kombi Ward;;Zango Kombi Maternal and Child Health Clinic;;;;;
Ardo-Kola;Zango Kombi Ward;;Ngalbije Dispensary;;;;;
Ardo-Kola;Zango Kombi Ward;;Kare-Kare Dispensary;;;;;
Bali;Bali A Ward;;Jammirri Health Clinic;;;;;
Bali;Bali A Ward;;Elshadai Clinic;;;;;
Bali;Bali A Ward;;Sancta Maria Clinic;;;;;
Bali;Bali A Ward;;Gazabu Dispensary;;;;;
Bali;Bali B Ward;;Sabon Dale Dispensary;;;;;
Bali;Bali B Ward;;Bali General Hospital;;;;;
Bali;Bali B Ward;;Bali Town Clinic;;;;;
Bali;Gang Dole Ward;;Nyawanti Dispensary;;;;;
Bali;Gang Dole Ward;;Dakka Maternal and Child Health Clinic;;;;;
Bali;Gang lari Ward;;Ganpentoni Dispensary;;;;;
Bali;Gang lari Ward;;Nyawati Dispensary;;;;;
Bali;Gang Mata Ward;;Pamanga Dispensary;;;;;
Bali;Gang Mata Ward;;Dadin Kowa Health Clinic;;;;;
Bali;Gang Tiba Ward;;Dekusum Dispensary;;;;;
Bali;Kaigama Ward;;Kwal Bati Mairuwa Health Post;;;;;
Bali;Kaigama Ward;;Maisaje Yandang Dispensary;;;;;
Bali;Kaigama Ward;;Maibultu MCH;;;;;
Bali;Kaigama Ward;;Garba Chede Basic Health Clinic;;;;;
Bali;Kussum Ward;;Mayo Kam Dispensary;;;;;
Bali;Kussum Ward;;Pangiri Dispensary;;;;;
Bali;Kussum Ward;;Sarkin Dawa Dispensary;;;;;
Bali;Kussum Ward;;Sansani Badakoshi Dispensary;;;;;
Bali;Kussum Ward;;Mayo Kam Maternal Child Health Clinic;;;;;
Bali;Maihula Ward;;Mai Hula Health Clinic;;;;;
Bali;Maihula Ward;;Dadin Kowa Dispensary;;;;;
Bali;Maihula Ward;;Mai Goro Dispensary;;;;;
Bali;Maihula Ward;;Wurbo Dispensary;;;;;
Bali;Suntai Ward           ;;Suntai Maternal and Child Health Clinic (Bali);;;;;
Bali;Suntai Ward           ;; Zagah Dispensary;;;;;
Bali;Suntai Ward           ;;Kungana Maternal Child Health Clinic;;;;;
Bali;Suntai Ward           ;;Maigoge Dispensary;;;;;
Bali;Suntai Ward           ;;Kwassa Health Clinic;;;;;
Bali;Suntai Ward           ;;Tugan Zakki Dispensary;;;;;
Bali;Taka lafiya Ward;;Mallam Yero Health Centre;;;;;
Bali;Taka lafiya Ward;;Taka Lafiya Maternal and Child Health Clinic;;;;;
Bali;Taka lafiya Ward;;Yelwa Dispensary;;;;;
Bali;Taka lafiya Ward;;Borno Kurukuru Dispensary;;;;;
Donga;Akate Ward;;Afogba Health Clinic;;;;;
Donga;Akate Ward;;Sundan Health Facility;;;;;
Donga;Akate Ward;;Akate Maternal and Child Health Clinic;;;;;
Donga;Akate Ward;;Gbundu Health Centre;;;;;
Donga;Akate Ward;;Samgambe Health Facility;;;;;
Donga;Akate Ward;;Torgenyi Health Facility;;;;;
Donga;Akate Ward;;Tor-Damisa Health Centre;;;;;
Donga;Asibiti Ward;;Ayu Health Facility;;;;;
Donga;Asibiti Ward;;Denden Health Clinic;;;;;
Donga;Asibiti Ward;;Donga First Referral Hospital;;;;;
Donga;Asibiti Ward;;Adugu Health Facility;;;;;
Donga;Asibiti Ward;;Donga Maternal and Child Health Centre;;;;;
Donga;Asibiti Ward;;Gaza Health Facility;;;;;
Donga;Asibiti Ward;;Ananum Basic Health Clinic;;;;;
Donga;Fada Ward;;Fada Health Centre;;;;;
Donga;Fada Ward;;Gidan Maimagani Health Centre;;;;;
Donga;Gayama Ward;;Tudun-Wada Health Facility;;;;;
Donga;Gayama Ward;;Tatin-Ndoro Health Facility;;;;;
Donga;Gayama Ward;;Bibinu Maternal Child Health Clinic;;;;;
Donga;Gayama Ward;;Lagos Buban Health Facility;;;;;
Donga;Gayama Ward;;Tudun Haske Health Facility;;;;;
Donga;Gayama Ward;;Tudun Beekhan Maternal Child Health Centre;;;;;
Donga;Gayama Ward;;Gbawana Health Clinic;;;;;
Donga;Gayama Ward;;Jatau Benyi Health Facility;;;;;
Donga;Gyata Aure Ward;;Donga Health Clinic (C.R.C.N );;;;;
Donga;Gyata Aure Ward;;Gyata Aure Health Centre;;;;;
Donga;Kadarko Ward;;Burkonu Health Facility;;;;;
Donga;Kadarko Ward;;Igo Health Centre;;;;;
Donga;Kadarko Ward;;Sabongida Gida Suntai Maternal Health Centre;;;;;
Donga;Kadarko Ward;;Kadarko Health Clinic;;;;;
Donga;Kadarko Ward;;Utile Health Facility;;;;;
Donga;Kumbo Ward;;Sasso Health Clinic;;;;;
Donga;Kumbo Ward;;Kumbo Maternal and Child Health Clinic;;;;;
Donga;Kumbo Ward;;Nyivo Maternal Health Clinic;;;;;
Donga;Mararaba Ward;;Gankwe Assen Health Centre;;;;;
Donga;Mararaba Ward;;Garleya Health Facility;;;;;
Donga;Mararaba Ward;;Gidan Adamu Health Clinic;;;;;
Donga;Mararaba Ward;;Mararaba Basic Health Clinic;;;;;
Donga;Mararaba Ward;;Mararraba  Health Post (C.R.C.N);;;;;
Donga;Nyita Ward;;Nhuhwa Health Clinic;;;;;
Donga;Nyita Ward;;Nyimui Health Clinic;;;;;
Donga;Nyita Ward;;Nyita Maternal and Child Health Clinic;;;;;
Donga;Suntai Ward;;Suntai Maternal and Child Health Clinic (Donga);;;;;
Donga;Suntai Ward;;Pasoki Health Clinic;;;;;
Gashaka;Galimjina Ward;;Bodel Primary Health Center;;;;;
Gashaka;Galimjina Ward;;Gamen  MCH;;;;;
Gashaka;Galimjina Ward;;Nyabar Dispensary;;;;;
Gashaka;Gangumi Ward;;Gangumi Maternity;;;;;
Gashaka;Gangumi Ward;;Kwagiri Dispensary;;;;;
Gashaka;Garbabi Ward;;Kabarin Bature Dispensary;;;;;
Gashaka;Garbabi Ward;;Garbabi Primary Health Center;;;;;
Gashaka;Garbabi Ward;;Garbabbi Maternity;;;;;
Gashaka;Gashaka Ward;;Selbe Maternity;;;;;
Gashaka;Gashaka Ward;;Gashaka NCF Clinic;;;;;
Gashaka;Gayam Ward;;Gayam  Primary Health Center;;;;;
Gashaka;Gayam Ward;;Gayam Maternity;;;;;
Gashaka;Gayam Ward;;Kunfan Dispensary;;;;;
Gashaka;Gayam Ward;;Pamweh Health Post;;;;;
Gashaka;Jamtari Ward;;Karamti Dispensary;;;;;
Gashaka;Jamtari Ward;;Addagoro  MCH;;;;;
Gashaka;Jamtari Ward;;Garin Yusuf Dispensary;;;;;
Gashaka;Jamtari Ward;;Karamti Maternal and Child Health;;;;;
Gashaka;Jamtari Ward;;Jamtari Primary Health Center;;;;;
Gashaka;Jamtari Ward;;Jamtari Maternity;;;;;
Gashaka;Mai-Idanu Ward;;Mai-Idanu Maternity and Child Health Clinic;;;;;
Gashaka;Mai-Idanu Ward;;Bam Maternity and Child Health Clinic;;;;;
Gashaka;Mayo-Selbe Ward;;Mayo-Selbe Maternity;;;;;
Gashaka;Mayo-Selbe Ward;;Goje Maternity;;;;;
Gashaka;Mayo-Selbe Ward;;Likwar Dispensary;;;;;
Gashaka;Mayo-Selbe Ward;;Mayo-selbe Dispensary;;;;;
Gashaka;Serti A Ward;;Serti A Town Maternity;;;;;
Gashaka;Serti A Ward;;Serti A Primary Health Center;;;;;
Gashaka;Serti A Ward;;Gashaka Gumti National Park Clinic;;;;;
Gashaka;Serti B Ward;;CRCN Comprehensive Health Center;;;;;
Gashaka;Serti B Ward;;Serti Ward B Sabon Gari Maternity;;;;;
Gashaka;Serti B Ward;;Alfa Maternity Centre;;;;;
Gashaka;Serti B Ward;;Medical Record Station Army Barrack Serti;;;;;
Gassol;Gassol  Ward;;Badija Dispesary;;;;;
Gassol;Gassol  Ward;;Gassol Maternal and Child Health;;;;;
Gassol;Gassol  Ward;;First Referal Hospital;;;;;
Gassol;Gassol  Ward;;Karal Health Clinic;;;;;
Gassol;Gunduma Ward    ;;Kuka Millennium Development of Goal Clinic;;;;;
Gassol;Gunduma Ward    ;;Gunduma Maternal and Child Health;;;;;
Gassol;Gunduma Ward    ;;Chul Health post;;;;;
Gassol;Gunduma Ward    ;;Makurna Dispensary;;;;;
Gassol;Mutum-Biyu A Ward;;Mutum-Biyu Town Dispensary;;;;;
Gassol;Mutum-Biyu A Ward;;Kwatan Nanido Dispensary;;;;;
Gassol;Mutum-Biyu B Ward;;Mutum Biyu PHC;;;;;
Gassol;Mutum-Biyu B Ward;;Saint John Clinic;;;;;
Gassol;Mutum-Biyu B Ward;;Munira Clinic;;;;;
Gassol;Mutum-Biyu B Ward;;Sauki Clinic;;;;;
Gassol;Mutum-Biyu B Ward;;Totus Clinic;;;;;
Gassol;Namnai Ward;;Tura Keke Health Post;;;;;
Gassol;Namnai Ward;;Bajumba Health Post;;;;;
Gassol;Namnai Ward;;Balasa-Agure Millennium Development Goal Clinic;;;;;
Gassol;Namnai Ward;;Koppi Health Post;;;;;
Gassol;Namnai Ward;;Shagarda Maternal and Child Health Clinic;;;;;
Gassol;Namnai Ward;;Namnai Maternal and Child Health Clinic;;;;;
Gassol;Namnai Ward;;Garin Abba Dispensary;;;;;
Gassol;Sabon-Gida Ward;;Sabon-Gida Maternal Maternity and Child Health Clinic;;;;;
Gassol;Sabon-Gida Ward;;Dan-Anacha Millennium Development of Goal Clinic;;;;;
Gassol;Sabon-Gida Ward;;Nanguru Dispensary;;;;;
Gassol;Sabon-Gida Ward;;Nakowa Clinic;;;;;
Gassol;Sendirde Ward;;Sendirde Maternal Child Health Clinic;;;;;
Gassol;Sendirde Ward;;Wuro Bokki Dispensary;;;;;
Gassol;Sendirde Ward;;Wurbo Health Clinic;;;;;
Gassol;Shira Ward;;Garin Almajiri Health Post;;;;;
Gassol;Shira Ward;;Lalami Health Post;;;;;
Gassol;Shira Ward;;Jauro Baba Millennium Development Goal Clinic;;;;;
Gassol;Shira Ward;;Jauro Manu Maternal Child Health Clinic;;;;;
Gassol;Shira Ward;;Lomodu Health Post;;;;;
Gassol;Tutare Ward  ;;Tutare Maternal Child Health Clinic;;;;;
Gassol;Tutare Ward  ;;Taka Wurkun Dispensary;;;;;
Gassol;Tutare Ward  ;;Manji Millennium Development Goal Clinic;;;;;
Gassol;Tutare Ward  ;;Sheka Health Post;;;;;
Gassol;Wuro-Jam Ward;;Sansani Model Health Centre;;;;;
Gassol;Wuro-Jam Ward;;Wurojam Millennium Development Goal Clinic;;;;;
Gassol;Wuro-Jam Ward;;Gwiwan Kogi Dispensary;;;;;
Gassol;Wuro-Jam Ward;;Kufai Health Post;;;;;
Gassol;Wuryo Ward;;Gaskiya Maternity Clinic;;;;;
Gassol;Wuryo Ward;;Wuryo Dispensary;;;;;
Gassol;Wuryo Ward;;Methodist Clinic;;;;;
Gassol;Wuryo Ward;;taTella Millennium Development Goal Clinic;;;;;
Gassol;Wuryo Ward;;Wurno Dispensary;;;;;
Gassol;Yerima Ward      ;;Anema Health Post;;;;;
Gassol;Yerima Ward      ;;Yerima Millennium Development Goal Clinic;;;;;
Gassol;Yerima Ward      ;;Baba-Also Health Post;;;;;
Gassol;Yerima Ward      ;;Iveren Clinic;;;;;
Gassol;Yerima Ward      ;;Mararaban Gassol Dispensary;;;;;
Gassol;Yerima Ward      ;;Bembal Dispensary;;;;;
Ibi;Dampar 1 Ward;;Mavo Millennium Development Goal Maternity Clinic;;;;;
Ibi;Dampar 1 Ward;;Dampar Comprehensive Health Centre;;;;;
Ibi;Damper 3 Ward;;Tabga Angasawa Millennium Development Goal Maternity Clinic;;;;;
Ibi;Damper 3 Ward;;Kogi Waje Dispensary;;;;;
Ibi;Damper 3 Ward;;Maji Biyu Millennium Development Goal Clinic;;;;;
Ibi;Nwonyo 1 Ward;;Ibi Town Clinic;;;;;
Ibi;Nwonyo 2 Ward;;Ibua Dispensary;;;;;
Ibi;Nwonyo 2 Ward;;Angwan Kabawa Maternity Centre;;;;;
Ibi;Rimi Uku 1 Ward;;Angwan Dampar Clinic;;;;;
Ibi;Rimi Uku 1 Ward;;Ibi CRCN Clinic;;;;;
Ibi;Rimi Uku 1 Ward;;Ibi First Referral (Cottage) Hospital;;;;;
Ibi;Rimi Uku 2 Ward;;Gindin Waya Health Center;;;;;
Ibi;Sarkin Kudu 1 Ward;;Sarkin Kudu Maternity Centre;;;;;
Ibi;Sarkin Kudu 1 Ward;;Alfa Clinic Sarkin Kudu;;;;;
Ibi;Sarkin Kudu 1 Ward;;Sarkin Kudu Health Center;;;;;
Ibi;Sarkin Kudu 2 Ward;;Johnson Clinic Sabon-layi;;;;;
Ibi;Sarkin Kudu 2 Ward;;Rafin Damisa Dispensary;;;;;
Ibi;Sarkin Kudu 2 Ward;;Sabon Layi Health Center;;;;;
Ibi;Sarkin Kudu 2 Ward;;Kumar Dispensary;;;;;
Ibi;Sarkin Kudu 2 Ward;;Nayeh Dispensary;;;;;
Ibi;Sarkin Kudu 2 Ward;;CRCN Maternity Clinic Sabon-Layi;;;;;
Ibi;Sarkin Kudu 3 Ward;;Dooshima Dispensary;;;;;
Ibi;Sarkin Kudu 3 Ward;;Gishirin Hassan Dispensary;;;;;
Jalingo;Barde Ward;;Victor Pai Clinic;;;;;
Jalingo;Barde Ward;;Old Barade Health Centre Jalingo;;;;;
Jalingo;Barde Ward;;New Barade Model Health Centre;;;;;
Jalingo;Kachalla Sembe Ward;;Bathesda Hospital and Maternity;;;;;
Jalingo;Kachalla Sembe Ward;;Nasara Hospital and Maternity;;;;;
Jalingo;Kachalla Sembe Ward;;Wuro Musa Health Post;;;;;
Jalingo;Kachalla Sembe Ward;;Salama Clinic Sabon gari;;;;;
Jalingo;Kachalla Sembe Ward;;Wuro Abboji Health Clinic;;;;;
Jalingo;Kachalla Sembe Ward;;Destiny Clinic;;;;;
Jalingo;Kachalla Sembe Ward;;Woru Sembe Clinic and Maternity;;;;;
Jalingo;Kona Ward;;Courage Hospital;;;;;
Jalingo;Kona Ward;;Jekunho PHC;;;;;
Jalingo;Kona Ward;;Dominion Hospital and Maternity;;;;;
Jalingo;Kona Ward;;Nukkai Health Post;;;;;
Jalingo;Kona Ward;;Abuja Phase I Clinic;;;;;
Jalingo;Kona Ward;;Spring Hospital;;;;;
Jalingo;Kona Ward;;Kona Clinic and Maternity;;;;;
Jalingo;Kona Ward;;Mile Six Clinic;;;;;
Jalingo;Kona Ward;;Mile-six Cathedral Clinic;;;;;
Jalingo;Kona Ward;;Alheri Clinic;;;;;
Jalingo;Kona Ward;;Mayo Dassa Health Post;;;;;
Jalingo;Maji-dadi Ward;;El-Duniya Nursing Home;;;;;
Jalingo;Maji-dadi Ward;;Todun-Wadda Clinic(PHC);;;;;
Jalingo;Maji-dadi Ward;;Mafindi Urban Health Centre;;;;;
Jalingo;Sarkin Dawaki Ward;;Nassarawo Health Post;;;;;
Jalingo;Sarkin Dawaki Ward;;Jalingo Twon Dispensary;;;;;
Jalingo;Sintali A Ward;;Hon. Imam Clinic;;;;;
Jalingo;Sintali B Ward;;Maitala trust hospital;;;;;
Jalingo;Sintali B Ward;;Mayo-Gwoi Health Post;;;;;
Jalingo;Sintali B Ward;;Konko Hospital;;;;;
Jalingo;Sintali B Ward;;Jalingo MCH;;;;;
Jalingo;Sintali B Ward;;Nyabun-Kaka Clinic;;;;;
Jalingo;Sintali B Ward;;Abdul Medical Centre;;;;;
Jalingo;Sintali B Ward;;Jalingo Federal Medical Centre;;;;;
Jalingo;Turaki A Ward;;Khairan Clinic;;;;;
Jalingo;Turaki A Ward;;Turaki “A” Urban Health Centre Maternity;;;;;
Jalingo;Turaki A Ward;;Lamord Clinic;;;;;
Jalingo;Turaki B Ward;;Sabon Gari Health Centre;;;;;
Jalingo;Turaki B Ward;;Jinya Medical Centre;;;;;
Jalingo;Turaki B Ward;;Staff Clinic;;;;;
Jalingo;Yelwa Abare Ward;;Abbare Clinic and Maternity;;;;;
Jalingo;Yelwa Abare Ward;;Yelwa Health Post;;;;;
Karim-Lamido;Bachama Ward;;Anjoddo Health Clinic;;;;;
Karim-Lamido;Bachama Ward;;Kwatibi Dispensary;;;;;
Karim-Lamido;Bachama Ward;;Garin Mallam Shehu Dispensary;;;;;
Karim-Lamido;Bachama Ward;;Bachama Basic Health Clinic;;;;;
Karim-Lamido;Bachama Ward;;Sengeh Dispensary;;;;;
Karim-Lamido;Bikwin Ward;;Loh Bamley Dispensary;;;;;
Karim-Lamido;Bikwin Ward;;Nwong Dispensary;;;;;
Karim-Lamido;Bikwin Ward;;Panya Maternity Child Health Clinic;;;;;
Karim-Lamido;Bikwin Ward;;Zoh Makarau Dispensary;;;;;
Karim-Lamido;Bikwin Ward;;Loh Dara Dispensary;;;;;
Karim-Lamido;Bikwin Ward;;Gwomu Maternity Child Health Clinic;;;;;
Karim-Lamido;Bikwin Ward;;Munga Dasso Dispensary;;;;;
Karim-Lamido;Bikwin Ward;;Gwomu Dispensary;;;;;
Karim-Lamido;Bikwin Ward;;Ngurore Jabu Dispensary;;;;;
Karim-Lamido;Bikwin Ward;;Munga Lelau Dispensary;;;;;
Karim-Lamido;Bikwin Ward;;Zoh Dutse Dispensary;;;;;
Karim-Lamido;Bikwin Ward;;Wanzamin Gwomu Dispensary;;;;;
Karim-Lamido;Darofai Ward;;Sarkin Yamma Dispensary;;;;;
Karim-Lamido;Darofai Ward;;Laddara Dispensary;;;;;
Karim-Lamido;Darofai Ward;;Zailani Dispensary;;;;;
Karim-Lamido;Darofai Ward;;Loba Dispensary;;;;;
Karim-Lamido;Darofai Ward;;Gwalak Dispensary;;;;;
Karim-Lamido;Darofai Ward;;Dongoro Dispensary;;;;;
Karim-Lamido;Darofai Ward;;Bambur General Hospital;;;;;
Karim-Lamido;Darofai Ward;;Mbau Dispensary;;;;;
Karim-Lamido;Darofai Ward;;Sarkin Kudu Dispensary;;;;;
Karim-Lamido;Jen Ardido Ward;;Jen Model Health Centre;;;;;
Karim-Lamido;Jen Ardido Ward;;Karfe Memorial Clinic Jen Ardido;;;;;
Karim-Lamido;Jen Ardido Ward;;Garin Kodi Dispensary;;;;;
Karim-Lamido;Jen Ardido Ward;;Jen Petel Dispensary;;;;;
Karim-Lamido;Jen Kaigama Ward;;Tunga Dadiya Dispensary;;;;;
Karim-Lamido;Jen Kaigama Ward;;Jen Millennium Development Goal Maternity Clinic;;;;;
Karim-Lamido;Jen Kaigama Ward;;Albishir Clinic Jenkaigama;;;;;
Karim-Lamido;Jen Kaigama Ward;;UMCN Bambuka Clinic;;;;;
Karim-Lamido;Jen Kaigama Ward;;Bambuka Millennium Development Goal Clinic;;;;;
Karim-Lamido;Jen Kaigama Ward;;Sabon Gari Dispensary (Karim-Lamido);;;;;
Karim-Lamido;Karim A Ward;;Karim Comprehensive  Health Centre;;;;;
Karim-Lamido;Karim A Ward;;Mayo Gauri Dispensary;;;;;
Karim-Lamido;Karim A Ward;;Wuro-Lacca Dispensary;;;;;
Karim-Lamido;Karim A Ward;;Sauki Clinic;;;;;
Karim-Lamido;Karim A Ward;;Warintoba Clinic;;;;;
Karim-Lamido;Karim B Ward;;Kodei Dutse Dispensary;;;;;
Karim-Lamido;Karim B Ward;;Madaka kifi Gabas Dispensary;;;;;
Karim-Lamido;Karim B Ward;;Salamin Kala  MCH;;;;;
Karim-Lamido;Karim B Ward;;Gwenzu Dispensary;;;;;
Karim-Lamido;Karim B Ward;;Karim Maundi Dispensary;;;;;
Karim-Lamido;Karim B Ward;;Kodei Millennium Development Goal Clinic;;;;;
Karim-Lamido;Karim B Ward;;Bandawa Maternity Clinic;;;;;
Karim-Lamido;Kwanchi Ward;;Gangang Balasa Dispensary;;;;;
Karim-Lamido;Kwanchi Ward;;Langha Kwamchi Dispensary;;;;;
Karim-Lamido;Kwanchi Ward;;Pitiko Barguma Dispensary;;;;;
Karim-Lamido;Kwanchi Ward;;Nayin Dispensary;;;;;
Karim-Lamido;Kwanchi Ward;;Garin Mallam Tukur Dispensary;;;;;
Karim-Lamido;Kwanchi Ward;;Pitiko Dukuli Dispensary;;;;;
Karim-Lamido;Kwanchi Ward;;Pitiko Buro Dispensary;;;;;
Karim-Lamido;Kwanchi Ward;;Kuka Balasa Dispensary;;;;;
Karim-Lamido;Kwanchi Ward;;Dinya Dispensary;;;;;
Karim-Lamido;Kwanchi Ward;;Sala-Duna Dispensary;;;;;
Karim-Lamido;Kwanchi Ward;;Mutun Daya Dispensary;;;;;
Karim-Lamido;Muri A Ward;;Shomoh mbai Dispensary;;;;;
Karim-Lamido;Muri A Ward;;Didango Maternity Clinic;;;;;
Karim-Lamido;Muri A Ward;;Garu Awanke  MDG Clinic;;;;;
Karim-Lamido;Muri B Ward;;Amar Basic Health Clinic  MDG;;;;;
Karim-Lamido;Muri B Ward;;Kambari Basic Health Clinic;;;;;
Karim-Lamido;Muri C Ward;;Ndella  MDG;;;;;
Karim-Lamido;Muri C Ward;;Andamin Millennium Development of Goal Clinic;;;;;
Karim-Lamido;Muri C Ward;;Kuka Kundi Dispensary;;;;;
Kurmi;Abong Ward    ;;yaboro Health Post;;;;;
Kurmi;Abong Ward    ;;Abong Model Health Centre;;;;;
Kurmi;Abong Ward    ;;Mbissa Health Post;;;;;
Kurmi;Abong Ward    ;;Gidan Isa Millennium Development Goal Clinic;;;;;
Kurmi;Akwento/Boko Ward;;Sabon Gidan Akwanwe Health Center;;;;;
Kurmi;Akwento/Boko Ward;;Batu Amanda Millennium Development Goal Clinic;;;;;
Kurmi;Akwento/Boko Ward;;Akwabe Health Post;;;;;
Kurmi;Ashuku Ward;;Eneme Health Post;;;;;
Kurmi;Ashuku Ward;;Gunduma Health Post;;;;;
Kurmi;Ashuku Ward;;Ambwe Health Post;;;;;
Kurmi;Ashuku Ward;;Ashuku Millennium Development Goal Clinic;;;;;
Kurmi;Ashuku Ward;;Kara-Ruwa Health Post;;;;;
Kurmi;Baissa Ward;;Gidan Mallam Health Post;;;;;
Kurmi;Baissa Ward;;Kpawola Health Post;;;;;
Kurmi;Baissa Ward;;Baissa 1st Referral Hospital;;;;;
Kurmi;Baissa Ward;;Baissa Model Health Centre;;;;;
Kurmi;Bente Galea Ward;;Sarki Boka Health Post;;;;;
Kurmi;Bente Galea Ward;;Galea Mellenum Development Goal;;;;;
Kurmi;Bente Galea Ward;;Bente Health Center;;;;;
Kurmi;Bissaula Ward;;Gateri Health Post;;;;;
Kurmi;Bissaula Ward;;Bissaula Millennium Development Goal Clinic;;;;;
Kurmi;Didan Ward;;Didan Health Centre;;;;;
Kurmi;Didan Ward;;Danbeki Millennium Development Goal Clinic;;;;;
Kurmi;Didan Ward;;S/Gidatukura Clinic;;;;;
Kurmi;Ndaforo Ward;;Gwanda Clinic;;;;;
Kurmi;Ndaforo Ward;;Ndaforo Maternal and Child Health Clinic;;;;;
Kurmi;Ndaforo Ward;;Kufai Ndafro Millennium Development Goal's Clinic;;;;;
Kurmi;Njuande Ward;;Asha Maternity Health Centre;;;;;
Kurmi;Njuande Ward;;Amburu Health Post;;;;;
Kurmi;Nyido-Tosso Ward;;Nyido Health Centre;;;;;
Kurmi;Nyido-Tosso Ward;;Kufai Health Post;;;;;
Lau;Abbare Ward;;Kwamiding Dispensary;;;;;
Lau;Abbare Ward;;Elyon Clinic;;;;;
Lau;Abbare Ward;;Sabon Gida Dispensry;;;;;
Lau;Abbare Ward;;Abbare Maternal and Child Health;;;;;
Lau;Dobeli Ward;;Dobeli Mellinium Development Goal;;;;;
Lau;Dobeli Ward;;Shomo Sarki Dispensary;;;;;
Lau;Donada Ward;;Baba-Gasa Dispensary;;;;;
Lau;Donada Ward;;Bwei Babba Dispensary;;;;;
Lau;Donada Ward;;Donada Millennium Development Goal’s Clinic;;;;;
Lau;Donada Ward;;Katibu Millennium Development Goal’s Clinic;;;;;
Lau;Garin Dogo Ward;;Garin Dogo Maternal and Child Health Clinic;;;;;
Lau;Garin Dogo Ward;;Leinde Dispensary;;;;;
Lau;Garin Dogo Ward;;Minda Dispensary;;;;;
Lau;Garin Dogo Ward;;Lushi Dispensary;;;;;
Lau;Garin Magaji Ward;;Jambutu  Dispensary;;;;;
Lau;Garin Magaji Ward;;Garin Magaji Dispensary;;;;;
Lau;Garin Magaji Ward;;Yusa B Dispensary;;;;;
Lau;Garin Magaji Ward;;Yusa Falani Disp.;;;;;
Lau;Jimlari Ward;;Mararaba Kunini Dispensary;;;;;
Lau;Jimlari Ward;;Bamga Guste Clinic;;;;;
Lau;Jimlari Ward;;Appawa Gada Model Health Centre;;;;;
Lau;Jimlari Ward;;Bamga Sabon Layi Clinic;;;;;
Lau;Jimlari Ward;;Jimlari Maternity Clinic;;;;;
Lau;Jimlari Ward;;Apawa Kasuwa Dispensary;;;;;
Lau;Kunini Ward;;Kunini Comprehensive Health Centre;;;;;
Lau;Kunini Ward;;Mayosoi Dispensary;;;;;
Lau;Kunini Ward;;Garin Sarki Dispensary;;;;;
Lau;Kunini Ward;;Kanawa Millennium Development Goal;;;;;
Lau;Lau Ward;;Lau  First Referral Hospital;;;;;
Lau;Lau Ward;;Lau Maternal and Child Health Clinic;;;;;
Lau;Lau Ward;;Garin Mashi Dispensary;;;;;
Lau;Lau Ward;;Lau UMCN Dispensary;;;;;
Lau;Mayo-Lope Ward;;Mayo-Lope (UMCN) Dispensary;;;;;
Lau;Mayo-Lope Ward;;Misheli Dispensary;;;;;
Lau;Mayo-Lope Ward;;Yotti Dispensary;;;;;
Lau;Mayo-Lope Ward;;Budong Dispensary;;;;;
Lau;Yitti Ward;;Tanna Dispensary;;;;;
Lau;Yitti Ward;;Yitti Maternal Child Health;;;;;
Lau;Yitti Ward;;Bojum Dispensary;;;;;
Sardauna;Gembu “A” Ward;;Yambam Dispensary;;;;;
Sardauna;Gembu “A” Ward;;Never Dispensary;;;;;
Sardauna;Gembu “A” Ward;;Ninge Dispensary;;;;;
Sardauna;Gembu “A” Ward;;MBH Gembu;;;;;
Sardauna;Gembu “A” Ward;;Tem Primary Health Clinic;;;;;
Sardauna;Gembu “A” Ward;;Ngiah Dispensary;;;;;
Sardauna;Gembu “A” Ward;;Tem Nyangor  Health Clinic;;;;;
Sardauna;Gembu “B” Ward;;New Market Health Facility;;;;;
Sardauna;Gembu “B” Ward;;Leme Fuah Health Facility;;;;;
Sardauna;Gembu “B” Ward;;Leme Tela Health Facility;;;;;
Sardauna;Gembu “B” Ward;;Gembu Maternal Child Health Clinic;;;;;
Sardauna;Gembu “B” Ward;;Leme War Dispensary;;;;;
Sardauna;Gembu “B” Ward;;CSDP Mbu Ngirkar;;;;;
Sardauna;Gembu “B” Ward;;Ardo Yuguda Health Facility;;;;;
Sardauna;Gembu “B” Ward;;Gembu General Hospital;;;;;
Sardauna;Kabri Ward;;Mayo Dule Dispensary;;;;;
Sardauna;Kabri Ward;;Mang Health Facility;;;;;
Sardauna;Kabri Ward;;Dorofi Dispensary;;;;;
Sardauna;Kabri Ward;;Lugungo Health Facility;;;;;
Sardauna;Kabri Ward;;Barka MDG;;;;;
Sardauna;Kabri Ward;;Kara Millennium Development Goal Clinic;;;;;
Sardauna;Kabri Ward;;Laiko Clinic;;;;;
Sardauna;Kabri Ward;;Kune Bene Dispensary;;;;;
Sardauna;Kabri Ward;;Kabri Song Barki Dispensary;;;;;
Sardauna;Kabri Ward;;Mayo Faru Health Facility;;;;;
Sardauna;Kakara Ward;;Barup Jauro Health Facility;;;;;
Sardauna;Kakara Ward;;Antere Dispensary;;;;;
Sardauna;Kakara Ward;;Inkiri Dispensary;;;;;
Sardauna;Kakara Ward;;Kakara Maternity Clinic (MDG);;;;;
Sardauna;Kakara Ward;;Yerimaru Dispensary;;;;;
Sardauna;Kakara Ward;;Ngirkal Dispensary;;;;;
Sardauna;Kakara Ward;;Galadima Health Facility;;;;;
Sardauna;Magu Ward;;Kusuku Dispensary;;;;;
Sardauna;Magu Ward;;Naso Dispensary;;;;;
Sardauna;Magu Ward;;Furmi Dispensary;;;;;
Sardauna;Magu Ward;;Mayo Sumsum;;;;;
Sardauna;Magu Ward;;Zongo Ajah Dispensary;;;;;
Sardauna;Mayo Ndaga Ward;;Kan Iyaka Health Facility;;;;;
Sardauna;Mayo Ndaga Ward;;Gashiri Health Facility;;;;;
Sardauna;Mayo Ndaga Ward;;Papa Millenuim Development Goals Clinic;;;;;
Sardauna;Mayo Ndaga Ward;;Jabu Health Facility;;;;;
Sardauna;Mayo Ndaga Ward;;Mayo Ndaga Maternity;;;;;
Sardauna;Mayo Ndaga Ward;;Shirip Health Facility;;;;;
Sardauna;Mayo Ndaga Ward;;Njawai Dispensary;;;;;
Sardauna;Mayo Ndaga Ward;;Kuma Dispensary;;;;;
Sardauna;Mayo Ndaga Ward;;Tikobi Health Facility;;;;;
Sardauna;Mbamnga Ward;;Mbar Nwah Health Facility Dispensary;;;;;
Sardauna;Mbamnga Ward;;Bang Three Corner Health Facility;;;;;
Sardauna;Mbamnga Ward;;Mbar Tule Health Facilility;;;;;
Sardauna;Mbamnga Ward;;Mbamnga Petel Health Facility;;;;;
Sardauna;Mbamnga Ward;;Bang Down Health Facility;;;;;
Sardauna;Mbamnga Ward;;Mbamnga Maternity Clinic;;;;;
Sardauna;Ndum Yaji Ward;;Tep Millenium Development Goals Clinic;;;;;
Sardauna;Ndum Yaji Ward;;Sahkaka Health Facility;;;;;
Sardauna;Ndum Yaji Ward;;Ndum Yaji Dispensary;;;;;
Sardauna;Ndum Yaji Ward;;Warkaka Health Facility;;;;;
Sardauna;Nguroje Ward;;Nguroje Model Dispensary;;;;;
Sardauna;Nguroje Ward;;Nguroje Dispensary;;;;;
Sardauna;Nguroje Ward;;Gurgu Health Dispensary;;;;;
Sardauna;Nguroje Ward;;Maisamari Dispensary;;;;;
Sardauna;Nguroje Ward;;Mayo Sina Clinic;;;;;
Sardauna;Nguroje Ward;;Yelwa Health Facility;;;;;
Sardauna;Titong Ward;;Likitaba Dispensary;;;;;
Sardauna;Titong Ward;;Mbaso Health Facility;;;;;
Sardauna;Titong Ward;;Ngubin Basic Health Clinic;;;;;
Sardauna;Titong Ward;;Yana Health Facility;;;;;
Sardauna;Titong Ward;;Tunga Danmaina Health Facility;;;;;
Sardauna;Titong Ward;;Titong Dispensary;;;;;
Sardauna;Titong Ward;;Yurum Dispensary;;;;;
Sardauna;Titong Ward;;Bundi Health Facility;;;;;
Sardauna;Warwar Ward;;Warwar General Hospital;;;;;
Sardauna;Warwar Ward;;Ndarup Health Facility;;;;;
Sardauna;Warwar Ward;;Tamnya Health Facility;;;;;
Sardauna;Warwar Ward;;Marwar Maternal Child Health Clinic;;;;;
Sardauna;Warwar Ward;;Vakude Health Facility;;;;;
Takum;Bete Ward;;Bibi Health Clinic;;;;;
Takum;Bete Ward;;Bete Health Clinic and Maternity;;;;;
Takum;Chanchanji Ward;;Adu Maternal And Child Health Care;;;;;
Takum;Chanchanji Ward;;New Gboko Health Clinic;;;;;
Takum;Chanchanji Ward;;Chanchanji Model Health Centre;;;;;
Takum;Chanchanji Ward;;Kufai Ahmadu Health Clinic;;;;;
Takum;Chanchanji Ward;;Igohia Health Post;;;;;
Takum;Chanchanji Ward;;Damava Dispensary;;;;;
Takum;Duste Ward;;Tampwa Dispensary;;;;;
Takum;Duste Ward;;Dutse Health Clinic;;;;;
Takum;Fete Ward;;Sufa Dispensary;;;;;
Takum;Fete Ward;;Tampa Model Health Centre;;;;;
Takum;Fete Ward;;Lufu Joro Health Clinic;;;;;
Takum;Fete Ward;;Kapya Dispensary;;;;;
Takum;Fete Ward;;Lufu Dispensary;;;;;
Takum;Gahwetun Ward;;CSDP H/C Mbakpa;;;;;
Takum;Gahwetun Ward;;Mbiya Dispensary;;;;;
Takum;Gahwetun Ward;;Santa Maria Dispensary;;;;;
Takum;Gahwetun Ward;;Gahwetun Clinic (CRCN);;;;;
Takum;Kashimbila Ward;;Malumshe Dispensary;;;;;
Takum;Kashimbila Ward;;Birama Health Clinic;;;;;
Takum;Kashimbila Ward;;Kashimbila Health Clinic and Maternity;;;;;
Takum;Rogo Ward;;Takum MIR Clinic;;;;;
Takum;Rogo Ward;;Haruna Tsokwa Memorial General Hospital;;;;;
Takum;Rogo Ward;;High Mami Maternal Child Health Clinic (ROGO);;;;;
Takum;Shibon Ward;;Leji Obon Dispensary;;;;;
Takum;Shibon Ward;;Shibon Igban Maternal and Child Health Center;;;;;
Takum;Shibon Ward;;Barikin Lissa Dispensary;;;;;
Takum;Tikari Ward;;Gen TY Danjuma Child Health Centre;;;;;
Takum;Tikari Ward;;Kpankufuru Health Clinic;;;;;
Takum;Yukuben Ward;;Nyayirim Maternal Child Health Clinic;;;;;
Takum;Yukuben Ward;;Acha  Nyim Maternal And Child Health Clinic;;;;;
Takum;Yukuben Ward;;Lutu Dispensary;;;;;
Takum;Yukuben Ward;;Sabon Gida Maternal Child Health Clinic;;;;;
Ussa;Fikyu 1 Ward;;Fikyu Tampwa Basic Health Center;;;;;
Ussa;Fikyu 1 Ward;;Fikyu Nyim Dispensary;;;;;
Ussa;Fikyu 2 Ward;;Fikyunyim Dispensary;;;;;
Ussa;Jenuwa Gida Ward;;Rebasi MCH;;;;;
Ussa;Jenuwa Gida Ward;;Jenuwa Gida MCH;;;;;
Ussa;Jenuwa Kogi;;Jenuwa Kogi MDG;;;;;
Ussa;Kpambo 1 Ward;;Kpambo Round About Millenuim Developemnt Goals Clinic;;;;;
Ussa;Kpambo 1 Ward;;Kpambo Remandeya Maternal and Child Health Clinic;;;;;
Ussa;Kpambo 1 Ward;;Kabrisi Dispensary;;;;;
Ussa;Kpambo 1 Ward;;Yirom Dispensary;;;;;
Ussa;Kpambo 1 Ward;;Rafa Clinic;;;;;
Ussa;Kpambo 2 Ward;;Kpambo Ukwa Maternal and Child Health Clinic;;;;;
Ussa;Kpambo Puri Ward;;Lissa Jatau Dispensary;;;;;
Ussa;Kpambo Puri Ward;;Kwentiki Dispensary;;;;;
Ussa;Kpambo Puri Ward;;Kpambo Puri Millennium Development Goals Clinic;;;;;
Ussa;Kpambo Puri Ward;;Fungki Dispensary;;;;;
Ussa;Kpambo Puri Ward;;Kpambo Yashe MCH;;;;;
Ussa;Kpambo Puri Ward;;Lissam Sambo Maternal and Child Health Clinic;;;;;
Ussa;Kwambai Ward;;Kwambai CHC;;;;;
Ussa;Kwambai Ward;;Bika MCH;;;;;
Ussa;Kwesati Ward;;Kwentam Millenuim Developement Goals Clinic;;;;;
Ussa;Kwesati Ward;;Kwentam Rimamndeyati Primary Health Center;;;;;
Ussa;Kwesati Ward;;Andeussa Dispensary;;;;;
Ussa;Kwesati Ward;;Faith Clinic Maternity;;;;;
Ussa;Kwesati Ward;;Kwesati Maternal Child Health Clinic;;;;;
Ussa;Kwesati Ward;;Amboi Dispensary;;;;;
Ussa;Kwesati Ward;;Rafa Clinic;;;;;
Ussa;Kwesati Ward;;Alaha Dispensary;;;;;
Ussa;Kwesati Ward;;Ayiyi Dispensary;;;;;
Ussa;Kwesati Ward;;Kwentam Tampwa Primary Health Center;;;;;
Ussa;Kwesati Ward;;Tutuwa Millenuim Development Goals Clinic;;;;;
Ussa;Lissam 1 Ward;;Kijwen Dispensary;;;;;
Ussa;Lissam 1 Ward;;Konkain PHC;;;;;
Ussa;Lissam 1 Ward;;Lissam Kostin Maternal Child Health;;;;;
Ussa;Lissam 1 Ward;;Rufu Clinic;;;;;
Ussa;Lissam 2 Ward;;Sabongidan Lissam Maternity Clinic;;;;;
Ussa;Lissam 2 Ward;;Kutupwen Primary Health Center;;;;;
Ussa;Lumbu Ward;;Maternal and Child Health Iyausa;;;;;
Ussa;Lumbu Ward;;Kpakya Millenuim Development Goals Clinic;;;;;
Ussa;Lumbu Ward;;Lumbu Rikwenrika Maternal Child Health Health Clinic;;;;;
Ussa;Rufu 1 Ward;;Rimamnyane Ussa Primary Health Centre;;;;;
Ussa;Rufu 1 Ward;;Rufu 1 Maternal and Child Health Clinic;;;;;
Ussa;Rufu 1 Ward;;MDG Rufu Yikwe;;;;;
Ussa;Rufu 1 Ward;;Riporta Primary Health Center;;;;;
Wukari;Akwana Ward;;Arufu Dispensary;;;;;
Wukari;Akwana Ward;;Fyayi Dispensary;;;;;
Wukari;Avyi Ward;;Avyi Health Clinic (CRCN);;;;;
Wukari;Avyi Ward;;Biyama Hospital;;;;;
Wukari;Avyi Ward;;Pwadzu Health Clinic;;;;;
Wukari;Bantaje Ward;;Gindin Dorowa  MCH;;;;;
Wukari;Bantaje Ward;;Bantaje Primary Health Clinic;;;;;
Wukari;Bantaje Ward;;Chedia Health Clinic;;;;;
Wukari;Bantaje Ward;;Nwuko Health Clinic;;;;;
Wukari;Bantaje Ward;;Mahanga Health Clinic;;;;;
Wukari;Bantaje Ward;;Gindin Dorowa Survival Health Clinic;;;;;
Wukari;Chonku Ward;;Tor-Musa Dispensary;;;;;
Wukari;Chonku Ward;;Ando Igba Dispensary;;;;;
Wukari;Chonku Ward;;Wana Health clinic;;;;;
Wukari;Chonku Ward;;Ikyayor Health Clinic;;;;;
Wukari;Chonku Ward;;Chonku Health Clinic (MDG);;;;;
Wukari;Chonku Ward;;Riti Health Clinic;;;;;
Wukari;Hospital Ward;;Wapanghaku Health Clinic;;;;;
Wukari;Hospital Ward;;Wukari General Hospital;;;;;
Wukari;Hospital Ward;;Al-Imam School Clinic;;;;;
Wukari;Hospital Ward;;Idofi Health Clinic;;;;;
Wukari;Hospital Ward;;Faith Maternity Clinic;;;;;
Wukari;Jibu Ward;;Byepyi Dispensary;;;;;
Wukari;Jibu Ward;;Alamini Dispensary;;;;;
Wukari;Jibu Ward;;Rafin Soja Comprehensive Health Centre;;;;;
Wukari;Jibu Ward;;Jibu Health Clinic;;;;;
Wukari;Kente Ward;;Sear Dispensary;;;;;
Wukari;Kente Ward;;Tsemenge Health Centre;;;;;
Wukari;Kente Ward;;Orobende Health Centre;;;;;
Wukari;Kente Ward;;Courtage Hospital Kente;;;;;
Wukari;Kente Ward;;Sondi Health Clinic;;;;;
Wukari;Kente Ward;;Chinkai Health Clinic;;;;;
Wukari;Kente Ward;;Sondi African Church Clinic;;;;;
Wukari;Kente Ward;;Kente Dispensary;;;;;
Wukari;Puje Ward;;Bethel Clinic;;;;;
Wukari;Puje Ward;;Kwararrafa Hospital;;;;;
Wukari;Puje Ward;;Excel School Clinic;;;;;
Wukari;Puje Ward;;Kinkiso Dispensary;;;;;
Wukari;Puje Ward;;Ando-moto Health Center;;;;;
Wukari;Puje Ward;;Waritoma Hospital;;;;;
Wukari;Puje Ward;;Wukari CRCN Comprehensive Health Centre;;;;;
Wukari;Puje Ward;;Shonhow Health Centre (Techin);;;;;
Wukari;Puje Ward;;Salama Hospital;;;;;
Wukari;Puje Ward;;Wukari Maternal and Child Health Clinic;;;;;
Wukari;Puje Ward;;Hyuku Dispensary;;;;;
Wukari;Puje Ward;;Gongola Clinic;;;;;
Wukari;Rafin/Kada Ward;;Rafin-Kada Maternal Child Health;;;;;
Wukari;Rafin/Kada Ward;;Kpanawa Health Clinic;;;;;
Wukari;Rafin/Kada Ward;;Tor-Iorsha Dispensary;;;;;
Wukari;Rafin/Kada Ward;;Ason Dispensary;;;;;
Wukari;Tsonkundi Ward;;Tsokundi Model  Health Clinic;;;;;
Wukari;Tsonkundi Ward;;Gidan Idi Primary Health Care;;;;;
Wukari;Tsonkundi Ward;;Tsokundi Clinic (CRCN);;;;;
Wukari;Tsonkundi Ward;;Daa Health Post;;;;;
Wukari;Tsonkundi Ward;;Ikyeanum Dispensary;;;;;
Wukari;Tsonkundi Ward;;G/Adamu Dispensary;;;;;
Yorro;Dankum Ward;;Dankum MDG Clinic;;;;;
Yorro;Dankum Ward;;Shara Health Clinic;;;;;
Yorro;Dankum Ward;;Pugon Dogoto Health Clinic;;;;;
Yorro;Dankum Ward;;Yorro Bang Health Clinic;;;;;
Yorro;Dankum Ward;;Gangore Health Clinic;;;;;
Yorro;Dankum Ward;;Dankum Dutse Health Clnic;;;;;
Yorro;Dankum Ward;;Donkin Health Clinic;;;;;
Yorro;Gongon Ward;;Zampa Health Clinic;;;;;
Yorro;Gongon Ward;;Gongon Maliki MDG Health Clinic;;;;;
Yorro;Gongon Ward;;Garin Malam Audu Health Clinic;;;;;
Yorro;Kajong Ward;;Kajong MDG Health Clinic;;;;;
Yorro;Kajong Ward;;Shompa Health Centre;;;;;
Yorro;Kassa Ward;;Yuben Health Centre;;;;;
Yorro;Kassa Ward;;Kunzang Health Clinic;;;;;
Yorro;Kassa Ward;;Koking Health Clinic;;;;;
Yorro;Kassa Ward;;Kassa MDG Health Clinic;;;;;
Yorro;Kassa Ward;;Kassa Health Clinic;;;;;
Yorro;Kassa Ward;;Gampu MDG Health Clinic;;;;;
Yorro;Lankaviri Ward;;Lankaviri MDG Health Clinic;;;;;
Yorro;Lankaviri Ward;;Lankaviri Dispensary;;;;;
Yorro;Lankaviri Ward;;Bashen Health Clinic;;;;;
Yorro;Lankaviri Ward;;Panti Napo Health Clinic;;;;;
Yorro;Manang Ward;;Jika Health Clinic;;;;;
Yorro;Manang Ward;;Mabang MDG Health Clinic;;;;;
Yorro;Manang Ward;;Dandikulu Health Clinic;;;;;
Yorro;Manang Ward;;Manang Kopo Health Clinic;;;;;
Yorro;Mika Ward;;Mika Tsohon Gari MDG Clinic;;;;;
Yorro;Mika Ward;;Algon MCH;;;;;
Yorro;Mika Ward;;Payya Health Clinic;;;;;
Yorro;Nyaja Ward;;Nyaladi Gorko Health Clinic;;;;;
Yorro;Nyaja Ward;;Lanko Dilau Health Clinic;;;;;
Yorro;Nyaja Ward;;Tabong Kogi Health Centre;;;;;
Yorro;Nyaja Ward;;Nyaja MDG Clinic;;;;;
Yorro;Nyaja Ward;;Panti Buri MDG Clinic;;;;;
Yorro;Nyaja Ward;;Unkwa Health Clinic;;;;;
Yorro;Pantisawa Ward;;Dilla Health Clinic;;;;;
Yorro;Pantisawa Ward;;Nyaladi Health Clinic;;;;;
Yorro;Pantisawa Ward;; Abubakar Barde First  Referral Hospital Yorro;;;;;
Yorro;Pantisawa Ward;;Pantisawa MDG Clinic;;;;;
Yorro;Pantisawa Ward;;Lasheke Gadda Health Clinic;;;;;
Yorro;Pantisawa Ward;;Wakili Pugon Health Centre;;;;;
Yorro;Pantisawa Ward;;Dasso H/C;;;;;
Yorro;Pantisawa Ward;;Lapa H/C;;;;;
Yorro;Pantisawa Ward;;Nsoreng Health Centre;;;;;
Yorro;Pupule Ward;;Danzang MDG Clinic;;;;;
Yorro;Pupule Ward;;Mazalang Health Clinic;;;;;
Yorro;Pupule Ward;;Old kwajji Health Clinic;;;;;
Yorro;Pupule Ward;;Pupule MDG Clinic;;;;;
Zing;Bitako Ward;;Bitako Ibrahim Dispensary;;;;;
Zing;Bitako Ward;;Penyara Millenuim Development Goals Clinic;;;;;
Zing;Bitako Ward;;Natsirde Dispensary;;;;;
Zing;Bitako Ward;;Jen Dispenasry;;;;;
Zing;Bitako Ward;;Bitako Yali Maternal and Child Health Clinic;;;;;
Zing;Bubong Ward;;Zippo Dispensary;;;;;
Zing;Bubong Ward;;Yonko Dispensary;;;;;
Zing;Bubong Ward;;Nbosung Dispensary (MDG);;;;;
Zing;Dingding Ward;;Dangong Dispensary;;;;;
Zing;Dingding Ward;;Kugong Dispensary;;;;;
Zing;Dingding Ward;;Dingdin Dispensary;;;;;
Zing;Kakulu Ward;;Labimang Dispensary;;;;;
Zing;Kakulu Ward;;Kakulu Dispensary;;;;;
Zing;Kakulu Ward;;Kagon Dispensary;;;;;
Zing;Kosensi Ward;;Kotsensi Dispensary;;;;;
Zing;Kosensi Ward;;Danzing Dispensary;;;;;
Zing;Kosensi Ward;;Sagwe Jabu Dispensary;;;;;
Zing;Kosensi Ward;;Jankwanin Millenuim Development Goals Clinic;;;;;
Zing;Kosensi Ward;;Dekko Dispensary;;;;;
Zing;Lamma Ward;;Dandi Dispensary;;;;;
Zing;Lamma Ward;;Lamma Maternity (MDG);;;;;
Zing;Lamma Ward;;Sensi Dispensary;;;;;
Zing;Lamma Ward;;Koyu Dispensary;;;;;
Zing;Lamma Ward;;Musa Tika Disp.;;;;;
Zing;Lamma Ward;;Bansi Dispensary;;;;;
Zing;Monkin Ward;;Dopah Dispensary;;;;;
Zing;Monkin Ward;;Monkin Maternal and Child Health Clinic;;;;;
Zing;Monkin Ward;;Monkin Town Dispensary;;;;;
Zing;Tagallang Ward;;Community Service Development Project Dankwali;;;;;
Zing;Tagallang Ward;;Tagallang Dispensary;;;;;
Zing;Tagallang Ward;;Kwana Dispensary;;;;;
Zing;Tagallang Ward;; United mothedist Church in Nigeria Rural Health Programme ZING;;;;;
Zing;Tagallang Ward;;Jagambo Dispensary;;;;;
Zing;Tagallang Ward;;Tasumpo Dispensary;;;;;
Zing;Tagallang Ward;;Gampobong Dispensary;;;;;
Zing;Yakoko Ward;;Yakoko Maternity Clinic;;;;;
Zing;Yakoko Ward;;Lakwanti Dispensary;;;;;
Zing;Yakoko Ward;;Della Millenuim Development Goals Clinic;;;;;
Zing;Yakoko Ward;;Boduza Dispensary;;;;;
Zing;Yakoko Ward;;Nyelli Dispensary;;;;;
Zing;Yakoko Ward;;Danwusi Millenuim Developemnt Goals Clinic;;;;;
Zing;Yakoko Ward;;St Monica Primary Health Centre;;;;;
Zing;Zing Ward;;Zing General Hospital;;;;;
Zing;Zing Ward;;Tunapo Dispensary;;;;;
Zing;Zing Ward;;La'apo Dispensary;;;;;
Zing;Zing Ward;;Zing Town Dispensary;;;;;
