LGA;Ward;Settlement;Facility;Type;Ownership;Address;Longitude;Latitude
Bade;Dagona Ward;;Bizi Health Centre;;;;;
Bade;Dagona Ward;;Dagona Health Clinic;;;;;
Bade;Dagona Ward;;Dalah Health Centre;;;;;
Bade;Dawayo Ward;;Jigawa Health Centre;;;;;
Bade;Dawayo Ward;;Azbak Health Clinic;;;;;
Bade;Dawayo Ward;;Dawayo Dispensary;;;;;
Bade;Dawayo Ward;;Azam Kura Dispensary;;;;;
Bade;Gwio Kura Ward;;Gwio Kura Maternity and Child Health;;;;;
Bade;Gwio Kura Ward;;Ngeljabe Dispensary;;;;;
Bade;Gwio Kura Ward;;Ngelbowa Health Centre;;;;;
Bade;Katuzu Ward;;Bade Clinic;;;;;
Bade;Lawan Fannami Ward;;Babuje Dispensary;;;;;
Bade;Lawan Musa Ward;;Lawan Musa Maternity and Child Health Clinic;;;;;
Bade;Sabon Gari Ward;;Gashua Sabon Gari General Hospital;;;;;
Bade;Sabon Gari Ward;;Sabon Gari Child Welfare Clinic;;;;;
Bade;Sabon Gari Ward;;Nasara Clinic;;;;;
Bade;Sarkin Hausawa Ward;;Central Dispensary;;;;;
Bade;Sugum Ward;;Tagama Dispensary;;;;;
Bade;Sugum Ward;;Sugum Dispensary;;;;;
Bade;Sugum Ward;;Tagali Dispensary;;;;;
Bade;Sugum Ward;;Sugum Comprehensive Health Centre;;;;;
Bade;Sugum Ward;;Gabarwa Dispensary;;;;;
Bade;Zango Ward;;Zango Dispensary;;;;;
Bursari;Bayamari Ward;;Damaya Dispensary;;;;;
Bursari;Bayamari Ward;;Bayamari Maternity and Child Health Clinic;;;;;
Bursari;Danani Lawanti Ward;;Turbangida Dispensary;;;;;
Bursari;Danani Lawanti Ward;;Danani Dispensary;;;;;
Bursari;Danani Lawanti Ward;;Lawanti Dispensary;;;;;
Bursari;Dapchi Ward;;Ibrahim GeidamMaternity and Child Health Clinic;;;;;
Bursari;Dapchi Ward;;Bade Gana Dispensary;;;;;
Bursari;Dapchi Ward;;Jaba Dispensary;;;;;
Bursari;Dapchi Ward;;Dapchi General Hospital;;;;;
Bursari;Guba Dapso Ward;;Gilbasu Dispensary;;;;;
Bursari;Guba Dapso Ward;;Marari Dispensary;;;;;
Bursari;Guba Dapso Ward;;Sunowa Dispensary;;;;;
Bursari;Guba Dapso Ward;;Garin Kabaju Dispensary;;;;;
Bursari;Guba Dapso Ward;;Dapso Dispensary;;;;;
Bursari;Guba Dapso Ward;;Kankare Dispensary;;;;;
Bursari;Guba Dapso Ward;;Guba Health Clinic;;;;;
Bursari;Guji Metalari Ward;;Dalari Health Clinic;;;;;
Bursari;Guji Metalari Ward;;Bururu Dispensary;;;;;
Bursari;Guji Metalari Ward;;Kujikujiri Dispensary;;;;;
Bursari;Guji Metalari Ward;;Ajiri Dispensary;;;;;
Bursari;Jawa Garun Dole Ward;;Garun Dole Dispensary;;;;;
Bursari;Jawa Garun Dole Ward;;Renukunu Dispensary;;;;;
Bursari;Jawa Garun Dole Ward;;Tarbutu Dispensary;;;;;
Bursari;Jawa Garun Dole Ward;;Koromari Dispensary;;;;;
Bursari;Jawa Garun Dole Ward;;Garin Alkali Dispensary;;;;;
Bursari;Jawa Garun Dole Ward;;Ilela Dispensary;;;;;
Bursari;Jawa Garun Dole Ward;;Girim Dispensary;;;;;
Bursari;Juliri Damnawa Ward;;Juluri Dispensary;;;;;
Bursari;Kaliyari Ward;;Kaliyari Dispensary;;;;;
Bursari;Kaliyari Ward;;Warodi Dispensary;;;;;
Bursari;Kurnawa Ward;;Abbari Dispensary;;;;;
Bursari;Kurnawa Ward;;Kurnawa Mother and Child Health Centre;;;;;
Bursari;Masaba Ward;;Dumburi Dispensary;;;;;
Bursari;Masaba Ward;;Dadigar Dispensary;;;;;
Bursari;Masaba Ward;;Gadine Dispensary;;;;;
Bursari;Masaba Ward;;Gangawa Dispensary;;;;;
Bursari;Masaba Ward;;Masaba Health Clinic;;;;;
Damaturu;Bindigari Pawari Ward;;Damaturu FSP Maternal and Child Health Clinic;;;;;
Damaturu;Damakasu Ward;;Damakasu Dispensary;;;;;
Damaturu;Damaturu Central Ward;;State Specialist Hospital;;;;;
Damaturu;Damaturu Central Ward;;Damaturu Nigerian Police Force Clinic;;;;;
Damaturu;Damaturu Central Ward;;Ajari Dispensary;;;;;
Damaturu;Gambir Moduri Ward;;Gambir Dispensary;;;;;
Damaturu;Gwange Njiwaji Ward;;Gwange Maternity and Child Health Clinic;;;;;
Damaturu;Kallalawa Gabai Ward;;Kalallawa Dispensary;;;;;
Damaturu;Kallalawa Gabai Ward;;Gabai Dispensary;;;;;
Damaturu;Kukareta Warsala Ward;;Kukareta Maternity and Child Health Clinic;;;;;
Damaturu;Maisandari W Ibrahim Ward;;Maisandari Clinic;;;;;
Damaturu;Murfa Kalam Ward;;Murfa Kalam Dispensary;;;;;
Damaturu;Murfa Kalam Ward;;Dikumari Dispensary;;;;;
Damaturu;Nayinanawa Ward;;Nayinawa Dispensary;;;;;
Damaturu;Sasawa Kabaru Ward;;Sasawa Dispensary;;;;;
Fika;Fika Anze Ward;;Fika Maternity and Child Health Clinic;;;;;
Fika;Fika Anze Ward;;Fika General Hospital;;;;;
Fika;Fika Anze Ward;;Fika Community Sunna Clinic;;;;;
Fika;Gadaka Shembire Ward;;Garin Goge Dispensary;;;;;
Fika;Gadaka Shembire Ward;;Garin Gamji Health Clinic;;;;;
Fika;Gadaka Shembire Ward;;Gadaka Model Primary Health Centre;;;;;
Fika;Gadaka Shembire Ward;;Zamba Health Post;;;;;
Fika;Gadaka Shembire Ward;;Koyaya Health Clinic;;;;;
Fika;Garu Ward;;Garin Tongo Health Post;;;;;
Fika;Garu Ward;;Kukar Gadu Health Clinic;;;;;
Fika;Garu Ward;;Daya Health Clinic;;;;;
Fika;Garu Ward;;Chana Dispensary;;;;;
Fika;Garu Ward;;Yelwa Dispensary;;;;;
Fika;Garu Ward;;Siminti Model Primary Health Clinic;;;;;
Fika;Gudi Dozi Ward;;Garin Alaramma Health Post;;;;;
Fika;Gudi Dozi Ward;;Dole Health Post;;;;;
Fika;Gudi Dozi Ward;;Godowoli Dispensary;;;;;
Fika;Gudi Dozi Ward;;Garkuwa Health Clinic;;;;;
Fika;Gudi Dozi Ward;;Kabano Health Clinic;;;;;
Fika;Gudi Dozi Ward;;Lewe Health Clinic;;;;;
Fika;Gudi Dozi Ward;;Doto Fara Health Clinic;;;;;
Fika;Gudi Dozi Ward;;Zadawa Health Clinic;;;;;
Fika;Janga Ward;;Janga Dole Health Clinic;;;;;
Fika;Janga Ward;;Gashaka Health Clinic;;;;;
Fika;Janga Ward;;Kurmi Dispensary;;;;;
Fika;Janga Ward;;Janga Siri Health Post;;;;;
Fika;Janga Ward;;Dogo Abare Health Clinic;;;;;
Fika;Mubi Fusami Ward;;Garin Wayo Health Clinic;;;;;
Fika;Ngalda Dumbulwa Ward;;Ngalda Dispensary;;;;;
Fika;Ngalda Dumbulwa Ward;;Ferol Health Clinic;;;;;
Fika;Shoye G Abba Ward;;Gashinge Health Post;;;;;
Fika;Shoye G Abba Ward;;Garin Abba Health Clinic;;;;;
Fika;Shoye G Abba Ward;;Garin Dauya Health Clinic;;;;;
Fika;Turmi Maluri Ward;;Gurjaje Health Post;;;;;
Fika;Turmi Maluri Ward;;Turmi Health Clinic;;;;;
Fika;Turmi Maluri Ward;;Maluri Dispensary;;;;;
Fika;Zangaya Mazawun Ward;;Duffuyel Health Clinic;;;;;
Fika;Zangaya Mazawun Ward;;Garin Ari Health Clinic;;;;;
Fika;Zangaya Mazawun Ward;;Mazuwan Health Clinic;;;;;
Fune;Alagarno Ward;;Alagarno Health Clinic;;;;;
Fune;Damagum-B Ward;;Gaba Tasha Dispensary;;;;;
Fune;Damagum-B Ward;;Aigala Dispensary;;;;;
Fune;Damagum-B Ward;;Dumbulwa (Fune) Dispensary;;;;;
Fune;Daura-A Ward;;Bulanyiwa Health Clinic;;;;;
Fune;Daura-A Ward;;Daura Maternity and Child Health Clinic;;;;;
Fune;Daura-B Ward;;Sabongari Idi-Barde Dispensary;;;;;
Fune;Daura-B Ward;;Ningi Dispensary;;;;;
Fune;Daura-B Ward;;Dogon-Kuka Maternity and Child Health Clinic;;;;;
Fune;Jajere - A Ward;;Jajere Maternity and Child Health Clinic;;;;;
Fune;Jajere - B (Borno Kiji) Ward;;Borno Kiji Maternal and Child Health Clinic;;;;;
Fune;Kayeri Ward;;Kayeri Maternity and Child Health Clinic;;;;;
Fune;Kayeri Ward;;Taiyu Health Post;;;;;
Fune;Kayeri Ward;;Tello Dispensary;;;;;
Fune;Kayeri Ward;;Gazarakuma Health Post;;;;;
Fune;Kayeri Ward;;Dogon-Kuka B Maternal and Child Health Clinic;;;;;
Fune;Kollere Kafaje Ward;;Balarabe Maternal and Child Health Clinic;;;;;
Fune;Kollere Kafaje Ward;;Kafaje Dispensary;;;;;
Fune;Kollere Kafaje Ward;;Kollere Health Clinic;;;;;
Fune;Marmari Gudugurka Ward;;Gudugurka Dispensary;;;;;
Fune;Marmari Gudugurka Ward;;Marmari Dispensary;;;;;
Fune;Marmari Gudugurka Ward;;Duhuna Health Clinic;;;;;
Fune;Mashio Ward;;Murba Health Post;;;;;
Fune;Mashio Ward;;Shanga Dispensary;;;;;
Fune;Mashio Ward;;Kwara-Wango Health Post;;;;;
Fune;Ngelzarma-A Ward;;Ngelzerma Maternity and Child Health Clinic;;;;;
Fune;Ngelzarma-B Ward;;Ngelshengele Dispensary;;;;;
Fune;Ngelzarma-B Ward;;Baushe Model Primary Health Centre;;;;;
Fune;Ngelzarma-B Ward;;Abakire Dispensary;;;;;
Fune;Ngelzarma-B Ward;;Koyaya Health Post;;;;;
Geidam;Ashekri 1 Ward;;Kukawa Dispensary;;;;;
Geidam;Ashekri 1 Ward;;Ashekri Town Dispensary;;;;;
Geidam;Balle Ward;;Kelluri Mother and Child Health Centre;;;;;
Geidam;Balle Ward;;Lawan Bukarti Dispensary;;;;;
Geidam;Balle Ward;;Balle Maternal and Child Health Clinic;;;;;
Geidam;Balle Ward;;Matakuskum Health Clinic;;;;;
Geidam;Borko Ward;;Borko Dispensary;;;;;
Geidam;Borko Ward;;Kindila Dispensary;;;;;
Geidam;Fuchimiram Ward;;Futchimiram Health Clinic;;;;;
Geidam;Fukurti Ward;;Fukurti Dispensary;;;;;
Geidam;Fukurti Ward;;Dajina Dispensary;;;;;
Geidam;Gumsa Ward;;Alhajiri Dispensary;;;;;
Geidam;Gumsa Ward;;Geidam Model Primary Health Centre;;;;;
Geidam;Hausari Ward (Geidam);;Geidam Maternity and Child Health Clinic;;;;;
Geidam;Hausari Ward (Geidam);;Lowcost Maternity and Child Health Clinic;;;;;
Geidam;Hausari Ward (Geidam);;Hausari Dispensary;;;;;
Geidam;Hausari Ward (Geidam);;Geidam General Hospital;;;;;
Geidam;Jororo Ward;;Darro Dispensary;;;;;
Geidam;Kusur Ward;;Kusur Dispensary;;;;;
Geidam;Ma'anna Dagambi Ward;;Dagambi Dispensary;;;;;
Geidam;Ma'anna Dagambi Ward;;Malari Dispensary;;;;;
Geidam;Ma'anna Dagambi Ward;;Ma'anna Dispensary;;;;;
Gujba;Buni Gari Ward;;Buni Gari Dispesanry;;;;;
Gujba;Buni Yadi Ward;;Buniyadi Maternity and Child Health Clinic;;;;;
Gujba;Dadingel Ward;;Dadingel Dispensary;;;;;
Gujba;Goniri Ward;;Goniri Dispensary;;;;;
Gujba;Gotala Ward;;Gotumba Dispensary;;;;;
Gujba;Gujba Ward;;Katarko Dispensary;;;;;
Gujba;Gujba Ward;;Gujba Dispensary;;;;;
Gujba;Gujba Ward;;Kukuwa Dispensary;;;;;
Gujba;Gujba Ward;;Ambiya Dispensary;;;;;
Gujba;Mutai Ward;;Mutai Dispensary;;;;;
Gujba;Mutai Ward;;Dadewel Dispensary;;;;;
Gujba;Ngurbuwa Ward;;Ngurbuwa Maternity and Child Health Clinic;;;;;
Gujba;Wagir Ward;;Wagir Model Primary Health Centre;;;;;
Gulani;Bara Ward;;Bara Dispensary;;;;;
Gulani;Bularafa Ward;;Shishi Waji Health Post;;;;;
Gulani;Bularafa Ward;;Bularafa Health Centre;;;;;
Gulani;Bumsa Ward;;Bumsa Dispensary;;;;;
Gulani;Dokshi Ward;;Dokshi Health Centre;;;;;
Gulani;Gabai Ward;;Gabai Dispensary (Gulani);;;;;
Gulani;Gabai Ward;;Chandam Health Post;;;;;
Gulani;Gabai Ward;;Nguzuwa Health Post;;;;;
Gulani;Gagure Ward;;Gagure Dispensary;;;;;
Gulani;Garin Tuwo Ward;;Garintuwo Dispensary;;;;;
Gulani;Gulani Ward;;Gulani Health Centre;;;;;
Gulani;Kushimaga Ward;;Kushimaga Dispensary;;;;;
Gulani;Njibulwa Ward;;Njibulwa Model Primary Health Centre;;;;;
Gulani;Ruhu Ward;;Ruhu Dispensary;;;;;
Gulani;Tetteba Ward;;Teteba Dispensary;;;;;
Jakusko;Buduwa Saminaka Ward;;Buduwa Health Centre;;;;;
Jakusko;Dumbari Ward;;Katangana Health Centre;;;;;
Jakusko;Dumbari Ward;;Dumbari Dispensary;;;;;
Jakusko;Dumbari Ward;;Ariri Health Centre;;;;;
Jakusko;Dumbari Ward;;Bubuno Health Centre;;;;;
Jakusko;Dumbari Ward;;Tudiniya Health Centre;;;;;
Jakusko;Dumbari Ward;;Gasi Health Centre;;;;;
Jakusko;Girgir Bayam Ward;;Garin Biri Health Centre;;;;;
Jakusko;Girgir Bayam Ward;;Girgir Dispensary;;;;;
Jakusko;Gogaram Ward;;Damasa Health Centre;;;;;
Jakusko;Gogaram Ward;;Guzambana Health Centre;;;;;
Jakusko;Gogaram Ward;;Gogaram Federal Model Primary Health Centre;;;;;
Jakusko;Gogaram Ward;;Gwayo Dispensary;;;;;
Jakusko;Gogaram Ward;;Adiya Dispensary;;;;;
Jakusko;Gogaram Ward;;Kurkushe Dispensary;;;;;
Jakusko;Jaba Ward;;Jaba Health Centre;;;;;
Jakusko;Jaba Ward;;Dan Takuni Health Centre;;;;;
Jakusko;Jakusko Ward;;Jakusko General Hospital;;;;;
Jakusko;Jakusko Ward;;Jakusko Maternity and Child Health Clinic;;;;;
Jakusko;Jakusko Ward;;Jakusko Dispensary;;;;;
Jakusko;Jawur Katamma Ward;;Lamarbago Dispensary;;;;;
Jakusko;Jawur Katamma Ward;;Tajuwa Dispensary;;;;;
Jakusko;Jawur Katamma Ward;;Tarja Health Centre;;;;;
Jakusko;Jawur Katamma Ward;;Gasamu Model Primary Health Care Center;;;;;
Jakusko;Jawur Katamma Ward;;Katamma Health Centre;;;;;
Jakusko;Jawur Katamma Ward;;Arvani Health Centre;;;;;
Jakusko;Jawur Katamma Ward;;Kagammu Health Centre;;;;;
Jakusko;Lafiya Loiloi Ward;;Lafiyaloiloi Dispensary;;;;;
Jakusko;Lafiya Loiloi Ward;;Gauya Dispensary;;;;;
Jakusko;Lafiya Loiloi Ward;;Jamil Health Centre;;;;;
Jakusko;Muguram Ward;;Muguram Health Centre;;;;;
Jakusko;Zab Dachia Ward;;Amshi Maternity and Child Health Clinic;;;;;
Jakusko;Zab Dachia Ward;;Iyim Dispensary;;;;;
Jakusko;Zab Dachia Ward;;Kazir Dispensary;;;;;
Jakusko;Zab Dachia Ward;;Karage Maternity and Child Health Clinic;;;;;
Jakusko;Zab Dachia Ward;;Dachia Health Centre;;;;;
Karasuwa;Bilal Jawa Ward;;Bukarti Health Clinic;;;;;
Karasuwa;Bilal Jawa Ward;;Zoro Health Clinic;;;;;
Karasuwa;Garin Gawo Ward;;Garin Gawo Dispensary;;;;;
Karasuwa;Gasma Ward;;Gadar Dinya Health Post;;;;;
Karasuwa;Gasma Ward;;Tabawa Health Clinic;;;;;
Karasuwa;Gasma Ward;;Gari Ahmadu Health Clinic;;;;;
Karasuwa;Gasma Ward;;Gasma Dispensary;;;;;
Karasuwa;Jajeri Ward;;Bularifi Dispensary;;;;;
Karasuwa;Jajeri Ward;;Jajeri Dispensary;;;;;
Karasuwa;Karasuwa Galu Ward;;Karasuwa Galu Dispensary;;;;;
Karasuwa;Karasuwa Garin Guna Ward;;Mallam Musari Health Post;;;;;
Karasuwa;Karasuwa Garin Guna Ward;;Kilbuwa Health Post;;;;;
Karasuwa;Karasuwa Garin Guna Ward;;Boridi Health Clinic;;;;;
Karasuwa;Karasuwa Garin Guna Ward;;Mustapari Health Clinic;;;;;
Karasuwa;Karasuwa Garin Guna Ward;;Karasuwa Model Primary Health Centre;;;;;
Karasuwa;Karasuwa Garin Guna Ward;;Karasuwa Health Clinic;;;;;
Karasuwa;Karasuwa Garin Guna Ward;;Kafetuwa Health Post;;;;;
Karasuwa;Shekka Ward;;Faji Ganari Dispensary;;;;;
Karasuwa;Wachakal Ward;;Dabar Giwa Health Clinic;;;;;
Karasuwa;Wachakal Ward;;Wachakal Dispensary;;;;;
Karasuwa;Waro Ward;;Karau Kaku Health Clinic;;;;;
Karasuwa;Waro Ward;;Waro Dispensary;;;;;
Machina;Bogo Ward;;Karmashe Health Cljnic;;;;;
Machina;Bogo Ward;;Bogo Health Clinic;;;;;
Machina;Damai Ward;;Damai Health Clinic;;;;;
Machina;Dole Ward;;Dole Machina Health Clinic;;;;;
Machina;Dole Ward;;Burdumaram Health Clinic;;;;;
Machina;Dole Ward;;Kagumsuwa Health Clinic;;;;;
Machina;Dole Ward;;Kortoni Health Clinic;;;;;
Machina;Falimaram Ward;;Falimaram Health Clinjc;;;;;
Machina;Falimaram Ward;;Kalgidi Health Clinic;;;;;
Machina;Kukayasku Ward;;Kukayasku Health Clinic;;;;;
Machina;Kukayasku Ward;;Damdari Health Clinic;;;;;
Machina;Lamisu Ward;;Lamisu Health Clinic;;;;;
Machina;Lamisu Ward;;Goki Dispensary;;;;;
Machina;Lamisu Ward;;Garanda Dispensary;;;;;
Machina;Machina Ward;;Machina Comprehensive Health Centre;;;;;
Machina;Machina Ward;;Abuja Maternal and Child Health;;;;;
Machina;Machina Ward;;Machina Maternity Child Health Clinic;;;;;
Machina;Maskandare Ward;;Maskandare Dispensary;;;;;
Machina;Maskandare Ward;;Yalauwa Health Clinic;;;;;
Machina;Maskandare Ward;;Kangarwa Dispensary;;;;;
Machina;Taganama Ward;;Taganama Health Clinjc;;;;;
Nangere;Chilariye Ward;;Garin Muzam Health Clinic;;;;;
Nangere;Chilariye Ward;;Chilariye Dispensary;;;;;
Nangere;Chukuriwa Ward;;Chukuriwa Primary Health Centre;;;;;
Nangere;Chukuriwa Ward;;Dadiso Health Post;;;;;
Nangere;Chukuriwa Ward;;Tarajim Health post;;;;;
Nangere;Darin Langawa Ward;;Dagare Dispensary;;;;;
Nangere;Darin Langawa Ward;;Dorawa Dadi Health Post;;;;;
Nangere;Darin Langawa Ward;;Darin Health Post;;;;;
Nangere;Darin Langawa Ward;;Fadawa Health Post;;;;;
Nangere;Dawasa Ward;;Dawasa Maternity and Child (State) Health Clinic;;;;;
Nangere;Dawasa Ward;;Dawasa Dispensary;;;;;
Nangere;Dawasa Ward;;Garin Baba Dispensary;;;;;
Nangere;Dazigau Ward;;Gudi Dispensary;;;;;
Nangere;Dazigau Ward;;Dazigau Maternity and Child Health Clinic;;;;;
Nangere;Dazigau Ward;;Gabarum Dispensary;;;;;
Nangere;Dazigau Ward;;Yaru Health Post;;;;;
Nangere;Dazigau Ward;;Garin Shera Dispensary;;;;;
Nangere;Degubi Ward;;Degubi Model Primary Health Centre;;;;;
Nangere;Degubi Ward;;Mbela Health Clinic;;;;;
Nangere;Degubi Ward;;Chalinno Dispensary;;;;;
Nangere;Degubi Ward;;Gabur Dispensary;;;;;
Nangere;Degubi Ward;;Gwasko Dispemsary;;;;;
Nangere;Kukuri Ward;;Kukuri (State) Maternity and Child Health Clinic;;;;;
Nangere;Kukuri Ward;;Kukuri Primary Health Centre;;;;;
Nangere;Kukuri Ward;;Garin Kadai Dispensary;;;;;
Nangere;Kukuri Ward;;Bagaldi Dispensary;;;;;
Nangere;Kukuri Ward;;Haram Dispensary;;;;;
Nangere;Nangere Ward;;Old Nangere Health Clinic;;;;;
Nangere;Nangere Ward;;Nangere General Hospital;;;;;
Nangere;Nangere Ward;;Sabongari Maternity and Child Health Clinic;;;;;
Nangere;Nangere Ward;;Garin Jata Dispensary;;;;;
Nangere;Pakarau_Duddaye Ward;;Biriri Dispensary;;;;;
Nangere;Pakarau_Duddaye Ward;;Katsira Health Centre;;;;;
Nangere;Pakarau_Duddaye Ward;;Zinzano Dispensary;;;;;
Nangere;Pakarau_Duddaye Ward;;Duddaye Dispensary;;;;;
Nangere;Pakarau_Duddaye Ward;;Garin Keri Dispensary;;;;;
Nangere;Tikau Ward;;Tikau Health Centre;;;;;
Nangere;Tikau Ward;;Tudun Wada Health Clinic;;;;;
Nangere;Tikau Ward;;Dagazirwa Health Clinic;;;;;
Nangere;Tikau Ward;;Dagare Tikau Dispensary;;;;;
Nangere;Watinane Ward;;Baraniya Health Clinic;;;;;
Nangere;Watinane Ward;;Dugum Health Clinic;;;;;
Nangere;Watinane Ward;;Watinane Maternity and Child Health Clinic;;;;;
Nangere;Watinane Ward;;Garin Gambo Dispensary;;;;;
Nguru;Afunori Ward;;Mirwa Heath Clinic;;;;;
Nguru;Afunori Ward;;Dagirari Clinic;;;;;
Nguru;Afunori Ward;;Afunori Clinic;;;;;
Nguru;Bulabulin Ward;;Nguru Maternal and Child Health Clinic;;;;;
Nguru;Bulabulin Ward;;Bulabulin Central Dispensary;;;;;
Nguru;Bulanguwa Ward;;Balanguwa Clinic;;;;;
Nguru;Bulanguwa Ward;;Nguru Federal Model Primary Health Centre;;;;;
Nguru;Bulanguwa Ward;;Badema Dispensary;;;;;
Nguru;Bulanguwa Ward;;Babaganari Health Clinic;;;;;
Nguru;Dabule Ward;;Dabule Health Clinic;;;;;
Nguru;Dumsai Ward;;Dumsai Dispensary;;;;;
Nguru;Dumsai Ward;;Yakubari Dispensary;;;;;
Nguru;Garbi_Bombori Ward;;Garbi Health Clinic;;;;;
Nguru;Garbi_Bombori Ward;;Bombori Clinic;;;;;
Nguru;Hausari Ward (Nguru);;Salisu Memorial Clinic;;;;;
Nguru;Maja kura Ward;;Maja-Kura Clinic;;;;;
Nguru;Tsohon Nguru Ward;;Army Barrack Clinic (Nguru);;;;;
Nguru;Tsohon Nguru Ward;;Nguru Federal Medical Centre;;;;;
Nguru;Tsohon Nguru Ward;;Ngilewa Health Clinic;;;;;
Nguru;Tsohon Nguru Ward;;Bubari Health Clinic;;;;;
Potiskum;Bare-Bari Ward;;Anguwan Jaji Health Clinic;;;;;
Potiskum;Bare-Bari Ward;;Mazaganai Maternity and Child Health Clinic;;;;;
Potiskum;Bolewa-A Ward;;Leprosy Clinic;;;;;
Potiskum;Bolewa-A Ward;;Potiskum Maternity and Child Health Clinic;;;;;
Potiskum;Bolewa-A Ward;;Potiskum Town Central Clinic;;;;;
Potiskum;Bolewa-B Ward;;Dogon-Zare Clinic;;;;;
Potiskum;Bolewa-B Ward;;Jamma'a Clinic;;;;;
Potiskum;Bolewa-B Ward;;Potiskum Medical Clinic;;;;;
Potiskum;Danchuwa Ward;;Garin Abba Clinic;;;;;
Potiskum;Danchuwa Ward;;Garin Makwai Maternal and Child Health Clinic;;;;;
Potiskum;Danchuwa Ward;;Zanwa Clinic;;;;;
Potiskum;Danchuwa Ward;;Bubaram Health Clinic;;;;;
Potiskum;Danchuwa Ward;;Garin Mele Clinic;;;;;
Potiskum;Danchuwa Ward;;Juma'a Clinic;;;;;
Potiskum;Danchuwa Ward;;Danchuwa Clinic;;;;;
Potiskum;Dogonini Ward;;Yindiski Maternity and Child Health Clinic;;;;;
Potiskum;Dogonini Ward;;Tudun Wada Maternity and Child Health Clinic;;;;;
Potiskum;Mamudo Ward;;Bula Clinic;;;;;
Potiskum;Mamudo Ward;;Garin Kachalla Health Clinic;;;;;
Potiskum;Mamudo Ward;;Mamudo Maternity and Child Health Clinic;;;;;
Potiskum;Ngojin Ward;;Dakasku Clinic;;;;;
Potiskum;Ngojin Ward;;Fara Fara Health Clinic;;;;;
Potiskum;Ngojin Ward;;Ngojin Health Clinic;;;;;
Potiskum;Ngojin Ward;;Badejo Clinic;;;;;
Potiskum;Yerimaram Ward;;Nahuta Clinic;;;;;
Potiskum;Yerimaram Ward;;Yerimaram Maternal and Child Health Clinic;;;;;
Potiskum;Yerimaram Ward;;Bulabulin Clinic;;;;;
Potiskum;Yerimaram Ward;;Garin Dala Health Clinic;;;;;
Tarmuwa;Babbangida Ward;;Babbangida Health Clinic;;;;;
Tarmuwa;Babbangida Ward;;Babbangida Comprehensive Health Centre;;;;;
Tarmuwa;Biriri Ward;;Biriri Dispensary (Tarmuwa);;;;;
Tarmuwa;Biriri Ward;;Tasha Fulani Dispensary;;;;;
Tarmuwa;Biriri Ward;;Chirokusko Dispensary;;;;;
Tarmuwa;Goduram Ward;;Goduram Dispensary;;;;;
Tarmuwa;Jumbam Ward;;Jumbam Maternity and Child Health Clinic;;;;;
Tarmuwa;Jumbam Ward;;Matari Dispensary;;;;;
Tarmuwa;Jumbam Ward;;Katashe Gana Dispensary;;;;;
Tarmuwa;Koriyel Ward;;Garga Dispensary;;;;;
Tarmuwa;Koriyel Ward;;Koriyel Health Centre;;;;;
Tarmuwa;Lantaiwa Ward;;Lantaiwa Dispensary;;;;;
Tarmuwa;Lantaiwa Ward;;Kaliyari Dispensary (Tarmuwa);;;;;
Tarmuwa;Mafa Ward;;Mafa Maternity and Child Health Clinic;;;;;
Tarmuwa;Shekau Ward;;Shekau Dispensary;;;;;
Yunusari;Bultuwa Ward;;Gari Gada Dispensary;;;;;
Yunusari;Bultuwa Ward;;Bultuwa Maternity and Child Health Clinic;;;;;
Yunusari;Degeltura Ward;;Degeltura Primary Health Centre;;;;;
Yunusari;Dekwa Ward;;Dekwa Dispensary;;;;;
Yunusari;Dilala Kalgi Ward;;Kakanderi Dispensary (Yanusari);;;;;
Yunusari;Dilala Kalgi Ward;;Dilala Dispensary;;;;;
Yunusari;Dilala Kalgi Ward;;Kalgi Dispensary;;;;;
Yunusari;Kafiya Ward;;Kiruzul Dispenary;;;;;
Yunusari;Kafiya Ward;;Bukarti Dispensary;;;;;
Yunusari;Kafiya Ward;;Bukarti MCH;;;;;
Yunusari;Kafiya Ward;;Kafiya Primary Health Centre;;;;;
Yunusari;Mairari Ward;;Buhari Dispensary;;;;;
Yunusari;Mairari Ward;;Bulabulin Dispensary;;;;;
Yunusari;Mairari Ward;;Jigage Dispensary;;;;;
Yunusari;Mairari Ward;; yo Mandamari Dispensary;;;;;
Yunusari;Mairari Ward;;Nganzai Dispensary;;;;;
Yunusari;Mairari Ward;;Mairari Dispensary;;;;;
Yunusari;Mairari Ward;;Garin Gada Dispensary;;;;;
Yunusari;Mairari Ward;;Gursulu Dispensary;;;;;
Yunusari;Mairari Ward;;Kanamma Matenal And Child Health Clinic;;;;;
Yunusari;Mozugum Kujari Ward;;Mozogum Dispensary;;;;;
Yunusari;Mozugum Kujari Ward;;Kujari Primary Health Centre;;;;;
Yunusari;Toshia Ward;;Toshia Dispensary;;;;;
Yunusari;Yunusari Ward;;Yunusari Health Clinic;;;;;
Yunusari;Yunusari Ward;;Yunusari Comprehensive Health Centre;;;;;
Yunusari;Yunusari Ward;;Gremari Dispensary;;;;;
Yunusari;Yunusari Ward;;Dalari Dispensary;;;;;
Yunusari;Zaji Dumbol Zai Ward;;Dumbal Dispensary;;;;;
Yunusari;Zaji Dumbol Zai Ward;;Zajibiriri Dispensary;;;;;
Yusufari;Bulatura Ward;;Sherfude dispensary;;;;;
Yusufari;Bulatura Ward;;Kachallari Dispensary (Yusufari);;;;;
Yusufari;Gumshi Ward;;Gumshi Dispensary;;;;;
Yusufari;Guya Ward;;Kaluwa Dispensary;;;;;
Yusufari;Guya Ward;;Kuka Tatawa Dispensary;;;;;
Yusufari;Kumagannam Ward;;Masassara Dispensary;;;;;
Yusufari;Kumagannam Ward;;Kumagannam Dispensary;;;;;
Yusufari;Kumagannam Ward;;Kumagannam General Hospital;;;;;
Yusufari;Sumbar Ward;;Kajimaram Dispensary;;;;;
Yusufari;Tulo-Tulo Ward;;Tulo-Tulo Dispensary;;;;;
Yusufari;Yusufari Ward;;Yusufari Comprehensive Health Centre;;;;;
Yusufari;Yusufari Ward;;Bula Madu Dispensary;;;;;
