LGA;Ward;Settlement;Facility;Type;Ownership;Address;Longitude;Latitude
Anka;Bagega Ward;;Bagega Primary Health Centre;;;;;
Anka;Bagega Ward;;Tungar Kudaku Dispensary;;;;;
Anka;Bagega Ward;;Tungar Daji Dispensary (Anka);;;;;
Anka;Bagega Ward;;Makakari Dispensary;;;;;
Anka;Bagega Ward;;Kasumka Community Dispensary;;;;;
Anka;Barayar Zaki Ward;;Barayar Zaki Primary Health Centre;;;;;
Anka;Barayar Zaki Ward;;Rafin Gero Primary Health Centre;;;;;
Anka;Barayar Zaki Ward;;Dutsin Danajiya Dispensary;;;;;
Anka;Barayar Zaki Ward;;Bardi Dispensary;;;;;
Anka;Dan Galadima Ward;;Anka Psychiatric Hospital;;;;;
Anka;Dan Galadima Ward;;Gargam Dispensary;;;;;
Anka;Dan Galadima Ward;;Anka Women and Child Welfare Clinic;;;;;
Anka;Galadima Ward (Anka);;Inwala Dispensary;;;;;
Anka;Galadima Ward (Anka);;Galadanci Dispensary;;;;;
Anka;Galadima Ward (Anka);;Kadaddaba Dispensary;;;;;
Anka;Magaji Ward;;Abare Dispensary;;;;;
Anka;Magaji Ward;;Dareta Dispensary;;;;;
Anka;Magaji Ward;;Anka General Hospital;;;;;
Anka;Magaji Ward;;Anka Orphans and Less Previlaged Clinic;;;;;
Anka;Matseri Ward;;Girkau Dispensary;;;;;
Anka;Matseri Ward;;Kwanar Maje Dispensary;;;;;
Anka;Matseri Ward;;Babban Babaye/Maiduma Dispensarry;;;;;
Anka;Matseri Ward;;Manya Dispensary;;;;;
Anka;Matseri Ward;;Gima Dispensary;;;;;
Anka;Matseri Ward;;Matseri Dispensary;;;;;
Anka;Sabon Birni Ward;;Baudi Community Dispensary;;;;;
Anka;Sabon Birni Ward;;Bawa Daji Dispensary;;;;;
Anka;Sabon Birni Ward;;Sabon Birni Primary Health Centre;;;;;
Anka;Sabon Birni Ward;;Gobirawa Dispensary (Anka);;;;;
Anka;Sabon Birni Ward;;Dan Hayi Dispensary;;;;;
Anka;Sabon Birni Ward;;Duhuwa Comprehensive Health Centre;;;;;
Anka;Waramu Ward;;Shabli Dispensary;;;;;
Anka;Waramu Ward;;Waramu Clinic;;;;;
Anka;Waramu Ward;;Moda Dispensary;;;;;
Anka;Waramu Ward;;Wanu Dispensary;;;;;
Anka;Wuya Ward;;Jarkuka Dispensary;;;;;
Anka;Wuya Ward;;Tsabta Dispensary;;;;;
Anka;Wuya Ward;;Wuya Primary Health Centre;;;;;
Anka;Wuya Ward;;Tangaram Dispensary;;;;;
Anka;Yarsabaya Ward;;Yarsabaya Dispensary;;;;;
Anka;Yarsabaya Ward;;Yan Matankari Dispensary;;;;;
Bakura;Bakura Ward;;Bakura General Hospital;;;;;
Bakura;Bakura Ward;;Bakura Orphans and Less Previllage Clinic;;;;;
Bakura;Bakura Ward;;Bakura Women and Children Welfare Clinic;;;;;
Bakura;Birnin Tudu Ward (Bakura);;Dankaiwa Dispensary;;;;;
Bakura;Birnin Tudu Ward (Bakura);;Maitako Dispensary;;;;;
Bakura;Birnin Tudu Ward (Bakura);;Birnin Tudu Dispensary (Bakura);;;;;
Bakura;Dakko Ward;;Dakko Dispensary;;;;;
Bakura;Dakko Ward;;Kaura Malam Health Clinic;;;;;
Bakura;Damri Ward;;Damri Primary Health Centre;;;;;
Bakura;Damri Ward;;Sabon Gari Dispensary;;;;;
Bakura;Dankadu Ward;;Rane Dispensary;;;;;
Bakura;Dankadu Ward;;Dambo Dispensary;;;;;
Bakura;Dankadu Ward;;Madaci Dispensary;;;;;
Bakura;Dankadu Ward;;Dankadu Dispensary;;;;;
Bakura;Dankadu Ward;;Badamma Dispensary;;;;;
Bakura;Danmanau Ward;;Danmanau Dispensary;;;;;
Bakura;Danmanau Ward;;Rakuma Dispensary;;;;;
Bakura;Danmanau Ward;;Gamji Dispensary;;;;;
Bakura;Danmanau Ward;;Kwanar Kalgo Dispensary;;;;;
Bakura;Danmanau Ward;;FRSC Emergency Clinic;;;;;
Bakura;Nasarawa Ward (Bakura);;Nasarawa Dispensary (Nasarawa);;;;;
Bakura;Nasarawa Ward (Bakura);;Tumba Dispensary;;;;;
Bakura;Rini Ward;;Rini Dispensary;;;;;
Bakura;Rini Ward;;Tungar Fadama Dispensary;;;;;
Bakura;Yargeda Ward;;Kabawa Dispensary;;;;;
Bakura;Yargeda Ward;;Yargeda Dispensary;;;;;
Bakura;Yarkofoji Ward;;Yarkofoji Dispensary;;;;;
Birnin Magaji;Birnin Magaji Ward (Birnin Magaji);;Birnin Magaji Women and Children Welfare Clinic;;;;;
Birnin Magaji;Birnin Magaji Ward (Birnin Magaji);;Magare Dispensary;;;;;
Birnin Magaji;Birnin Magaji Ward (Birnin Magaji);;Birnin Magaji Orphans and Less Priviledge Clinic;;;;;
Birnin Magaji;Birnin Magaji Ward (Birnin Magaji);;Birnin Magaji General Hospital;;;;;
Birnin Magaji;Damfami Sabon Birnin Ward;;Gidan Namaganga Dispensary;;;;;
Birnin Magaji;Damfami Sabon Birnin Ward;;Shamusalle Clinic;;;;;
Birnin Magaji;Damfami Sabon Birnin Ward;;Gidan Kasso Dispensary;;;;;
Birnin Magaji;Damfami Sabon Birnin Ward;;Danwala Dispensary;;;;;
Birnin Magaji;Damfami Sabon Birnin Ward;;Sabon Birnin Clinic;;;;;
Birnin Magaji;Damfami Sabon Birnin Ward;;Damfami Dispensary;;;;;
Birnin Magaji;Gora Ward;;Shagerawa Dispensary;;;;;
Birnin Magaji;Gora Ward;;Gora Health Clinic;;;;;
Birnin Magaji;Gora Ward;;Janbuzu Dispensary;;;;;
Birnin Magaji;Gora Ward;;Kannu Dispensary;;;;;
Birnin Magaji;Gora Ward;;Gidan Bage Dispensary;;;;;
Birnin Magaji;Gora Ward;;Yauta Baki Dispensary;;;;;
Birnin Magaji;Gusami Gari Ward;;Gidan Maijanido Dispensary;;;;;
Birnin Magaji;Gusami Gari Ward;;Gusami Dispensary;;;;;
Birnin Magaji;Gusami Gari Ward;;Jela Dispensary;;;;;
Birnin Magaji;Gusami Hayi Ward;;Kabuke Dispensary;;;;;
Birnin Magaji;Gusami Hayi Ward;;Gidan Bajini Dispensary;;;;;
Birnin Magaji;Gusami Hayi Ward;;Murai Dispensary;;;;;
Birnin Magaji;Gusami Hayi Ward;;Maikuru Dispensary;;;;;
Birnin Magaji;Modomawa East Ward;;Billashe Dispensary;;;;;
Birnin Magaji;Modomawa East Ward;;Tashar Shehu Dispensary;;;;;
Birnin Magaji;Modomawa East Ward;;Kirifada Galadima Dispensary;;;;;
Birnin Magaji;Modomawa West Ward;;Challi Dispensary;;;;;
Birnin Magaji;Modomawa West Ward;;Modomawa Clinic;;;;;
Birnin Magaji;Modomawa West Ward;;Kirifada Gora Dispensary;;;;;
Birnin Magaji;Nasarawa Godel East Ward;;Tsabre Dispensary;;;;;
Birnin Magaji;Nasarawa Godel East Ward;;Dan Dambo Dispensary;;;;;
Birnin Magaji;Nasarawa Godel East Ward;;Kokiya Dispensary;;;;;
Birnin Magaji;Nasarawa Godel East Ward;;Garin Kaka Dispensary;;;;;
Birnin Magaji;Nasarawa Godel East Ward;;Chigama Clinic;;;;;
Birnin Magaji;Nasarawa Godel West Ward;;Gidan Danjuma Dispensary;;;;;
Birnin Magaji;Nasarawa Godel West Ward;;Nasarawa Godel Model Primary Health Centre;;;;;
Birnin Magaji;Nasarawa Godel West Ward;;Jar Dawa Dispensary;;;;;
Birnin Magaji;Nasarawa Mailayi Ward;;Nasarawa Mailayi Basic Health Clinic;;;;;
Birnin Magaji;Nasarawa Mailayi Ward;;Kiyawa Dispensary;;;;;
Birnin Magaji;Nasarawa Mailayi Ward;;Dutsin Wake Dispensary;;;;;
Birnin Magaji;Nasarawa Mailayi Ward;;Karfa Dispensary;;;;;
Birnin Magaji;Nasarawa Mailayi Ward;;Usu Dispensary;;;;;
Birnin Magaji;Nasarawa Mailayi Ward;;Makera Dispensary (Nasarawa Mailayi);;;;;
Bukkuyum;Adabka Ward;;Fasagora Dispensary;;;;;
Bukkuyum;Adabka Ward;;Adabka Primary Health Centre;;;;;
Bukkuyum;Adabka Ward;;Duhuwa Dispensary;;;;;
Bukkuyum;Bukkuyum Ward;;Bukkuyum Orphans and Privillage Clinic;;;;;
Bukkuyum;Bukkuyum Ward;;Bukkuyum General Hospital;;;;;
Bukkuyum;Bukkuyum Ward;;Birnin Waje Dispensary;;;;;
Bukkuyum;Bukkuyum Ward;;Bukkuyum Women Children Welfare Clinic;;;;;
Bukkuyum;Bukkuyum Ward;;Masu Dispensary;;;;;
Bukkuyum;Gwashi Ward;;Batanwarka Dispensary;;;;;
Bukkuyum;Gwashi Ward;;Akawo Dispensary;;;;;
Bukkuyum;Gwashi Ward;;Gando Dispensary;;;;;
Bukkuyum;Gwashi Ward;;Ruggar Baba Dispensary;;;;;
Bukkuyum;Gwashi Ward;;Gwashi Primary Health Centre;;;;;
Bukkuyum;Kyaram Ward;;Ruwan Kura Dispensary;;;;;
Bukkuyum;Kyaram Ward;;Zugu Primary Health Care;;;;;
Bukkuyum;Kyaram Ward;;Wawan Icce Dispensary;;;;;
Bukkuyum;Kyaram Ward;;Kairu Dispensary;;;;;
Bukkuyum;Kyaram Ward;;Gadar Zaima Dispensary;;;;;
Bukkuyum;Kyaram Ward;;Kyaram Primary Health Centre;;;;;
Bukkuyum;Masama Ward;;Masama Dispensary;;;;;
Bukkuyum;Masama Ward;;Rukumawa Dispensary;;;;;
Bukkuyum;Masama Ward;;Sabuwar Tunga Dispensary;;;;;
Bukkuyum;Nasarawa Ward (Burkullu);;Kamaru T/Rogo Dispensary;;;;;
Bukkuyum;Nasarawa Ward (Burkullu);;Hillani Dispensary;;;;;
Bukkuyum;Nasarawa Ward (Burkullu);;Nasarawa Primary Health Centre;;;;;
Bukkuyum;Nasarawa Ward (Burkullu);;Gurusu Dispensary;;;;;
Bukkuyum;Nasarawa Ward (Burkullu);;Gana Dispensary;;;;;
Bukkuyum;Ruwan Jema Ward;;Rafin Maiki Dispensary;;;;;
Bukkuyum;Ruwan Jema Ward;;Ruwan Jema PHC;;;;;
Bukkuyum;Yashi Ward;;Yashi Dispensary;;;;;
Bukkuyum;Yashi Ward;;Balala Dispensary;;;;;
Bukkuyum;Yashi Ward;;Ruwan Rana Dispensary;;;;;
Bukkuyum;Zarummai Ward;;Tashar Taya Dispensary;;;;;
Bukkuyum;Zarummai Ward;;Ranfashi Dispensary;;;;;
Bukkuyum;Zarummai Ward;;Dangurunfa Health Centre;;;;;
Bukkuyum;Zarummai Ward;;Zarummai Health Centre;;;;;
Bukkuyum;Zarummai Ward;;Dargaje Dispensary;;;;;
Bukkuyum;Zarummai Ward;;Yargalma Dispensary;;;;;
Bukkuyum;Zauma Ward;;Birnin Zauma Health Centre;;;;;
Bukkuyum;Zauma Ward;;Yandu Dispensary;;;;;
Bukkuyum;Zauma Ward;;Tungar Maigunya Dispensary;;;;;
Bungudu;Bela Rawayya Ward;;Lango Dispensary;;;;;
Bungudu;Bela Rawayya Ward;;Tashar Rawayya Dispensary;;;;;
Bungudu;Bela Rawayya Ward;;Asako Clinic;;;;;
Bungudu;Bela Rawayya Ward;;Bela Health Clinic;;;;;
Bungudu;Bela Rawayya Ward;;Kaida Dispensary;;;;;
Bungudu;Bela Rawayya Ward;;Rawayya Health Clinic;;;;;
Bungudu;Bela Rawayya Ward;;Marke (Bungudu) Dispensary;;;;;
Bungudu;Bingi North Ward;;Bingi Health Clinic;;;;;
Bungudu;Bingi North Ward;;Kango Sabuwal Dispensary;;;;;
Bungudu;Bingi North Ward;;Yarkatsina Clinic;;;;;
Bungudu;Bingi North Ward;;Maje Dispensary;;;;;
Bungudu;Bingi North Ward;;Mashema Dispensary;;;;;
Bungudu;Bingi North Ward;;Kuya Dispensary;;;;;
Bungudu;Bingi North Ward;;Gidan Saro Clinic;;;;;
Bungudu;Bingi South Ward;;Kangon Marafa Clinic;;;;;
Bungudu;Bingi South Ward;;Kurar Mota Primary Health Centre;;;;;
Bungudu;Bingi South Ward;;Kungurmi Dispensary;;;;;
Bungudu;Bungudu Ward;;UDSS Bungudu Dispensary;;;;;
Bungudu;Bungudu Ward;;Saye Dispensary;;;;;
Bungudu;Bungudu Ward;;Yartukunya Dispensary;;;;;
Bungudu;Bungudu Ward;;Bungudu General Hospital;;;;;
Bungudu;Bungudu Ward;;Bungudu Approved School Dispensary;;;;;
Bungudu;Bungudu Ward;;Bungudu Orphan And Less Prevelege Clinic;;;;;
Bungudu;Bungudu Ward;;Birnin Malam Clinic;;;;;
Bungudu;Bungudu Ward;;Bungudu Women and Children Welfare Clinic;;;;;
Bungudu;Furfuri Kwaikwai Ward;;Za Kukan Nini Dispensary;;;;;
Bungudu;Furfuri Kwaikwai Ward;;Runji Dispensary;;;;;
Bungudu;Furfuri Kwaikwai Ward;;Furfuri Health Centre;;;;;
Bungudu;Furfuri Kwaikwai Ward;;Madidi Dispensary;;;;;
Bungudu;Furfuri Kwaikwai Ward;;Gidan Dan inna Dispensary;;;;;
Bungudu;Furfuri Kwaikwai Ward;;Gwaji Clinic;;;;;
Bungudu;Furfuri Kwaikwai Ward;;Fantaru Clinic;;;;;
Bungudu;Furfuri Kwaikwai Ward;;Auki Dispensary;;;;;
Bungudu;Gada Karakai Ward;;Danmagori Dispensary;;;;;
Bungudu;Gada Karakai Ward;;Gada Health Clinic;;;;;
Bungudu;Gada Karakai Ward;;Karakai Health Clinic;;;;;
Bungudu;Gada Karakai Ward;;Danmarke Primary Health Centre;;;;;
Bungudu;Gada Karakai Ward;;Kananami Dispensary;;;;;
Bungudu;Gada Karakai Ward;;Tungar Masu Dispensary;;;;;
Bungudu;Gada Karakai Ward;;Kurhi Dispensary;;;;;
Bungudu;Gada Karakai Ward;;Birnin Yanruwa Dispensary;;;;;
Bungudu;Kotorkoshi Ward;;Kotorkoshi Orphan andLess Prevelege Clinic;;;;;
Bungudu;Kotorkoshi Ward;;Aisha Dispensary;;;;;
Bungudu;Kotorkoshi Ward;;Tazame Dispensary;;;;;
Bungudu;Kotorkoshi Ward;;Kotorkoshi Primary Health Centre;;;;;
Bungudu;Kotorkoshi Ward;;Kohi Dispensary;;;;;
Bungudu;Kotorkoshi Ward;;Gulubba Health Centre;;;;;
Bungudu;Nahuche Ward;;Nahuche Primary Health Centre;;;;;
Bungudu;Nahuche Ward;;Ruggar Buda Dispensary;;;;;
Bungudu;Nahuche Ward;;Babban Gebe Dispensary;;;;;
Bungudu;Nahuche Ward;;Danguro Clinic;;;;;
Bungudu;Nahuche Ward;;Dogondaji Clinic;;;;;
Bungudu;Samawa Ward;;Samawa Health Clinic;;;;;
Bungudu;Samawa Ward;;Gidan Zalla Clinic;;;;;
Bungudu;Samawa Ward;;Dashi Clinic;;;;;
Bungudu;Sankalawa Ward;;GGUSS Kotarkoshi Dispensary;;;;;
Bungudu;Sankalawa Ward;;Kurmi Clinic;;;;;
Bungudu;Sankalawa Ward;;Sankalawa Health Clinic;;;;;
Bungudu;Sankalawa Ward;;Ribe Clinic;;;;;
Bungudu;Tofa Ward;;Wazoji Dispensary;;;;;
Bungudu;Tofa Ward;;Tofa Primary Health Centre;;;;;
Bungudu;Tofa Ward;;Gamawa Clinic;;;;;
Gummi;Bardoki Ward;;Tagadi Dispensary;;;;;
Gummi;Bardoki Ward;;Bardoki Primary Health Centre;;;;;
Gummi;Bardoki Ward;;Pass Dispensary;;;;;
Gummi;Bardoki Ward;;Gwalli Dispensary;;;;;
Gummi;Bardoki Ward;;Babban Rafi (Bardoki) Dispensary;;;;;
Gummi;Bardoki Ward;;Barikin Daji Dispensary;;;;;
Gummi;Bardoki Ward;;Tulmi Dispensary;;;;;
Gummi;Birnin Magaji Ward (Gummi);;Kwammaka Dispensary;;;;;
Gummi;Birnin Magaji Ward (Gummi);;Birnin Magaji Dispensary;;;;;
Gummi;Birnin Tudu Ward (Gummi);;Leshi Dispensary;;;;;
Gummi;Birnin Tudu Ward (Gummi);;Daki Takwas Primary Health Centre;;;;;
Gummi;Birnin Tudu Ward (Gummi);;Tungar Wakaso Dispensary;;;;;
Gummi;Birnin Tudu Ward (Gummi);;Birnin Tudu Dispensary (Gummi);;;;;
Gummi;Birnin Tudu Ward (Gummi);;Daki Takwas Dispensary;;;;;
Gummi;Birnin Tudu Ward (Gummi);;Birnin Tudu Primary Health Centre;;;;;
Gummi;Birnin Tudu Ward (Gummi);;Nasarawa Kifi Dispensary (Birnin Tudu);;;;;
Gummi;Falale Ward;;Falale Dispensary;;;;;
Gummi;Falale Ward;;Iyaka Dispensary;;;;;
Gummi;Gamo Ward;;Jabaka Dispensary (Gamo);;;;;
Gummi;Gamo Ward;;Gamo Dispensary;;;;;
Gummi;Gayari Ward;;Dakawa Dispensary;;;;;
Gummi;Gayari Ward;;Gayari Primary Health Centre;;;;;
Gummi;Gayari Ward;;Adarawa Dispensary;;;;;
Gummi;Gyalange Ward;;Dangwai Dispensary;;;;;
Gummi;Gyalange Ward;;Gyalange Dispensary;;;;;
Gummi;Gyalange Ward;;Gabtu Dispensary;;;;;
Gummi;Kurfa Ward;;Gam Banda Magiro Dispensory;;;;;
Gummi;Kurfa Ward;;Kurfa Dispensary;;;;;
Gummi;Kurfa Ward;;Taka-Tsaba Dispensary;;;;;
Gummi;Kurfa Ward;;Falan Birni Dispensary;;;;;
Gummi;Magaji (Gummi) Ward;;Amanawa Dispensary;;;;;
Gummi;Magaji (Gummi) Ward;;Gummi General Hospital;;;;;
Gummi;Magaji (Gummi) Ward;;Gummi Orphans and Less Previllage Clinic;;;;;
Gummi;Magaji (Gummi) Ward;;Gummi Town Dispensary;;;;;
Gummi;Rafi Ward;;Yarkwana Dispensary;;;;;
Gummi;Rafi Ward;;Lema Babba Dispensary;;;;;
Gummi;Uban Dawaki Ward;;Dan Fako Dispensary;;;;;
Gummi;Uban Dawaki Ward;;Gidan Kade Dispensary;;;;;
Gusau;Galadima Ward (Gusau);;Gusau Orphans and Less Previlage Clinic;;;;;
Gusau;Galadima Ward (Gusau);;Dallatu Clinic;;;;;
Gusau;Galadima Ward (Gusau);;Jakiri Community Dispensary;;;;;
Gusau;Galadima Ward (Gusau);;Gusau General Hospital;;;;;
Gusau;Galadima Ward (Gusau);;Takama Janyau Clinic;;;;;
Gusau;Galadima Ward (Gusau);;Gusau Medical Clinic;;;;;
Gusau;Galadima Ward (Gusau);;Kwata Women and Children Welfare Clinic;;;;;
Gusau;Galadima Ward (Gusau);;100 Housing Clinic;;;;;
Gusau;Mada Ward;;Shemori Dispensary;;;;;
Gusau;Mada Ward;;Mada Primary Health Centre;;;;;
Gusau;Mada Ward;;Mada General Hospital;;;;;
Gusau;Mada Ward;;Duddugel Clinic;;;;;
Gusau;Madawaki Ward;;Gada Biyu Clinic;;;;;
Gusau;Madawaki Ward;;Abarma Clinic;;;;;
Gusau;Madawaki Ward;;Madidi Clinic;;;;;
Gusau;Magami Ward;;Ruwan Dawa Dispensary;;;;;
Gusau;Magami Ward;;Magami PHC;;;;;
Gusau;Magami Ward;;Kango Dispensary;;;;;
Gusau;Magami Ward;;Yargada Clinic;;;;;
Gusau;Magami Ward;;Magami General Hospital;;;;;
Gusau;Mayana Ward;;Shagari Primary Health Centre;;;;;
Gusau;Mayana Ward;;Kolo Dispensary;;;;;
Gusau;Mayana Ward;;Kofar Mani Clinic;;;;;
Gusau;Mayana Ward;;Chediya Ukku Dispensary;;;;;
Gusau;Mayana Ward;;Kasharuwa Dispensary;;;;;
Gusau;Mayana Ward;;Unguwar Mangwaro Dispensary;;;;;
Gusau;Rijiya Ward;;Agama Lafiya Dispensary;;;;;
Gusau;Rijiya Ward;;Gidan Fakai Primary Health Centre;;;;;
Gusau;Rijiya Ward;;Rijiya Clinic;;;;;
Gusau;Ruwan Bore Ward;;Kundumou Dispensary;;;;;
Gusau;Ruwan Bore Ward;;Maijatau Dipsensary;;;;;
Gusau;Ruwan Bore Ward;;Takokai clinic;;;;;
Gusau;Ruwan Bore Ward;;Ruwan Bore Dispensary (Ruwan Bore);;;;;
Gusau;Ruwan Bore Ward;;Ingwai Dispensary;;;;;
Gusau;Ruwan Bore Ward;;Fegin Mahe Dispensary;;;;;
Gusau;Sabon Gari Ward (Gusau);;Bamaiyi Private Clinic;;;;;
Gusau;Sabon Gari Ward (Gusau);;Gusau Police Clinic;;;;;
Gusau;Sabon Gari Ward (Gusau);;Mallaha Clinic;;;;;
Gusau;Sabon Gari Ward (Gusau);;Sabon Gari Clinic;;;;;
Gusau;Tudun Wada Ward;;Dr. Karima Women and Child Welfare Clinic;;;;;
Gusau;Tudun Wada Ward;;Cakal Dispensary;;;;;
Gusau;Tudun Wada Ward;;Karazau Dispensary;;;;;
Gusau;Tudun Wada Ward;;Haske Family and Maternity Hospital Gusau;;;;;
Gusau;Tudun Wada Ward;;Yariman Bakura Specialist Hospital;;;;;
Gusau;Tudun Wada Ward;;Damba Clinic;;;;;
Gusau;Tudun Wada Ward;;Jauri Clinic;;;;;
Gusau;Tudun Wada Ward;;Gidan Maryam Clinic;;;;;
Gusau;Tudun Wada Ward;;Gusau King Fahad Women & Children Hospital Samaru;;;;;
Gusau;Wanke Ward;;Wanke Primary Health Centre;;;;;
Gusau;Wanke Ward;;Karal Dispensary;;;;;
Gusau;Wanke Ward;;Madaro Dispensary;;;;;
Gusau;Wanke Ward;;Gidan Ango Community Dispensary;;;;;
Gusau;Wanke Ward;;Jangeme Dispensary;;;;;
Gusau;Wanke Ward;;Gidan Gabi Clinic;;;;;
Gusau;Wonaka Ward;;Kamari Dispensary;;;;;
Gusau;Wonaka Ward;;Fegin kanawa Dispensary;;;;;
Gusau;Wonaka Ward;;Rafi Dispensary;;;;;
Gusau;Wonaka Ward;;Lilo Dispensary;;;;;
Gusau;Wonaka Ward;;Wonaka Dispensary;;;;;
Kaura Namoda;Banga Ward;;Kawari Dispensary;;;;;
Kaura Namoda;Banga Ward;;Rahazawa Dispensary;;;;;
Kaura Namoda;Banga Ward;;Katsara Dispensary;;;;;
Kaura Namoda;Banga Ward;;Kogi Dispensary;;;;;
Kaura Namoda;Banga Ward;;Banga Primary Health Centre;;;;;
Kaura Namoda;Dan Isa Ward;;Dogon Kade Dispensary;;;;;
Kaura Namoda;Dan Isa Ward;;Sodingo Dispensary;;;;;
Kaura Namoda;Dan Isa Ward;;Gidan Atu Dispensary;;;;;
Kaura Namoda;Dan Isa Ward;;Dan Isa Primary Health Centre;;;;;
Kaura Namoda;Dan Isa Ward;;Mailallen Jarkasa Dispensary;;;;;
Kaura Namoda;Gabake Ward;;Gegeta Dispensary;;;;;
Kaura Namoda;Gabake Ward;;Gabake Mesa Dispensary;;;;;
Kaura Namoda;Gabake Ward;;Getso Dispensary;;;;;
Kaura Namoda;Gabake Ward;;Magami Community Dispensary;;;;;
Kaura Namoda;Gabake Ward;;Gabake Dan Maliki Primary Health Centre;;;;;
Kaura Namoda;Galadima/Dangaladima Ward;;Magizawa Dispensary;;;;;
Kaura Namoda;Galadima/Dangaladima Ward;;Garbawa Dispensary;;;;;
Kaura Namoda;Galadima/Dangaladima Ward;;Allahuwa Dispensary;;;;;
Kaura Namoda;Galadima/Dangaladima Ward;;Agira Dispensary;;;;;
Kaura Namoda;Kagara Ward (Kaura Namoda);;Falau Dispensary;;;;;
Kaura Namoda;Kagara Ward (Kaura Namoda);;Bungudawa Dispensary;;;;;
Kaura Namoda;Kagara Ward (Kaura Namoda);;Tundu Wada Rahazawa Dispensary;;;;;
Kaura Namoda;Kagara Ward (Kaura Namoda);;Rututu Dispensary;;;;;
Kaura Namoda;Kagara Ward (Kaura Namoda);;Mailallan Nagona Community Dispensary;;;;;
Kaura Namoda;Kungurki Ward;;Kungurki Dispensary;;;;;
Kaura Namoda;Kungurki Ward;;Janzakawa Clinic;;;;;
Kaura Namoda;Kungurki Ward;;Niima Clinic (Sabon Gari);;;;;
Kaura Namoda;Kungurki Ward;;Walo Dispensary;;;;;
Kaura Namoda;Kungurki Ward;;Dabah Community Dispensary;;;;;
Kaura Namoda;Kungurki Ward;;Fagoji Community Dispensary;;;;;
Kaura Namoda;Kungurki Ward;;MDG Sabon Gari (Kaura Namoda) Clinic;;;;;
Kaura Namoda;Kungurki Ward;;Dayau Community Dispensary;;;;;
Kaura Namoda;Kungurki Ward;;Madira Community Dispensary;;;;;
Kaura Namoda;Kurya Ward (Kaura Namoda);;Tungar Haruna Dispensary;;;;;
Kaura Namoda;Kurya Ward (Kaura Namoda);;Sake Dispensary;;;;;
Kaura Namoda;Kurya Ward (Kaura Namoda);;Kurya Primary Health Centre;;;;;
Kaura Namoda;Kurya Ward (Kaura Namoda);;Kofa Community Dispensary;;;;;
Kaura Namoda;Kyanbarawa Ward;;Famfifi Dispensary;;;;;
Kaura Namoda;Kyanbarawa Ward;;Kasuwar Daji Primary Health Centre;;;;;
Kaura Namoda;Kyanbarawa Ward;;Kasuwar Daji General Hospital;;;;;
Kaura Namoda;Kyanbarawa Ward;;Tukasu Community Dispensary;;;;;
Kaura Namoda;Kyanbarawa Ward;;Bunaje Dispensary;;;;;
Kaura Namoda;Kyanbarawa Ward;;Kyanbarawa Dispensary;;;;;
Kaura Namoda;Kyanbarawa Ward;;Maguru Dispensary;;;;;
Kaura Namoda;Sakajiki Ward;;Badako Dispensary;;;;;
Kaura Namoda;Sakajiki Ward;;Unguwar Sakin Musulimi Clinic;;;;;
Kaura Namoda;Sakajiki Ward;;Abaniyawa Community Dispensary;;;;;
Kaura Namoda;Sakajiki Ward;;Dagwarwa Dispensary;;;;;
Kaura Namoda;Sakajiki Ward;;Yamatsawa Community Dispensary;;;;;
Kaura Namoda;Sakajiki Ward;;Sakajiki Dispensary;;;;;
Kaura Namoda;Sakajiki Ward;;Dokau Community Dispensary;;;;;
Kaura Namoda;Sarkin Mafara/Sarkin Barya Ward;;Kaura Namoda General Hospital;;;;;
Kaura Namoda;Sarkin Mafara/Sarkin Barya Ward;;Kaura Namoda Orphan and Less Previlage Clinic;;;;;
Kaura Namoda;Sarkin Mafara/Sarkin Barya Ward;;Kaura Namoda Women and Child Welfare Clinic;;;;;
Kaura Namoda;Sarkin Mafara/Sarkin Barya Ward;;Gidan Ajinna Dispensary;;;;;
Kaura Namoda;Sarkin Mafara/Sarkin Barya Ward;;Malamawa Health Clinic (Kaura Namoda);;;;;
Kaura Namoda;Sarkin Mafara/Sarkin Barya Ward;;Tankwaren Daji Dispensary;;;;;
Kaura Namoda;Sarkin Mafara/Sarkin Barya Ward;;Kaura Namoda Poly Clinic;;;;;
Kaura Namoda;Sarkin Mafara/Sarkin Barya Ward;;Kaura Namoda Town Dispensary;;;;;
Kaura Namoda;Sarkin Mafara/Sarkin Barya Ward;;Bula Community Dispensary;;;;;
Kaura Namoda;Sarkin Mafara/Sarkin Barya Ward;;Tungar Dorowa Dispensary;;;;;
Kaura Namoda;Yankaba Ward;;Yankaba Primary Health Centre;;;;;
Kaura Namoda;Yankaba Ward;;Yan Ruma Community Dispensary;;;;;
Kaura Namoda;Yankaba Ward;;Barkeji Dispensary;;;;;
Kaura Namoda;Yankaba Ward;;Yar Dole Community Dispensary;;;;;
Maradun;Damaga/Gama Giwa Ward;;Damaga Dispensary;;;;;
Maradun;Damaga/Gama Giwa Ward;;Gama Giwa Primary Health Centre;;;;;
Maradun;Damaga/Gama Giwa Ward;;Gwabro Dispensary;;;;;
Maradun;Damaga/Gama Giwa Ward;;Zamangira Dispensary;;;;;
Maradun;Dosara/Birnin Kaya Ward;;Fallau Dispensary;;;;;
Maradun;Dosara/Birnin Kaya Ward;;Gilliba Dispensary;;;;;
Maradun;Dosara/Birnin Kaya Ward;;Danbaza Health Clinic;;;;;
Maradun;Dosara/Birnin Kaya Ward;;Birnin Kaya Dispensary;;;;;
Maradun;Dosara/Birnin Kaya Ward;;Dosara Dispensary;;;;;
Maradun;Faru/Magami Ward;;Danau Dispensary;;;;;
Maradun;Faru/Magami Ward;;Gidan Adamu Dispensary;;;;;
Maradun;Faru/Magami Ward;;Ruwan Bado Dispensary;;;;;
Maradun;Faru/Magami Ward;;Kuzi Dispensary;;;;;
Maradun;Faru/Magami Ward;;Faru Upgraded Primary Health Centre;;;;;
Maradun;Faru/Magami Ward;;Sabon Sara Dispensary;;;;;
Maradun;Faru/Magami Ward;;Magami Dispensary;;;;;
Maradun;Faru/Magami Ward;;Rudunu Dispensary;;;;;
Maradun;Gidan Goga Ward;;Gidan Goga Primary Health Centre;;;;;
Maradun;Gidan Goga Ward;;Malikawa Dispensary;;;;;
Maradun;Gidan Goga Ward;;Dan Rini Gidan Goga Dispensary;;;;;
Maradun;Gidan Goga Ward;;Magara Dispensary;;;;;
Maradun;Gora Namaye Ward;;Maijatau Dispensary;;;;;
Maradun;Gora Namaye Ward;;Manasa Dispensary;;;;;
Maradun;Gora Namaye Ward;;Gidan Zama Dispensary;;;;;
Maradun;Gora Namaye Ward;;Gora Primary Health Centre;;;;;
Maradun;Janbako Ward;;Kogo Primary Health Centre;;;;;
Maradun;Janbako Ward;;Sakkida Fulani Dispensary;;;;;
Maradun;Janbako Ward;;Janbako Primary Health Centre;;;;;
Maradun;Janbako Ward;;Babera Dispensary;;;;;
Maradun;Janbako Ward;;Sakkida Bayan Dutse Dispensary;;;;;
Maradun;Kaya Ward;;Sububu Dispensary;;;;;
Maradun;Kaya Ward;;Takalmawa Primary Health Clinic;;;;;
Maradun;Kaya Ward;;Kingidahe Dispensary;;;;;
Maradun;Kaya Ward;;Indiri Dispensary;;;;;
Maradun;Kaya Ward;;Kaya Primary Health Centre;;;;;
Maradun;Kaya Ward;;Kadage Dispensary;;;;;
Maradun;Maradun North Ward;;Aljimma Dispensary;;;;;
Maradun;Maradun North Ward;;Gidan Dawa Dispensary;;;;;
Maradun;Maradun North Ward;;Shandame (Jihiya) Dispensary;;;;;
Maradun;Maradun South Ward;;Maradun Women and Children Welfare Clinic;;;;;
Maradun;Maradun South Ward;;Tungar Malamai Dispensary;;;;;
Maradun;Maradun South Ward;;Maradun Town Dispensary;;;;;
Maradun;Maradun South Ward;;Tungar Magaji Dispensary;;;;;
Maradun;Maradun South Ward;;Maradun Orphans and Less Previllage Clinic;;;;;
Maradun;Maradun South Ward;;Maradun General Hospital;;;;;
Maradun;Tsibiri Ward;;Tsibiri Dispensary;;;;;
Maradun;Tsibiri Ward;;Sabon Gida Dispensary;;;;;
Maru;Bindin Ward;;Mutunji Dispensary;;;;;
Maru;Bindin Ward;;Mailalle Community Dispensary;;;;;
Maru;Bindin Ward;;Gobirawa Dispensary (Maru);;;;;
Maru;Bindin Ward;;Bakin Gulbi Dispensary;;;;;
Maru;Bindin Ward;;Bakin Dutsi Dispensary;;;;;
Maru;Bindin Ward;;Lingyado Dispensary;;;;;
Maru;Bindin Ward;;Bindin Basic Health Clinic;;;;;
Maru;Bingi Ward;;Borwaye Dispensary;;;;;
Maru;Bingi Ward;;Bini Dispensary;;;;;
Maru;Bingi Ward;;Malamawa Community Dispensary;;;;;
Maru;Bingi Ward;;Bingi Primary Health Centre;;;;;
Maru;Bingi Ward;;Gabiya Community Dispensary;;;;;
Maru;Bingi Ward;;Bozaya Dispensary;;;;;
Maru;Dangulbi Ward;;Wabi Dispensary;;;;;
Maru;Dangulbi Ward;;Dangulbi Primary Health Centre;;;;;
Maru;Dangulbi Ward;;Dan Maaji Dispensary;;;;;
Maru;Dangulbi Ward;;Tsuntsomawa Dispensary;;;;;
Maru;Dangulbi Ward;;Tasha Dispensary;;;;;
Maru;Dangulbi Ward;;Kwana Dispensary;;;;;
Maru;Dankurmi Ward;;Getso Dispensary (Maru);;;;;
Maru;Dankurmi Ward;;Farin Ruwan Dispensary;;;;;
Maru;Dankurmi Ward;;Maimarahu Dispensary;;;;;
Maru;Dankurmi Ward;;Dogon Daji Dispensary;;;;;
Maru;Dankurmi Ward;;Dankurmi Primary Health Centre;;;;;
Maru;Dankurmi Ward;;Zamfarawa Dispensary;;;;;
Maru;Dankurmi Ward;;Barebari Dispensary;;;;;
Maru;Dansadau Ward;;Saulawa Dispensary;;;;;
Maru;Dansadau Ward;;Maigoge Community Dispensary;;;;;
Maru;Dansadau Ward;;Ruwan Tofa Dispensary;;;;;
Maru;Dansadau Ward;;Madaka Dispensary;;;;;
Maru;Dansadau Ward;;Maganawa Dispensary;;;;;
Maru;Dansadau Ward;;Chabi Community Dispensary;;;;;
Maru;Dansadau Ward;;Dansadau Orpan and Less Privelege Clinic;;;;;
Maru;Dansadau Ward;;Dansadau General Hospital;;;;;
Maru;Dansadau Ward;;Dansadau Maternal and Child Health Clinic;;;;;
Maru;Dansadau Ward;;Yartasha Dispensary;;;;;
Maru;Kanoma Ward;;Birni Dispensary;;;;;
Maru;Kanoma Ward;;Dutsingari Dispensary;;;;;
Maru;Kanoma Ward;;Zaman Gira Dispensary;;;;;
Maru;Kanoma Ward;;Kanoma Primary Health Centre;;;;;
Maru;Kanoma Ward;;Kwantaragi Community Dispensary;;;;;
Maru;Kanoma Ward;;Tsibiri Community Dispensary;;;;;
Maru;Kuyanbana Ward;;Dandalla Dispensary;;;;;
Maru;Kuyanbana Ward;;Sangeku Dispensary;;;;;
Maru;Kuyanbana Ward;;Madada Community Dispensary;;;;;
Maru;Kuyanbana Ward;;Dangurgu Dispensary;;;;;
Maru;Kuyanbana Ward;;Unguwar Galadima Community Dispensary;;;;;
Maru;Kuyanbana Ward;;Kabaro Dispensary;;;;;
Maru;Kuyanbana Ward;;Babba Doka Community Dispensary;;;;;
Maru;Kuyanbana Ward;;Famaje Dispensary;;;;;
Maru;Maru Ward;;Maru General Hospital;;;;;
Maru;Maru Ward;;Cheboje Dispensary;;;;;
Maru;Maru Ward;;Maru College of Education Clinic;;;;;
Maru;Maru Ward;;Maru Maternal and Child Health Clinic;;;;;
Maru;Maru Ward;;Lugga Community Dispensary;;;;;
Maru;Maru Ward;;Kadauri Dispensary;;;;;
Maru;Maru Ward;;Maru Orphans and Less Privillege Clinic;;;;;
Maru;Maru Ward;;Jabaka Dispensary (Maru);;;;;
Maru;Mayanchi Ward;;Mayanchi Dispensary;;;;;
Maru;Mayanchi Ward;;Mayanchi Basic Health Clinic;;;;;
Maru;Ruwan Doruwa Ward;;Arafa Dispensary;;;;;
Maru;Ruwan Doruwa Ward;;Ruwan Doruwa Primary Health Centre;;;;;
Maru;Ruwan Doruwa Ward;;Difgawa Clinic;;;;;
Maru;Ruwan Doruwa Ward;;Kadadaba Dispensary;;;;;
Shinkafi;Badarawa Ward;;Tungar Kado Primary Health Centre;;;;;
Shinkafi;Badarawa Ward;;Badarawa Dispensary;;;;;
Shinkafi;Birnin Yaro Ward;;Birnin Yaro Dispensary;;;;;
Shinkafi;Birnin Yaro Ward;;Maiwa Health Clinic;;;;;
Shinkafi;Birnin Yaro Ward;;Tubali Primary Health Centre;;;;;
Shinkafi;Galadi Ward;;Batamna Dispensary;;;;;
Shinkafi;Galadi Ward;;Galadi Primary Health Centre;;;;;
Shinkafi;Galadi Ward;;Tungar Bore Community Dispensary;;;;;
Shinkafi;Galadi Ward;;Bula Dispensary (Skf);;;;;
Shinkafi;Galadi Ward;;Gidan Rijiya Community Dispensary;;;;;
Shinkafi;Jangeru Ward (Shinkafi);;Baice Community Dispensary;;;;;
Shinkafi;Jangeru Ward (Shinkafi);;Jangeru Primary Health Centre (Shinkafi);;;;;
Shinkafi;Jangeru Ward (Shinkafi);;Kayaye (Jangere 3) Community Dispensary;;;;;
Shinkafi;Jangeru Ward (Shinkafi);;Baje Dispensary;;;;;
Shinkafi;Katuru Ward;;Mallamawa Community Dispensary;;;;;
Shinkafi;Katuru Ward;;Januhu Dispensary;;;;;
Shinkafi;Katuru Ward;;Gidan Wawa Dispensary;;;;;
Shinkafi;Katuru Ward;;Tungar Kafau Community Dispensary;;;;;
Shinkafi;Katuru Ward;;Katuru Primary Health Centre;;;;;
Shinkafi;Katuru Ward;;Gidan Soja Health Clinic;;;;;
Shinkafi;Katuru Ward;;Kafin Mazuga Dispensary;;;;;
Shinkafi;Kurya Ward (Shinkafi);;Gangara Dispensary (Kurya);;;;;
Shinkafi;Kurya Ward (Shinkafi);;Bagare Dispensary;;;;;
Shinkafi;Kurya Ward (Shinkafi);;Dakwarawa Dispensary;;;;;
Shinkafi;Kurya Ward (Shinkafi);;Fakai Health Clinic;;;;;
Shinkafi;Kurya Ward (Shinkafi);;Kurya Dispensary;;;;;
Shinkafi;Kurya Ward (Shinkafi);;Gidan Bugaje Community Dispensary;;;;;
Shinkafi;Kurya Ward (Shinkafi);;Katsira Health Clinic;;;;;
Shinkafi;Kware Ward;;Kukar Banda Dispensary;;;;;
Shinkafi;Kware Ward;;Kware Primary Health Centre;;;;;
Shinkafi;Kware Ward;;Kursasa Dispensary;;;;;
Shinkafi;Kware Ward;;Atarawa Dispensary;;;;;
Shinkafi;Kware Ward;;Asarara Dispensary;;;;;
Shinkafi;Shanawa Ward;;Ajiyawa Dispensary;;;;;
Shinkafi;Shanawa Ward;;Shanawa Community Dispensary;;;;;
Shinkafi;Shinkafi North Ward;;Shinkafi Women and Children Welfare Clinic;;;;;
Shinkafi;Shinkafi North Ward;;Shinkafi General Hospital;;;;;
Shinkafi;Shinkafi South Ward;;Sabon Gari Community Dispensary shinkafi;;;;;
Shinkafi;Shinkafi South Ward;;Mabaraya Dispensary;;;;;
Shinkafi;Shinkafi South Ward;;Shinkafi Orphan and less Privillege Clinic;;;;;
Talata Mafara;Galadima Ward (Talata Mafara);;Government Girls College Health Clinic;;;;;
Talata Mafara;Galadima Ward (Talata Mafara);;Talata Mafara Orphans and Less Privilage Clinic;;;;;
Talata Mafara;Galadima Ward (Talata Mafara);;Talata Mafara General Hospital;;;;;
Talata Mafara;Galadima Ward (Talata Mafara);;Colony Dispensary;;;;;
Talata Mafara;Garbadu Ward;;Tungar Bai Dispensary;;;;;
Talata Mafara;Garbadu Ward;;Garbadu Dispensary;;;;;
Talata Mafara;Gwaram Ward;;Gwaram Dispensary;;;;;
Talata Mafara;Gwaram Ward;;Bobo Dispensary;;;;;
Talata Mafara;Gwaram Ward;;Gidankane Dispensary;;;;;
Talata Mafara;Gwaram Ward;;Duhun Karki Dispensary;;;;;
Talata Mafara;Jangebe Ward (Talata Mafara);;Mashaya Dispensary;;;;;
Talata Mafara;Jangebe Ward (Talata Mafara);;Gidan Haki Dispensary;;;;;
Talata Mafara;Jangebe Ward (Talata Mafara);;Maikwanugga Dispensary;;;;;
Talata Mafara;Jangebe Ward (Talata Mafara);;Jangebe Primary Health Centre;;;;;
Talata Mafara;Kagara Ward (Talata Mafara);;Kagara General Hospital;;;;;
Talata Mafara;Kagara Ward (Talata Mafara);;Kagara Primary Health Centre;;;;;
Talata Mafara;Kagara Ward (Talata Mafara);;Matuna Dispensary;;;;;
Talata Mafara;Kagara Ward (Talata Mafara);;Dankwato Dispensary;;;;;
Talata Mafara;Kagara Ward (Talata Mafara);;Dankabale Dispensary;;;;;
Talata Mafara;Kayaye Ward;;Matusgi Dispensary;;;;;
Talata Mafara;Kayaye Ward;;Tunfafiya Dispensary;;;;;
Talata Mafara;Kayaye Ward;;Duduma Dispensary;;;;;
Talata Mafara;Kayaye Ward;;Tungar Miya Dispensary;;;;;
Talata Mafara;Kayaye Ward;;Ware Damtse Dispensary;;;;;
Talata Mafara;Kayaye Ward;;Tungar Sadau Dispensary;;;;;
Talata Mafara;Kayaye Ward;;Bakin Zaji Dispensary;;;;;
Talata Mafara;Kayaye Ward;;Talata Mafara Women and Children Welfare Clinic;;;;;
Talata Mafara;Makera/Take Tsaba Ward;;Takoki Dispensary;;;;;
Talata Mafara;Makera/Take Tsaba Ward;;Tungar Tsaka Dispensary;;;;;
Talata Mafara;Makera/Take Tsaba Ward;;Hura Dispensary;;;;;
Talata Mafara;Makera/Take Tsaba Ward;;Gidan Rashi Dispensary;;;;;
Talata Mafara;Makera/Take Tsaba Ward;;Makera Dispensary (Talata Mafara);;;;;
Talata Mafara;Makera/Take Tsaba Ward;;Tungar Waje Dispensary;;;;;
Talata Mafara;Makera/Take Tsaba Ward;;Take Tsaba Dispensary (Makera TT);;;;;
Talata Mafara;Morai Ward;;Garaki Yahaya Dispensary;;;;;
Talata Mafara;Morai Ward;;Sakarawa Dispensary;;;;;
Talata Mafara;Morai Ward;;Kuka Mairahu Dispensary;;;;;
Talata Mafara;Morai Ward;;Morai Primary Health Centre;;;;;
Talata Mafara;Morai Ward;;Sado Dispensary;;;;;
Talata Mafara;Morkidi Ruwan Bore Ward;;Morkidi Dispensary;;;;;
Talata Mafara;Morkidi Ruwan Bore Ward;;Ruwan Bore Dispensary (Morkidi Ruwan Bore);;;;;
Talata Mafara;Ruwan Gizo Ward;;Dan Kalgo Dispensary;;;;;
Talata Mafara;Ruwan Gizo Ward;;Zauren Gora Dispensary;;;;;
Talata Mafara;Ruwan Gizo Ward;;Ruwan Gizo Primary Health Centre;;;;;
Talata Mafara;Ruwan Gizo Ward;;Barikin Daji Dispensary (Ruwan Gizo);;;;;
Talata Mafara;Sauna Ruwanngora Ward;;Unguwar Shanu Dispensary;;;;;
Talata Mafara;Sauna Ruwanngora Ward;;Sauna Dispensary;;;;;
Talata Mafara;Sauna Ruwanngora Ward;;Ruwan Gora Dispensary;;;;;
Talata Mafara;Sauna Ruwanngora Ward;;Kwandawa Dispensary;;;;;
Talata Mafara;Sauna Ruwanngora Ward;;Gora Daji Dispensary;;;;;
Tsafe;Bilbis Ward;;Kucheri Dispensary;;;;;
Tsafe;Bilbis Ward;;Bilbis Primary Health Centre;;;;;
Tsafe;Bilbis Ward;;Unguwar Dan Halima Dispensary;;;;;
Tsafe;Bilbis Ward;;Magazu Model Primary Health Centre;;;;;
Tsafe;Bilbis Ward;;Wanzamai Dispensary;;;;;
Tsafe;Bilbis Ward;;Magazawa Dispensary;;;;;
Tsafe;Chediya Ward;;Doka Dispensary;;;;;
Tsafe;Chediya Ward;;Chediya Primary Health Centre;;;;;
Tsafe;Chediya Ward;;Bakin Manya Dispensary;;;;;
Tsafe;Danjibga Ward;;Kizara Dispensary;;;;;
Tsafe;Danjibga Ward;;Kwalfada Dispensary;;;;;
Tsafe;Danjibga Ward;;Munhaye Dispensary;;;;;
Tsafe;Danjibga Ward;;Kunchin Kalgo Dispensary;;;;;
Tsafe;Danjibga Ward;;Yarzaiga Dispensary;;;;;
Tsafe;Danjibga Ward;;Danjibga Dispensary;;;;;
Tsafe;Danjibga Ward;;Unguwar Gyauro Dispensary;;;;;
Tsafe;Danjibga Ward;;Sabon Garin Dutsin Kura Dispensary;;;;;
Tsafe;Dauki Ward;;Bedi Dispensary;;;;;
Tsafe;Dauki Ward;;Yartalata Dispensary;;;;;
Tsafe;Keta Ward;;Maitoshshi Dispensary;;;;;
Tsafe;Keta Ward;;Keta Primary Health Centre;;;;;
Tsafe;Kwarin Ganuwa Ward;;Bawa Ganga Dispensary;;;;;
Tsafe;Kwarin Ganuwa Ward;;Musawa Dispensary;;;;;
Tsafe;Kwarin Ganuwa Ward;;Kwaren Ganuwa Dispensary;;;;;
Tsafe;Kwarin Ganuwa Ward;;Dangulbi Dispensary;;;;;
Tsafe;Tsafe Central Ward;;Kauyen Kane Dispensary;;;;;
Tsafe;Tsafe Central Ward;;Tsafe General Hospital;;;;;
Tsafe;Tsafe Central Ward;;Tsafe Government Secondary School Clinic;;;;;
Tsafe;Tsafe Central Ward;;Babban Kauye Dispensary;;;;;
Tsafe;Tsafe Central Ward;;Za Fegin Baza Dispensary;;;;;
Tsafe;Tsafe Central Ward;;Rakyabu Dispensary;;;;;
Tsafe;Tsafe Central Ward;;Sungawa Dispensary;;;;;
Tsafe;Tsafe Central Ward;;Gangara Dispensary (Tsafe Central);;;;;
Tsafe;Tsafe Central Ward;;Tsafe Ophn Less pevillage Clinic;;;;;
Tsafe;Yandoto Ward;;Marke Dispensary;;;;;
Tsafe;Yandoto Ward;;Unguwar Dan Umma Dispensary;;;;;
Tsafe;Yandoto Ward;;Yandoto Dispensary;;;;;
Tsafe;Yandoto Ward;;Gidan Dawa Dispensary (Yandoto);;;;;
Tsafe;Yandoto Ward;;Bayan Banki Dispensary;;;;;
Tsafe;Yandoto Ward;;Langa Langa Dispensary;;;;;
Tsafe;Yandoto Ward;;Biyabiki Dispensary;;;;;
Tsafe;Yankuzo A Ward;;Malamawa Dispensary;;;;;
Tsafe;Yankuzo A Ward;;Unguwar Dodo Dispensary;;;;;
Tsafe;Yankuzo A Ward;;Yankuzo Model Primary Health Centre;;;;;
Tsafe;Yankuzo B Ward;;Hayin Alhaji Primary Health Centre;;;;;
Tsafe;Yankuzo B Ward;;Wailare Dispensary;;;;;
Tsafe;Yankuzo B Ward;;Buke Buke Dispensary;;;;;
Tsafe;Yanware Ward;;Gidan D/Kaka Dispensary;;;;;
Tsafe;Yanware Ward;;Dogon Kawo Dispensary;;;;;
Tsafe;Yanware Ward;;Yanware Primary Health Centre;;;;;
Tsafe;Yanware Ward;;Marken Yamma Dispensary;;;;;
Tsafe;Yanware Ward;;Dan Amanar Galadima Dispensary;;;;;
Tsafe;Yanware Ward;;Hegin Dakai Dispensary;;;;;
Tsafe;Yanware Ward;;Tabkin Kazai Dispensary;;;;;
Tsafe;Yanware Ward;;Mandaba Dispensary;;;;;
Zurmi;Boko Ward;;Gidan Dan Zara Dispensary;;;;;
Zurmi;Boko Ward;;Dumfawa Health Clinic;;;;;
Zurmi;Boko Ward;;Boko Health Clinic;;;;;
Zurmi;Boko Ward;;Dumama Health Clinic;;;;;
Zurmi;Boko Ward;;Jaya Health Clinic;;;;;
Zurmi;Dauran Birnin Tsaba Ward;;Garin Mai Tsaba Dispensary;;;;;
Zurmi;Dauran Birnin Tsaba Ward;;Doroyi Health Clinic;;;;;
Zurmi;Dauran Birnin Tsaba Ward;;Dauran Primary Health Centre;;;;;
Zurmi;Dauran Birnin Tsaba Ward;;Birnin Tsaba Health Clinic;;;;;
Zurmi;Dauran Birnin Tsaba Ward;;Marakkai Health Clinic;;;;;
Zurmi;Dole Ward;;Dole Basic Health Clinic;;;;;
Zurmi;Dole Ward;;Tudun Bugaje Health Clinic;;;;;
Zurmi;Dole Ward;;Tudun Sansami Dispensary;;;;;
Zurmi;Kanwa Ward;;Kanwa Health Clinic;;;;;
Zurmi;Kanwa Ward;;Jabanda Health Clinic;;;;;
Zurmi;Kanwa Ward;;Takalma Dispensary;;;;;
Zurmi;Kanwa Ward;;Magarya Dispensary;;;;;
Zurmi;Kwashabawa Ward;;Gidan Jaja Health Clinic;;;;;
Zurmi;Kwashabawa Ward;;Kwashabawa Health Clinic;;;;;
Zurmi;Kwashabawa Ward;;Garin kada Dispensary;;;;;
Zurmi;Kwashabawa Ward;;Gurbi Bore Basic Health Clinic;;;;;
Zurmi;Kwashabawa Ward;;Gidan Kaya Health Clinic;;;;;
Zurmi;Mashema Ward;;Mashema Health Clinic;;;;;
Zurmi;Mashema Ward;;Tunga Fulani Health Clinic;;;;;
Zurmi;Mashema Ward;;Tumfa Health Clinic;;;;;
Zurmi;Mashema Ward;;Kalage Health Clinic;;;;;
Zurmi;Mayasa Kuturu Ward;;Koluwai Dispensary;;;;;
Zurmi;Mayasa Kuturu Ward;;Birane Health Centre;;;;;
Zurmi;Mayasa Kuturu Ward;;Kuturu Basic Health Clinic;;;;;
Zurmi;Mayasa Kuturu Ward;;Makosa Health Centre;;;;;
Zurmi;Mayasa Kuturu Ward;;Mayasa Model Primary Health Centre;;;;;
Zurmi;Moriki Ward;;Moriki Primary Health Centre;;;;;
Zurmi;Moriki Ward;;Moriki General Hospital;;;;;
Zurmi;Moriki Ward;;Moriki Town Dispensary;;;;;
Zurmi;Moriki Ward;;Moriki Institute of Arabic & Islamic Studies Clinic;;;;;
Zurmi;Moriki Ward;;Kayawa Health Clinic;;;;;
Zurmi;Moriki Ward;;Moriki GGSS Health Clininc;;;;;
Zurmi;Moriki Ward;;Kwangwami Health Clinic;;;;;
Zurmi;Moriki Ward;;Moriki Child Welfare Clinic;;;;;
Zurmi;Moriki Ward;;Moriki Ophn And Less Previllige;;;;;
Zurmi;Rukudawa Ward;;Kakoki Health Centre;;;;;
Zurmi;Rukudawa Ward;;Tsanu Primary Health Centre;;;;;
Zurmi;Rukudawa Ward;;Madobiya Health Clinic;;;;;
Zurmi;Rukudawa Ward;;Rukudawa Health Centre;;;;;
Zurmi;Rukudawa Ward;;Dumburum Health Centre;;;;;
Zurmi;Yanbuki Dutsi Ward;;Maduba Health Clinic;;;;;
Zurmi;Yanbuki Dutsi Ward;;Yanbuki Health Clinic;;;;;
Zurmi;Yanbuki Dutsi Ward;;Dutsi Basic Health Clinic;;;;;
Zurmi;Zurmi Ward;;Zurmi Ophn And Lessprevilledge Clinic;;;;;
Zurmi;Zurmi Ward;;Nasarawa Family Support Clinic;;;;;
Zurmi;Zurmi Ward;;Zumi Town Dispensary;;;;;
Zurmi;Zurmi Ward;;Govt Arabic Sec Sch Clinic;;;;;
Zurmi;Zurmi Ward;;Zurmi General Hospital;;;;;
Zurmi;Zurmi Ward;;Kadamotsa Health Clinic;;;;;
Zurmi;Zurmi Ward;;Nasarawa (Zurmi) Primary Health Centre;;;;;
